{
 "type": "FeatureCollection",
 "features": [
  {
   "type": "Feature",
   "properties": {
    "id": "LU-001",
    "layer": "LAND_USE",
    "source_type": "agent_generated_design",
    "confidence": "medium",
    "geometry_role": "design_proposal",
    "land_use_code": "1403",
    "name_zh": "西直门外智能门户广场(概念)",
    "area_sqm_declared": 22526.117
   },
   "geometry": {
    "type": "Polygon",
    "coordinates": [
     [
      [
       116.34337822014052,
       39.940824324324325
      ],
      [
       116.34162177985948,
       39.940824324324325
      ],
      [
       116.34162177985948,
       39.94217567567567
      ],
      [
       116.34337822014052,
       39.94217567567567
      ],
      [
       116.34337822014052,
       39.940824324324325
      ]
     ]
    ]
   },
   "id": "LU-001"
  },
  {
   "type": "Feature",
   "properties": {
    "id": "LU-002",
    "layer": "LAND_USE",
    "source_type": "agent_generated_design",
    "confidence": "medium",
    "geometry_role": "design_proposal",
    "land_use_code": "1401",
    "name_zh": "京张绿廊·门户段",
    "area_sqm_declared": 56942.376
   },
   "geometry": {
    "type": "Polygon",
    "coordinates": [
     [
      [
       116.3452,
       39.944
      ],
      [
       116.3464,
       39.944
      ],
      [
       116.3464,
       39.939
      ],
      [
       116.3452,
       39.939
      ],
      [
       116.3452,
       39.944
      ]
     ]
    ]
   },
   "id": "LU-002"
  },
  {
   "type": "Feature",
   "properties": {
    "id": "LU-003",
    "layer": "LAND_USE",
    "source_type": "agent_generated_design",
    "confidence": "medium",
    "geometry_role": "design_proposal",
    "land_use_code": "05",
    "name_zh": "南段商务服务组团",
    "area_sqm_declared": 218278.958
   },
   "geometry": {
    "type": "Polygon",
    "coordinates": [
     [
      [
       116.3464,
       39.944
      ],
      [
       116.351,
       39.944
      ],
      [
       116.351,
       39.939
      ],
      [
       116.3464,
       39.939
      ],
      [
       116.3464,
       39.944
      ]
     ]
    ]
   },
   "id": "LU-003"
  },
  {
   "type": "Feature",
   "properties": {
    "id": "LU-004",
    "layer": "LAND_USE",
    "source_type": "agent_generated_design",
    "confidence": "medium",
    "geometry_role": "design_proposal",
    "land_use_code": "05",
    "name_zh": "西直门北商业服务组团",
    "area_sqm_declared": 204043.162
   },
   "geometry": {
    "type": "Polygon",
    "coordinates": [
     [
      [
       116.351,
       39.944
      ],
      [
       116.3553,
       39.944
      ],
      [
       116.3553,
       39.939
      ],
      [
       116.351,
       39.939
      ],
      [
       116.351,
       39.944
      ]
     ]
    ]
   },
   "id": "LU-004"
  },
  {
   "type": "Feature",
   "properties": {
    "id": "LU-005",
    "layer": "LAND_USE",
    "source_type": "agent_generated_design",
    "confidence": "medium",
    "geometry_role": "design_proposal",
    "land_use_code": "05",
    "name_zh": "西直门外门户商务组团",
    "area_sqm_declared": 194303.154
   },
   "geometry": {
    "type": "Polygon",
    "coordinates": [
     [
      [
       116.34056111111111,
       39.944
      ],
      [
       116.3452,
       39.944
      ],
      [
       116.3452,
       39.939
      ],
      [
       116.3407,
       39.939
      ],
      [
       116.34056111111111,
       39.944
      ]
     ],
     [
      [
       116.34337822014052,
       39.940824324324325
      ],
      [
       116.34337822014052,
       39.94217567567567
      ],
      [
       116.34162177985948,
       39.94217567567567
      ],
      [
       116.34162177985948,
       39.940824324324325
      ],
      [
       116.34337822014052,
       39.940824324324325
      ]
     ]
    ]
   },
   "id": "LU-005"
  },
  {
   "type": "Feature",
   "properties": {
    "id": "LU-006",
    "layer": "LAND_USE",
    "source_type": "agent_generated_design",
    "confidence": "medium",
    "geometry_role": "design_proposal",
    "land_use_code": "1403",
    "name_zh": "大钟寺智能原生消费客厅广场(概念)",
    "area_sqm_declared": 27029.233
   },
   "geometry": {
    "type": "Polygon",
    "coordinates": [
     [
      [
       116.35085386416863,
       39.94612432432433
      ],
      [
       116.34874613583138,
       39.94612432432433
      ],
      [
       116.34874613583138,
       39.947475675675676
      ],
      [
       116.35085386416863,
       39.947475675675676
      ],
      [
       116.35085386416863,
       39.94612432432433
      ]
     ]
    ]
   },
   "id": "LU-006"
  },
  {
   "type": "Feature",
   "properties": {
    "id": "LU-007",
    "layer": "LAND_USE",
    "source_type": "agent_generated_design",
    "confidence": "medium",
    "geometry_role": "design_proposal",
    "land_use_code": "0802",
    "name_zh": "大钟寺AI产业组团学院南路区",
    "area_sqm_declared": 236671.679
   },
   "geometry": {
    "type": "Polygon",
    "coordinates": [
     [
      [
       116.3553,
       39.944
      ],
      [
       116.351,
       39.944
      ],
      [
       116.351,
       39.9498
      ],
      [
       116.3553,
       39.9498
      ],
      [
       116.3553,
       39.944
      ]
     ]
    ]
   },
   "id": "LU-007"
  },
  {
   "type": "Feature",
   "properties": {
    "id": "LU-008",
    "layer": "LAND_USE",
    "source_type": "agent_generated_design",
    "confidence": "medium",
    "geometry_role": "design_proposal",
    "land_use_code": "1403",
    "name_zh": "京张绿廊·大钟寺公共段",
    "area_sqm_declared": 66048.024
   },
   "geometry": {
    "type": "Polygon",
    "coordinates": [
     [
      [
       116.3464,
       39.944
      ],
      [
       116.3452,
       39.944
      ],
      [
       116.3452,
       39.9498
      ],
      [
       116.3464,
       39.9498
      ],
      [
       116.3464,
       39.944
      ]
     ]
    ]
   },
   "id": "LU-008"
  },
  {
   "type": "Feature",
   "properties": {
    "id": "LU-009",
    "layer": "LAND_USE",
    "source_type": "agent_generated_design",
    "confidence": "medium",
    "geometry_role": "design_proposal",
    "land_use_code": "0802",
    "name_zh": "大钟寺AI产业组团东区",
    "area_sqm_declared": 226154.686
   },
   "geometry": {
    "type": "Polygon",
    "coordinates": [
     [
      [
       116.351,
       39.944
      ],
      [
       116.3464,
       39.944
      ],
      [
       116.3464,
       39.9498
      ],
      [
       116.351,
       39.9498
      ],
      [
       116.351,
       39.944
      ]
     ],
     [
      [
       116.35085386416863,
       39.94612432432433
      ],
      [
       116.35085386416863,
       39.947475675675676
      ],
      [
       116.34874613583138,
       39.947475675675676
      ],
      [
       116.34874613583138,
       39.94612432432433
      ],
      [
       116.35085386416863,
       39.94612432432433
      ]
     ]
    ]
   },
   "id": "LU-009"
  },
  {
   "type": "Feature",
   "properties": {
    "id": "LU-010",
    "layer": "LAND_USE",
    "source_type": "agent_generated_design",
    "confidence": "medium",
    "geometry_role": "design_proposal",
    "land_use_code": "05",
    "name_zh": "大钟寺智能原生消费组团",
    "area_sqm_declared": 259758.384
   },
   "geometry": {
    "type": "Polygon",
    "coordinates": [
     [
      [
       116.3452,
       39.944
      ],
      [
       116.34056111111111,
       39.944
      ],
      [
       116.3404,
       39.9498
      ],
      [
       116.3452,
       39.9498
      ],
      [
       116.3452,
       39.944
      ]
     ]
    ]
   },
   "id": "LU-010"
  },
  {
   "type": "Feature",
   "properties": {
    "id": "LU-011",
    "layer": "LAND_USE",
    "source_type": "agent_generated_design",
    "confidence": "medium",
    "geometry_role": "design_proposal",
    "land_use_code": "1401",
    "name_zh": "京张绿廊·蓟门段",
    "area_sqm_declared": 93368.835
   },
   "geometry": {
    "type": "Polygon",
    "coordinates": [
     [
      [
       116.3464,
       39.9498
      ],
      [
       116.3452,
       39.9498
      ],
      [
       116.3452,
       39.958
      ],
      [
       116.3464,
       39.958
      ],
      [
       116.3464,
       39.9498
      ]
     ]
    ]
   },
   "id": "LU-011"
  },
  {
   "type": "Feature",
   "properties": {
    "id": "LU-012",
    "layer": "LAND_USE",
    "source_type": "agent_generated_design",
    "confidence": "medium",
    "geometry_role": "design_proposal",
    "land_use_code": "0701",
    "name_zh": "蓟门里更新居住组团",
    "area_sqm_declared": 357913.622
   },
   "geometry": {
    "type": "Polygon",
    "coordinates": [
     [
      [
       116.351,
       39.9498
      ],
      [
       116.3464,
       39.9498
      ],
      [
       116.3464,
       39.958
      ],
      [
       116.351,
       39.958
      ],
      [
       116.351,
       39.9498
      ]
     ]
    ]
   },
   "id": "LU-012"
  },
  {
   "type": "Feature",
   "properties": {
    "id": "LU-013",
    "layer": "LAND_USE",
    "source_type": "agent_generated_design",
    "confidence": "medium",
    "geometry_role": "design_proposal",
    "land_use_code": "0702",
    "name_zh": "蓟门桥社区服务组团",
    "area_sqm_declared": 334571.082
   },
   "geometry": {
    "type": "Polygon",
    "coordinates": [
     [
      [
       116.3553,
       39.9498
      ],
      [
       116.351,
       39.9498
      ],
      [
       116.351,
       39.958
      ],
      [
       116.3553,
       39.958
      ],
      [
       116.3553,
       39.9498
      ]
     ]
    ]
   },
   "id": "LU-013"
  },
  {
   "type": "Feature",
   "properties": {
    "id": "LU-014",
    "layer": "LAND_USE",
    "source_type": "agent_generated_design",
    "confidence": "medium",
    "geometry_role": "design_proposal",
    "land_use_code": "05",
    "name_zh": "大钟寺北商业过渡组团",
    "area_sqm_declared": 382336.591
   },
   "geometry": {
    "type": "Polygon",
    "coordinates": [
     [
      [
       116.3452,
       39.9498
      ],
      [
       116.3404,
       39.9498
      ],
      [
       116.34017222222222,
       39.958
      ],
      [
       116.3452,
       39.958
      ],
      [
       116.3452,
       39.9498
      ]
     ]
    ]
   },
   "id": "LU-014"
  },
  {
   "type": "Feature",
   "properties": {
    "id": "LU-015",
    "layer": "LAND_USE",
    "source_type": "agent_generated_design",
    "confidence": "medium",
    "geometry_role": "design_proposal",
    "land_use_code": "1401",
    "name_zh": "西土城绿链衔接绿地",
    "area_sqm_declared": 385191.607
   },
   "geometry": {
    "type": "Polygon",
    "coordinates": [
     [
      [
       116.3553,
       39.958
      ],
      [
       116.351,
       39.958
      ],
      [
       116.351,
       39.9675
      ],
      [
       116.35510000000001,
       39.9675
      ],
      [
       116.3553,
       39.965
      ],
      [
       116.3553,
       39.958
      ]
     ]
    ]
   },
   "id": "LU-015"
  },
  {
   "type": "Feature",
   "properties": {
    "id": "LU-016",
    "layer": "LAND_USE",
    "source_type": "agent_generated_design",
    "confidence": "medium",
    "geometry_role": "design_proposal",
    "land_use_code": "1401",
    "name_zh": "京张绿廊·明光段",
    "area_sqm_declared": 108157.431
   },
   "geometry": {
    "type": "Polygon",
    "coordinates": [
     [
      [
       116.3464,
       39.958
      ],
      [
       116.3452,
       39.958
      ],
      [
       116.3452,
       39.9675
      ],
      [
       116.3464,
       39.9675
      ],
      [
       116.3464,
       39.958
      ]
     ]
    ]
   },
   "id": "LU-016"
  },
  {
   "type": "Feature",
   "properties": {
    "id": "LU-017",
    "layer": "LAND_USE",
    "source_type": "agent_generated_design",
    "confidence": "medium",
    "geometry_role": "design_proposal",
    "land_use_code": "0803",
    "name_zh": "西土城文化艺术组团",
    "area_sqm_declared": 414603.203
   },
   "geometry": {
    "type": "Polygon",
    "coordinates": [
     [
      [
       116.351,
       39.958
      ],
      [
       116.3464,
       39.958
      ],
      [
       116.3464,
       39.9675
      ],
      [
       116.351,
       39.9675
      ],
      [
       116.351,
       39.958
      ]
     ]
    ]
   },
   "id": "LU-017"
  },
  {
   "type": "Feature",
   "properties": {
    "id": "LU-018",
    "layer": "LAND_USE",
    "source_type": "agent_generated_design",
    "confidence": "medium",
    "geometry_role": "design_proposal",
    "land_use_code": "0701",
    "name_zh": "明光村更新居住组团",
    "area_sqm_declared": 465051.586
   },
   "geometry": {
    "type": "Polygon",
    "coordinates": [
     [
      [
       116.3452,
       39.958
      ],
      [
       116.34017222222222,
       39.958
      ],
      [
       116.33990833333333,
       39.9675
      ],
      [
       116.3452,
       39.9675
      ],
      [
       116.3452,
       39.958
      ]
     ]
    ]
   },
   "id": "LU-018"
  },
  {
   "type": "Feature",
   "properties": {
    "id": "LU-019",
    "layer": "LAND_USE",
    "source_type": "agent_generated_design",
    "confidence": "medium",
    "geometry_role": "design_proposal",
    "land_use_code": "0804",
    "name_zh": "学院路高校带南区",
    "area_sqm_declared": 319307.797
   },
   "geometry": {
    "type": "Polygon",
    "coordinates": [
     [
      [
       116.35510000000001,
       39.9675
      ],
      [
       116.351,
       39.9675
      ],
      [
       116.351,
       39.9765
      ],
      [
       116.35438,
       39.9765
      ],
      [
       116.35510000000001,
       39.9675
      ]
     ]
    ]
   },
   "id": "LU-019"
  },
  {
   "type": "Feature",
   "properties": {
    "id": "LU-020",
    "layer": "LAND_USE",
    "source_type": "agent_generated_design",
    "confidence": "medium",
    "geometry_role": "design_proposal",
    "land_use_code": "1401",
    "name_zh": "京张绿廊·学院段",
    "area_sqm_declared": 102451.288
   },
   "geometry": {
    "type": "Polygon",
    "coordinates": [
     [
      [
       116.3464,
       39.9675
      ],
      [
       116.3452,
       39.9675
      ],
      [
       116.3452,
       39.9765
      ],
      [
       116.3464,
       39.9765
      ],
      [
       116.3464,
       39.9675
      ]
     ]
    ]
   },
   "id": "LU-020"
  },
  {
   "type": "Feature",
   "properties": {
    "id": "LU-021",
    "layer": "LAND_USE",
    "source_type": "agent_generated_design",
    "confidence": "medium",
    "geometry_role": "design_proposal",
    "land_use_code": "0701",
    "name_zh": "北下关更新居住组团",
    "area_sqm_declared": 392729.669
   },
   "geometry": {
    "type": "Polygon",
    "coordinates": [
     [
      [
       116.351,
       39.9675
      ],
      [
       116.3464,
       39.9675
      ],
      [
       116.3464,
       39.9765
      ],
      [
       116.351,
       39.9765
      ],
      [
       116.351,
       39.9675
      ]
     ]
    ]
   },
   "id": "LU-021"
  },
  {
   "type": "Feature",
   "properties": {
    "id": "LU-022",
    "layer": "LAND_USE",
    "source_type": "agent_generated_design",
    "confidence": "medium",
    "geometry_role": "design_proposal",
    "land_use_code": "0804",
    "name_zh": "高校协同创新组团西区",
    "area_sqm_declared": 461468.799
   },
   "geometry": {
    "type": "Polygon",
    "coordinates": [
     [
      [
       116.3452,
       39.9675
      ],
      [
       116.33990833333333,
       39.9675
      ],
      [
       116.3397,
       39.975
      ],
      [
       116.33979677419354,
       39.9765
      ],
      [
       116.3452,
       39.9765
      ],
      [
       116.3452,
       39.9675
      ]
     ]
    ]
   },
   "id": "LU-022"
  },
  {
   "type": "Feature",
   "properties": {
    "id": "LU-023",
    "layer": "LAND_USE",
    "source_type": "agent_generated_design",
    "confidence": "medium",
    "geometry_role": "design_proposal",
    "land_use_code": "0701",
    "name_zh": "学院路居住组团",
    "area_sqm_declared": 205827.993
   },
   "geometry": {
    "type": "Polygon",
    "coordinates": [
     [
      [
       116.35438,
       39.9765
      ],
      [
       116.351,
       39.9765
      ],
      [
       116.351,
       39.9835
      ],
      [
       116.35382,
       39.9835
      ],
      [
       116.35438,
       39.9765
      ]
     ]
    ]
   },
   "id": "LU-023"
  },
  {
   "type": "Feature",
   "properties": {
    "id": "LU-024",
    "layer": "LAND_USE",
    "source_type": "agent_generated_design",
    "confidence": "medium",
    "geometry_role": "design_proposal",
    "land_use_code": "0701",
    "name_zh": "大柳树更新居住组团",
    "area_sqm_declared": 343760.509
   },
   "geometry": {
    "type": "Polygon",
    "coordinates": [
     [
      [
       116.3452,
       39.9765
      ],
      [
       116.33979677419354,
       39.9765
      ],
      [
       116.34024838709676,
       39.9835
      ],
      [
       116.3452,
       39.9835
      ],
      [
       116.3452,
       39.9765
      ]
     ]
    ]
   },
   "id": "LU-024"
  },
  {
   "type": "Feature",
   "properties": {
    "id": "LU-025",
    "layer": "LAND_USE",
    "source_type": "agent_generated_design",
    "confidence": "medium",
    "geometry_role": "design_proposal",
    "land_use_code": "1401",
    "name_zh": "京张绿廊·大柳树段",
    "area_sqm_declared": 79675.153
   },
   "geometry": {
    "type": "Polygon",
    "coordinates": [
     [
      [
       116.3464,
       39.9765
      ],
      [
       116.3452,
       39.9765
      ],
      [
       116.3452,
       39.9835
      ],
      [
       116.3464,
       39.9835
      ],
      [
       116.3464,
       39.9765
      ]
     ]
    ]
   },
   "id": "LU-025"
  },
  {
   "type": "Feature",
   "properties": {
    "id": "LU-026",
    "layer": "LAND_USE",
    "source_type": "agent_generated_design",
    "confidence": "medium",
    "geometry_role": "design_proposal",
    "land_use_code": "0702",
    "name_zh": "大柳树社区服务组团",
    "area_sqm_declared": 305421.213
   },
   "geometry": {
    "type": "Polygon",
    "coordinates": [
     [
      [
       116.351,
       39.9765
      ],
      [
       116.3464,
       39.9765
      ],
      [
       116.3464,
       39.9835
      ],
      [
       116.351,
       39.9835
      ],
      [
       116.351,
       39.9765
      ]
     ]
    ]
   },
   "id": "LU-026"
  },
  {
   "type": "Feature",
   "properties": {
    "id": "LU-027",
    "layer": "LAND_USE",
    "source_type": "agent_generated_design",
    "confidence": "medium",
    "geometry_role": "design_proposal",
    "land_use_code": "05",
    "name_zh": "五道口智能消费组团",
    "area_sqm_declared": 237342.761
   },
   "geometry": {
    "type": "Polygon",
    "coordinates": [
     [
      [
       116.35382,
       39.9835
      ],
      [
       116.351,
       39.9835
      ],
      [
       116.351,
       39.9935
      ],
      [
       116.35349178082193,
       39.9935
      ],
      [
       116.3533,
       39.99
      ],
      [
       116.35382,
       39.9835
      ]
     ]
    ]
   },
   "id": "LU-027"
  },
  {
   "type": "Feature",
   "properties": {
    "id": "LU-028",
    "layer": "LAND_USE",
    "source_type": "agent_generated_design",
    "confidence": "medium",
    "geometry_role": "design_proposal",
    "land_use_code": "0802",
    "name_zh": "AI原点社区研发组团西区",
    "area_sqm_declared": 439018.544
   },
   "geometry": {
    "type": "Polygon",
    "coordinates": [
     [
      [
       116.3452,
       39.9835
      ],
      [
       116.34024838709676,
       39.9835
      ],
      [
       116.3408935483871,
       39.9935
      ],
      [
       116.3452,
       39.9935
      ],
      [
       116.3452,
       39.9835
      ]
     ]
    ]
   },
   "id": "LU-028"
  },
  {
   "type": "Feature",
   "properties": {
    "id": "LU-029",
    "layer": "LAND_USE",
    "source_type": "agent_generated_design",
    "confidence": "medium",
    "geometry_role": "design_proposal",
    "land_use_code": "0802",
    "name_zh": "AI原点社区研发组团东区",
    "area_sqm_declared": 400245.328
   },
   "geometry": {
    "type": "Polygon",
    "coordinates": [
     [
      [
       116.351,
       39.9835
      ],
      [
       116.3464,
       39.9835
      ],
      [
       116.3464,
       39.9935
      ],
      [
       116.351,
       39.9935
      ],
      [
       116.351,
       39.9835
      ]
     ],
     [
      [
       116.34897096018736,
       39.98788918918919
      ],
      [
       116.34897096018736,
       39.98951081081081
      ],
      [
       116.34662903981265,
       39.98951081081081
      ],
      [
       116.34662903981265,
       39.98788918918919
      ],
      [
       116.34897096018736,
       39.98788918918919
      ]
     ]
    ]
   },
   "id": "LU-029"
  },
  {
   "type": "Feature",
   "properties": {
    "id": "LU-030",
    "layer": "LAND_USE",
    "source_type": "agent_generated_design",
    "confidence": "medium",
    "geometry_role": "design_proposal",
    "land_use_code": "1403",
    "name_zh": "京张绿廊·AI原点公共段",
    "area_sqm_declared": 113807.708
   },
   "geometry": {
    "type": "Polygon",
    "coordinates": [
     [
      [
       116.3464,
       39.9835
      ],
      [
       116.3452,
       39.9835
      ],
      [
       116.3452,
       39.9935
      ],
      [
       116.3464,
       39.9935
      ],
      [
       116.3464,
       39.9835
      ]
     ]
    ]
   },
   "id": "LU-030"
  },
  {
   "type": "Feature",
   "properties": {
    "id": "LU-031",
    "layer": "LAND_USE",
    "source_type": "agent_generated_design",
    "confidence": "medium",
    "geometry_role": "design_proposal",
    "land_use_code": "1403",
    "name_zh": "AI原点社区中央共创广场(概念)",
    "area_sqm_declared": 36017.256
   },
   "geometry": {
    "type": "Polygon",
    "coordinates": [
     [
      [
       116.34897096018736,
       39.98788918918919
      ],
      [
       116.34662903981265,
       39.98788918918919
      ],
      [
       116.34662903981265,
       39.98951081081081
      ],
      [
       116.34897096018736,
       39.98951081081081
      ],
      [
       116.34897096018736,
       39.98788918918919
      ]
     ]
    ]
   },
   "id": "LU-031"
  },
  {
   "type": "Feature",
   "properties": {
    "id": "LU-032",
    "layer": "LAND_USE",
    "source_type": "agent_generated_design",
    "confidence": "medium",
    "geometry_role": "design_proposal",
    "land_use_code": "0803",
    "name_zh": "京张文化展示组团",
    "area_sqm_declared": 270872.771
   },
   "geometry": {
    "type": "Polygon",
    "coordinates": [
     [
      [
       116.3452,
       39.9935
      ],
      [
       116.3408935483871,
       39.9935
      ],
      [
       116.34134516129032,
       40.0005
      ],
      [
       116.3452,
       40.0005
      ],
      [
       116.3452,
       39.9935
      ]
     ]
    ]
   },
   "id": "LU-032"
  },
  {
   "type": "Feature",
   "properties": {
    "id": "LU-033",
    "layer": "LAND_USE",
    "source_type": "agent_generated_design",
    "confidence": "medium",
    "geometry_role": "design_proposal",
    "land_use_code": "0804",
    "name_zh": "清华东路协同创新组团",
    "area_sqm_declared": 282938.413
   },
   "geometry": {
    "type": "Polygon",
    "coordinates": [
     [
      [
       116.351,
       39.9935
      ],
      [
       116.3464,
       39.9935
      ],
      [
       116.3464,
       40.0005
      ],
      [
       116.351,
       40.0005
      ],
      [
       116.351,
       39.9935
      ]
     ],
     [
      [
       116.34973676814988,
       39.99656936936937
      ],
      [
       116.34973676814988,
       39.99783063063063
      ],
      [
       116.34786323185011,
       39.99783063063063
      ],
      [
       116.34786323185011,
       39.99656936936937
      ],
      [
       116.34973676814988,
       39.99656936936937
      ]
     ]
    ]
   },
   "id": "LU-033"
  },
  {
   "type": "Feature",
   "properties": {
    "id": "LU-034",
    "layer": "LAND_USE",
    "source_type": "agent_generated_design",
    "confidence": "medium",
    "geometry_role": "design_proposal",
    "land_use_code": "1401",
    "name_zh": "京张绿廊·清华东段",
    "area_sqm_declared": 79655.637
   },
   "geometry": {
    "type": "Polygon",
    "coordinates": [
     [
      [
       116.3464,
       39.9935
      ],
      [
       116.3452,
       39.9935
      ],
      [
       116.3452,
       40.0005
      ],
      [
       116.3464,
       40.0005
      ],
      [
       116.3464,
       39.9935
      ]
     ]
    ]
   },
   "id": "LU-034"
  },
  {
   "type": "Feature",
   "properties": {
    "id": "LU-035",
    "layer": "LAND_USE",
    "source_type": "agent_generated_design",
    "confidence": "medium",
    "geometry_role": "design_proposal",
    "land_use_code": "0804",
    "name_zh": "学院路高校带北区",
    "area_sqm_declared": 178133.143
   },
   "geometry": {
    "type": "Polygon",
    "coordinates": [
     [
      [
       116.35349178082193,
       39.9935
      ],
      [
       116.351,
       39.9935
      ],
      [
       116.351,
       40.0005
      ],
      [
       116.35387534246576,
       40.0005
      ],
      [
       116.35349178082193,
       39.9935
      ]
     ]
    ]
   },
   "id": "LU-035"
  },
  {
   "type": "Feature",
   "properties": {
    "id": "LU-036",
    "layer": "LAND_USE",
    "source_type": "agent_generated_design",
    "confidence": "medium",
    "geometry_role": "design_proposal",
    "land_use_code": "1403",
    "name_zh": "五道口AI公共体验广场(概念)",
    "area_sqm_declared": 22407.987
   },
   "geometry": {
    "type": "Polygon",
    "coordinates": [
     [
      [
       116.34973676814988,
       39.99656936936937
      ],
      [
       116.34786323185011,
       39.99656936936937
      ],
      [
       116.34786323185011,
       39.99783063063063
      ],
      [
       116.34973676814988,
       39.99783063063063
      ],
      [
       116.34973676814988,
       39.99656936936937
      ]
     ]
    ]
   },
   "id": "LU-036"
  },
  {
   "type": "Feature",
   "properties": {
    "id": "LU-037",
    "layer": "LAND_USE",
    "source_type": "agent_generated_design",
    "confidence": "medium",
    "geometry_role": "design_proposal",
    "land_use_code": "0701",
    "name_zh": "双清人才居住组团",
    "area_sqm_declared": 241038.153
   },
   "geometry": {
    "type": "Polygon",
    "coordinates": [
     [
      [
       116.3452,
       40.0005
      ],
      [
       116.34134516129032,
       40.0005
      ],
      [
       116.3417,
       40.006
      ],
      [
       116.34177317073171,
       40.0075
      ],
      [
       116.3452,
       40.0075
      ],
      [
       116.3452,
       40.0005
      ]
     ]
    ]
   },
   "id": "LU-037"
  },
  {
   "type": "Feature",
   "properties": {
    "id": "LU-038",
    "layer": "LAND_USE",
    "source_type": "agent_generated_design",
    "confidence": "medium",
    "geometry_role": "design_proposal",
    "land_use_code": "0802",
    "name_zh": "双清路科研转化组团",
    "area_sqm_declared": 305315.587
   },
   "geometry": {
    "type": "Polygon",
    "coordinates": [
     [
      [
       116.351,
       40.0005
      ],
      [
       116.3464,
       40.0005
      ],
      [
       116.3464,
       40.0075
      ],
      [
       116.351,
       40.0075
      ],
      [
       116.351,
       40.0005
      ]
     ]
    ]
   },
   "id": "LU-038"
  },
  {
   "type": "Feature",
   "properties": {
    "id": "LU-039",
    "layer": "LAND_USE",
    "source_type": "agent_generated_design",
    "confidence": "medium",
    "geometry_role": "design_proposal",
    "land_use_code": "1401",
    "name_zh": "京张绿廊·双清段",
    "area_sqm_declared": 79647.598
   },
   "geometry": {
    "type": "Polygon",
    "coordinates": [
     [
      [
       116.3464,
       40.0005
      ],
      [
       116.3452,
       40.0005
      ],
      [
       116.3452,
       40.0075
      ],
      [
       116.3464,
       40.0075
      ],
      [
       116.3464,
       40.0005
      ]
     ]
    ]
   },
   "id": "LU-039"
  },
  {
   "type": "Feature",
   "properties": {
    "id": "LU-040",
    "layer": "LAND_USE",
    "source_type": "agent_generated_design",
    "confidence": "medium",
    "geometry_role": "design_proposal",
    "land_use_code": "0804",
    "name_zh": "石板房协同教育组团",
    "area_sqm_declared": 203573.273
   },
   "geometry": {
    "type": "Polygon",
    "coordinates": [
     [
      [
       116.35387534246576,
       40.0005
      ],
      [
       116.351,
       40.0005
      ],
      [
       116.351,
       40.0075
      ],
      [
       116.35425890410959,
       40.0075
      ],
      [
       116.35387534246576,
       40.0005
      ]
     ]
    ]
   },
   "id": "LU-040"
  },
  {
   "type": "Feature",
   "properties": {
    "id": "LU-041",
    "layer": "LAND_USE",
    "source_type": "agent_generated_design",
    "confidence": "medium",
    "geometry_role": "design_proposal",
    "land_use_code": "1403",
    "name_zh": "众智园全球发布广场(概念)",
    "area_sqm_declared": 28804.122
   },
   "geometry": {
    "type": "Polygon",
    "coordinates": [
     [
      [
       116.34975386416862,
       40.01127927927928
      ],
      [
       116.34764613583137,
       40.01127927927928
      ],
      [
       116.34764613583137,
       40.01272072072072
      ],
      [
       116.34975386416862,
       40.01272072072072
      ],
      [
       116.34975386416862,
       40.01127927927928
      ]
     ]
    ]
   },
   "id": "LU-041"
  },
  {
   "type": "Feature",
   "properties": {
    "id": "LU-042",
    "layer": "LAND_USE",
    "source_type": "agent_generated_design",
    "confidence": "medium",
    "geometry_role": "design_proposal",
    "land_use_code": "0802",
    "name_zh": "众智园全栈创新组团西区",
    "area_sqm_declared": 287776.308
   },
   "geometry": {
    "type": "Polygon",
    "coordinates": [
     [
      [
       116.3452,
       40.0075
      ],
      [
       116.34177317073171,
       40.0075
      ],
      [
       116.34223658536585,
       40.017
      ],
      [
       116.3452,
       40.017
      ],
      [
       116.3452,
       40.0075
      ]
     ]
    ]
   },
   "id": "LU-042"
  },
  {
   "type": "Feature",
   "properties": {
    "id": "LU-043",
    "layer": "LAND_USE",
    "source_type": "agent_generated_design",
    "confidence": "medium",
    "geometry_role": "design_proposal",
    "land_use_code": "1403",
    "name_zh": "京张绿廊·众智园公共段",
    "area_sqm_declared": 108080.31
   },
   "geometry": {
    "type": "Polygon",
    "coordinates": [
     [
      [
       116.3464,
       40.0075
      ],
      [
       116.3452,
       40.0075
      ],
      [
       116.3452,
       40.017
      ],
      [
       116.3464,
       40.017
      ],
      [
       116.3464,
       40.0075
      ]
     ]
    ]
   },
   "id": "LU-043"
  },
  {
   "type": "Feature",
   "properties": {
    "id": "LU-044",
    "layer": "LAND_USE",
    "source_type": "agent_generated_design",
    "confidence": "medium",
    "geometry_role": "design_proposal",
    "land_use_code": "0802",
    "name_zh": "众智园全栈创新组团东区",
    "area_sqm_declared": 385503.451
   },
   "geometry": {
    "type": "Polygon",
    "coordinates": [
     [
      [
       116.351,
       40.0075
      ],
      [
       116.3464,
       40.0075
      ],
      [
       116.3464,
       40.017
      ],
      [
       116.351,
       40.017
      ],
      [
       116.351,
       40.0075
      ]
     ],
     [
      [
       116.34975386416862,
       40.01127927927928
      ],
      [
       116.34975386416862,
       40.01272072072072
      ],
      [
       116.34764613583137,
       40.01272072072072
      ],
      [
       116.34764613583137,
       40.01127927927928
      ],
      [
       116.34975386416862,
       40.01127927927928
      ]
     ]
    ]
   },
   "id": "LU-044"
  },
  {
   "type": "Feature",
   "properties": {
    "id": "LU-045",
    "layer": "LAND_USE",
    "source_type": "agent_generated_design",
    "confidence": "medium",
    "geometry_role": "design_proposal",
    "land_use_code": "16",
    "name_zh": "众智园战略留白用地",
    "area_sqm_declared": 316959.539
   },
   "geometry": {
    "type": "Polygon",
    "coordinates": [
     [
      [
       116.35425890410959,
       40.0075
      ],
      [
       116.351,
       40.0075
      ],
      [
       116.351,
       40.017
      ],
      [
       116.3547794520548,
       40.017
      ],
      [
       116.35425890410959,
       40.0075
      ]
     ]
    ]
   },
   "id": "LU-045"
  },
  {
   "type": "Feature",
   "properties": {
    "id": "LU-046",
    "layer": "LAND_USE",
    "source_type": "agent_generated_design",
    "confidence": "medium",
    "geometry_role": "design_proposal",
    "land_use_code": "1402",
    "name_zh": "北五环防护绿带西段",
    "area_sqm_declared": 246004.254
   },
   "geometry": {
    "type": "Polygon",
    "coordinates": [
     [
      [
       116.3452,
       40.017
      ],
      [
       116.34223658536585,
       40.017
      ],
      [
       116.3427,
       40.0265
      ],
      [
       116.3452,
       40.0265
      ],
      [
       116.3452,
       40.017
      ]
     ]
    ]
   },
   "id": "LU-046"
  },
  {
   "type": "Feature",
   "properties": {
    "id": "LU-047",
    "layer": "LAND_USE",
    "source_type": "agent_generated_design",
    "confidence": "medium",
    "geometry_role": "design_proposal",
    "land_use_code": "0802",
    "name_zh": "众智园加速器组团北区",
    "area_sqm_declared": 414250.8
   },
   "geometry": {
    "type": "Polygon",
    "coordinates": [
     [
      [
       116.351,
       40.017
      ],
      [
       116.3464,
       40.017
      ],
      [
       116.3464,
       40.0265
      ],
      [
       116.351,
       40.0265
      ],
      [
       116.351,
       40.017
      ]
     ]
    ]
   },
   "id": "LU-047"
  },
  {
   "type": "Feature",
   "properties": {
    "id": "LU-048",
    "layer": "LAND_USE",
    "source_type": "agent_generated_design",
    "confidence": "medium",
    "geometry_role": "design_proposal",
    "land_use_code": "1401",
    "name_zh": "京张绿廊·上清段",
    "area_sqm_declared": 108065.5
   },
   "geometry": {
    "type": "Polygon",
    "coordinates": [
     [
      [
       116.3464,
       40.017
      ],
      [
       116.3452,
       40.017
      ],
      [
       116.3452,
       40.0265
      ],
      [
       116.3464,
       40.0265
      ],
      [
       116.3464,
       40.017
      ]
     ]
    ]
   },
   "id": "LU-048"
  },
  {
   "type": "Feature",
   "properties": {
    "id": "LU-049",
    "layer": "LAND_USE",
    "source_type": "agent_generated_design",
    "confidence": "medium",
    "geometry_role": "design_proposal",
    "land_use_code": "1402",
    "name_zh": "北五环防护绿带东段",
    "area_sqm_declared": 363793.777
   },
   "geometry": {
    "type": "Polygon",
    "coordinates": [
     [
      [
       116.3547794520548,
       40.017
      ],
      [
       116.351,
       40.017
      ],
      [
       116.351,
       40.0265
      ],
      [
       116.3553,
       40.0265
      ],
      [
       116.3547794520548,
       40.017
      ]
     ]
    ]
   },
   "id": "LU-049"
  }
 ]
}