{"type":"FeatureCollection","name":"chapter08_concept_mobility_network","crs":{"type":"name","properties":{"name":"urn:ogc:def:crs:OGC:1.3:CRS84"}},"features":[{"type":"Feature","id":"ROAD-JZ-AXIS","properties":{"id":"ROAD-JZ-AXIS","layer":"ROAD_CENTERLINE","source_type":"agent_inferred_from_public_data","confidence":"low","geometry_role":"design_proposal","official_geometry":false,"boundary_precision":"provisional_rough","name_zh":"京张公园步行骑行主脊（背景代理）","corridor_role":"north_south_walking_cycling_spine","source_layer":"S1-01_jingzhang_railway_reference.geojson","source_ids":["CH8-TRANSPORT"],"assumption_ids":["A-BOUNDARY-001","A-CONTROLS-001","A-CH8-MOBILITY-001"],"length_m_declared":4958.844,"limitation_zh":"概念性设计线，仅支撑网络关系与方案复算；不代表道路红线、轨道线位、站口、桥隧、断面、通行能力或工程可行性。"},"geometry":{"type":"MultiLineString","coordinates":[[[116.3325,39.984053],[116.3325705,39.983629],[116.3335576,39.9780966],[116.3337945,39.9769306],[116.3340363,39.9755867],[116.3340895,39.9752972],[116.3342153,39.9746132],[116.3343642,39.9740444],[116.3345749,39.9734882],[116.3348026,39.9730579],[116.3353167,39.9723591],[116.3376786,39.9693362],[116.3380267,39.9688411],[116.3381431,39.9686569],[116.3382565,39.9684503],[116.3383651,39.9682425],[116.3386274,39.9677052],[116.3389474,39.9666632],[116.3390695,39.9659329],[116.3391633,39.9653292],[116.3396476,39.9622003],[116.3397683,39.9614525],[116.3399314,39.9607846],[116.3401184,39.9601983],[116.3403376,39.9596663],[116.3406266,39.959086],[116.3421021,39.9563274],[116.3431199,39.9544757],[116.3441015,39.952691],[116.3442823,39.9523748],[116.3443609,39.9522296],[116.3444038,39.9521639],[116.3446961,39.9516166],[116.3447446,39.9515287],[116.3449394,39.9511734],[116.3451143,39.9508543],[116.3451972,39.9507052],[116.3455571,39.9500489],[116.3455909,39.9499882],[116.3456156,39.9499433],[116.345691,39.9497864],[116.3457658,39.9495844],[116.3457891,39.949513],[116.3458183,39.949408],[116.3458358,39.949319],[116.3458723,39.9491149],[116.3458857,39.9489833],[116.3458909,39.9488623],[116.3458916,39.9486911],[116.3458917,39.9484155],[116.3458912,39.9481538],[116.34588,39.9476417],[116.345881,39.9473117],[116.345871,39.9469136],[116.3458627,39.9465829],[116.345867,39.946376],[116.3458734,39.9462411],[116.3458958,39.9460465],[116.3459386,39.9457623],[116.3459871,39.9455491],[116.3460613,39.945217],[116.3461476,39.9448992],[116.3462009,39.9447201],[116.346237,39.9446094],[116.3463815,39.944212],[116.3467888,39.9430887],[116.347387,39.9414823]]]}},{"type":"Feature","id":"ROAD-C01","properties":{"id":"ROAD-C01","layer":"ROAD_CENTERLINE","source_type":"agent_inferred_from_public_data","confidence":"low","geometry_role":"design_proposal","official_geometry":false,"boundary_precision":"provisional_rough","name_zh":"清华东路会客厅线","corridor_role":"east_west_stitching_corridor","source_layer":"osm_roads","osm_ids":[121510224,235466187,239167102],"source_ids":["CH8-TRANSPORT"],"assumption_ids":["A-BOUNDARY-001","A-CONTROLS-001","A-CH8-MOBILITY-001"],"length_m_declared":2121.648,"limitation_zh":"概念性设计线，仅支撑网络关系与方案复算；不代表道路红线、轨道线位、站口、桥隧、断面、通行能力或工程可行性。"},"geometry":{"type":"MultiLineString","coordinates":[[[116.3339321,39.9992511],[116.3340725,39.9992548],[116.3345949,39.9992685],[116.336192,39.9993103],[116.3373111,39.9993396],[116.3376701,39.9993496],[116.3391322,39.9993902],[116.3425507,39.9994916],[116.3425943,39.9994927],[116.3426726,39.9994946],[116.3429124,39.9994991],[116.3437537,39.9995201],[116.3443854,39.9995359],[116.3461359,39.9995679],[116.3461752,39.9995685],[116.3462821,39.9995695],[116.3464221,39.9995711]],[[116.3464212,39.9996928],[116.3462768,39.9996885],[116.3461651,39.9996874],[116.3445517,39.9996639],[116.3430072,39.9996412]],[[116.342785,39.9996345],[116.3426882,39.9996323],[116.34259,39.9996302],[116.3414306,39.9996044],[116.3408595,39.9995936],[116.3392832,39.9995345],[116.3375316,39.9994729],[116.3370922,39.9994574],[116.3345914,39.9993945],[116.3340962,39.999382],[116.3340615,39.9993812],[116.3339498,39.9993785],[116.3337961,39.9993739]]]}},{"type":"Feature","id":"ROAD-C02","properties":{"id":"ROAD-C02","layer":"ROAD_CENTERLINE","source_type":"agent_inferred_from_public_data","confidence":"low","geometry_role":"design_proposal","official_geometry":false,"boundary_precision":"provisional_rough","name_zh":"成府路产业带","corridor_role":"east_west_stitching_corridor","source_layer":"osm_roads","osm_ids":[162970619,162970620],"source_ids":["CH8-TRANSPORT"],"assumption_ids":["A-BOUNDARY-001","A-CONTROLS-001","A-CH8-MOBILITY-001"],"length_m_declared":2090.812,"limitation_zh":"概念性设计线，仅支撑网络关系与方案复算；不代表道路红线、轨道线位、站口、桥隧、断面、通行能力或工程可行性。"},"geometry":{"type":"MultiLineString","coordinates":[[[116.3465276,39.9920215],[116.3439971,39.9919213],[116.3422001,39.99188],[116.3421303,39.9918774],[116.3419881,39.9918754],[116.3385785,39.9917903],[116.3383597,39.991786],[116.3373137,39.9917491],[116.3371872,39.9917446],[116.3348373,39.9916744],[116.3344023,39.9916617],[116.3342574,39.9916574]],[[116.3342723,39.9915742],[116.3370737,39.9916532],[116.3371935,39.9916566],[116.3391252,39.9917162],[116.3393298,39.9917228],[116.3420213,39.9918091],[116.3421313,39.9918127],[116.3442493,39.9918693],[116.3463846,39.9919264],[116.3465263,39.9919315]]]}},{"type":"Feature","id":"ROAD-C03","properties":{"id":"ROAD-C03","layer":"ROAD_CENTERLINE","source_type":"agent_inferred_from_public_data","confidence":"low","geometry_role":"design_proposal","official_geometry":false,"boundary_precision":"provisional_rough","name_zh":"知春路产业带","corridor_role":"east_west_stitching_corridor","source_layer":"osm_roads","osm_ids":[144929509,144929524,163825161,172179667,240367934,1067241981],"source_ids":["CH8-TRANSPORT"],"assumption_ids":["A-BOUNDARY-001","A-CONTROLS-001","A-CH8-MOBILITY-001"],"length_m_declared":4229.739,"limitation_zh":"概念性设计线，仅支撑网络关系与方案复算；不代表道路红线、轨道线位、站口、桥隧、断面、通行能力或工程可行性。"},"geometry":{"type":"MultiLineString","coordinates":[[[116.3473024,39.975213],[116.3461724,39.9751936],[116.3442298,39.9751592],[116.3420841,39.9751308],[116.339542,39.9751254],[116.3393885,39.9751246]],[[116.3473456,39.9753084],[116.3461952,39.9752955],[116.3460401,39.9752938],[116.3456558,39.9752587],[116.3442246,39.9752394],[116.3421293,39.9752235],[116.3420483,39.9752224],[116.3395404,39.9751918],[116.3393868,39.9751906],[116.3392784,39.9751913],[116.3391423,39.9752201],[116.338666,39.9752591],[116.338079,39.9752563],[116.3373049,39.9752203]],[[116.3325,39.9750676],[116.3344968,39.9750321],[116.3372207,39.9750524],[116.3384021,39.9750635],[116.3391785,39.9750709],[116.3392815,39.9750345],[116.3394595,39.9750353]],[[116.3420811,39.9750596],[116.3439634,39.9750796],[116.3472549,39.9751157]],[[116.3325006,39.9749773],[116.3345097,39.9749463],[116.3372222,39.9749512],[116.3377818,39.974982],[116.3380114,39.9749821],[116.3381792,39.9749821],[116.3382849,39.9749821],[116.3391883,39.9749824],[116.3392828,39.9749684],[116.3394606,39.9749705],[116.3395457,39.9749712],[116.3420792,39.974976],[116.3439687,39.9749911],[116.3453338,39.9750293],[116.345637,39.9750378],[116.3463771,39.9750138],[116.3472111,39.9750275]],[[116.3373076,39.9751443],[116.3343139,39.9751148],[116.3336765,39.9751183],[116.3325,39.9751462]]]}},{"type":"Feature","id":"ROAD-C04","properties":{"id":"ROAD-C04","layer":"ROAD_CENTERLINE","source_type":"agent_inferred_from_public_data","confidence":"low","geometry_role":"design_proposal","official_geometry":false,"boundary_precision":"provisional_rough","name_zh":"跨三环缝合","corridor_role":"east_west_stitching_corridor","source_layer":"osm_roads","osm_ids":[5169081,150522823,150522826,165174629,165174640,169102939,170478067],"source_ids":["CH8-TRANSPORT"],"assumption_ids":["A-BOUNDARY-001","A-CONTROLS-001","A-CH8-MOBILITY-001"],"length_m_declared":2669.97,"limitation_zh":"概念性设计线，仅支撑网络关系与方案复算；不代表道路红线、轨道线位、站口、桥隧、断面、通行能力或工程可行性。"},"geometry":{"type":"MultiLineString","coordinates":[[[116.346715,39.9663987],[116.3436266,39.9663756],[116.3429622,39.966369],[116.3422763,39.9663621]],[[116.3371164,39.9663106],[116.3327416,39.966303]],[[116.3327448,39.9661863],[116.337115,39.9661877]],[[116.3422739,39.9662263],[116.3431417,39.9662328],[116.3436204,39.9662364],[116.3467174,39.9662886]],[[116.3385052,39.9664881],[116.3382864,39.9664862],[116.3359782,39.9664662],[116.33412,39.9664501]],[[116.341456,39.9660893],[116.3422642,39.9660968],[116.3429987,39.9661036],[116.3436425,39.9661095],[116.3437684,39.9661091],[116.3439403,39.9661087],[116.3447134,39.9661369],[116.3448754,39.9661428],[116.3463693,39.9661663]],[[116.3341202,39.9660669],[116.3352758,39.9660656],[116.3365099,39.9660632],[116.3383683,39.9660629],[116.3384659,39.9660626],[116.338521,39.9660637]]]}},{"type":"Feature","id":"ROAD-C05","properties":{"id":"ROAD-C05","layer":"ROAD_CENTERLINE","source_type":"agent_inferred_from_public_data","confidence":"low","geometry_role":"design_proposal","official_geometry":false,"boundary_precision":"provisional_rough","name_zh":"跨四环缝合","corridor_role":"east_west_stitching_corridor","source_layer":"osm_roads","osm_ids":[26679357,26679371,121988943,122345938],"source_ids":["CH8-TRANSPORT"],"assumption_ids":["A-BOUNDARY-001","A-CONTROLS-001","A-CH8-MOBILITY-001"],"length_m_declared":1968.019,"limitation_zh":"概念性设计线，仅支撑网络关系与方案复算；不代表道路红线、轨道线位、站口、桥隧、断面、通行能力或工程可行性。"},"geometry":{"type":"MultiLineString","coordinates":[[[116.3439853,39.9853012],[116.3467163,39.9854083],[116.3469888,39.9854179]],[[116.3469706,39.9855883],[116.3467163,39.9855792],[116.3439757,39.9854679]],[[116.3354479,39.9850103],[116.3357811,39.9850245],[116.3386877,39.9851479],[116.3418289,39.9852094],[116.3439853,39.9853012]],[[116.3439757,39.9854679],[116.3417903,39.9853893],[116.3386751,39.9853269],[116.3354395,39.9851704]]]}},{"type":"Feature","id":"ROAD-C06","properties":{"id":"ROAD-C06","layer":"ROAD_CENTERLINE","source_type":"agent_inferred_from_public_data","confidence":"low","geometry_role":"design_proposal","official_geometry":false,"boundary_precision":"provisional_rough","name_zh":"跨五环缝合","corridor_role":"east_west_stitching_corridor","source_layer":"osm_roads","osm_ids":[42365077,234442035,847134631,854231922],"source_ids":["CH8-TRANSPORT"],"assumption_ids":["A-BOUNDARY-001","A-CONTROLS-001","A-CH8-MOBILITY-001"],"length_m_declared":2449.344,"limitation_zh":"概念性设计线，仅支撑网络关系与方案复算；不代表道路红线、轨道线位、站口、桥隧、断面、通行能力或工程可行性。"},"geometry":{"type":"MultiLineString","coordinates":[[[116.3391449,40.0138214],[116.3390244,40.0138158],[116.3389797,40.0138142],[116.3383556,40.0137925],[116.3373643,40.0137581],[116.3369827,40.0137498],[116.3367754,40.013755],[116.3364921,40.0137444],[116.3356931,40.0137287],[116.3345722,40.013706],[116.3345499,40.0137053],[116.3343752,40.0136995],[116.333354,40.0136607],[116.3330332,40.0136237],[116.33138,40.0136005]],[[116.3458356,40.0139976],[116.3456828,40.0139934],[116.3448856,40.0139716],[116.3443792,40.013935],[116.3435356,40.0139032],[116.3421317,40.0138992],[116.342107,40.0138986],[116.3419521,40.0138949],[116.3406891,40.013863],[116.3395808,40.0138322],[116.3394975,40.01383],[116.3393065,40.0138249]],[[116.3313863,40.0135165],[116.3330541,40.0135832],[116.3333564,40.0136107],[116.3343136,40.0136258],[116.3343767,40.0136284],[116.3346168,40.0136339],[116.3359211,40.0136607],[116.3365867,40.0136815],[116.3367255,40.0136807],[116.3367827,40.0136799],[116.3374823,40.0136967],[116.3387877,40.0137226],[116.3389331,40.0137238],[116.3389724,40.0137241],[116.339083,40.0137265]],[[116.339083,40.0137265],[116.3392458,40.0137315],[116.339443,40.0137352],[116.3395373,40.013737],[116.3400609,40.0137505],[116.3405114,40.0137731],[116.3418892,40.0137977],[116.3420051,40.0138007],[116.3421099,40.0138028],[116.3434338,40.0138296],[116.3439354,40.0138444],[116.3456078,40.0138936],[116.3456854,40.0138985],[116.3458273,40.0139074]]]}},{"type":"Feature","id":"ROAD-C08","properties":{"id":"ROAD-C08","layer":"ROAD_CENTERLINE","source_type":"agent_inferred_from_public_data","confidence":"low","geometry_role":"design_proposal","official_geometry":false,"boundary_precision":"provisional_rough","name_zh":"北护城河廊道","corridor_role":"bluegreen_slow_mobility_interface","source_layer":"gis_osm_waterways_free","osm_ids":[55886288,638625273,941729553],"source_ids":["CH8-TRANSPORT"],"assumption_ids":["A-BOUNDARY-001","A-CONTROLS-001","A-CH8-MOBILITY-001"],"length_m_declared":2074.072,"limitation_zh":"概念性设计线，仅支撑网络关系与方案复算；不代表道路红线、轨道线位、站口、桥隧、断面、通行能力或工程可行性。"},"geometry":{"type":"MultiLineString","coordinates":[[[116.3334241,39.941731],[116.3338874,39.9418048],[116.3340429,39.9418146],[116.3343655,39.9418348],[116.3347059,39.9418203],[116.3350681,39.9417807],[116.3354368,39.9417306],[116.3357482,39.9417446],[116.3361226,39.9417697],[116.3367529,39.9418267],[116.337219,39.9418977],[116.3399771,39.9422173],[116.3405879,39.9422473]],[[116.3405879,39.9422473],[116.3410265,39.9422234],[116.341349,39.942141],[116.3423509,39.9419698],[116.3436349,39.9416382],[116.3440499,39.9416024],[116.3442523,39.9416402],[116.3445141,39.941694],[116.3451496,39.9418662],[116.3454076,39.9420839],[116.3457022,39.9425193],[116.3457429,39.9426131],[116.3457673,39.9427443],[116.3457548,39.9428454],[116.3457268,39.9429505],[116.3456705,39.9430867],[116.3455741,39.9433032],[116.3452107,39.9442339],[116.3450757,39.944574],[116.3449676,39.9449159],[116.3448385,39.9453641],[116.3448056,39.9455498],[116.3447973,39.9456976],[116.3447971,39.9458052],[116.344809,39.9459314],[116.344914,39.9467065],[116.3450139,39.9473446],[116.3452816,39.9490469],[116.3453173,39.9491248],[116.3453774,39.9492152],[116.3455544,39.949315],[116.3456223,39.949335],[116.3461471,39.9494901],[116.3476121,39.9499102]]]}},{"type":"Feature","id":"ROAD-C09","properties":{"id":"ROAD-C09","layer":"ROAD_CENTERLINE","source_type":"agent_inferred_from_public_data","confidence":"low","geometry_role":"design_proposal","official_geometry":false,"boundary_precision":"provisional_rough","name_zh":"学院南路廊道","corridor_role":"east_west_stitching_corridor","source_layer":"osm_roads","osm_ids":[163057025,170482156,235466188],"source_ids":["CH8-TRANSPORT"],"assumption_ids":["A-BOUNDARY-001","A-CONTROLS-001","A-CH8-MOBILITY-001"],"length_m_declared":1238.526,"limitation_zh":"概念性设计线，仅支撑网络关系与方案复算；不代表道路红线、轨道线位、站口、桥隧、断面、通行能力或工程可行性。"},"geometry":{"type":"MultiLineString","coordinates":[[[116.3400281,39.9567729],[116.3402022,39.956736],[116.3404083,39.9566923],[116.3415276,39.9566738],[116.3417549,39.9566622],[116.3418326,39.9566582],[116.3419005,39.9566547],[116.3421948,39.9566479],[116.3427967,39.9566418],[116.3430114,39.9567148]],[[116.3457659,39.956723],[116.3453351,39.9567346],[116.3435923,39.9567816],[116.3434893,39.956782],[116.3428931,39.9567914],[116.3421982,39.9568115],[116.3421332,39.956813],[116.3418143,39.9568157],[116.3417468,39.956819],[116.3417003,39.9568212],[116.3413846,39.9568366],[116.3408147,39.9568644],[116.3406095,39.9568736],[116.3402206,39.956886],[116.3401481,39.9568936],[116.3400019,39.9568857]],[[116.3400281,39.9567729],[116.3401906,39.9567698],[116.3414816,39.9567452],[116.341729,39.9567429],[116.3417877,39.9567424],[116.3418538,39.9567418],[116.3421973,39.9567328],[116.3430114,39.9567148],[116.3434883,39.9567042],[116.3438691,39.9566958],[116.3446375,39.9566788],[116.345331,39.9566605],[116.3457678,39.956649]]]}},{"type":"Feature","id":"CH5-LINK-Z","properties":{"id":"CH5-LINK-Z","layer":"ROAD_CENTERLINE","source_type":"agent_generated_design","confidence":"low","geometry_role":"design_proposal","official_geometry":false,"boundary_precision":"provisional_rough","key_area_id":"PROV-KEY-001","name_zh":"学知园站—中试载体—清河绿链接口","corridor_role":"chapter05_schematic_interface_link","length_m_declared":224.3,"limitation_zh":"仅表达节点关系和连续性，不是工程线位或道路红线。"},"geometry":{"type":"LineString","coordinates":[[116.3457527,40.01258],[116.344325,40.010884]]}},{"type":"Feature","id":"CH5-LINK-Y","properties":{"id":"CH5-LINK-Y","layer":"ROAD_CENTERLINE","source_type":"agent_generated_design","confidence":"low","geometry_role":"design_proposal","official_geometry":false,"boundary_precision":"provisional_rough","key_area_id":"PROV-KEY-002","name_zh":"五道口站外无障碍链—校城开放界面","corridor_role":"chapter05_schematic_interface_link","length_m_declared":316.7,"limitation_zh":"仅表达节点关系和连续性，不是工程线位或道路红线。"},"geometry":{"type":"LineString","coordinates":[[116.3364893,39.9960132],[116.334542,39.9935856]]}},{"type":"Feature","id":"CH5-LINK-D","properties":{"id":"CH5-LINK-D","layer":"ROAD_CENTERLINE","source_type":"agent_generated_design","confidence":"low","geometry_role":"design_proposal","official_geometry":false,"boundary_precision":"provisional_rough","key_area_id":"PROV-KEY-003","name_zh":"大钟寺站四象限—企业首层—规划绿地接口","corridor_role":"chapter05_schematic_interface_link","length_m_declared":236.7,"limitation_zh":"仅表达节点关系和连续性，不是工程线位或道路红线。"},"geometry":{"type":"LineString","coordinates":[[116.3382853,39.9670917],[116.3407191,39.9660732]]}}],"data_status":{"official_geometry":false,"geometry_role":"design_proposal","boundary_precision":"provisional_rough","note_zh":"本层由已用于总体结构图的本地OSM道路/水系参考与京张走廊背景代理裁切生成，只表达第08章概念网络关系；正式道路红线、轨道、站口、桥隧和工程条件到位后必须替换重算。"}}