{
  "features": [
    {
      "geometry": {
        "coordinates": [
          [
            [
              116.34689401320401,
              40.01688477867611
            ],
            [
              116.34752649188134,
              40.01688834150845
            ],
            [
              116.34752923647581,
              40.01660016270489
            ],
            [
              116.34689676045849,
              40.01659659990869
            ],
            [
              116.34689401320401,
              40.01688477867611
            ]
          ]
        ],
        "type": "Polygon"
      },
      "id": "BLDG-01-01",
      "properties": {
        "ai_landmark": false,
        "area_sqm_declared": 1728.0,
        "building_type": "lab",
        "confidence": "medium",
        "design_program_code": "reversible_test_pavilion",
        "design_status": "概念建筑基底，不表示现状建筑、拆改留结论或已批建设规模",
        "geometry_role": "design_proposal",
        "id": "BLDG-01-01",
        "layer": "BUILDING_FOOTPRINT",
        "name_zh": "技术换代台可拆测试单元1",
        "source_type": "agent_generated_design"
      },
      "type": "Feature"
    },
    {
      "geometry": {
        "coordinates": [
          [
            [
              116.34807655418892,
              40.01693646762438
            ],
            [
              116.3489198599518,
              40.016941208700395
            ],
            [
              116.34892345453827,
              40.01656297391631
            ],
            [
              116.34808015343044,
              40.01655823290345
            ],
            [
              116.34807655418892,
              40.01693646762438
            ]
          ]
        ],
        "type": "Polygon"
      },
      "id": "BLDG-01-02",
      "properties": {
        "ai_landmark": true,
        "area_sqm_declared": 3024.0,
        "building_type": "ai_r_and_d",
        "confidence": "medium",
        "design_program_code": "technical_replacement_platform",
        "design_status": "概念建筑基底，不表示现状建筑、拆改留结论或已批建设规模",
        "geometry_role": "design_proposal",
        "id": "BLDG-01-02",
        "layer": "BUILDING_FOOTPRINT",
        "name_zh": "技术换代台",
        "source_type": "agent_generated_design"
      },
      "type": "Feature"
    },
    {
      "geometry": {
        "coordinates": [
          [
            [
              116.34947077889021,
              40.016899272305245
            ],
            [
              116.35010325802548,
              40.01690282107564
            ],
            [
              116.35010599178277,
              40.01661464212514
            ],
            [
              116.34947351530754,
              40.016611093390765
            ],
            [
              116.34947077889021,
              40.016899272305245
            ]
          ]
        ],
        "type": "Polygon"
      },
      "id": "BLDG-01-03",
      "properties": {
        "ai_landmark": false,
        "area_sqm_declared": 1728.0,
        "building_type": "lab",
        "confidence": "medium",
        "design_program_code": "reversible_test_pavilion",
        "design_status": "概念建筑基底，不表示现状建筑、拆改留结论或已批建设规模",
        "geometry_role": "design_proposal",
        "id": "BLDG-01-03",
        "layer": "BUILDING_FOOTPRINT",
        "name_zh": "技术换代台可拆测试单元3",
        "source_type": "agent_generated_design"
      },
      "type": "Feature"
    },
    {
      "geometry": {
        "coordinates": [
          [
            [
              116.3458946679785,
              39.98863506035169
            ],
            [
              116.34652688592037,
              39.988638626560345
            ],
            [
              116.34652963197294,
              39.988350446405256
            ],
            [
              116.34589741668735,
              39.988346880232804
            ],
            [
              116.3458946679785,
              39.98863506035169
            ]
          ]
        ],
        "type": "Polygon"
      },
      "id": "BLDG-02-01",
      "properties": {
        "ai_landmark": false,
        "area_sqm_declared": 1728.0,
        "building_type": "lab",
        "confidence": "medium",
        "design_program_code": "reversible_test_pavilion",
        "design_status": "概念建筑基底，不表示现状建筑、拆改留结论或已批建设规模",
        "geometry_role": "design_proposal",
        "id": "BLDG-02-01",
        "layer": "BUILDING_FOOTPRINT",
        "name_zh": "知识复读庭可拆测试单元1",
        "source_type": "agent_generated_design"
      },
      "type": "Feature"
    },
    {
      "geometry": {
        "coordinates": [
          [
            [
              116.3470767210632,
              39.988686755828894
            ],
            [
              116.34791967917815,
              39.98869150141599
            ],
            [
              116.34792327568923,
              39.988313264857915
            ],
            [
              116.34708032222278,
              39.988308519334026
            ],
            [
              116.3470767210632,
              39.988686755828894
            ]
          ]
        ],
        "type": "Polygon"
      },
      "id": "BLDG-02-02",
      "properties": {
        "ai_landmark": true,
        "area_sqm_declared": 3024.0,
        "building_type": "education",
        "confidence": "medium",
        "design_program_code": "knowledge_rehearsal_court",
        "design_status": "概念建筑基底，不表示现状建筑、拆改留结论或已批建设规模",
        "geometry_role": "design_proposal",
        "id": "BLDG-02-02",
        "layer": "BUILDING_FOOTPRINT",
        "name_zh": "知识复读庭",
        "source_type": "agent_generated_design"
      },
      "type": "Feature"
    },
    {
      "geometry": {
        "coordinates": [
          [
            [
              116.34847037140935,
              39.988649567757676
            ],
            [
              116.3491025898093,
              39.988653119918354
            ],
            [
              116.34910532504003,
              39.98836493961619
            ],
            [
              116.34847310929634,
              39.98836138749155
            ],
            [
              116.34847037140935,
              39.988649567757676
            ]
          ]
        ],
        "type": "Polygon"
      },
      "id": "BLDG-02-03",
      "properties": {
        "ai_landmark": false,
        "area_sqm_declared": 1728.0,
        "building_type": "lab",
        "confidence": "medium",
        "design_program_code": "reversible_test_pavilion",
        "design_status": "概念建筑基底，不表示现状建筑、拆改留结论或已批建设规模",
        "geometry_role": "design_proposal",
        "id": "BLDG-02-03",
        "layer": "BUILDING_FOOTPRINT",
        "name_zh": "知识复读庭可拆测试单元3",
        "source_type": "agent_generated_design"
      },
      "type": "Feature"
    },
    {
      "geometry": {
        "coordinates": [
          [
            [
              116.3468956404323,
              39.94705521345271
            ],
            [
              116.34752747558865,
              39.947058771146516
            ],
            [
              116.34753021340447,
              39.94677058886059
            ],
            [
              116.34689838089889,
              39.9467670312029
            ],
            [
              116.3468956404323,
              39.94705521345271
            ]
          ]
        ],
        "type": "Polygon"
      },
      "id": "BLDG-03-01",
      "properties": {
        "ai_landmark": false,
        "area_sqm_declared": 1728.0,
        "building_type": "lab",
        "confidence": "medium",
        "design_program_code": "reversible_test_pavilion",
        "design_status": "概念建筑基底，不表示现状建筑、拆改留结论或已批建设规模",
        "geometry_role": "design_proposal",
        "id": "BLDG-03-01",
        "layer": "BUILDING_FOOTPRINT",
        "name_zh": "日常选择厅可拆测试单元1",
        "source_type": "agent_generated_design"
      },
      "type": "Feature"
    },
    {
      "geometry": {
        "coordinates": [
          [
            [
              116.34807697885228,
              39.94710689334104
            ],
            [
              116.34891942658437,
              39.9471116275887
            ],
            [
              116.34892301230069,
              39.94673338823413
            ],
            [
              116.34808056920744,
              39.94672865404955
            ],
            [
              116.34807697885228,
              39.94710689334104
            ]
          ]
        ],
        "type": "Polygon"
      },
      "id": "BLDG-03-02",
      "properties": {
        "ai_landmark": true,
        "area_sqm_declared": 3024.0,
        "building_type": "community_service",
        "confidence": "medium",
        "design_program_code": "everyday_choice_hall",
        "design_status": "概念建筑基底，不表示现状建筑、拆改留结论或已批建设规模",
        "geometry_role": "design_proposal",
        "id": "BLDG-03-02",
        "layer": "BUILDING_FOOTPRINT",
        "name_zh": "日常选择厅",
        "source_type": "agent_generated_design"
      },
      "type": "Feature"
    },
    {
      "geometry": {
        "coordinates": [
          [
            [
              116.34946978436433,
              39.94706968620019
            ],
            [
              116.35010161997731,
              39.94707322986659
            ],
            [
              116.35010434699373,
              39.94678504743389
            ],
            [
              116.34947251403152,
              39.946781503803464
            ],
            [
              116.34946978436433,
              39.94706968620019
            ]
          ]
        ],
        "type": "Polygon"
      },
      "id": "BLDG-03-03",
      "properties": {
        "ai_landmark": false,
        "area_sqm_declared": 1728.0,
        "building_type": "lab",
        "confidence": "medium",
        "design_program_code": "reversible_test_pavilion",
        "design_status": "概念建筑基底，不表示现状建筑、拆改留结论或已批建设规模",
        "geometry_role": "design_proposal",
        "id": "BLDG-03-03",
        "layer": "BUILDING_FOOTPRINT",
        "name_zh": "日常选择厅可拆测试单元3",
        "source_type": "agent_generated_design"
      },
      "type": "Feature"
    }
  ],
  "metadata": {
    "area_recalculation_crs": "EPSG:4548",
    "boundary_status": "provisional_rough",
    "coordinate_reference_system": "EPSG:4326",
    "generated_from": "repos/haidian/brief/site-package/geometry/provisional_boundaries.geojson"
  },
  "name": "concept_building_footprints",
  "type": "FeatureCollection"
}
