{
  "features": [
    {
      "geometry": {
        "coordinates": [
          [
            [
              116.34070000000001,
              39.93899999999999
            ],
            [
              116.3553,
              39.939
            ],
            [
              116.3553,
              39.965
            ],
            [
              116.3533,
              39.989999999999995
            ],
            [
              116.3553,
              40.0265
            ],
            [
              116.34270000000001,
              40.0265
            ],
            [
              116.34169999999999,
              40.006
            ],
            [
              116.3397,
              39.97500000000001
            ],
            [
              116.34070000000001,
              39.93899999999999
            ]
          ]
        ],
        "type": "Polygon"
      },
      "id": "SITE-001",
      "properties": {
        "area_sqm_calculated": 11412825.386,
        "area_sqm_declared": 11412825.386,
        "boundary_precision": "provisional_rough",
        "confidence": "medium",
        "derivation_method": "以公告所述京张遗址公园周边1—2公里城市地区和产业区为走廊，以北五环路、学院路/西土城路、西直门外大街、大钟寺东路/荷清路等文字四至定位，并在EPSG:4548下校核至公告约11.4平方公里；道路名称仅用于粗略定位，不代表道路红线。",
        "derived_from_source_ids": [
          "DATA-SRC-OFFICIAL-ANNOUNCEMENT-20260509"
        ],
        "geometry_role": "provisional_constraint",
        "id": "SITE-001",
        "layer": "SITE_BOUNDARY",
        "name_zh": "总体设计范围临时推定边界",
        "official_boundary": false,
        "scope_id": "overall_design_area",
        "source_id": "DATA-SRC-PROVISIONAL-BOUNDARIES-20260605",
        "source_title": "依据公告文字四至、约11.4平方公里面积约束和道路名称形成的临时粗略范围",
        "source_type": "agent_inferred_from_public_data",
        "usage_note": "仅用于概念设计、展示和临时自检；不得作为官方红线、审批依据或精确面积依据。"
      },
      "type": "Feature"
    }
  ],
  "metadata": {
    "area_recalculation_crs": "EPSG:4548",
    "boundary_status": "provisional_rough",
    "coordinate_reference_system": "EPSG:4326",
    "generated_from": "repos/haidian/brief/site-package/geometry/provisional_boundaries.geojson"
  },
  "name": "site_boundary",
  "type": "FeatureCollection"
}
