{
  "type": "FeatureCollection",
  "name": "jingzhang_slow_mobility_network",
  "features": [
    {
      "type": "Feature",
      "id": "ROAD-001",
      "properties": {
        "id": "ROAD-001",
        "layer": "ROAD_CENTERLINE",
        "source_type": "agent_generated_design",
        "confidence": "medium",
        "geometry_role": "design_proposal",
        "road_class": "greenway",
        "name_zh": "慢行与创新服务廊道"
      },
      "geometry": {
        "type": "LineString",
        "coordinates": [
          [
            116.340948,
            39.9845
          ],
          [
            116.35374,
            39.9845
          ]
        ]
      }
    },
    {
      "type": "Feature",
      "id": "ROAD-002",
      "properties": {
        "id": "ROAD-002",
        "layer": "ROAD_CENTERLINE",
        "source_type": "agent_generated_design",
        "confidence": "medium",
        "geometry_role": "design_proposal",
        "road_class": "cycleway",
        "name_zh": "东西缝合骑行连接线",
        "name_en": "East-West Cycle Stitch",
        "design_intent": "connect public-space nodes without changing road redlines"
      },
      "geometry": {
        "type": "LineString",
        "coordinates": [
          [
            116.3422,
            39.988
          ],
          [
            116.3475,
            39.988
          ],
          [
            116.3525,
            39.988
          ]
        ]
      }
    },
    {
      "type": "Feature",
      "id": "ROAD-003",
      "properties": {
        "id": "ROAD-003",
        "layer": "ROAD_CENTERLINE",
        "source_type": "agent_generated_design",
        "confidence": "medium",
        "geometry_role": "design_proposal",
        "road_class": "transit_connection",
        "name_zh": "三核轨道接驳建议线",
        "name_en": "Three-Core Transit Connector",
        "design_intent": "link the three key-area interfaces as a conceptual transfer route"
      },
      "geometry": {
        "type": "LineString",
        "coordinates": [
          [
            116.349,
            39.946
          ],
          [
            116.349,
            39.975
          ],
          [
            116.349,
            40.016
          ]
        ]
      }
    }
  ]
}
