{
  "type": "FeatureCollection",
  "name": "phasing",
  "features": [
    {
      "type": "Feature",
      "id": "PHASE-001",
      "properties": {
        "layer": "PHASE",
        "source_type": "agent_generated_design",
        "confidence": "medium",
        "geometry_role": "design_proposal",
        "id": "PHASE-001",
        "phase": "phase_1",
        "name_zh": "一期·南部门户与大钟寺AI产业集聚区（2026-2029）",
        "name_en": "Phase 1: South Gateway & Dazhongsi AI Cluster (2026-2029)",
        "area_sqm_declared": 1517412.169
      },
      "geometry": {
        "type": "Polygon",
        "coordinates": [
          [
            [
              116.3407,
              39.939
            ],
            [
              116.34039888888888,
              39.94984
            ],
            [
              116.3553,
              39.94984
            ],
            [
              116.3553,
              39.939
            ],
            [
              116.3407,
              39.939
            ]
          ]
        ]
      }
    },
    {
      "type": "Feature",
      "id": "PHASE-002",
      "properties": {
        "layer": "PHASE",
        "source_type": "agent_generated_design",
        "confidence": "medium",
        "geometry_role": "design_proposal",
        "id": "PHASE-002",
        "phase": "phase_2",
        "name_zh": "二期·中部创新带与北京AI原点社区（2029-2032）",
        "name_en": "Phase 2: Mid-Belt & AI Origin Community (2029-2032)",
        "area_sqm_declared": 5972628.362
      },
      "geometry": {
        "type": "Polygon",
        "coordinates": [
          [
            [
              116.34039888888888,
              39.94984
            ],
            [
              116.3397,
              39.975
            ],
            [
              116.3408935483871,
              39.9935
            ],
            [
              116.35349178082193,
              39.9935
            ],
            [
              116.3533,
              39.99
            ],
            [
              116.3553,
              39.965
            ],
            [
              116.3553,
              39.94984
            ],
            [
              116.34039888888888,
              39.94984
            ]
          ]
        ]
      }
    },
    {
      "type": "Feature",
      "id": "PHASE-003",
      "properties": {
        "layer": "PHASE",
        "source_type": "agent_generated_design",
        "confidence": "medium",
        "geometry_role": "design_proposal",
        "id": "PHASE-003",
        "phase": "phase_3",
        "name_zh": "三期·北链接段与众智园AI自主创新加速区（2032-2035）",
        "name_en": "Phase 3: North Link & Zhongzhiyuan Acceleration Area (2032-2035)",
        "area_sqm_declared": 3922791.819
      },
      "geometry": {
        "type": "Polygon",
        "coordinates": [
          [
            [
              116.3408935483871,
              39.9935
            ],
            [
              116.3417,
              40.006
            ],
            [
              116.3427,
              40.0265
            ],
            [
              116.3553,
              40.0265
            ],
            [
              116.35349178082193,
              39.9935
            ],
            [
              116.3408935483871,
              39.9935
            ]
          ]
        ]
      }
    }
  ]
}