{
  "type": "FeatureCollection",
  "name": "public_space.geojson",
  "features": [
    {
      "type": "Feature",
      "id": "PUBLIC-01",
      "properties": {
        "id": "PUBLIC-01",
        "layer": "PUBLIC_SPACE",
        "name_zh": "大钟寺站前共享界面",
        "source_type": "agent_generated_design",
        "confidence": "medium",
        "geometry_role": "design_proposal",
        "scope_id": "overall_design_area",
        "public_space_type": "AI civic room",
        "area_sqm_declared": 189790.093
      },
      "geometry": {
        "type": "Polygon",
        "coordinates": [
          [
            [
              116.345,
              39.946
            ],
            [
              116.345,
              39.95
            ],
            [
              116.35,
              39.95
            ],
            [
              116.35,
              39.946
            ],
            [
              116.345,
              39.946
            ]
          ]
        ]
      }
    },
    {
      "type": "Feature",
      "id": "PUBLIC-02",
      "properties": {
        "id": "PUBLIC-02",
        "layer": "PUBLIC_SPACE",
        "name_zh": "AI 原点成果街角",
        "source_type": "agent_generated_design",
        "confidence": "medium",
        "geometry_role": "design_proposal",
        "scope_id": "overall_design_area",
        "public_space_type": "AI civic room",
        "area_sqm_declared": 246586.829
      },
      "geometry": {
        "type": "Polygon",
        "coordinates": [
          [
            [
              116.3448,
              39.985
            ],
            [
              116.3448,
              39.99
            ],
            [
              116.35,
              39.99
            ],
            [
              116.35,
              39.985
            ],
            [
              116.3448,
              39.985
            ]
          ]
        ]
      }
    },
    {
      "type": "Feature",
      "id": "PUBLIC-03",
      "properties": {
        "id": "PUBLIC-03",
        "layer": "PUBLIC_SPACE",
        "name_zh": "众智园开放实验客厅",
        "source_type": "agent_generated_design",
        "confidence": "medium",
        "geometry_role": "design_proposal",
        "scope_id": "overall_design_area",
        "public_space_type": "AI civic room",
        "area_sqm_declared": 255977.704
      },
      "geometry": {
        "type": "Polygon",
        "coordinates": [
          [
            [
              116.345,
              40.0105
            ],
            [
              116.345,
              40.015
            ],
            [
              116.351,
              40.015
            ],
            [
              116.351,
              40.0105
            ],
            [
              116.345,
              40.0105
            ]
          ]
        ]
      }
    },
    {
      "type": "Feature",
      "id": "PUBLIC-04",
      "properties": {
        "id": "PUBLIC-04",
        "layer": "PUBLIC_SPACE",
        "name_zh": "清河算力驿站",
        "source_type": "agent_generated_design",
        "confidence": "medium",
        "geometry_role": "design_proposal",
        "scope_id": "overall_design_area",
        "public_space_type": "AI civic room",
        "area_sqm_declared": 139850.32
      },
      "geometry": {
        "type": "Polygon",
        "coordinates": [
          [
            [
              116.34144193548387,
              40.002
            ],
            [
              116.345,
              40.002
            ],
            [
              116.345,
              39.998
            ],
            [
              116.34118387096774,
              39.998
            ],
            [
              116.34144193548387,
              40.002
            ]
          ]
        ]
      }
    }
  ]
}
