{
  "type": "FeatureCollection",
  "name": "green_space",
  "features": [
    {
      "type": "Feature",
      "id": "GREEN-001",
      "properties": {
        "id": "GREEN-001",
        "layer": "GREEN_SPACE",
        "source_type": "agent_generated_design",
        "confidence": "medium",
        "geometry_role": "design_proposal",
        "name_zh": "京张铁路遗址公园脉搏绿廊",
        "label_en": "Jingzhang Railway Heritage Park Light Path Green Spine",
        "green_type": "park_green",
        "land_use_code": "1401",
        "area_sqm_declared": 2287886.704,
        "name_en": "Jingzhang Pulse Green Corridor",
        "description_zh": "京张铁路遗址公园全线绿廊，分三段性格：南段家段（安静日常）、中段场段（聚集共演）、北段线段（流动点亮）",
        "park_segment": "middle_gathering",
        "segment_zh": "中段·场段",
        "character_zh": "开阔聚集，可停可演"
      },
      "geometry": {
        "type": "Polygon",
        "coordinates": [
          [
            [
              116.347425,
              40.0265
            ],
            [
              116.3482125,
              40.0265
            ],
            [
              116.349,
              40.0265
            ],
            [
              116.3497992,
              40.0264653
            ],
            [
              116.3505985,
              40.0264305
            ],
            [
              116.3505652,
              40.0256638
            ],
            [
              116.3505318,
              40.0248972
            ],
            [
              116.3504985,
              40.0241305
            ],
            [
              116.3504652,
              40.0233638
            ],
            [
              116.3504318,
              40.0225972
            ],
            [
              116.3503985,
              40.0218305
            ],
            [
              116.3503652,
              40.0210638
            ],
            [
              116.3503318,
              40.0202972
            ],
            [
              116.3502985,
              40.0195305
            ],
            [
              116.3502652,
              40.0187638
            ],
            [
              116.3502318,
              40.0179972
            ],
            [
              116.3501985,
              40.0172305
            ],
            [
              116.3501652,
              40.0164638
            ],
            [
              116.3501318,
              40.0156972
            ],
            [
              116.3500988,
              40.0149386
            ],
            [
              116.3500728,
              40.0141572
            ],
            [
              116.3500465,
              40.0133677
            ],
            [
              116.3500202,
              40.0125783
            ],
            [
              116.3499938,
              40.0117888
            ],
            [
              116.3499675,
              40.0109993
            ],
            [
              116.3499412,
              40.0102099
            ],
            [
              116.3499149,
              40.0094204
            ],
            [
              116.3498886,
              40.0086309
            ],
            [
              116.3498623,
              40.0078414
            ],
            [
              116.349836,
              40.007052
            ],
            [
              116.3498096,
              40.0062625
            ],
            [
              116.3497833,
              40.005473
            ],
            [
              116.349757,
              40.0046835
            ],
            [
              116.3497307,
              40.0038941
            ],
            [
              116.3497044,
              40.0031046
            ],
            [
              116.3496781,
              40.0023151
            ],
            [
              116.3496517,
              40.0015256
            ],
            [
              116.3496254,
              40.0007362
            ],
            [
              116.3495991,
              39.9999467
            ],
            [
              116.3491925,
              39.9999602
            ],
            [
              116.349799,
              39.99994
            ],
            [
              116.3497727,
              39.9991506
            ],
            [
              116.3497464,
              39.9983611
            ],
            [
              116.3497201,
              39.9975716
            ],
            [
              116.3496937,
              39.9967821
            ],
            [
              116.3496674,
              39.9959927
            ],
            [
              116.3496411,
              39.9952032
            ],
            [
              116.3496148,
              39.9944137
            ],
            [
              116.3495885,
              39.9936242
            ],
            [
              116.3495622,
              39.9928348
            ],
            [
              116.3495358,
              39.9920453
            ],
            [
              116.3495095,
              39.9912558
            ],
            [
              116.3494832,
              39.9904663
            ],
            [
              116.3494569,
              39.9896769
            ],
            [
              116.3494306,
              39.9888874
            ],
            [
              116.3494043,
              39.9880979
            ],
            [
              116.3493779,
              39.9873085
            ],
            [
              116.3493516,
              39.986519
            ],
            [
              116.3493253,
              39.9857295
            ],
            [
              116.349299,
              39.98494
            ],
            [
              116.348601,
              39.9849633
            ],
            [
              116.3486156,
              39.9842325
            ],
            [
              116.3486314,
              39.983443
            ],
            [
              116.3486471,
              39.9826536
            ],
            [
              116.3486629,
              39.9818641
            ],
            [
              116.3486787,
              39.9810746
            ],
            [
              116.3486945,
              39.9802852
            ],
            [
              116.3487103,
              39.9794957
            ],
            [
              116.3487261,
              39.9787062
            ],
            [
              116.3487419,
              39.9779167
            ],
            [
              116.3487577,
              39.9771273
            ],
            [
              116.3487735,
              39.9763378
            ],
            [
              116.3487893,
              39.9755483
            ],
            [
              116.348805,
              39.9747588
            ],
            [
              116.3488208,
              39.9739694
            ],
            [
              116.3488366,
              39.9731799
            ],
            [
              116.3488524,
              39.9723904
            ],
            [
              116.3488682,
              39.9716009
            ],
            [
              116.348884,
              39.9708115
            ],
            [
              116.3488997,
              39.9700257
            ],
            [
              116.3489207,
              39.9692398
            ],
            [
              116.3489417,
              39.9684504
            ],
            [
              116.3489628,
              39.9676609
            ],
            [
              116.3489838,
              39.9668714
            ],
            [
              116.3490049,
              39.966082
            ],
            [
              116.3490259,
              39.9652925
            ],
            [
              116.349047,
              39.964503
            ],
            [
              116.349068,
              39.9637135
            ],
            [
              116.3490891,
              39.9629241
            ],
            [
              116.3491101,
              39.9621346
            ],
            [
              116.3491312,
              39.9613451
            ],
            [
              116.3491522,
              39.9605556
            ],
            [
              116.3491733,
              39.9597662
            ],
            [
              116.3491943,
              39.9589767
            ],
            [
              116.3492154,
              39.9581872
            ],
            [
              116.3492365,
              39.9573977
            ],
            [
              116.3492575,
              39.9566083
            ],
            [
              116.3492786,
              39.9558188
            ],
            [
              116.349299,
              39.9550507
            ],
            [
              116.3495985,
              39.9550645
            ],
            [
              116.3496338,
              39.9542998
            ],
            [
              116.3496691,
              39.9535351
            ],
            [
              116.3497044,
              39.9527704
            ],
            [
              116.3497397,
              39.9520057
            ],
            [
              116.349775,
              39.951241
            ],
            [
              116.3498103,
              39.9504763
            ],
            [
              116.3498456,
              39.9497116
            ],
            [
              116.3498809,
              39.9489469
            ],
            [
              116.3499162,
              39.9481822
            ],
            [
              116.3499515,
              39.9474175
            ],
            [
              116.3499867,
              39.9466528
            ],
            [
              116.350022,
              39.9458881
            ],
            [
              116.3500573,
              39.9451234
            ],
            [
              116.3500926,
              39.9443587
            ],
            [
              116.3501279,
              39.943594
            ],
            [
              116.3501632,
              39.9428293
            ],
            [
              116.3501985,
              39.9420645
            ],
            [
              116.3494993,
              39.9420323
            ],
            [
              116.3488,
              39.942
            ],
            [
              116.3481007,
              39.9419677
            ],
            [
              116.3474015,
              39.9419355
            ],
            [
              116.3473662,
              39.9427002
            ],
            [
              116.3473309,
              39.9434649
            ],
            [
              116.3472956,
              39.9442296
            ],
            [
              116.3472603,
              39.9449943
            ],
            [
              116.347225,
              39.945759
            ],
            [
              116.3471897,
              39.9465237
            ],
            [
              116.3471544,
              39.9472884
            ],
            [
              116.3471191,
              39.9480531
            ],
            [
              116.3470838,
              39.9488178
            ],
            [
              116.3470485,
              39.9495825
            ],
            [
              116.3470133,
              39.9503472
            ],
            [
              116.346978,
              39.9511119
            ],
            [
              116.3469427,
              39.9518766
            ],
            [
              116.3469074,
              39.9526413
            ],
            [
              116.3468721,
              39.953406
            ],
            [
              116.3468368,
              39.9541707
            ],
            [
              116.3468015,
              39.9549355
            ],
            [
              116.3475007,
              39.9549677
            ],
            [
              116.3482,
              39.955
            ],
            [
              116.3478335,
              39.9549902
            ],
            [
              116.3471004,
              39.9549707
            ],
            [
              116.3470793,
              39.9557602
            ],
            [
              116.3470583,
              39.9565496
            ],
            [
              116.3470372,
              39.9573391
            ],
            [
              116.3470162,
              39.9581286
            ],
            [
              116.3469951,
              39.958918
            ],
            [
              116.3469741,
              39.9597075
            ],
            [
              116.346953,
              39.960497
            ],
            [
              116.346932,
              39.9612865
            ],
            [
              116.3469109,
              39.9620759
            ],
            [
              116.3468899,
              39.9628654
            ],
            [
              116.3468688,
              39.9636549
            ],
            [
              116.3468478,
              39.9644444
            ],
            [
              116.3468267,
              39.9652338
            ],
            [
              116.3468057,
              39.9660233
            ],
            [
              116.3467846,
              39.9668128
            ],
            [
              116.3467635,
              39.9676023
            ],
            [
              116.3467425,
              39.9683917
            ],
            [
              116.3467214,
              39.9691812
            ],
            [
              116.3467004,
              39.9699707
            ],
            [
              116.3474335,
              39.9699902
            ],
            [
              116.3478,
              39.97
            ],
            [
              116.3474334,
              39.9699927
            ],
            [
              116.3467002,
              39.969978
            ],
            [
              116.3466844,
              39.9707675
            ],
            [
              116.3466686,
              39.971557
            ],
            [
              116.3466529,
              39.9723464
            ],
            [
              116.3466371,
              39.9731359
            ],
            [
              116.3466213,
              39.9739254
            ],
            [
              116.3466055,
              39.9747148
            ],
            [
              116.3465897,
              39.9755043
            ],
            [
              116.3465739,
              39.9762938
            ],
            [
              116.3465581,
              39.9770833
            ],
            [
              116.3465423,
              39.9778727
            ],
            [
              116.3465265,
              39.9786622
            ],
            [
              116.3465107,
              39.9794517
            ],
            [
              116.346495,
              39.9802412
            ],
            [
              116.3464792,
              39.9810306
            ],
            [
              116.3464634,
              39.9818201
            ],
            [
              116.3464476,
              39.9826096
            ],
            [
              116.3464318,
              39.9833991
            ],
            [
              116.346416,
              39.9841885
            ],
            [
              116.3464002,
              39.984978
            ],
            [
              116.3471334,
              39.9849927
            ],
            [
              116.3475,
              39.985
            ],
            [
              116.3471402,
              39.985012
            ],
            [
              116.3464206,
              39.985036
            ],
            [
              116.345701,
              39.98506
            ],
            [
              116.3457273,
              39.9858494
            ],
            [
              116.3457536,
              39.9866389
            ],
            [
              116.3457799,
              39.9874284
            ],
            [
              116.3458063,
              39.9882179
            ],
            [
              116.3458326,
              39.9890073
            ],
            [
              116.3458589,
              39.9897968
            ],
            [
              116.3458852,
              39.9905863
            ],
            [
              116.3459115,
              39.9913758
            ],
            [
              116.3459378,
              39.9921652
            ],
            [
              116.3459642,
              39.9929547
            ],
            [
              116.3459905,
              39.9937442
            ],
            [
              116.3460168,
              39.9945337
            ],
            [
              116.3460431,
              39.9953231
            ],
            [
              116.3460694,
              39.9961126
            ],
            [
              116.3460957,
              39.9969021
            ],
            [
              116.3461221,
              39.9976915
            ],
            [
              116.3461484,
              39.998481
            ],
            [
              116.3461747,
              39.9992705
            ],
            [
              116.346201,
              40.00006
            ],
            [
              116.3464009,
              40.0000533
            ],
            [
              116.3464272,
              40.0008428
            ],
            [
              116.3464535,
              40.0016323
            ],
            [
              116.3464798,
              40.0024217
            ],
            [
              116.3465062,
              40.0032112
            ],
            [
              116.3465325,
              40.0040007
            ],
            [
              116.3465588,
              40.0047901
            ],
            [
              116.3465851,
              40.0055796
            ],
            [
              116.3466114,
              40.0063691
            ],
            [
              116.3466377,
              40.0071586
            ],
            [
              116.346664,
              40.007948
            ],
            [
              116.3466904,
              40.0087375
            ],
            [
              116.3467167,
              40.009527
            ],
            [
              116.346743,
              40.0103165
            ],
            [
              116.3467693,
              40.0111059
            ],
            [
              116.3467956,
              40.0118954
            ],
            [
              116.3468219,
              40.0126849
            ],
            [
              116.3468483,
              40.0134744
            ],
            [
              116.3468746,
              40.0142638
            ],
            [
              116.3469009,
              40.0150533
            ],
            [
              116.3477004,
              40.0150267
            ],
            [
              116.3485,
              40.015
            ],
            [
              116.3477008,
              40.0150347
            ],
            [
              116.3469015,
              40.0150695
            ],
            [
              116.3469348,
              40.0158362
            ],
            [
              116.3469682,
              40.0166028
            ],
            [
              116.3470015,
              40.0173695
            ],
            [
              116.3470348,
              40.0181362
            ],
            [
              116.3470682,
              40.0189028
            ],
            [
              116.3471015,
              40.0196695
            ],
            [
              116.3471348,
              40.0204362
            ],
            [
              116.3471682,
              40.0212028
            ],
            [
              116.3472015,
              40.0219695
            ],
            [
              116.3472348,
              40.0227362
            ],
            [
              116.3472682,
              40.0235028
            ],
            [
              116.3473015,
              40.0242695
            ],
            [
              116.3473348,
              40.0250362
            ],
            [
              116.3473682,
              40.0258028
            ],
            [
              116.3473985,
              40.0265
            ],
            [
              116.347425,
              40.0265
            ]
          ]
        ]
      }
    },
    {
      "type": "Feature",
      "id": "GREEN-002",
      "properties": {
        "id": "GREEN-002",
        "layer": "GREEN_SPACE",
        "source_type": "agent_generated_design",
        "confidence": "medium",
        "geometry_role": "design_proposal",
        "name_zh": "众智园东西绿廊（北段线段）",
        "green_type": "corridor",
        "land_use_code": "1401",
        "area_sqm_declared": 170295.933,
        "name_en": "North E-W Connector (Linear Zone)"
      },
      "geometry": {
        "type": "Polygon",
        "coordinates": [
          [
            [
              116.3548652,
              40.0185652
            ],
            [
              116.3548217,
              40.0177717
            ],
            [
              116.3547783,
              40.0169783
            ],
            [
              116.3547348,
              40.0161848
            ],
            [
              116.3546913,
              40.0153913
            ],
            [
              116.3546699,
              40.015
            ],
            [
              116.3502016,
              40.015
            ],
            [
              116.3502317,
              40.0156928
            ],
            [
              116.3502651,
              40.0164595
            ],
            [
              116.3502984,
              40.0172262
            ],
            [
              116.3503317,
              40.0179928
            ],
            [
              116.3503755,
              40.019
            ],
            [
              116.354889,
              40.019
            ],
            [
              116.3548652,
              40.0185652
            ]
          ]
        ]
      }
    },
    {
      "type": "Feature",
      "id": "GREEN-003",
      "properties": {
        "id": "GREEN-003",
        "layer": "GREEN_SPACE",
        "source_type": "agent_generated_design",
        "confidence": "medium",
        "geometry_role": "design_proposal",
        "name_zh": "众智园东西绿廊（北段线段）",
        "green_type": "corridor",
        "land_use_code": "1401",
        "area_sqm_declared": 176282.685,
        "name_en": "North E-W Connector (Linear Zone)"
      },
      "geometry": {
        "type": "Polygon",
        "coordinates": [
          [
            [
              116.342139,
              40.015
            ],
            [
              116.3421615,
              40.0154615
            ],
            [
              116.3422,
              40.01625
            ],
            [
              116.3422385,
              40.0170385
            ],
            [
              116.3422769,
              40.0178269
            ],
            [
              116.3423154,
              40.0186154
            ],
            [
              116.3423341,
              40.019
            ],
            [
              116.3469723,
              40.019
            ],
            [
              116.3469349,
              40.0181405
            ],
            [
              116.3469016,
              40.0173738
            ],
            [
              116.3468683,
              40.0166072
            ],
            [
              116.3468349,
              40.0158405
            ],
            [
              116.3468016,
              40.0150738
            ],
            [
              116.3468017,
              40.0150652
            ],
            [
              116.3468009,
              40.0150566
            ],
            [
              116.3467991,
              40.015
            ],
            [
              116.342139,
              40.015
            ]
          ]
        ]
      }
    },
    {
      "type": "Feature",
      "id": "GREEN-004",
      "properties": {
        "id": "GREEN-004",
        "layer": "GREEN_SPACE",
        "source_type": "agent_generated_design",
        "confidence": "medium",
        "geometry_role": "design_proposal",
        "name_zh": "原点社区东西绿廊（中段场段）",
        "green_type": "corridor",
        "land_use_code": "1401",
        "area_sqm_declared": 150187.236,
        "name_en": "Origin E-W Connector (Gathering Zone)"
      },
      "geometry": {
        "type": "Polygon",
        "coordinates": [
          [
            [
              116.3533625,
              39.9892187
            ],
            [
              116.353425,
              39.9884375
            ],
            [
              116.3534875,
              39.9876563
            ],
            [
              116.35355,
              39.986875
            ],
            [
              116.3536125,
              39.9860938
            ],
            [
              116.35362,
              39.986
            ],
            [
              116.3494344,
              39.986
            ],
            [
              116.3494516,
              39.9865156
            ],
            [
              116.3494779,
              39.9873051
            ],
            [
              116.3495042,
              39.9880946
            ],
            [
              116.3495305,
              39.9888841
            ],
            [
              116.3495568,
              39.9896735
            ],
            [
              116.3495677,
              39.99
            ],
            [
              116.3533,
              39.99
            ],
            [
              116.3533625,
              39.9892187
            ]
          ]
        ]
      }
    },
    {
      "type": "Feature",
      "id": "GREEN-005",
      "properties": {
        "id": "GREEN-005",
        "layer": "GREEN_SPACE",
        "source_type": "agent_generated_design",
        "confidence": "medium",
        "geometry_role": "design_proposal",
        "name_zh": "原点社区东西绿廊（中段场段）",
        "green_type": "corridor",
        "land_use_code": "1401",
        "area_sqm_declared": 195759.639,
        "name_en": "Origin E-W Connector (Gathering Zone)"
      },
      "geometry": {
        "type": "Polygon",
        "coordinates": [
          [
            [
              116.3404097,
              39.986
            ],
            [
              116.3404179,
              39.9861282
            ],
            [
              116.3404692,
              39.9869231
            ],
            [
              116.3405205,
              39.9877179
            ],
            [
              116.3405718,
              39.9885128
            ],
            [
              116.3406231,
              39.9893077
            ],
            [
              116.3406677,
              39.99
            ],
            [
              116.3457656,
              39.99
            ],
            [
              116.3457589,
              39.9898001
            ],
            [
              116.3457326,
              39.9890107
            ],
            [
              116.3457063,
              39.9882212
            ],
            [
              116.34568,
              39.9874317
            ],
            [
              116.3456537,
              39.9866422
            ],
            [
              116.3456323,
              39.986
            ],
            [
              116.3404097,
              39.986
            ]
          ]
        ]
      }
    },
    {
      "type": "Feature",
      "id": "GREEN-006",
      "properties": {
        "id": "GREEN-006",
        "layer": "GREEN_SPACE",
        "source_type": "agent_generated_design",
        "confidence": "medium",
        "geometry_role": "design_proposal",
        "name_zh": "大钟寺东西绿廊（南段家段）",
        "green_type": "corridor",
        "land_use_code": "1401",
        "area_sqm_declared": 173680.674,
        "name_en": "Dazhongsi E-W Connector (Home Zone)"
      },
      "geometry": {
        "type": "Polygon",
        "coordinates": [
          [
            [
              116.3501516,
              39.94525
            ],
            [
              116.3501219,
              39.9458927
            ],
            [
              116.3500513,
              39.9474221
            ],
            [
              116.3500161,
              39.9481868
            ],
            [
              116.3499901,
              39.94875
            ],
            [
              116.3553,
              39.94875
            ],
            [
              116.3553,
              39.9484545
            ],
            [
              116.3553,
              39.9476667
            ],
            [
              116.3553,
              39.9468788
            ],
            [
              116.3553,
              39.9460909
            ],
            [
              116.3553,
              39.945303
            ],
            [
              116.3553,
              39.94525
            ],
            [
              116.3501516,
              39.94525
            ]
          ]
        ]
      }
    },
    {
      "type": "Feature",
      "id": "GREEN-007",
      "properties": {
        "id": "GREEN-007",
        "layer": "GREEN_SPACE",
        "source_type": "agent_generated_design",
        "confidence": "medium",
        "geometry_role": "design_proposal",
        "name_zh": "大钟寺东西绿廊（南段家段）",
        "green_type": "corridor",
        "land_use_code": "1401",
        "area_sqm_declared": 218873.396,
        "name_en": "Dazhongsi E-W Connector (Home Zone)"
      },
      "geometry": {
        "type": "Polygon",
        "coordinates": [
          [
            [
              116.3405264,
              39.94525
            ],
            [
              116.3405261,
              39.9452609
            ],
            [
              116.3405043,
              39.9460435
            ],
            [
              116.3404826,
              39.9468261
            ],
            [
              116.3404609,
              39.9476087
            ],
            [
              116.3404391,
              39.9483913
            ],
            [
              116.3404292,
              39.94875
            ],
            [
              116.3469869,
              39.94875
            ],
            [
              116.3470192,
              39.9480485
            ],
            [
              116.3470545,
              39.9472838
            ],
            [
              116.3471251,
              39.9457544
            ],
            [
              116.3471484,
              39.94525
            ],
            [
              116.3405264,
              39.94525
            ]
          ]
        ]
      }
    },
    {
      "type": "Feature",
      "id": "GREEN-008",
      "properties": {
        "id": "GREEN-008",
        "layer": "GREEN_SPACE",
        "source_type": "agent_generated_design",
        "confidence": "medium",
        "geometry_role": "design_proposal",
        "name_zh": "众智园口袋公园",
        "green_type": "pocket_park",
        "land_use_code": "1401",
        "area_sqm_declared": 13651.317
      },
      "geometry": {
        "type": "Polygon",
        "coordinates": [
          [
            [
              116.3444,
              40.0176
            ],
            [
              116.3456,
              40.0176
            ],
            [
              116.3456,
              40.0164
            ],
            [
              116.3444,
              40.0164
            ],
            [
              116.3444,
              40.0176
            ]
          ]
        ]
      }
    },
    {
      "type": "Feature",
      "id": "GREEN-009",
      "properties": {
        "id": "GREEN-009",
        "layer": "GREEN_SPACE",
        "source_type": "agent_generated_design",
        "confidence": "medium",
        "geometry_role": "design_proposal",
        "name_zh": "创新展示绿地",
        "green_type": "pocket_park",
        "land_use_code": "1401",
        "area_sqm_declared": 9480.749
      },
      "geometry": {
        "type": "Polygon",
        "coordinates": [
          [
            [
              116.3515,
              40.0125
            ],
            [
              116.3525,
              40.0125
            ],
            [
              116.3525,
              40.0115
            ],
            [
              116.3515,
              40.0115
            ],
            [
              116.3515,
              40.0125
            ]
          ]
        ]
      }
    },
    {
      "type": "Feature",
      "id": "GREEN-010",
      "properties": {
        "id": "GREEN-010",
        "layer": "GREEN_SPACE",
        "source_type": "agent_generated_design",
        "confidence": "medium",
        "geometry_role": "design_proposal",
        "name_zh": "原点社区口袋公园",
        "green_type": "pocket_park",
        "land_use_code": "1401",
        "area_sqm_declared": 11475.698
      },
      "geometry": {
        "type": "Polygon",
        "coordinates": [
          [
            [
              116.34345,
              39.98855
            ],
            [
              116.34455,
              39.98855
            ],
            [
              116.34455,
              39.98745
            ],
            [
              116.34345,
              39.98745
            ],
            [
              116.34345,
              39.98855
            ]
          ]
        ]
      }
    },
    {
      "type": "Feature",
      "id": "GREEN-011",
      "properties": {
        "id": "GREEN-011",
        "layer": "GREEN_SPACE",
        "source_type": "agent_generated_design",
        "confidence": "medium",
        "geometry_role": "design_proposal",
        "name_zh": "开源广场绿地",
        "green_type": "pocket_park",
        "land_use_code": "1401",
        "area_sqm_declared": 9484.306
      },
      "geometry": {
        "type": "Polygon",
        "coordinates": [
          [
            [
              116.3505,
              39.9865
            ],
            [
              116.3515,
              39.9865
            ],
            [
              116.3515,
              39.9855
            ],
            [
              116.3505,
              39.9855
            ],
            [
              116.3505,
              39.9865
            ]
          ]
        ]
      }
    },
    {
      "type": "Feature",
      "id": "GREEN-012",
      "properties": {
        "id": "GREEN-012",
        "layer": "GREEN_SPACE",
        "source_type": "agent_generated_design",
        "confidence": "medium",
        "geometry_role": "design_proposal",
        "name_zh": "大钟寺南广场绿地",
        "green_type": "pocket_park",
        "land_use_code": "1401",
        "area_sqm_declared": 9489.647
      },
      "geometry": {
        "type": "Polygon",
        "coordinates": [
          [
            [
              116.3445,
              39.9475
            ],
            [
              116.3455,
              39.9475
            ],
            [
              116.3455,
              39.9465
            ],
            [
              116.3445,
              39.9465
            ],
            [
              116.3445,
              39.9475
            ]
          ]
        ]
      }
    },
    {
      "type": "Feature",
      "id": "GREEN-013",
      "properties": {
        "id": "GREEN-013",
        "layer": "GREEN_SPACE",
        "source_type": "agent_generated_design",
        "confidence": "medium",
        "geometry_role": "design_proposal",
        "name_zh": "商务中庭绿地",
        "green_type": "pocket_park",
        "land_use_code": "1401",
        "area_sqm_declared": 7686.601
      },
      "geometry": {
        "type": "Polygon",
        "coordinates": [
          [
            [
              116.35155,
              39.94745
            ],
            [
              116.35245,
              39.94745
            ],
            [
              116.35245,
              39.94655
            ],
            [
              116.35155,
              39.94655
            ],
            [
              116.35155,
              39.94745
            ]
          ]
        ]
      }
    }
  ]
}