{
  "type": "FeatureCollection",
  "name": "proofline_land_use",
  "features": [
    {
      "type": "Feature",
      "id": "LU-001",
      "properties": {
        "id": "LU-001",
        "layer": "LAND_USE",
        "source_type": "agent_generated_design",
        "confidence": "medium",
        "geometry_role": "design_proposal",
        "land_use_code": "05",
        "name_zh": "大钟寺城市接口与商业服务",
        "concept_status": "conceptual_partition",
        "area_sqm_declared": 2214839.749
      },
      "geometry": {
        "type": "Polygon",
        "coordinates": [
          [
            [
              116.3407,
              39.939
            ],
            [
              116.3402625,
              39.95475
            ],
            [
              116.3553,
              39.95475
            ],
            [
              116.3553,
              39.939
            ],
            [
              116.3407,
              39.939
            ]
          ]
        ]
      }
    },
    {
      "type": "Feature",
      "id": "LU-002",
      "properties": {
        "id": "LU-002",
        "layer": "LAND_USE",
        "source_type": "agent_generated_design",
        "confidence": "medium",
        "geometry_role": "design_proposal",
        "land_use_code": "0702",
        "name_zh": "社区生活与公共服务",
        "concept_status": "conceptual_partition",
        "area_sqm_declared": 2517068.751
      },
      "geometry": {
        "type": "Polygon",
        "coordinates": [
          [
            [
              116.3553,
              39.965
            ],
            [
              116.3553,
              39.95475
            ],
            [
              116.3402625,
              39.95475
            ],
            [
              116.33977638888888,
              39.97225
            ],
            [
              116.35472,
              39.97225
            ],
            [
              116.3553,
              39.965
            ]
          ]
        ]
      }
    },
    {
      "type": "Feature",
      "id": "LU-003",
      "properties": {
        "id": "LU-003",
        "layer": "LAND_USE",
        "source_type": "agent_generated_design",
        "confidence": "medium",
        "geometry_role": "design_proposal",
        "land_use_code": "0802",
        "name_zh": "AI原点研发转化",
        "concept_status": "conceptual_partition",
        "area_sqm_declared": 2203738.136
      },
      "geometry": {
        "type": "Polygon",
        "coordinates": [
          [
            [
              116.35472,
              39.97225
            ],
            [
              116.33977638888888,
              39.97225
            ],
            [
              116.3397,
              39.975
            ],
            [
              116.34059516129032,
              39.988875
            ],
            [
              116.35339,
              39.988875
            ],
            [
              116.35472,
              39.97225
            ]
          ]
        ]
      }
    },
    {
      "type": "Feature",
      "id": "LU-004",
      "properties": {
        "id": "LU-004",
        "layer": "LAND_USE",
        "source_type": "agent_generated_design",
        "confidence": "medium",
        "geometry_role": "design_proposal",
        "land_use_code": "1401",
        "name_zh": "京张遗址公园与开敞空间",
        "concept_status": "conceptual_partition",
        "area_sqm_declared": 1981286.564
      },
      "geometry": {
        "type": "Polygon",
        "coordinates": [
          [
            [
              116.3533,
              39.99
            ],
            [
              116.35339,
              39.988875
            ],
            [
              116.34059516129032,
              39.988875
            ],
            [
              116.34166774193548,
              40.0055
            ],
            [
              116.3541493150685,
              40.0055
            ],
            [
              116.3533,
              39.99
            ]
          ]
        ]
      }
    },
    {
      "type": "Feature",
      "id": "LU-005",
      "properties": {
        "id": "LU-005",
        "layer": "LAND_USE",
        "source_type": "agent_generated_design",
        "confidence": "medium",
        "geometry_role": "design_proposal",
        "land_use_code": "0802",
        "name_zh": "众智园研发测试",
        "concept_status": "conceptual_partition",
        "area_sqm_declared": 1452991.406
      },
      "geometry": {
        "type": "Polygon",
        "coordinates": [
          [
            [
              116.3541493150685,
              40.0055
            ],
            [
              116.34166774193548,
              40.0055
            ],
            [
              116.3417,
              40.006
            ],
            [
              116.3422731707317,
              40.01775
            ],
            [
              116.35482054794521,
              40.01775
            ],
            [
              116.3541493150685,
              40.0055
            ]
          ]
        ]
      }
    },
    {
      "type": "Feature",
      "id": "LU-006",
      "properties": {
        "id": "LU-006",
        "layer": "LAND_USE",
        "source_type": "agent_generated_design",
        "confidence": "medium",
        "geometry_role": "design_proposal",
        "land_use_code": "05",
        "name_zh": "北部创新服务接口",
        "concept_status": "conceptual_partition",
        "area_sqm_declared": 1042918.398
      },
      "geometry": {
        "type": "Polygon",
        "coordinates": [
          [
            [
              116.35482054794521,
              40.01775
            ],
            [
              116.3422731707317,
              40.01775
            ],
            [
              116.3427,
              40.0265
            ],
            [
              116.3553,
              40.0265
            ],
            [
              116.35482054794521,
              40.01775
            ]
          ]
        ]
      }
    }
  ]
}
