{"type":"FeatureCollection","name":"site_boundary","features":[{"type":"Feature","id":"SITE-001","properties":{"id":"SITE-001","layer":"SITE_BOUNDARY","source_type":"agent_inferred_from_public_data","confidence":"high","geometry_role":"provisional_constraint","official_boundary":false,"boundary_precision":"provisional_rough","source_id":"DATA-SRC-PROVISIONAL-BOUNDARIES-20260605","official_area_sqm":11400000,"usage_note":"临时粗略边界,非官方红线;不得用于精确面积/审批;官方polygon取得后需整体复算","area_sqm_declared":11412815.14},"geometry":{"type":"Polygon","coordinates":[[[116.33970002374012,39.975000010974995],[116.3417000345097,40.005999967022184],[116.34270004550295,40.026500035535776],[116.35529994355284,40.026500034233216],[116.35329998764635,39.99000001444341],[116.35530003613047,39.965000043781814],[116.35530003946621,39.93900003411558],[116.340699962601,39.938999974746935],[116.33970002374012,39.975000010974995]]]}}]}