{
  "type": "FeatureCollection",
  "features": [
    {
      "type": "Feature",
      "id": "WINDOW-01",
      "properties": {
        "id": "WINDOW-01",
        "layer": "PUBLIC_SPACE",
        "source_type": "agent_generated_design",
        "confidence": "medium",
        "geometry_role": "design_proposal",
        "name_zh": "栈窗01：能源环境",
        "name_en": "Stack Window 01: Energy and environment",
        "stack_layer": 1,
        "area_sqm_declared": 6636.937
      },
      "geometry": {
        "type": "Polygon",
        "coordinates": [
          [
            [
              116.34847028846009,
              39.94373766041744
            ],
            [
              116.34846292007171,
              39.943697403101346
            ],
            [
              116.34845046070889,
              39.94365789554228
            ],
            [
              116.34843303037027,
              39.943619518218085
            ],
            [
              116.34841079692681,
              39.943582640721274
            ],
            [
              116.34838397450469,
              39.94354761819968
            ],
            [
              116.34835282142302,
              39.943514787936344
            ],
            [
              116.34831763770588,
              39.94348446610131
            ],
            [
              116.34827876219283,
              39.94345694470699
            ],
            [
              116.34823656927564,
              39.94343248879599
            ],
            [
              116.34819146529271,
              39.943411333888704
            ],
            [
              116.348143884616,
              39.94339368371537
            ],
            [
              116.34809428546772,
              39.943379708253985
            ],
            [
              116.34804314550792,
              39.943369542093585
            ],
            [
              116.34799095723434,
              39.943363283138105
            ],
            [
              116.34793822323991,
              39.94336099166359
            ],
            [
              116.34788545137275,
              39.94336268973772
            ],
            [
              116.3478331498456,
              39.94336836100733
            ],
            [
              116.34778182234194,
              39.94337795085586
            ],
            [
              116.34773196316554,
              39.94339136692941
            ],
            [
              116.34768405248023,
              39.94340848002593
            ],
            [
              116.3476385516862,
              39.94342912533957
            ],
            [
              116.34759589897637,
              39.943453104047684
            ],
            [
              116.34755650511681,
              39.94348018522552
            ],
            [
              116.34752074949077,
              39.943510108069965
            ],
            [
              116.34748897644518,
              39.94354258441114
            ],
            [
              116.34746149197423,
              39.943577301487544
            ],
            [
              116.34743856077256,
              39.94361392495783
            ],
            [
              116.34742040368579,
              39.943652102120765
            ],
            [
              116.34740719558354,
              39.94369146531168
            ],
            [
              116.34739906367501,
              39.9437316354433
            ],
            [
              116.34739608628364,
              39.943772225656424
            ],
            [
              116.34739829209242,
              39.94381284504557
            ],
            [
              116.34740565986735,
              39.94385310242362
            ],
            [
              116.34741811866154,
              39.9438926100891
            ],
            [
              116.34743554849823,
              39.94393098756005
            ],
            [
              116.34745778152575,
              39.94396786523838
            ],
            [
              116.34748460363387,
              39.944002887969255
            ],
            [
              116.3475157565156,
              39.944035718461585
            ],
            [
              116.3475509401545,
              39.944066040536526
            ],
            [
              116.34758981571406,
              39.944093562172455
            ],
            [
              116.34763200880066,
              39.94411801831746
            ],
            [
              116.3476771130694,
              39.944139173442196
            ],
            [
              116.34772469413741,
              39.94415682380805
            ],
            [
              116.34777429376734,
              39.94417079942961
            ],
            [
              116.34782543428074,
              39.94418096571169
            ],
            [
              116.34787762315851,
              39.94418722474567
            ],
            [
              116.34793035778453,
              39.94418951625251
            ],
            [
              116.34798313028644,
              39.944187818163286
            ],
            [
              116.34803543242703,
              39.94418214683175
            ],
            [
              116.34808676049929,
              39.9441725568768
            ],
            [
              116.34813662017763,
              39.944159140656474
            ],
            [
              116.34818453127885,
              39.94414202737844
            ],
            [
              116.3482300323869,
              39.94412138185552
            ],
            [
              116.34827268529666,
              39.944097402918416
            ],
            [
              116.34831207923449,
              39.944070321500675
            ],
            [
              116.34834783481402,
              39.94404039841462
            ],
            [
              116.3483796076902,
              39.94400792183942
            ],
            [
              116.34840709187532,
              39.94397320454557
            ],
            [
              116.34843002268569,
              39.94393658088279
            ],
            [
              116.34844817929078,
              39.94389840355969
            ],
            [
              116.34846138683945,
              39.9438590402471
            ],
            [
              116.3484695181438,
              39.94381887003696
            ],
            [
              116.34847249490358,
              39.9437782797915
            ],
            [
              116.34847028846009,
              39.94373766041744
            ]
          ]
        ]
      }
    },
    {
      "type": "Feature",
      "id": "WINDOW-02",
      "properties": {
        "id": "WINDOW-02",
        "layer": "PUBLIC_SPACE",
        "source_type": "agent_generated_design",
        "confidence": "medium",
        "geometry_role": "design_proposal",
        "name_zh": "栈窗02：算力网络",
        "name_en": "Stack Window 02: Compute and network",
        "stack_layer": 2,
        "area_sqm_declared": 6636.937
      },
      "geometry": {
        "type": "Polygon",
        "coordinates": [
          [
            [
              116.34837187978228,
              39.95083038211787
            ],
            [
              116.34836451074709,
              39.950790124838946
            ],
            [
              116.34835205020957,
              39.95075061730757
            ],
            [
              116.34833461817972,
              39.95071224000134
            ],
            [
              116.34831238254476,
              39.95067536251256
            ],
            [
              116.34828555745196,
              39.95064033998903
            ],
            [
              116.34825440124614,
              39.95060750971375
            ],
            [
              116.34821921398154,
              39.950577187856936
            ],
            [
              116.3481803345318,
              39.95054966643118
            ],
            [
              116.34813813732669,
              39.95052521047939
            ],
            [
              116.34809302874584,
              39.95050405552238
            ],
            [
              116.34804544320548,
              39.95048640529079
            ],
            [
              116.34799583897473,
              39.950472429763266
            ],
            [
              116.34794469376249,
              39.95046226352944
            ],
            [
              116.34789250011714,
              39.95045600449396
            ],
            [
              116.34783976068336,
              39.95045371293364
            ],
            [
              116.34778698336157,
              39.95045541091698
            ],
            [
              116.34773467641712,
              39.950461082091685
            ],
            [
              116.34768334358564,
              39.95047067184214
            ],
            [
              116.34763347922215,
              39.95048408781535
            ],
            [
              116.34758556354053,
              39.95050120081025
            ],
            [
              116.34754005798898,
              39.95052184602198
            ],
            [
              116.34749740080629,
              39.950545824628854
            ],
            [
              116.34745800280163,
              39.95057290570712
            ],
            [
              116.34742224339813,
              39.950602828454606
            ],
            [
              116.34739046697909,
              39.9506353047024
            ],
            [
              116.34736297957124,
              39.95067002168983
            ],
            [
              116.34734004589744,
              39.95070664507648
            ],
            [
              116.3473218868272,
              39.95074482216188
            ],
            [
              116.34730867724915,
              39.950784185282146
            ],
            [
              116.34730054438677,
              39.950824355350655
            ],
            [
              116.34729756657268,
              39.95086494550881
            ],
            [
              116.34729977249393,
              39.95090556485168
            ],
            [
              116.34730714091545,
              39.950945822192566
            ],
            [
              116.34731960088413,
              39.95098532983038
            ],
            [
              116.34733703241186,
              39.951023707283426
            ],
            [
              116.34735926763075,
              39.951060584953765
            ],
            [
              116.34738609240945,
              39.95109560768663
            ],
            [
              116.34741724841524,
              39.951128438190956
            ],
            [
              116.34745243560158,
              39.95115876028774
            ],
            [
              116.3474913150978,
              39.95118628195515
            ],
            [
              116.3475335124724,
              39.951210738141036
            ],
            [
              116.34757862133917,
              39.951231893315544
            ],
            [
              116.34762620727096,
              39.95124954373968
            ],
            [
              116.34767581198358,
              39.95126351942742
            ],
            [
              116.34772695774957,
              39.95127368578295
            ],
            [
              116.34777915199933,
              39.95127994489696
            ],
            [
              116.34783189206495,
              39.951282236489625
            ],
            [
              116.34788467002167,
              39.9512805384912
            ],
            [
              116.34793697757979,
              39.951274867254526
            ],
            [
              116.34798831098009,
              39.95126527739763
            ],
            [
              116.34803817584566,
              39.95125186127762
            ],
            [
              116.3480860919434,
              39.95123474810115
            ],
            [
              116.34813159780904,
              39.95121410268009
            ],
            [
              116.34817425519175,
              39.95119012384415
            ],
            [
              116.34821365327468,
              39.951163042525934
            ],
            [
              116.34824941263169,
              39.95113311953676
            ],
            [
              116.34828118888124,
              39.951100643054914
            ],
            [
              116.34830867600314,
              39.95106592584998
            ],
            [
              116.34833160928554,
              39.95102930227077
            ],
            [
              116.34834976787394,
              39.950991125025155
            ],
            [
              116.34836297689822,
              39.95095176178318
            ],
            [
              116.34837110915619,
              39.95091159163615
            ],
            [
              116.34837408633847,
              39.95087100144565
            ],
            [
              116.34837187978228,
              39.95083038211787
            ]
          ]
        ]
      }
    },
    {
      "type": "Feature",
      "id": "WINDOW-03",
      "properties": {
        "id": "WINDOW-03",
        "layer": "PUBLIC_SPACE",
        "source_type": "agent_generated_design",
        "confidence": "medium",
        "geometry_role": "design_proposal",
        "name_zh": "栈窗03：数据权利",
        "name_en": "Stack Window 03: Data and rights",
        "stack_layer": 3,
        "area_sqm_declared": 21090.152
      },
      "geometry": {
        "type": "Polygon",
        "coordinates": [
          [
            [
              116.34869300388611,
              39.9578936736361
            ],
            [
              116.3486798661983,
              39.957821910770114
            ],
            [
              116.34865765144416,
              39.95775148442477
            ],
            [
              116.34862657358995,
              39.95768307283938
            ],
            [
              116.34858693195537,
              39.957617334848244
            ],
            [
              116.34853910833006,
              39.957554903535794
            ],
            [
              116.34848356329606,
              39.95749638014014
            ],
            [
              116.34842083179159,
              39.95744232826308
            ],
            [
              116.34835151795889,
              39.957393268442765
            ],
            [
              116.34827628932591,
              39.95734967314103
            ],
            [
              116.3481958703778,
              39.95731196219372
            ],
            [
              116.34811103557985,
              39.95728049876794
            ],
            [
              116.34802260191967,
              39.957255585864864
            ],
            [
              116.34793142103969,
              39.95723746340202
            ],
            [
              116.34783837103625,
              39.957226305903106
            ],
            [
              116.34774434800413,
              39.95722222081731
            ],
            [
              116.34765025740757,
              39.95722524748474
            ],
            [
              116.34755700536137,
              39.95723535675767
            ],
            [
              116.34746548990569,
              39.957252451281065
            ],
            [
              116.3473765923583,
              39.95727636643024
            ],
            [
              116.34729116882826,
              39.95730687189593
            ],
            [
              116.34721004197175,
              39.957343673902116
            ],
            [
              116.34713399307039,
              39.95738641803496
            ],
            [
              116.34706375450752,
              39.95743469265558
            ],
            [
              116.34700000271532,
              39.95748803286397
            ],
            [
              116.34694335166054,
              39.95754592497584
            ],
            [
              116.34689434693152,
              39.957607811469195
            ],
            [
              116.3468534604837,
              39.957673096353226
            ],
            [
              116.34682108609384,
              39.95774115090765
            ],
            [
              116.34679753556706,
              39.95781131973722
            ],
            [
              116.34678303573317,
              39.957882927083304
            ],
            [
              116.34677772626114,
              39.95795528333165
            ],
            [
              116.34678165831299,
              39.95802769165348
            ],
            [
              116.34679479405007,
              39.958099454716404
            ],
            [
              116.34681700699602,
              39.95816988140003
            ],
            [
              116.34684808325414,
              39.958238293452055
            ],
            [
              116.34688772356603,
              39.9583040320203
            ],
            [
              116.34693554619287,
              39.958366463998104
            ],
            [
              116.34699109059103,
              39.95842498812179
            ],
            [
              116.3470538218467,
              39.9584790407616
            ],
            [
              116.3471231358272,
              39.95852810135006
            ],
            [
              116.3471983649989,
              39.958571697395826
            ],
            [
              116.34727878485594,
              39.95860940903443
            ],
            [
              116.34736362089814,
              39.95864087307224
            ],
            [
              116.34745205609003,
              39.958665786484545
            ],
            [
              116.34754323873034,
              39.95868390933422
            ],
            [
              116.34763629065507,
              39.95869506708277
            ],
            [
              116.34773031569564,
              39.95869915227137
            ],
            [
              116.34782440831059,
              39.95869612555594
            ],
            [
              116.34791766230751,
              39.958686016086084
            ],
            [
              116.34800917957138,
              39.95866892122438
            ],
            [
              116.34809807871486,
              39.95864500560856
            ],
            [
              116.34818350356761,
              39.958614499565776
            ],
            [
              116.3482646314226,
              39.95857769689424
            ],
            [
              116.3483406809598,
              39.95853495203335
            ],
            [
              116.34841091977147,
              39.95848667664999
            ],
            [
              116.34847467141587,
              39.95843333567345
            ],
            [
              116.34853132193193,
              39.95837544281757
            ],
            [
              116.348580325752,
              39.9583135556329
            ],
            [
              116.34862121095556,
              39.958248270136835
            ],
            [
              116.34865358381371,
              39.958180215073206
            ],
            [
              116.34867713258015,
              39.958110045856785
            ],
            [
              116.34869163049275,
              39.958038438261056
            ],
            [
              116.34869693795636,
              39.957966081909944
            ],
            [
              116.34869300388611,
              39.9578936736361
            ]
          ]
        ]
      }
    },
    {
      "type": "Feature",
      "id": "WINDOW-04",
      "properties": {
        "id": "WINDOW-04",
        "layer": "PUBLIC_SPACE",
        "source_type": "agent_generated_design",
        "confidence": "medium",
        "geometry_role": "design_proposal",
        "name_zh": "栈窗04：模型评估",
        "name_en": "Stack Window 04: Model evaluation",
        "stack_layer": 4,
        "area_sqm_declared": 6636.937
      },
      "geometry": {
        "type": "Polygon",
        "coordinates": [
          [
            [
              116.34817073704335,
              39.96501572636438
            ],
            [
              116.34816336671638,
              39.964975469159555
            ],
            [
              116.34815090383077,
              39.96493596168312
            ],
            [
              116.34813346841905,
              39.96489758441216
            ],
            [
              116.34811122840105,
              39.96486070693865
            ],
            [
              116.34808439796626,
              39.96482568441022
            ],
            [
              116.34805323551102,
              39.96479285410994
            ],
            [
              116.34801804114963,
              39.96476253220823
            ],
            [
              116.34797915382416,
              39.96473501071815
            ],
            [
              116.34793694804017,
              39.96471055468321
            ],
            [
              116.34789183025998,
              39.96468939962501
            ],
            [
              116.34784423498837,
              39.96467174927519
            ],
            [
              116.34779462058818,
              39.9646577736135
            ],
            [
              116.3477434648662,
              39.964647607230894
            ],
            [
              116.34769126047213,
              39.96464134803345
            ],
            [
              116.34763851015401,
              39.964639056299504
            ],
            [
              116.34758572191723,
              39.964640754099264
            ],
            [
              116.34753340413212,
              39.964646425082194
            ],
            [
              116.34748206063878,
              39.964656014634535
            ],
            [
              116.34743218589489,
              39.96466943040518
            ],
            [
              116.34738426021426,
              39.96468654319504
            ],
            [
              116.34733874514144,
              39.96470718820121
            ],
            [
              116.34729607900687,
              39.964731166604004
            ],
            [
              116.34725667270592,
              39.96475824748161
            ],
            [
              116.34722090574166,
              39.96478817003383
            ],
            [
              116.3471891225702,
              39.96482064609357
            ],
            [
              116.34716162928326,
              39.96485536290205
            ],
            [
              116.34713869066034,
              39.964891986120534
            ],
            [
              116.34712052761863,
              39.96493016305018
            ],
            [
              116.34710731508501,
              39.96496952602859
            ],
            [
              116.34709918031142,
              39.96500969597052
            ],
            [
              116.34709620164888,
              39.96505028601862
            ],
            [
              116.34709840779264,
              39.96509090526899
            ],
            [
              116.34710577750549,
              39.9651311625358
            ],
            [
              116.34711823982191,
              39.965170670118724
            ],
            [
              116.34713567473115,
              39.96520904753656
            ],
            [
              116.34715791433275,
              39.96524592519173
            ],
            [
              116.3471847444532,
              39.9652809479296
            ],
            [
              116.3472159067083,
              39.96531377845905
            ],
            [
              116.34725110099137,
              39.965344100600845
            ],
            [
              116.34728998836336,
              39.96537162233271
            ],
            [
              116.34733219431693,
              39.965396078601856
            ],
            [
              116.34737731238324,
              39.965417233877666
            ],
            [
              116.34742490804656,
              39.96543488442013
            ],
            [
              116.34747452292896,
              39.965448860242105
            ],
            [
              116.34752567920506,
              39.96545902674649
            ],
            [
              116.347577884204,
              39.965465286022514
            ],
            [
              116.34763063515436,
              39.96546757778881
            ],
            [
              116.34768342402657,
              39.96546587997394
            ],
            [
              116.34773574242577,
              39.96546020892902
            ],
            [
              116.34778708648834,
              39.96545061927019
            ],
            [
              116.34783696173469,
              39.96543720335266
            ],
            [
              116.34788488783171,
              39.965420090381144
            ],
            [
              116.34793040321887,
              39.96539944516554
            ],
            [
              116.34797306955357,
              39.96537546653357
            ],
            [
              116.34801247593285,
              39.965348385415886
            ],
            [
              116.3480482428506,
              39.96531846262187
            ],
            [
              116.34808002585247,
              39.965285986327935
            ],
            [
              116.34810751885325,
              39.965251269301845
            ],
            [
              116.34813045708447,
              39.96521464589072
            ],
            [
              116.34814861964402,
              39.96517646880078
            ],
            [
              116.34816183162347,
              39.9651371057006
            ],
            [
              116.34816996579222,
              39.965096935680094
            ],
            [
              116.34817294382249,
              39.965056345599635
            ],
            [
              116.34817073704335,
              39.96501572636438
            ]
          ]
        ]
      }
    },
    {
      "type": "Feature",
      "id": "WINDOW-05",
      "properties": {
        "id": "WINDOW-05",
        "layer": "PUBLIC_SPACE",
        "source_type": "agent_generated_design",
        "confidence": "medium",
        "geometry_role": "design_proposal",
        "name_zh": "栈窗05：应用服务",
        "name_en": "Stack Window 05: Applications and services",
        "stack_layer": 5,
        "area_sqm_declared": 6636.937
      },
      "geometry": {
        "type": "Polygon",
        "coordinates": [
          [
            [
              116.347789116879,
              39.97210682030126
            ],
            [
              116.3477817460711,
              39.97206656311692
            ],
            [
              116.34776928217329,
              39.97202705563904
            ],
            [
              116.3477518452279,
              39.97198867834468
            ],
            [
              116.34772960316948,
              39.97195180082609
            ],
            [
              116.34770277020723,
              39.971916778231304
            ],
            [
              116.34767160476177,
              39.97188394784402
            ],
            [
              116.34763640697625,
              39.971853625835514
            ],
            [
              116.34759751582573,
              39.97182610421987
            ],
            [
              116.34755530585254,
              39.97180164804181
            ],
            [
              116.3475101835594,
              39.97178049282429
            ],
            [
              116.34746258349449,
              39.97176284230051
            ],
            [
              116.34741296406685,
              39.97174886645189
            ],
            [
              116.34736180313175,
              39.971738699871175
            ],
            [
              116.34730959338897,
              39.97173244046635
            ],
            [
              116.34725683763814,
              39.97173014851775
            ],
            [
              116.34720404393693,
              39.97173184609766
            ],
            [
              116.34715172070831,
              39.97173751685766
            ],
            [
              116.3471003718448,
              39.971747106186115
            ],
            [
              116.34705049185578,
              39.97176052173409
            ],
            [
              116.34700256110561,
              39.97177763430465
            ],
            [
              116.3469570411876,
              39.971798279096994
            ],
            [
              116.3469143704789,
              39.97182225729348
            ],
            [
              116.34687495991888,
              39.97184933797432
            ],
            [
              116.34683918905169,
              39.971879260341176
            ],
            [
              116.34680740237097,
              39.971911736228776
            ],
            [
              116.34677990600227,
              39.97194645287996
            ],
            [
              116.34675696475482,
              39.971983075957525
            ],
            [
              116.34673879957093,
              39.972021252764
            ],
            [
              116.34672558539827,
              39.972060615638156
            ],
            [
              116.34671744950452,
              39.97210078549577
            ],
            [
              116.34671447025147,
              39.97214137548026
            ],
            [
              116.34671667634008,
              39.97218199468839
            ],
            [
              116.34672404653364,
              39.97222225193474
            ],
            [
              116.34673650986203,
              39.972261759519135
            ],
            [
              116.34675394630476,
              39.972300136960406
            ],
            [
              116.34677618794663,
              39.9723370146607
            ],
            [
              116.34680302059444,
              39.97237203746498
            ],
            [
              116.34683418583967,
              39.972404868081476
            ],
            [
              116.34686938354683,
              39.972435190330124
            ],
            [
              116.3469082747439,
              39.97246271218763
            ],
            [
              116.34695048488672,
              39.97248716859995
            ],
            [
              116.34699560746611,
              39.97250832403512
            ],
            [
              116.34704320792281,
              39.972525974751605
            ],
            [
              116.34709282783281,
              39.972539950760556
            ],
            [
              116.34714398932226,
              39.97255011746308
            ],
            [
              116.34719619967011,
              39.97255637694651
            ],
            [
              116.3472489560534,
              39.97255866892746
            ],
            [
              116.34730175039026,
              39.97255697133246
            ],
            [
              116.3473540742332,
              39.97255130051047
            ],
            [
              116.34740542366613,
              39.972541711075486
            ],
            [
              116.34745530415779,
              39.972528295380584
            ],
            [
              116.34750323532452,
              39.972511182628324
            ],
            [
              116.34754875555699,
              39.972490537626506
            ],
            [
              116.34759142646593,
              39.97246655920078
            ],
            [
              116.34763083710429,
              39.972439478279796
            ],
            [
              116.34766660792494,
              39.97240955567109
            ],
            [
              116.34769839443602,
              39.97237707954923
            ],
            [
              116.34772589051846,
              39.972342362680386
            ],
            [
              116.34774883137413,
              39.97230573941013
            ],
            [
              116.34776699607565,
              39.97226756244333
            ],
            [
              116.34778020969394,
              39.97222819944735
            ],
            [
              116.34778834498267,
              39.97218802951116
            ],
            [
              116.34779132360323,
              39.97214743949427
            ],
            [
              116.347789116879,
              39.97210682030126
            ]
          ]
        ]
      }
    },
    {
      "type": "Feature",
      "id": "WINDOW-06",
      "properties": {
        "id": "WINDOW-06",
        "layer": "PUBLIC_SPACE",
        "source_type": "agent_generated_design",
        "confidence": "medium",
        "geometry_role": "design_proposal",
        "name_zh": "栈窗06：人的劳动",
        "name_en": "Stack Window 06: Human labour",
        "stack_layer": 6,
        "area_sqm_declared": 6636.937
      },
      "geometry": {
        "type": "Polygon",
        "coordinates": [
          [
            [
              116.34760063378756,
              39.97919892771235
            ],
            [
              116.34759326238499,
              39.97915867055988
            ],
            [
              116.34758079736294,
              39.97911916310042
            ],
            [
              116.34756335877464,
              39.979080785810865
            ],
            [
              116.34754111457046,
              39.979043908283394
            ],
            [
              116.34751427898024,
              39.97900888566614
            ],
            [
              116.34748311044994,
              39.978976055243024
            ],
            [
              116.34744790915242,
              39.978945733185675
            ],
            [
              116.3474090140965,
              39.978918211508635
            ],
            [
              116.34736679986223,
              39.9788937552572
            ],
            [
              116.34732167299326,
              39.97887259995505
            ],
            [
              116.34727406808193,
              39.978854949336196
            ],
            [
              116.3472244435839,
              39.97884097338297
            ],
            [
              116.34717327740326,
              39.97883080668912
            ],
            [
              116.34712106229028,
              39.97882454716373
            ],
            [
              116.3470683010964,
              39.978822255088296
            ],
            [
              116.3470155019316,
              39.978823952536324
            ],
            [
              116.34696317327158,
              39.978829623160635
            ],
            [
              116.34691181906103,
              39.978839212350955
            ],
            [
              116.34686193386092,
              39.97885262775964
            ],
            [
              116.34681399808575,
              39.9788697401911
            ],
            [
              116.34676847337722,
              39.97889038484589
            ],
            [
              116.34672579815866,
              39.9789143629077
            ],
            [
              116.34668638341286,
              39.978941443458
            ],
            [
              116.34665060872422,
              39.97897136569975
            ],
            [
              116.34661881862323,
              39.97900384146886
            ],
            [
              116.34659131926837,
              39.97903855800933
            ],
            [
              116.34656837549761,
              39.979075180985014
            ],
            [
              116.34655020827765,
              39.97911335769942
            ],
            [
              116.34653699257565,
              39.979152720492216
            ],
            [
              116.3465288556741,
              39.97919289027994
            ],
            [
              116.34652587594444,
              39.97923348020672
            ],
            [
              116.34652808209228,
              39.97927409936985
            ],
            [
              116.34653545288036,
              39.979314356584354
            ],
            [
              116.34654791733276,
              39.979353864150355
            ],
            [
              116.34656535541822,
              39.979392241586865
            ],
            [
              116.34658759920572,
              39.979429119296064
            ],
            [
              116.34661443448137,
              39.97946414212288
            ],
            [
              116.34664560281135,
              39.97949697277525
            ],
            [
              116.3466808040305,
              39.97952729507281
            ],
            [
              116.34671969913293,
              39.97955481699178
            ],
            [
              116.34676191353691,
              39.97957927347754
            ],
            [
              116.3468070406922,
              39.9796004289974
            ],
            [
              116.3468546459955,
              39.97961807980901
            ],
            [
              116.34690427097607,
              39.97963205592261
            ],
            [
              116.34695543771127,
              39.9796422227383
            ],
            [
              116.34700765342947,
              39.9796484823423
            ],
            [
              116.34706041525608,
              39.9796507744501
            ],
            [
              116.34711321505671,
              39.97964907698698
            ],
            [
              116.3471655443313,
              39.97964340630064
            ],
            [
              116.34721689911149,
              39.97963381700379
            ],
            [
              116.34726678481441,
              39.979620401448145
            ],
            [
              116.34731472100628,
              39.97960328883494
            ],
            [
              116.34736024602935,
              39.9795826439706
            ],
            [
              116.34740292144824,
              39.97955866567953
            ],
            [
              116.34744233627244,
              39.979531584889
            ],
            [
              116.34747811091454,
              39.97950166240535
            ],
            [
              116.34750990084582,
              39.979469186401914
            ],
            [
              116.34753739991434,
              39.97943446964372
            ],
            [
              116.34756034329313,
              39.979397846475294
            ],
            [
              116.3475785100306,
              39.979359669600534
            ],
            [
              116.34759172517802,
              39.97932030668589
            ],
            [
              116.34759986147434,
              39.97928013681955
            ],
            [
              116.34760284057127,
              39.97923954686038
            ],
            [
              116.34760063378756,
              39.97919892771235
            ]
          ]
        ]
      }
    },
    {
      "type": "Feature",
      "id": "WINDOW-07",
      "properties": {
        "id": "WINDOW-07",
        "layer": "PUBLIC_SPACE",
        "source_type": "agent_generated_design",
        "confidence": "medium",
        "geometry_role": "design_proposal",
        "name_zh": "栈窗07：治理文化",
        "name_en": "Stack Window 07: Governance and culture",
        "stack_layer": 7,
        "area_sqm_declared": 21090.152
      },
      "geometry": {
        "type": "Polygon",
        "coordinates": [
          [
            [
              116.34796562778608,
              39.98626242572829
            ],
            [
              116.34795248583009,
              39.98619066309233
            ],
            [
              116.34793026303325,
              39.98612023688325
            ],
            [
              116.34789917343929,
              39.98605182533908
            ],
            [
              116.34785951648107,
              39.98598608729367
            ],
            [
              116.34781167409578,
              39.98592365583198
            ],
            [
              116.3477561070462,
              39.98586513219356
            ],
            [
              116.34769335048252,
              39.985811079982525
            ],
            [
              116.34762400878836,
              39.98576201974024
            ],
            [
              116.34754874976004,
              39.985718423932575
            ],
            [
              116.3474682981753,
              39.98568071240026
            ],
            [
              116.34738342881383,
              39.985649248316
            ],
            [
              116.34729495899605,
              39.98562433468733
            ],
            [
              116.3472037407125,
              39.98560621143875
            ],
            [
              116.34711065241981,
              39.98559505310147
            ],
            [
              116.34701659058142,
              39.985590967132815
            ],
            [
              116.34692246103525,
              39.98559399288137
            ],
            [
              116.34682917027122,
              39.98560410120825
            ],
            [
              116.34673761670224,
              39.98562119476755
            ],
            [
              116.34664868201313,
              39.98564510894386
            ],
            [
              116.3465632226706,
              39.985675613437294
            ],
            [
              116.34648206167573,
              39.98571241448121
            ],
            [
              116.34640598063888,
              39.98575515767105
            ],
            [
              116.34633571225284,
              39.98580343137701
            ],
            [
              116.346271933237,
              39.98585677070791
            ],
            [
              116.3462152578203,
              39.98591466198793
            ],
            [
              116.34616623182572,
              39.985976547703075
            ],
            [
              116.34612532741349,
              39.98604183187006
            ],
            [
              116.34609293853343,
              39.98610988577552
            ],
            [
              116.34606937713022,
              39.98618005403045
            ],
            [
              116.34605487013845,
              39.986251660881784
            ],
            [
              116.34604955729607,
              39.98632401671999
            ],
            [
              116.34605348979764,
              39.98639642472028
            ],
            [
              116.3460666298001,
              39.98646818755337
            ],
            [
              116.3460888507862,
              39.98653861410106
            ],
            [
              116.34611993878174,
              39.986607026112345
            ],
            [
              116.34615959441538,
              39.98667276473544
            ],
            [
              116.34620743580075,
              39.98673519686312
            ],
            [
              116.34626300221353,
              39.98679372123033
            ],
            [
              116.34632575852801,
              39.98684777420487
            ],
            [
              116.34639510037015,
              39.98689683521608
            ],
            [
              116.34647035993792,
              39.98694043176852
            ],
            [
              116.34655081243285,
              39.98697814399286
            ],
            [
              116.34663568304029,
              39.98700960868975
            ],
            [
              116.34672415439195,
              39.98703452282818
            ],
            [
              116.34681537443826,
              39.987052646464015
            ],
            [
              116.34690846465497,
              39.987063805051186
            ],
            [
              116.34700252850465,
              39.98706789112275
            ],
            [
              116.34709666007204,
              39.98706486532617
            ],
            [
              116.34718995278962,
              39.987054756802166
            ],
            [
              116.34728150816936,
              39.98703766290424
            ],
            [
              116.34737044445687,
              39.98701374826082
            ],
            [
              116.34745590512401,
              39.98698324318973
            ],
            [
              116.34753706711878,
              39.98694644147978
            ],
            [
              116.34761314879242,
              39.98690369756119
            ],
            [
              116.34768341742766,
              39.986855423091704
            ],
            [
              116.34774719629553,
              39.98680208299188
            ],
            [
              116.34780387117279,
              39.986744190967094
            ],
            [
              116.34785289625718,
              39.98668230455994
            ],
            [
              116.34789379942342,
              39.986617019780276
            ],
            [
              116.34792618676963,
              39.98654896536508
            ],
            [
              116.34794974641002,
              39.986478796722906
            ],
            [
              116.34796425147779,
              39.98640718962168
            ],
            [
              116.34796956230892,
              39.986334833680566
            ],
            [
              116.34796562778608,
              39.98626242572829
            ]
          ]
        ]
      }
    },
    {
      "type": "Feature",
      "id": "WINDOW-08",
      "properties": {
        "id": "WINDOW-08",
        "layer": "PUBLIC_SPACE",
        "source_type": "agent_generated_design",
        "confidence": "medium",
        "geometry_role": "design_proposal",
        "name_zh": "栈窗08：能源环境",
        "name_en": "Stack Window 08: Energy and environment",
        "stack_layer": 1,
        "area_sqm_declared": 6636.937
      },
      "geometry": {
        "type": "Polygon",
        "coordinates": [
          [
            [
              116.34772417647203,
              39.99338618000656
            ],
            [
              116.34771680358479,
              39.9933459229473
            ],
            [
              116.34770433602344,
              39.993306415576214
            ],
            [
              116.34768689386566,
              39.99326803836932
            ],
            [
              116.3476646450962,
              39.99323116091803
            ],
            [
              116.34763780398886,
              39.9931961383697
            ],
            [
              116.34760662904274,
              39.99316330800762
            ],
            [
              116.34757142049249,
              39.9931329860028
            ],
            [
              116.34753251741681,
              39.993105464369286
            ],
            [
              116.34749029447292,
              39.993081008151975
            ],
            [
              116.34744515828841,
              39.99305985287419
            ],
            [
              116.34739754354527,
              39.99304220226971
            ],
            [
              116.34734790879389,
              39.99302822632073
            ],
            [
              116.34729673203707,
              39.99301805962097
            ],
            [
              116.347244506127,
              39.99301180007955
            ],
            [
              116.34719173401896,
              39.99300950797813
            ],
            [
              116.34713892392818,
              39.99301120539045
            ],
            [
              116.34708658443544,
              39.99301687596972
            ],
            [
              116.34703521958987,
              39.99302646510604
            ],
            [
              116.34698532405481,
              39.99303988045232
            ],
            [
              116.34693737834425,
              39.993056992813585
            ],
            [
              116.34689184419561,
              39.99307763739104
            ],
            [
              116.34684916012311,
              39.99310161536912
            ],
            [
              116.3468097371948,
              39.993128695830116
            ],
            [
              116.34677395507393,
              39.993158617977855
            ],
            [
              116.34674215836252,
              39.99319109364915
            ],
            [
              116.34671465328272,
              39.99322581008894
            ],
            [
              116.34669170472765,
              39.99326243296204
            ],
            [
              116.34667353371006,
              39.99330060957298
            ],
            [
              116.34666031523375,
              39.99333997226239
            ],
            [
              116.34665217660786,
              39.993380141947824
            ],
            [
              116.34664919622053,
              39.99342073177441
            ],
            [
              116.34665140278362,
              39.99346135084037
            ],
            [
              116.34665877505589,
              39.99350160796166
            ],
            [
              116.3466712420472,
              39.993541115439356
            ],
            [
              116.3466886837018,
              39.99357949279328
            ],
            [
              116.34671093205428,
              39.99361637042641
            ],
            [
              116.34673777284684,
              39.993651393184386
            ],
            [
              116.34676894759248,
              39.99368422377586
            ],
            [
              116.34680415606432,
              39.99371454602101
            ],
            [
              116.34684305918658,
              39.99374206789656
            ],
            [
              116.34688528230029,
              39.993766524348324
            ],
            [
              116.34693041877136,
              39.993787679843926
            ],
            [
              116.34697803390672,
              39.99380533064125
            ],
            [
              116.34702766914099,
              39.993819306750666
            ],
            [
              116.34707884645273,
              39.993829473572326
            ],
            [
              116.34713107296851,
              39.99383573319241
            ],
            [
              116.34718384570967,
              39.99383802532621
            ],
            [
              116.34723665643676,
              39.99383632789876
            ],
            [
              116.34728899654448,
              39.99383065725746
            ],
            [
              116.34734036196008,
              39.99382106801455
            ],
            [
              116.34739025799833,
              39.99380765252122
            ],
            [
              116.34743820412588,
              39.99379053997812
            ],
            [
              116.34748373858929,
              39.99376989519103
            ],
            [
              116.34752642286226,
              39.99374591698355
            ],
            [
              116.347565845869,
              39.99371883628221
            ],
            [
              116.34760162794329,
              39.99368891389243
            ],
            [
              116.34763342448488,
              39.99365643798671
            ],
            [
              116.34766092927813,
              39.99362172132909
            ],
            [
              116.34768387744096,
              39.99358509826315
            ],
            [
              116.34770204797567,
              39.99354692149177
            ],
            [
              116.34771526589704,
              39.993507558680456
            ],
            [
              116.34772340391726,
              39.99346738891636
            ],
            [
              116.34772638367144,
              39.993426799057396
            ],
            [
              116.34772417647203,
              39.99338618000656
            ]
          ]
        ]
      }
    },
    {
      "type": "Feature",
      "id": "WINDOW-09",
      "properties": {
        "id": "WINDOW-09",
        "layer": "PUBLIC_SPACE",
        "source_type": "agent_generated_design",
        "confidence": "medium",
        "geometry_role": "design_proposal",
        "name_zh": "栈窗09：算力网络",
        "name_en": "Stack Window 09: Compute and network",
        "stack_layer": 2,
        "area_sqm_declared": 6636.937
      },
      "geometry": {
        "type": "Polygon",
        "coordinates": [
          [
            [
              116.34814750556453,
              40.00048177646231
            ],
            [
              116.34814013172166,
              40.00044151947098
            ],
            [
              116.34812766268072,
              40.00040201218132
            ],
            [
              116.34811021853356,
              40.00036363506858
            ],
            [
              116.34808796728412,
              40.00032675772325
            ],
            [
              116.34806112323011,
              40.000291735291675
            ],
            [
              116.34802994489898,
              40.000258905056015
            ],
            [
              116.34799473255796,
              40.00022858318605
            ],
            [
              116.3479558253223,
              40.00020106169453
            ],
            [
              116.3479135978893,
              40.00017660562499
            ],
            [
              116.34786845692972,
              40.00015545049934
            ],
            [
              116.34782083717158,
              40.000137800049885
            ],
            [
              116.34777119721353,
              40.000123824257315
            ],
            [
              116.34772001510856,
              40.00011365771385
            ],
            [
              116.34766778376027,
              40.0001073983271
            ],
            [
              116.34761500617645,
              40.00010510637726
            ],
            [
              116.34756219062494,
              40.00010680393659
            ],
            [
              116.34750984573917,
              40.00011247465685
            ],
            [
              116.34745847562019,
              40.00012206392687
            ],
            [
              116.34740857498207,
              40.000135479398196
            ],
            [
              116.34736062438803,
              40.00015259187466
            ],
            [
              116.34731508562247,
              40.000173236556385
            ],
            [
              116.3472723972441,
              40.000197214626795
            ],
            [
              116.34723297036241,
              40.0002242951673
            ],
            [
              116.3471971846787,
              40.000254217380935
            ],
            [
              116.34716538482935,
              40.000286693103895
            ],
            [
              116.34713787706674,
              40.00032140958062
            ],
            [
              116.34711492630979,
              40.00035803247558
            ],
            [
              116.3470967535925,
              40.00039620909307
            ],
            [
              116.34708353393496,
              40.0004355717737
            ],
            [
              116.34707539465775,
              40.00047574143507
            ],
            [
              116.34707241415528,
              40.00051633122254
            ],
            [
              116.34707462114055,
              40.00055695023474
            ],
            [
              116.34708199436821,
              40.00059720728814
            ],
            [
              116.34709446283892,
              40.00063671468442
            ],
            [
              116.34711190648272,
              40.00067509194423
            ],
            [
              116.34713415731505,
              40.00071196947146
            ],
            [
              116.34716100105418,
              40.00074699211274
            ],
            [
              116.3471921791848,
              40.00077982257786
            ],
            [
              116.34722739144735,
              40.00081014468821
            ],
            [
              116.3472662987296,
              40.00083766642183
            ],
            [
              116.34730852633253,
              40.00086212272586
            ],
            [
              116.34735366757876,
              40.00088327806939
            ],
            [
              116.34740128772928,
              40.00090092871174
            ],
            [
              116.34745092817039,
              40.000914904664796
            ],
            [
              116.3475021108305,
              40.00092507133018
            ],
            [
              116.34755434278468,
              40.00093133079558
            ],
            [
              116.34760712100189,
              40.00093362277782
            ],
            [
              116.34765993718995,
              40.00093192520335
            ],
            [
              116.3477122826909,
              40.00092625442101
            ],
            [
              116.34776365338013,
              40.0009166650444
            ],
            [
              116.34781355452158,
              40.000903249425974
            ],
            [
              116.34786150553273,
              40.00088613676762
            ],
            [
              116.34790704461317,
              40.0008654918762
            ],
            [
              116.34794973319207,
              40.000841513576326
            ],
            [
              116.34798916015222,
              40.00081443279543
            ],
            [
              116.34802494578932,
              40.00078451033969
            ],
            [
              116.34805674546875,
              40.00075203438225
            ],
            [
              116.34808425294473,
              40.000717317687645
            ],
            [
              116.34810720330928,
              40.00068069459979
            ],
            [
              116.34812537554355,
              40.00064251782181
            ],
            [
              116.34813859464592,
              40.00060315501927
            ],
            [
              116.34814673331722,
              40.000562985279224
            ],
            [
              116.3481497131863,
              40.00052239545936
            ],
            [
              116.34814750556453,
              40.00048177646231
            ]
          ]
        ]
      }
    },
    {
      "type": "Feature",
      "id": "WINDOW-10",
      "properties": {
        "id": "WINDOW-10",
        "layer": "PUBLIC_SPACE",
        "source_type": "agent_generated_design",
        "confidence": "medium",
        "geometry_role": "design_proposal",
        "name_zh": "栈窗10：数据权利",
        "name_en": "Stack Window 10: Data and rights",
        "stack_layer": 3,
        "area_sqm_declared": 6636.937
      },
      "geometry": {
        "type": "Polygon",
        "coordinates": [
          [
            [
              116.34855844959971,
              40.007577307046624
            ],
            [
              116.34855107480816,
              40.00753705012251
            ],
            [
              116.34853860429418,
              40.00749754291302
            ],
            [
              116.34852115816386,
              40.00745916589267
            ],
            [
              116.34849890444026,
              40.00742228865099
            ],
            [
              116.34847205744487,
              40.00738726633339
            ],
            [
              116.34844087573347,
              40.00735443622088
            ],
            [
              116.34840565960592,
              40.0073241144821
            ],
            [
              116.34836674821385,
              40.00729659312852
            ],
            [
              116.34832451629458,
              40.00727213720232
            ],
            [
              116.34827937056215,
              40.00725098222407
            ],
            [
              116.3482317457905,
              40.007233331924624
            ],
            [
              116.34818210062657,
              40.007219356283244
            ],
            [
              116.34813091317345,
              40.00720918989068
            ],
            [
              116.34807867638635,
              40.0072029306531
            ],
            [
              116.34802589332531,
              40.00720063884924
            ],
            [
              116.34797307231095,
              40.00720233654999
            ],
            [
              116.34792072202933,
              40.007208007405744
            ],
            [
              116.34786934663343,
              40.007217596803976
            ],
            [
              116.3478194408882,
              40.00723101239506
            ],
            [
              116.34777148540599,
              40.00724812498164
            ],
            [
              116.34772594201829,
              40.007268769762796
            ],
            [
              116.3476832493283,
              40.007292747920985
            ],
            [
              116.34764381848706,
              40.007319828536765
            ],
            [
              116.34760802923398,
              40.00734975081247
            ],
            [
              116.34757622623985,
              40.0073822265837
            ],
            [
              116.34754871578728,
              40.0074169430944
            ],
            [
              116.34752576282115,
              40.007453566008735
            ],
            [
              116.3475075883967,
              40.0074917426308
            ],
            [
              116.34749436755052,
              40.00753110530116
            ],
            [
              116.34748622761458,
              40.00757127493755
            ],
            [
              116.34748324698967,
              40.00761186468555
            ],
            [
              116.34748545438994,
              40.00765248364414
            ],
            [
              116.34749282856609,
              40.00769274063035
            ],
            [
              116.34750529850963,
              40.007732247946485
            ],
            [
              116.34752274413643,
              40.00777062511397
            ],
            [
              116.34754499744275,
              40.00780750253758
            ],
            [
              116.34757184412315,
              40.00784252506496
            ],
            [
              116.34760302563397,
              40.00787535540698
            ],
            [
              116.34763824168309,
              40.00790567738622
            ],
            [
              116.3476771531218,
              40.00793319898195
            ],
            [
              116.34771938521102,
              40.0079576551427
            ],
            [
              116.34776453123021,
              40.007978810338884
            ],
            [
              116.3478121563944,
              40.00799646083126
            ],
            [
              116.34786180204155,
              40.008010436633164
            ],
            [
              116.34791299005,
              40.00802060314767
            ],
            [
              116.34796522744325,
              40.00802686246392
            ],
            [
              116.34801801113791,
              40.00802915430016
            ],
            [
              116.34807083278902,
              40.00802745658428
            ],
            [
              116.34812318368604,
              40.00802178566643
            ],
            [
              116.34817455965235,
              40.00801219616155
            ],
            [
              116.34822446590113,
              40.007998780423335
            ],
            [
              116.34827242180062,
              40.00798166765481
            ],
            [
              116.34831796550327,
              40.007961022663906
            ],
            [
              116.34836065839384,
              40.00793704427619
            ],
            [
              116.34840008931359,
              40.00790996341996
            ],
            [
              116.34843587852,
              40.0078800409021
            ],
            [
              116.34846768134419,
              40.00784756489633
            ],
            [
              116.34849519150997,
              40.007812848167696
            ],
            [
              116.34851814408356,
              40.00777622506043
            ],
            [
              116.34853631802478,
              40.00773804827785
            ],
            [
              116.34854953831562,
              40.00769868548553
            ],
            [
              116.34855767764543,
              40.00765851577046
            ],
            [
              116.34856065763672,
              40.007617925990075
            ],
            [
              116.34855844959971,
              40.007577307046624
            ]
          ]
        ]
      }
    },
    {
      "type": "Feature",
      "id": "WINDOW-11",
      "properties": {
        "id": "WINDOW-11",
        "layer": "PUBLIC_SPACE",
        "source_type": "agent_generated_design",
        "confidence": "medium",
        "geometry_role": "design_proposal",
        "name_zh": "栈窗11：模型评估",
        "name_en": "Stack Window 11: Model evaluation",
        "stack_layer": 4,
        "area_sqm_declared": 6636.937
      },
      "geometry": {
        "type": "Polygon",
        "coordinates": [
          [
            [
              116.34892594360973,
              40.01467257001701
            ],
            [
              116.34891856789467,
              40.01463231315757
            ],
            [
              116.34890609593226,
              40.0145928060238
            ],
            [
              116.34888864784254,
              40.014554429089486
            ],
            [
              116.34886639166743,
              40.01451755194334
            ],
            [
              116.34883954175203,
              40.01448252972984
            ],
            [
              116.34880835668024,
              40.01444969972901
            ],
            [
              116.34877313678426,
              40.014419378108414
            ],
            [
              116.34873422125207,
              40.01439185687836
            ],
            [
              116.34869198486082,
              40.01436740107985
            ],
            [
              116.34864683436764,
              40.01434624623222
            ],
            [
              116.3485992045923,
              40.01432859606507
            ],
            [
              116.34854955422995,
              40.014314620556405
            ],
            [
              116.34849836143371,
              40.01430445429565
            ],
            [
              116.34844611921022,
              40.01429819518775
            ],
            [
              116.34839333067194,
              40.01429590351018
            ],
            [
              116.34834050419218,
              40.01429760133257
            ],
            [
              116.34828814850971,
              40.014303272304204
            ],
            [
              116.34823676782942,
              40.014312861811405
            ],
            [
              116.34818685696722,
              40.014326277503514
            ],
            [
              116.34813889658469,
              40.01434339018221
            ],
            [
              116.34809334856052,
              40.01436403504564
            ],
            [
              116.3480506515426,
              40.014388013275536
            ],
            [
              116.34801121672362,
              40.01441509395172
            ],
            [
              116.3479754238813,
              40.014445016275964
            ],
            [
              116.34794361772097,
              40.01447749208338
            ],
            [
              116.3479161045558,
              40.01451220861758
            ],
            [
              116.34789314935674,
              40.014548831542534
            ],
            [
              116.34787497320053,
              40.01458700816218
            ],
            [
              116.34786175114046,
              40.01462637081716
            ],
            [
              116.34785361052025,
              40.0146665404253
            ],
            [
              116.34785062974717,
              40.0147071301325
            ],
            [
              116.34785283753686,
              40.01474774903811
            ],
            [
              116.34786021263629,
              40.01478800595968
            ],
            [
              116.34787268402808,
              40.014827513200125
            ],
            [
              116.3478901316141,
              40.01486589028162
            ],
            [
              116.34791238737182,
              40.01490276760975
            ],
            [
              116.34793923697214,
              40.014937790033066
            ],
            [
              116.34797042184329,
              40.01497062026346
            ],
            [
              116.34800564166076,
              40.01500094212458
            ],
            [
              116.3480445572396,
              40.01502846359686
            ],
            [
              116.34808679380089,
              40.01505291962997
            ],
            [
              116.34813194458096,
              40.015074074695576
            ],
            [
              116.34817957474897,
              40.01509172505571
            ],
            [
              116.34822922559474,
              40.015105700724945
            ],
            [
              116.34828041894654,
              40.01511586710765
            ],
            [
              116.34833266177634,
              40.01512212629426
            ],
            [
              116.34838545094847,
              40.01512441800423
            ],
            [
              116.3484382780652,
              40.01512272016668
            ],
            [
              116.3484906343633,
              40.01511704913293
            ],
            [
              116.34854201561421,
              40.01510745951904
            ],
            [
              116.3485919269801,
              40.01509404367975
            ],
            [
              116.34863988778007,
              40.01507693081908
            ],
            [
              116.3486854361193,
              40.015056285745814
            ],
            [
              116.34872813333786,
              40.01503230728636
            ],
            [
              116.34876756823536,
              40.015005226369645
            ],
            [
              116.34880336103099,
              40.014975303803205
            ],
            [
              116.34883516702126,
              40.014942827761175
            ],
            [
              116.34886267989958,
              40.014908111008985
            ],
            [
              116.34888563470595,
              40.014871487891064
            ],
            [
              116.34890381037877,
              40.01483331111084
            ],
            [
              116.34891703188326,
              40.0147939483339
            ],
            [
              116.34892517189716,
              40.01475377864707
            ],
            [
              116.3489281520364,
              40.014713188907486
            ],
            [
              116.34892594360973,
              40.01467257001701
            ]
          ]
        ]
      }
    },
    {
      "type": "Feature",
      "id": "WINDOW-12",
      "properties": {
        "id": "WINDOW-12",
        "layer": "PUBLIC_SPACE",
        "source_type": "agent_generated_design",
        "confidence": "medium",
        "geometry_role": "design_proposal",
        "name_zh": "栈窗12：应用服务",
        "name_en": "Stack Window 12: Applications and services",
        "stack_layer": 5,
        "area_sqm_declared": 21090.152
      },
      "geometry": {
        "type": "Polygon",
        "coordinates": [
          [
            [
              116.3497134576784,
              40.02173840223549
            ],
            [
              116.34970030758811,
              40.02166664016643
            ],
            [
              116.34967807197826,
              40.02159621461572
            ],
            [
              116.34964696501613,
              40.021527803815
            ],
            [
              116.34960728630179,
              40.021462066590985
            ],
            [
              116.34955941798204,
              40.021399636020696
            ],
            [
              116.3495038210694,
              40.02134111333512
            ],
            [
              116.34944103100175,
              40.02128706212914
            ],
            [
              116.34937165248529,
              40.02123800293443
            ],
            [
              116.349296353671,
              40.021194408206796
            ],
            [
              116.34921585971975,
              40.02115669777651
            ],
            [
              116.34913094581924,
              40.021125234805695
            ],
            [
              116.34904242971874,
              40.02110032229109
            ],
            [
              116.34895116385454,
              40.02108220014652
            ],
            [
              116.3488580271414,
              40.021071042892544
            ],
            [
              116.34876391650906,
              40.02106695797602
            ],
            [
              116.34866973826529,
              40.02106998473545
            ],
            [
              116.3485763993689,
              40.021080094022146
            ],
            [
              116.34848479869636,
              40.02109718848103
            ],
            [
              116.34839581838608,
              40.021121103488
            ],
            [
              116.34831031534404,
              40.02115160873519
            ],
            [
              116.34822911299214,
              40.021188410448715
            ],
            [
              116.34815299333904,
              40.02123115421757
            ],
            [
              116.34808268944938,
              40.0212794284064
            ],
            [
              116.34801887838451,
              40.021332768119386
            ],
            [
              116.34796217468197,
              40.021390659677
            ],
            [
              116.34791312443717,
              40.021452545562674
            ],
            [
              116.34787220004397,
              40.021517829791456
            ],
            [
              116.34783979564457,
              40.021585883649344
            ],
            [
              116.34781622333321,
              40.02165605174786
            ],
            [
              116.34780171014957,
              40.02172765833543
            ],
            [
              116.34779639589125,
              40.02180001380506
            ],
            [
              116.3478003317665,
              40.02187242133555
            ],
            [
              116.34781347989987,
              40.02194418360206
            ],
            [
              116.34783571369579,
              40.022014609491904
            ],
            [
              116.34786681905679,
              40.022083020760405
            ],
            [
              116.34790649644431,
              40.02214875856288
            ],
            [
              116.3479543637625,
              40.02221118980006
            ],
            [
              116.34800996003733,
              40.02226971321536
            ],
            [
              116.3480727498555,
              40.02232376518584
            ],
            [
              116.34814212852034,
              40.02237282515043
            ],
            [
              116.3482174278752,
              40.02241642062376
            ],
            [
              116.3482979227384,
              40.02245413174686
            ],
            [
              116.34838283788721,
              40.022485595331055
            ],
            [
              116.34847135552441,
              40.02251050835598
            ],
            [
              116.3485626231546,
              40.0225286308882
            ],
            [
              116.3486557617952,
              40.022539788392294
            ],
            [
              116.34874987444242,
              40.02254387341177
            ],
            [
              116.34884405471098,
              40.022540846604166
            ],
            [
              116.34893739556432,
              40.02253073712001
            ],
            [
              116.34902899805077,
              40.022513642322
            ],
            [
              116.34911797996219,
              40.02248972684723
            ],
            [
              116.34920348433107,
              40.0224592210216
            ],
            [
              116.34928468768453,
              40.02242241864116
            ],
            [
              116.34936080797542,
              40.0223796741426
            ],
            [
              116.34943111211456,
              40.022331399189284
            ],
            [
              116.34949492303103,
              40.02227805870641
            ],
            [
              116.34955162619305,
              40.022220166403095
            ],
            [
              116.34960067552588,
              40.02215827982459
            ],
            [
              116.34964159867079,
              40.022092994982444
            ],
            [
              116.34967400153351,
              40.02202494061422
            ],
            [
              116.34969757207885,
              40.02195477212805
            ],
            [
              116.34971208333504,
              40.021883165290376
            ],
            [
              116.3497173955785,
              40.021810809717785
            ],
            [
              116.3497134576784,
              40.02173840223549
            ]
          ]
        ]
      }
    }
  ]
}
