{
  "type": "FeatureCollection",
  "name": "civic_ai_public_space",
  "features": [
    {
      "type": "Feature",
      "id": "PUBLIC-001",
      "properties": {
        "id": "PUBLIC-001",
        "layer": "PUBLIC_SPACE",
        "source_type": "agent_generated_design",
        "confidence": "medium",
        "geometry_role": "design_proposal",
        "name_zh": "可问可试公共站厅组团",
        "name_en": "Ask-test public hall cluster",
        "governance_rule": "visible purpose, human fallback, scheduled review",
        "area_sqm_declared": 1305067.812
      },
      "geometry": {
        "type": "MultiPolygon",
        "coordinates": [
          [
            [
              [
                116.350308,
                39.9534375
              ],
              [
                116.350308,
                39.9473125
              ],
              [
                116.344692,
                39.9473125
              ],
              [
                116.344692,
                39.9534375
              ],
              [
                116.350308,
                39.9534375
              ]
            ]
          ],
          [
            [
              [
                116.350308,
                39.9744375
              ],
              [
                116.350308,
                39.9683125
              ],
              [
                116.344692,
                39.9683125
              ],
              [
                116.344692,
                39.9744375
              ],
              [
                116.350308,
                39.9744375
              ]
            ]
          ],
          [
            [
              [
                116.350308,
                39.9928125
              ],
              [
                116.350308,
                39.9866875
              ],
              [
                116.344692,
                39.9866875
              ],
              [
                116.344692,
                39.9928125
              ],
              [
                116.350308,
                39.9928125
              ]
            ]
          ],
          [
            [
              [
                116.350308,
                40.0138125
              ],
              [
                116.350308,
                40.0076875
              ],
              [
                116.344692,
                40.0076875
              ],
              [
                116.344692,
                40.0138125
              ],
              [
                116.350308,
                40.0138125
              ]
            ]
          ]
        ]
      }
    }
  ]
}
