{
 "type": "FeatureCollection",
 "features": [
  {
   "type": "Feature",
   "id": "EX-WATER-QINGHE",
   "properties": {
    "id": "EX-WATER-QINGHE",
    "layer": "EXISTING_WATER",
    "name_zh": "清河",
    "source_type": "osm",
    "confidence": "medium",
    "geometry_role": "existing_condition",
    "attribution": "© OpenStreetMap contributors, ODbL 1.0"
   },
   "geometry": {
    "type": "MultiLineString",
    "coordinates": [
     [
      [
       116.2647832,
       40.0038237
      ],
      [
       116.26542,
       40.0037841
      ]
     ],
     [
      [
       116.26542,
       40.0037841
      ],
      [
       116.2655696,
       40.0038069
      ]
     ],
     [
      [
       116.2655696,
       40.0038069
      ],
      [
       116.2657044,
       40.0038445
      ]
     ],
     [
      [
       116.2657044,
       40.0038445
      ],
      [
       116.2657943,
       40.0039162
      ]
     ],
     [
      [
       116.2657943,
       40.0039162
      ],
      [
       116.2658236,
       40.0039752
      ]
     ],
     [
      [
       116.2658236,
       40.0039752
      ],
      [
       116.2658302,
       40.0040818
      ]
     ],
     [
      [
       116.2658302,
       40.0040818
      ],
      [
       116.2658252,
       40.004826
      ]
     ],
     [
      [
       116.2658252,
       40.004826
      ],
      [
       116.2660828,
       40.005179
      ]
     ],
     [
      [
       116.2660828,
       40.005179
      ],
      [
       116.2665809,
       40.0053707
      ]
     ],
     [
      [
       116.2665809,
       40.0053707
      ],
      [
       116.2669264,
       40.0057056
      ]
     ],
     [
      [
       116.2669264,
       40.0057056
      ],
      [
       116.2669716,
       40.0061663
      ]
     ],
     [
      [
       116.2669716,
       40.0061663
      ],
      [
       116.2666962,
       40.0073369
      ]
     ],
     [
      [
       116.2666962,
       40.0073369
      ],
      [
       116.2668984,
       40.008625
      ]
     ],
     [
      [
       116.2668984,
       40.008625
      ],
      [
       116.2671817,
       40.0096111
      ]
     ],
     [
      [
       116.2671817,
       40.0096111
      ],
      [
       116.2673892,
       40.0101934
      ]
     ],
     [
      [
       116.2673892,
       40.0101934
      ],
      [
       116.2678082,
       40.0106433
      ]
     ],
     [
      [
       116.2678082,
       40.0106433
      ],
      [
       116.2681539,
       40.0109013
      ]
     ],
     [
      [
       116.2681539,
       40.0109013
      ],
      [
       116.2687867,
       40.0111495
      ]
     ],
     [
      [
       116.2687867,
       40.0111495
      ],
      [
       116.2704175,
       40.0114124
      ]
     ],
     [
      [
       116.2704175,
       40.0114124
      ],
      [
       116.2758522,
       40.0121973
      ]
     ],
     [
      [
       116.2758522,
       40.0121973
      ],
      [
       116.2782692,
       40.0125463
      ]
     ],
     [
      [
       116.2782692,
       40.0125463
      ],
      [
       116.2801575,
       40.012921
      ]
     ],
     [
      [
       116.2801575,
       40.012921
      ],
      [
       116.2815908,
       40.0130985
      ]
     ],
     [
      [
       116.2815908,
       40.0130985
      ],
      [
       116.2918752,
       40.0139959
      ]
     ],
     [
      [
       116.2918752,
       40.0139959
      ],
      [
       116.2932055,
       40.0143443
      ]
     ],
     [
      [
       116.2932055,
       40.0143443
      ],
      [
       116.2949651,
       40.0148965
      ]
     ],
     [
      [
       116.2949651,
       40.0148965
      ],
      [
       116.2964843,
       40.0153764
      ]
     ],
     [
      [
       116.2964843,
       40.0153764
      ],
      [
       116.2983382,
       40.0157445
      ]
     ],
     [
      [
       116.2983382,
       40.0157445
      ],
      [
       116.310544,
       40.0175291
      ]
     ],
     [
      [
       116.310544,
       40.0175291
      ],
      [
       116.3137382,
       40.0180397
      ]
     ],
     [
      [
       116.3137382,
       40.0180397
      ],
      [
       116.3155609,
       40.0184066
      ]
     ],
     [
      [
       116.3155609,
       40.0184066
      ],
      [
       116.3179076,
       40.0190159
      ]
     ],
     [
      [
       116.3179076,
       40.0190159
      ],
      [
       116.3212758,
       40.0201014
      ]
     ],
     [
      [
       116.3212758,
       40.0201014
      ],
      [
       116.3228126,
       40.0206691
      ]
     ],
     [
      [
       116.3228126,
       40.0206691
      ],
      [
       116.3308251,
       40.0229947
      ]
     ],
     [
      [
       116.3308251,
       40.0229947
      ],
      [
       116.3329709,
       40.0235205
      ]
     ],
     [
      [
       116.3329709,
       40.0235205
      ],
      [
       116.33546,
       40.0239937
      ]
     ],
     [
      [
       116.33546,
       40.0239937
      ],
      [
       116.3384383,
       40.0244538
      ]
     ],
     [
      [
       116.3384383,
       40.0244538
      ],
      [
       116.3394683,
       40.0245853
      ]
     ],
     [
      [
       116.3394683,
       40.0245853
      ],
      [
       116.3402145,
       40.0246674
      ]
     ],
     [
      [
       116.3402145,
       40.0246674
      ],
      [
       116.3440486,
       40.0252713
      ]
     ],
     [
      [
       116.3440486,
       40.0252713
      ],
      [
       116.3487615,
       40.0260039
      ]
     ],
     [
      [
       116.3487615,
       40.0260039
      ],
      [
       116.3528303,
       40.0265882
      ]
     ],
     [
      [
       116.3528303,
       40.0265882
      ],
      [
       116.3576922,
       40.0269419
      ]
     ],
     [
      [
       116.3576922,
       40.0269419
      ],
      [
       116.358367,
       40.0270192
      ]
     ],
     [
      [
       116.358367,
       40.0270192
      ],
      [
       116.3586925,
       40.0270614
      ]
     ],
     [
      [
       116.3586925,
       40.0270614
      ],
      [
       116.3700191,
       40.0293344
      ]
     ],
     [
      [
       116.3700191,
       40.0293344
      ],
      [
       116.3718847,
       40.0297035
      ]
     ],
     [
      [
       116.3718847,
       40.0297035
      ],
      [
       116.385918,
       40.0306367
      ]
     ],
     [
      [
       116.385918,
       40.0306367
      ],
      [
       116.3883899,
       40.0311822
      ]
     ],
     [
      [
       116.3883899,
       40.0311822
      ],
      [
       116.3905786,
       40.0322008
      ]
     ],
     [
      [
       116.3905786,
       40.0322008
      ],
      [
       116.3923621,
       40.033336
      ]
     ],
     [
      [
       116.3923621,
       40.033336
      ],
      [
       116.4002946,
       40.0383847
      ]
     ],
     [
      [
       116.4002946,
       40.0383847
      ],
      [
       116.4012645,
       40.0394821
      ]
     ],
     [
      [
       116.4012645,
       40.0394821
      ],
      [
       116.4038825,
       40.043693
      ]
     ],
     [
      [
       116.4038825,
       40.043693
      ],
      [
       116.4045842,
       40.0446242
      ]
     ],
     [
      [
       116.4045842,
       40.0446242
      ],
      [
       116.4053137,
       40.0451992
      ]
     ],
     [
      [
       116.4053137,
       40.0451992
      ],
      [
       116.4073653,
       40.0460308
      ]
     ],
     [
      [
       116.4073653,
       40.0460308
      ],
      [
       116.4080614,
       40.0463129
      ]
     ],
     [
      [
       116.4080614,
       40.0463129
      ],
      [
       116.4103969,
       40.0475642
      ]
     ],
     [
      [
       116.4103969,
       40.0475642
      ],
      [
       116.4110406,
       40.0482081
      ]
     ],
     [
      [
       116.4110406,
       40.0482081
      ],
      [
       116.4156154,
       40.0546599
      ]
     ],
     [
      [
       116.4156154,
       40.0546599
      ],
      [
       116.4171175,
       40.0563023
      ]
     ],
     [
      [
       116.4171175,
       40.0563023
      ],
      [
       116.419804,
       40.058063
      ]
     ],
     [
      [
       116.419804,
       40.058063
      ],
      [
       116.4229797,
       40.0592455
      ]
     ],
     [
      [
       116.4229797,
       40.0592455
      ],
      [
       116.4262413,
       40.0597382
      ]
     ],
     [
      [
       116.4262413,
       40.0597382
      ],
      [
       116.439296,
       40.0596307
      ]
     ],
     [
      [
       116.439296,
       40.0596307
      ],
      [
       116.44171,
       40.0596882
      ]
     ],
     [
      [
       116.44171,
       40.0596882
      ],
      [
       116.4435813,
       40.0597513
      ]
     ],
     [
      [
       116.4435813,
       40.0597513
      ],
      [
       116.4449158,
       40.0598506
      ]
     ],
     [
      [
       116.4449158,
       40.0598506
      ],
      [
       116.4461839,
       40.0600372
      ]
     ],
     [
      [
       116.4461839,
       40.0600372
      ],
      [
       116.4471281,
       40.0602548
      ]
     ],
     [
      [
       116.4471281,
       40.0602548
      ],
      [
       116.4479113,
       40.0605011
      ]
     ],
     [
      [
       116.4479113,
       40.0605011
      ],
      [
       116.4484564,
       40.0607728
      ]
     ],
     [
      [
       116.4484564,
       40.0607728
      ],
      [
       116.449247,
       40.0612566
      ]
     ],
     [
      [
       116.449247,
       40.0612566
      ],
      [
       116.4497298,
       40.0615933
      ]
     ],
     [
      [
       116.4497298,
       40.0615933
      ],
      [
       116.4503661,
       40.0621441
      ]
     ],
     [
      [
       116.4503661,
       40.0621441
      ],
      [
       116.4508241,
       40.0626566
      ]
     ],
     [
      [
       116.4508241,
       40.0626566
      ],
      [
       116.4511943,
       40.0631247
      ]
     ],
     [
      [
       116.4511943,
       40.0631247
      ],
      [
       116.4516482,
       40.0638685
      ]
     ],
     [
      [
       116.4516482,
       40.0638685
      ],
      [
       116.4518756,
       40.0643686
      ]
     ],
     [
      [
       116.4518756,
       40.0643686
      ],
      [
       116.4521223,
       40.065005
      ]
     ],
     [
      [
       116.4521223,
       40.065005
      ],
      [
       116.4522275,
       40.0657636
      ]
     ],
     [
      [
       116.4522275,
       40.0657636
      ],
      [
       116.4522511,
       40.0665404
      ]
     ],
     [
      [
       116.4522511,
       40.0665404
      ],
      [
       116.4522242,
       40.0679116
      ]
     ],
     [
      [
       116.4522242,
       40.0679116
      ],
      [
       116.4522263,
       40.0704208
      ]
     ],
     [
      [
       116.4522263,
       40.0704208
      ],
      [
       116.4522618,
       40.0722179
      ]
     ],
     [
      [
       116.4522618,
       40.0722179
      ],
      [
       116.4523476,
       40.0742745
      ]
     ],
     [
      [
       116.4523476,
       40.0742745
      ],
      [
       116.4523745,
       40.0747999
      ]
     ],
     [
      [
       116.4523745,
       40.0747999
      ],
      [
       116.4524632,
       40.0754006
      ]
     ],
     [
      [
       116.4524632,
       40.0754006
      ],
      [
       116.4525998,
       40.0759123
      ]
     ],
     [
      [
       116.4525998,
       40.0759123
      ],
      [
       116.4528302,
       40.0764975
      ]
     ],
     [
      [
       116.4528302,
       40.0764975
      ],
      [
       116.4530675,
       40.0770009
      ]
     ],
     [
      [
       116.4530675,
       40.0770009
      ],
      [
       116.4534098,
       40.0774927
      ]
     ],
     [
      [
       116.4534098,
       40.0774927
      ],
      [
       116.4539194,
       40.0780879
      ]
     ],
     [
      [
       116.4539194,
       40.0780879
      ],
      [
       116.4543769,
       40.078536
      ]
     ],
     [
      [
       116.4543769,
       40.078536
      ],
      [
       116.4549494,
       40.0789827
      ]
     ],
     [
      [
       116.4549494,
       40.0789827
      ],
      [
       116.4555234,
       40.0793562
      ]
     ],
     [
      [
       116.4555234,
       40.0793562
      ],
      [
       116.4561403,
       40.0796681
      ]
     ],
     [
      [
       116.4561403,
       40.0796681
      ],
      [
       116.4568022,
       40.0799694
      ]
     ],
     [
      [
       116.4568022,
       40.0799694
      ],
      [
       116.4574031,
       40.0801756
      ]
     ],
     [
      [
       116.4574031,
       40.0801756
      ],
      [
       116.4580715,
       40.0803823
      ]
     ],
     [
      [
       116.4580715,
       40.0803823
      ],
      [
       116.4587857,
       40.0805492
      ]
     ],
     [
      [
       116.4587857,
       40.0805492
      ],
      [
       116.4602782,
       40.0806993
      ]
     ],
     [
      [
       116.4602782,
       40.0806993
      ],
      [
       116.4635261,
       40.0810258
      ]
     ],
     [
      [
       116.4635261,
       40.0810258
      ],
      [
       116.4713882,
       40.0804741
      ]
     ],
     [
      [
       116.4713882,
       40.0804741
      ],
      [
       116.4936081,
       40.078798
      ]
     ]
    ]
   }
  },
  {
   "type": "Feature",
   "id": "EX-WATER-XIAOYUE",
   "properties": {
    "id": "EX-WATER-XIAOYUE",
    "layer": "EXISTING_WATER",
    "name_zh": "小月河",
    "source_type": "osm",
    "confidence": "medium",
    "geometry_role": "existing_condition",
    "attribution": "© OpenStreetMap contributors, ODbL 1.0"
   },
   "geometry": {
    "type": "MultiLineString",
    "coordinates": [
     [
      [
       116.3706557,
       39.9871346
      ],
      [
       116.3700504,
       39.9882289
      ]
     ],
     [
      [
       116.3700504,
       39.9882289
      ],
      [
       116.36888,
       39.9894502
      ]
     ],
     [
      [
       116.36888,
       39.9894502
      ],
      [
       116.365236,
       39.9936723
      ]
     ],
     [
      [
       116.365236,
       39.9936723
      ],
      [
       116.3631139,
       39.9959905
      ]
     ],
     [
      [
       116.3631139,
       39.9959905
      ],
      [
       116.3620732,
       39.9970426
      ]
     ],
     [
      [
       116.3620732,
       39.9970426
      ],
      [
       116.3594764,
       39.9999626
      ]
     ],
     [
      [
       116.3594764,
       39.9999626
      ],
      [
       116.3571198,
       40.0023247
      ]
     ],
     [
      [
       116.3571198,
       40.0023247
      ],
      [
       116.3554375,
       40.0036857
      ]
     ],
     [
      [
       116.3554375,
       40.0036857
      ],
      [
       116.3533862,
       40.0058027
      ]
     ],
     [
      [
       116.3533862,
       40.0058027
      ],
      [
       116.3530171,
       40.0063681
      ]
     ],
     [
      [
       116.3530171,
       40.0063681
      ],
      [
       116.3528898,
       40.0066377
      ]
     ],
     [
      [
       116.3528898,
       40.0066377
      ],
      [
       116.351558,
       40.009458
      ]
     ],
     [
      [
       116.351558,
       40.009458
      ],
      [
       116.3501844,
       40.0120927
      ]
     ],
     [
      [
       116.3501844,
       40.0120927
      ],
      [
       116.3495124,
       40.0130409
      ]
     ],
     [
      [
       116.3495124,
       40.0130409
      ],
      [
       116.348162,
       40.0153624
      ]
     ],
     [
      [
       116.348162,
       40.0153624
      ],
      [
       116.3467457,
       40.0172125
      ]
     ],
     [
      [
       116.3467457,
       40.0172125
      ],
      [
       116.3460247,
       40.0182327
      ]
     ],
     [
      [
       116.3718774,
       39.9847777
      ],
      [
       116.3706557,
       39.9871346
      ]
     ],
     [
      [
       116.3726954,
       39.9816095
      ],
      [
       116.3725895,
       39.9825231
      ]
     ],
     [
      [
       116.3725895,
       39.9825231
      ],
      [
       116.3723008,
       39.983883
      ]
     ],
     [
      [
       116.3723008,
       39.983883
      ],
      [
       116.372232,
       39.9840715
      ]
     ],
     [
      [
       116.372232,
       39.9840715
      ],
      [
       116.3718774,
       39.9847777
      ]
     ],
     [
      [
       116.3442624,
       40.0246227
      ],
      [
       116.3441434,
       40.0250604
      ]
     ],
     [
      [
       116.3451441,
       40.0196625
      ],
      [
       116.3445456,
       40.020679
      ]
     ],
     [
      [
       116.3445456,
       40.020679
      ],
      [
       116.3441426,
       40.0213074
      ]
     ],
     [
      [
       116.3441426,
       40.0213074
      ],
      [
       116.3440027,
       40.0214942
      ]
     ],
     [
      [
       116.3440027,
       40.0214942
      ],
      [
       116.3437921,
       40.021982
      ]
     ],
     [
      [
       116.3437921,
       40.021982
      ],
      [
       116.3437751,
       40.0220866
      ]
     ],
     [
      [
       116.3437751,
       40.0220866
      ],
      [
       116.3437743,
       40.0221981
      ]
     ],
     [
      [
       116.3437743,
       40.0221981
      ],
      [
       116.3438125,
       40.0223742
      ]
     ],
     [
      [
       116.3438125,
       40.0223742
      ],
      [
       116.3438663,
       40.0224782
      ]
     ],
     [
      [
       116.3438663,
       40.0224782
      ],
      [
       116.3439963,
       40.0226811
      ]
     ],
     [
      [
       116.3439963,
       40.0226811
      ],
      [
       116.3441323,
       40.0229169
      ]
     ],
     [
      [
       116.3441323,
       40.0229169
      ],
      [
       116.3441752,
       40.0230587
      ]
     ],
     [
      [
       116.3441752,
       40.0230587
      ],
      [
       116.3443047,
       40.0241931
      ]
     ],
     [
      [
       116.3443047,
       40.0241931
      ],
      [
       116.3442954,
       40.0243861
      ]
     ],
     [
      [
       116.3442954,
       40.0243861
      ],
      [
       116.3442624,
       40.0246227
      ]
     ],
     [
      [
       116.347854,
       39.9583343
      ],
      [
       116.3477341,
       39.9602436
      ]
     ],
     [
      [
       116.3477341,
       39.9602436
      ],
      [
       116.3477263,
       39.9611421
      ]
     ],
     [
      [
       116.3477263,
       39.9611421
      ],
      [
       116.3475778,
       39.9633806
      ]
     ],
     [
      [
       116.3475778,
       39.9633806
      ],
      [
       116.3475295,
       39.9642949
      ]
     ],
     [
      [
       116.3475295,
       39.9642949
      ],
      [
       116.3476394,
       39.9648229
      ]
     ],
     [
      [
       116.3476394,
       39.9648229
      ],
      [
       116.347603,
       39.9654461
      ]
     ],
     [
      [
       116.347603,
       39.9654461
      ],
      [
       116.34758,
       39.9655738
      ]
     ],
     [
      [
       116.34758,
       39.9655738
      ],
      [
       116.3475316,
       39.9659089
      ]
     ],
     [
      [
       116.3475316,
       39.9659089
      ],
      [
       116.3474972,
       39.9667416
      ]
     ],
     [
      [
       116.3474972,
       39.9667416
      ],
      [
       116.3475226,
       39.9670879
      ]
     ],
     [
      [
       116.3475226,
       39.9670879
      ],
      [
       116.3473028,
       39.9687018
      ]
     ],
     [
      [
       116.3473028,
       39.9687018
      ],
      [
       116.3472606,
       39.9699101
      ]
     ],
     [
      [
       116.3472606,
       39.9699101
      ],
      [
       116.3472162,
       39.9707404
      ]
     ],
     [
      [
       116.3472162,
       39.9707404
      ],
      [
       116.3471514,
       39.9720034
      ]
     ],
     [
      [
       116.3471514,
       39.9720034
      ],
      [
       116.3471296,
       39.9725983
      ]
     ],
     [
      [
       116.3471296,
       39.9725983
      ],
      [
       116.3471005,
       39.9732452
      ]
     ],
     [
      [
       116.3471005,
       39.9732452
      ],
      [
       116.3470568,
       39.9737137
      ]
     ],
     [
      [
       116.3470568,
       39.9737137
      ],
      [
       116.3470583,
       39.9738411
      ]
     ],
     [
      [
       116.3470583,
       39.9738411
      ],
      [
       116.3470755,
       39.9741174
      ]
     ],
     [
      [
       116.3470755,
       39.9741174
      ],
      [
       116.3471284,
       39.9742861
      ]
     ],
     [
      [
       116.3471284,
       39.9742861
      ],
      [
       116.3472068,
       39.9743609
      ]
     ],
     [
      [
       116.3472068,
       39.9743609
      ],
      [
       116.3472829,
       39.9744142
      ]
     ],
     [
      [
       116.3472829,
       39.9744142
      ],
      [
       116.3475232,
       39.9745173
      ]
     ],
     [
      [
       116.3475232,
       39.9745173
      ],
      [
       116.3479094,
       39.9745699
      ]
     ],
     [
      [
       116.3479094,
       39.9745699
      ],
      [
       116.3484677,
       39.9745552
      ]
     ],
     [
      [
       116.3484677,
       39.9745552
      ],
      [
       116.3491866,
       39.9745094
      ]
     ],
     [
      [
       116.3491866,
       39.9745094
      ],
      [
       116.3498867,
       39.9745152
      ]
     ],
     [
      [
       116.3498867,
       39.9745152
      ],
      [
       116.3512486,
       39.9745279
      ]
     ],
     [
      [
       116.3512486,
       39.9745279
      ],
      [
       116.357609,
       39.974606
      ]
     ],
     [
      [
       116.357609,
       39.974606
      ],
      [
       116.3606364,
       39.9746283
      ]
     ],
     [
      [
       116.3606364,
       39.9746283
      ],
      [
       116.3645371,
       39.9746729
      ]
     ],
     [
      [
       116.3645371,
       39.9746729
      ],
      [
       116.3674917,
       39.9746729
      ]
     ],
     [
      [
       116.3674917,
       39.9746729
      ],
      [
       116.3692529,
       39.9746952
      ]
     ],
     [
      [
       116.3692529,
       39.9746952
      ],
      [
       116.3714823,
       39.9747439
      ]
     ],
     [
      [
       116.3441434,
       40.0250604
      ],
      [
       116.3440486,
       40.0252713
      ]
     ],
     [
      [
       116.3723562,
       39.9747474
      ],
      [
       116.3728973,
       39.9749693
      ]
     ],
     [
      [
       116.3728973,
       39.9749693
      ],
      [
       116.3731316,
       39.9753745
      ]
     ],
     [
      [
       116.3731316,
       39.9753745
      ],
      [
       116.3732067,
       39.9756645
      ]
     ],
     [
      [
       116.3732067,
       39.9756645
      ],
      [
       116.373214,
       39.9770662
      ]
     ],
     [
      [
       116.373214,
       39.9770662
      ],
      [
       116.3737276,
       39.977939
      ]
     ],
     [
      [
       116.3737276,
       39.977939
      ],
      [
       116.373675,
       39.9783502
      ]
     ],
     [
      [
       116.373675,
       39.9783502
      ],
      [
       116.3733326,
       39.9796945
      ]
     ],
     [
      [
       116.3733326,
       39.9796945
      ],
      [
       116.3731613,
       39.9806567
      ]
     ],
     [
      [
       116.3731613,
       39.9806567
      ],
      [
       116.3727288,
       39.9815198
      ]
     ],
     [
      [
       116.3727288,
       39.9815198
      ],
      [
       116.3726954,
       39.9816095
      ]
     ]
    ]
   }
  },
  {
   "type": "Feature",
   "id": "EX-RAIL-HSR-TUNNEL",
   "properties": {
    "id": "EX-RAIL-HSR-TUNNEL",
    "layer": "EXISTING_RAIL",
    "name_zh": "京张高铁清华园隧道段(暗线, 京包客专线)",
    "note_zh": "公开资料示意径线, 非工程线位",
    "source_type": "osm",
    "confidence": "medium",
    "geometry_role": "existing_condition",
    "attribution": "© OpenStreetMap contributors, ODbL 1.0"
   },
   "geometry": {
    "type": "MultiLineString",
    "coordinates": [
     [
      [
       116.3390695,
       39.9659329
      ],
      [
       116.3389474,
       39.9666632
      ],
      [
       116.3386274,
       39.9677052
      ],
      [
       116.3383651,
       39.9682425
      ],
      [
       116.3382565,
       39.9684503
      ],
      [
       116.3381431,
       39.9686569
      ],
      [
       116.3380267,
       39.9688411
      ],
      [
       116.3376786,
       39.9693362
      ],
      [
       116.3353167,
       39.9723591
      ],
      [
       116.3348026,
       39.9730579
      ],
      [
       116.3345749,
       39.9734882
      ],
      [
       116.3343642,
       39.9740444
      ],
      [
       116.3342153,
       39.9746132
      ],
      [
       116.3340895,
       39.9752972
      ],
      [
       116.3340363,
       39.9755867
      ]
     ],
     [
      [
       116.3340363,
       39.9755867
      ],
      [
       116.3337945,
       39.9769306
      ],
      [
       116.3335576,
       39.9780966
      ],
      [
       116.3325705,
       39.983629
      ],
      [
       116.3324593,
       39.9842978
      ],
      [
       116.3323972,
       39.9846856
      ]
     ],
     [
      [
       116.3323972,
       39.9846856
      ],
      [
       116.3322902,
       39.9853894
      ],
      [
       116.3322598,
       39.985589
      ],
      [
       116.3321075,
       39.9866441
      ],
      [
       116.3319872,
       39.9875859
      ],
      [
       116.3319636,
       39.9878173
      ],
      [
       116.3318236,
       39.9913932
      ],
      [
       116.3317575,
       39.9930805
      ],
      [
       116.3315581,
       39.9981708
      ],
      [
       116.3315139,
       39.9993502
      ],
      [
       116.331275,
       40.0050128
      ],
      [
       116.3312245,
       40.0056006
      ],
      [
       116.3311197,
       40.006163
      ],
      [
       116.3309709,
       40.0066758
      ],
      [
       116.3309103,
       40.0068648
      ],
      [
       116.3307903,
       40.0071611
      ]
     ],
     [
      [
       116.3431199,
       39.9544757
      ],
      [
       116.3421021,
       39.9563274
      ],
      [
       116.3406266,
       39.959086
      ],
      [
       116.3403376,
       39.9596663
      ],
      [
       116.3401184,
       39.9601983
      ],
      [
       116.3399314,
       39.9607846
      ],
      [
       116.3397683,
       39.9614525
      ],
      [
       116.3396476,
       39.9622003
      ],
      [
       116.3391633,
       39.9653292
      ],
      [
       116.3390695,
       39.9659329
      ]
     ],
     [
      [
       116.3308473,
       40.0071783
      ],
      [
       116.3309688,
       40.0068737
      ],
      [
       116.3310376,
       40.0066602
      ],
      [
       116.3311822,
       40.0061579
      ],
      [
       116.3312969,
       40.0055994
      ],
      [
       116.3313611,
       40.0050148
      ],
      [
       116.331548,
       40.0004956
      ],
      [
       116.3316332,
       39.9988243
      ],
      [
       116.3316478,
       39.9979244
      ],
      [
       116.3317671,
       39.9952423
      ],
      [
       116.3318413,
       39.993573
      ],
      [
       116.3319227,
       39.9909307
      ],
      [
       116.3319834,
       39.9894758
      ],
      [
       116.3320534,
       39.9877958
      ],
      [
       116.332086,
       39.9874812
      ],
      [
       116.3323566,
       39.9854794
      ],
      [
       116.3324919,
       39.9846715
      ],
      [
       116.3325655,
       39.9842056
      ],
      [
       116.3325992,
       39.9839923
      ],
      [
       116.3326552,
       39.9836098
      ],
      [
       116.3328932,
       39.9822779
      ],
      [
       116.3331684,
       39.9807264
      ],
      [
       116.3334344,
       39.9792713
      ],
      [
       116.3336443,
       39.9781129
      ],
      [
       116.3337189,
       39.9776693
      ],
      [
       116.3339762,
       39.9762466
      ],
      [
       116.3340975,
       39.9755852
      ],
      [
       116.3342702,
       39.9746606
      ],
      [
       116.3344335,
       39.9740742
      ],
      [
       116.3346294,
       39.9735379
      ],
      [
       116.3348681,
       39.9730697
      ],
      [
       116.3357359,
       39.9719327
      ],
      [
       116.3377234,
       39.9693584
      ],
      [
       116.3380779,
       39.9688575
      ],
      [
       116.3381881,
       39.9686771
      ],
      [
       116.3383066,
       39.9684645
      ],
      [
       116.3384699,
       39.9681534
      ],
      [
       116.3386845,
       39.9677064
      ],
      [
       116.3388478,
       39.967238
      ],
      [
       116.339017,
       39.9666593
      ],
      [
       116.3396736,
       39.9623792
      ],
      [
       116.3398275,
       39.9614631
      ],
      [
       116.3399348,
       39.9609946
      ],
      [
       116.3401634,
       39.9603009
      ],
      [
       116.3403967,
       39.9596929
      ],
      [
       116.3410359,
       39.9584234
      ],
      [
       116.341717,
       39.9571684
      ],
      [
       116.3421208,
       39.956417
      ],
      [
       116.3431788,
       39.95449
      ]
     ]
    ]
   }
  },
  {
   "type": "Feature",
   "id": "EX-RAIL-M13",
   "properties": {
    "id": "EX-RAIL-M13",
    "layer": "EXISTING_RAIL",
    "name_zh": "地铁13号线",
    "source_type": "osm",
    "confidence": "medium",
    "geometry_role": "existing_condition",
    "attribution": "© OpenStreetMap contributors, ODbL 1.0"
   },
   "geometry": {
    "type": "MultiLineString",
    "coordinates": [
     [
      [
       116.3471505,
       39.9404291
      ],
      [
       116.3465172,
       39.9420588
      ],
      [
       116.346379,
       39.942351
      ],
      [
       116.3462591,
       39.942564
      ],
      [
       116.3460778,
       39.9428879
      ]
     ],
     [
      [
       116.3114347,
       40.036515
      ],
      [
       116.3104376,
       40.037732
      ],
      [
       116.3101453,
       40.0380726
      ],
      [
       116.3098906,
       40.0383825
      ],
      [
       116.309849,
       40.0384321
      ],
      [
       116.3087317,
       40.0398118
      ],
      [
       116.3075341,
       40.0412887
      ],
      [
       116.3075242,
       40.041301
      ],
      [
       116.3070228,
       40.0419636
      ],
      [
       116.306749,
       40.0423443
      ],
      [
       116.3063586,
       40.0429303
      ],
      [
       116.305721,
       40.0438177
      ],
      [
       116.3052609,
       40.0444408
      ],
      [
       116.3043007,
       40.0455083
      ],
      [
       116.3039806,
       40.045857
      ],
      [
       116.3038302,
       40.0460322
      ],
      [
       116.3028049,
       40.0473741
      ],
      [
       116.302475,
       40.0478141
      ],
      [
       116.3020033,
       40.0485365
      ],
      [
       116.3014721,
       40.0495632
      ]
     ],
     [
      [
       116.3014312,
       40.0495443
      ],
      [
       116.3019517,
       40.0485217
      ],
      [
       116.30243,
       40.0477903
      ],
      [
       116.3027652,
       40.0473399
      ],
      [
       116.3037697,
       40.0460302
      ],
      [
       116.3039319,
       40.045837
      ],
      [
       116.3042628,
       40.0454808
      ],
      [
       116.3052168,
       40.0444095
      ],
      [
       116.3056895,
       40.0437886
      ],
      [
       116.3063139,
       40.0429258
      ],
      [
       116.3067273,
       40.0423109
      ],
      [
       116.3071441,
       40.0417331
      ],
      [
       116.3074439,
       40.0412721
      ],
      [
       116.3074562,
       40.0412536
      ],
      [
       116.3086433,
       40.0397646
      ],
      [
       116.3097422,
       40.0383818
      ],
      [
       116.3097601,
       40.038361
      ],
      [
       116.3102884,
       40.0378431
      ],
      [
       116.3106511,
       40.037403
      ],
      [
       116.3113915,
       40.0364963
      ]
     ],
     [
      [
       116.3469724,
       39.9402806
      ],
      [
       116.3471881,
       39.9397138
      ]
     ],
     [
      [
       116.3470711,
       39.9403046
      ],
      [
       116.3465728,
       39.9416209
      ],
      [
       116.3463313,
       39.9422551
      ],
      [
       116.3462506,
       39.9424387
      ],
      [
       116.3460778,
       39.9428879
      ]
     ],
     [
      [
       116.3460778,
       39.9428879
      ],
      [
       116.3459627,
       39.9431678
      ],
      [
       116.3453275,
       39.9447884
      ],
      [
       116.3452326,
       39.945034
      ],
      [
       116.3451594,
       39.9452742
      ],
      [
       116.3451114,
       39.945611
      ],
      [
       116.3450934,
       39.9459738
      ],
      [
       116.3451062,
       39.9462339
      ],
      [
       116.3451513,
       39.946496
      ],
      [
       116.3452829,
       39.9473161
      ],
      [
       116.3453741,
       39.9478411
      ],
      [
       116.3454673,
       39.9483619
      ],
      [
       116.3454978,
       39.948522
      ],
      [
       116.3455153,
       39.9486957
      ],
      [
       116.345521,
       39.9490075
      ],
      [
       116.3455167,
       39.9491573
      ],
      [
       116.3455052,
       39.9493066
      ],
      [
       116.345489,
       39.9494449
      ],
      [
       116.3454604,
       39.9495778
      ],
      [
       116.3453892,
       39.9498337
      ],
      [
       116.3452529,
       39.9501592
      ],
      [
       116.3450957,
       39.9504532
      ],
      [
       116.3434819,
       39.9534911
      ],
      [
       116.3426438,
       39.9550012
      ],
      [
       116.3422182,
       39.9557639
      ],
      [
       116.3419732,
       39.9562157
      ],
      [
       116.3418051,
       39.9565511
      ],
      [
       116.341539,
       39.9571237
      ],
      [
       116.3413781,
       39.9574596
      ],
      [
       116.3411053,
       39.9580021
      ],
      [
       116.3405028,
       39.9590932
      ],
      [
       116.3403895,
       39.9593128
      ],
      [
       116.3402783,
       39.9595338
      ],
      [
       116.340094,
       39.9599422
      ],
      [
       116.3399466,
       39.9603459
      ],
      [
       116.3398766,
       39.960553
      ],
      [
       116.3398147,
       39.9607613
      ],
      [
       116.3397009,
       39.9611754
      ],
      [
       116.3396501,
       39.9613998
      ],
      [
       116.3396067,
       39.9616057
      ],
      [
       116.3395474,
       39.9619233
      ],
      [
       116.339513,
       39.9622273
      ]
     ],
     [
      [
       116.3394771,
       39.9622254
      ],
      [
       116.3395118,
       39.9619172
      ],
      [
       116.3395697,
       39.9616019
      ],
      [
       116.3396103,
       39.9613966
      ],
      [
       116.3396641,
       39.9611708
      ],
      [
       116.3397781,
       39.9607576
      ],
      [
       116.3398431,
       39.9605465
      ],
      [
       116.3399117,
       39.9603361
      ],
      [
       116.3400583,
       39.9599368
      ],
      [
       116.3402352,
       39.9595183
      ],
      [
       116.3403419,
       39.9593039
      ],
      [
       116.3404579,
       39.9590796
      ],
      [
       116.3410651,
       39.9579884
      ],
      [
       116.3412201,
       39.9576869
      ],
      [
       116.3413425,
       39.9574487
      ],
      [
       116.3415004,
       39.9571171
      ],
      [
       116.3417676,
       39.956537
      ],
      [
       116.3419381,
       39.9562049
      ],
      [
       116.3421807,
       39.9557528
      ],
      [
       116.3426063,
       39.954985
      ],
      [
       116.3434561,
       39.9534854
      ],
      [
       116.3450766,
       39.9504463
      ],
      [
       116.3452306,
       39.9501486
      ],
      [
       116.3453635,
       39.9498233
      ],
      [
       116.3454324,
       39.949577
      ],
      [
       116.3454663,
       39.9494442
      ],
      [
       116.3454843,
       39.9492979
      ],
      [
       116.3454902,
       39.9491537
      ],
      [
       116.3454983,
       39.9490064
      ],
      [
       116.3454881,
       39.9486921
      ],
      [
       116.3454694,
       39.9485278
      ],
      [
       116.3454395,
       39.9483642
      ],
      [
       116.3453491,
       39.9478412
      ],
      [
       116.345256,
       39.9473183
      ],
      [
       116.3451258,
       39.9465025
      ],
      [
       116.3450814,
       39.946233
      ],
      [
       116.345068,
       39.9459725
      ],
      [
       116.3450799,
       39.9456061
      ],
      [
       116.3451255,
       39.9452658
      ],
      [
       116.3451948,
       39.9450213
      ],
      [
       116.3452874,
       39.9447743
      ],
      [
       116.3458438,
       39.9433506
      ],
      [
       116.3459797,
       39.942989
      ],
      [
       116.3461391,
       39.9425862
      ],
      [
       116.3462093,
       39.9424207
      ],
      [
       116.3462911,
       39.9422366
      ],
      [
       116.3464291,
       39.9416932
      ],
      [
       116.3469724,
       39.9402806
      ]
     ],
     [
      [
       116.3473181,
       39.9399979
      ],
      [
       116.3471505,
       39.9404291
      ]
     ]
    ]
   }
  },
  {
   "type": "Feature",
   "id": "EX-PARK-JZ",
   "properties": {
    "id": "EX-PARK-JZ",
    "layer": "HERITAGE_PROTECTION",
    "name_zh": "京张铁路遗址公园已建段(现状)",
    "source_type": "osm",
    "confidence": "medium",
    "geometry_role": "existing_condition",
    "attribution": "© OpenStreetMap contributors, ODbL 1.0"
   },
   "geometry": {
    "type": "MultiLineString",
    "coordinates": [
     [
      [
       116.3323394,
       39.9845579
      ],
      [
       116.3322042,
       39.9853796
      ]
     ],
     [
      [
       116.3322042,
       39.9853796
      ],
      [
       116.3321208,
       39.9853725
      ]
     ],
     [
      [
       116.3321208,
       39.9853725
      ],
      [
       116.3320375,
       39.9858717
      ]
     ],
     [
      [
       116.3320375,
       39.9858717
      ],
      [
       116.3319592,
       39.9865838
      ]
     ],
     [
      [
       116.3319592,
       39.9865838
      ],
      [
       116.3318291,
       39.9865745
      ]
     ],
     [
      [
       116.3318291,
       39.9865745
      ],
      [
       116.3317859,
       39.9874508
      ]
     ],
     [
      [
       116.3317859,
       39.9874508
      ],
      [
       116.3319233,
       39.9875808
      ]
     ],
     [
      [
       116.3319233,
       39.9875808
      ],
      [
       116.3318166,
       39.9902148
      ]
     ],
     [
      [
       116.3318166,
       39.9902148
      ],
      [
       116.3319395,
       39.9902181
      ]
     ],
     [
      [
       116.3319395,
       39.9902181
      ],
      [
       116.3318977,
       39.991394
      ]
     ],
     [
      [
       116.3318977,
       39.991394
      ],
      [
       116.3321496,
       39.9914028
      ]
     ],
     [
      [
       116.3321496,
       39.9914028
      ],
      [
       116.3321508,
       39.991365
      ]
     ],
     [
      [
       116.3321508,
       39.991365
      ],
      [
       116.3322018,
       39.9913664
      ]
     ],
     [
      [
       116.3322018,
       39.9913664
      ],
      [
       116.3322857,
       39.9894654
      ]
     ],
     [
      [
       116.3322857,
       39.9894654
      ],
      [
       116.3320025,
       39.9894554
      ]
     ],
     [
      [
       116.3320025,
       39.9894554
      ],
      [
       116.3320894,
       39.9875986
      ]
     ],
     [
      [
       116.3320894,
       39.9875986
      ],
      [
       116.3322111,
       39.9867042
      ]
     ],
     [
      [
       116.3322111,
       39.9867042
      ],
      [
       116.3324387,
       39.9854223
      ]
     ],
     [
      [
       116.3324387,
       39.9854223
      ],
      [
       116.3324443,
       39.9853907
      ]
     ],
     [
      [
       116.3324443,
       39.9853907
      ],
      [
       116.3326327,
       39.9844807
      ]
     ],
     [
      [
       116.3326327,
       39.9844807
      ],
      [
       116.3327808,
       39.9844869
      ]
     ],
     [
      [
       116.3327808,
       39.9844869
      ],
      [
       116.3340288,
       39.9845464
      ]
     ],
     [
      [
       116.3340288,
       39.9845464
      ],
      [
       116.3344074,
       39.9845644
      ]
     ],
     [
      [
       116.3344074,
       39.9845644
      ],
      [
       116.3345363,
       39.9817356
      ]
     ],
     [
      [
       116.3345363,
       39.9817356
      ],
      [
       116.3345446,
       39.9816512
      ]
     ],
     [
      [
       116.3345446,
       39.9816512
      ],
      [
       116.3345504,
       39.9815925
      ]
     ],
     [
      [
       116.3345504,
       39.9815925
      ],
      [
       116.3348508,
       39.9792474
      ]
     ],
     [
      [
       116.3348508,
       39.9792474
      ],
      [
       116.3349614,
       39.9784013
      ]
     ],
     [
      [
       116.3349614,
       39.9784013
      ],
      [
       116.3350452,
       39.9778133
      ]
     ],
     [
      [
       116.3350452,
       39.9778133
      ],
      [
       116.3350435,
       39.9777638
      ]
     ],
     [
      [
       116.3350435,
       39.9777638
      ],
      [
       116.3347391,
       39.9777386
      ]
     ],
     [
      [
       116.3347391,
       39.9777386
      ],
      [
       116.3347872,
       39.9774673
      ]
     ],
     [
      [
       116.3347872,
       39.9774673
      ],
      [
       116.3341655,
       39.9774089
      ]
     ],
     [
      [
       116.3341655,
       39.9774089
      ],
      [
       116.3335231,
       39.9773822
      ]
     ],
     [
      [
       116.3335231,
       39.9773822
      ],
      [
       116.3332679,
       39.9784918
      ]
     ],
     [
      [
       116.3332679,
       39.9784918
      ],
      [
       116.3327645,
       39.9815373
      ]
     ],
     [
      [
       116.3327645,
       39.9815373
      ],
      [
       116.3323394,
       39.9845579
      ]
     ],
     [
      [
       116.3312681,
       39.9989683
      ],
      [
       116.3320899,
       39.9990065
      ]
     ],
     [
      [
       116.3320899,
       39.9990065
      ],
      [
       116.3320978,
       39.9987423
      ]
     ],
     [
      [
       116.3320978,
       39.9987423
      ],
      [
       116.3322649,
       39.9987471
      ]
     ],
     [
      [
       116.3322649,
       39.9987471
      ],
      [
       116.3322964,
       39.997196
      ]
     ],
     [
      [
       116.3322964,
       39.997196
      ],
      [
       116.3321731,
       39.9971924
      ]
     ],
     [
      [
       116.3321731,
       39.9971924
      ],
      [
       116.3321876,
       39.9968715
      ]
     ],
     [
      [
       116.3321876,
       39.9968715
      ],
      [
       116.3319842,
       39.9968654
      ]
     ],
     [
      [
       116.3319842,
       39.9968654
      ],
      [
       116.3320271,
       39.9956214
      ]
     ],
     [
      [
       116.3320271,
       39.9956214
      ],
      [
       116.3318132,
       39.9956182
      ]
     ],
     [
      [
       116.3318132,
       39.9956182
      ],
      [
       116.331863,
       39.9934743
      ]
     ],
     [
      [
       116.331863,
       39.9934743
      ],
      [
       116.3318877,
       39.9929039
      ]
     ],
     [
      [
       116.3318877,
       39.9929039
      ],
      [
       116.3319274,
       39.9919475
      ]
     ],
     [
      [
       116.3319274,
       39.9919475
      ],
      [
       116.3318727,
       39.9919475
      ]
     ],
     [
      [
       116.3318727,
       39.9919475
      ],
      [
       116.3318788,
       39.9918197
      ]
     ],
     [
      [
       116.3318788,
       39.9918197
      ],
      [
       116.3318523,
       39.991819
      ]
     ],
     [
      [
       116.3318523,
       39.991819
      ],
      [
       116.3318453,
       39.9919658
      ]
     ],
     [
      [
       116.3318453,
       39.9919658
      ],
      [
       116.3318991,
       39.9919673
      ]
     ],
     [
      [
       116.3318991,
       39.9919673
      ],
      [
       116.3318832,
       39.9922988
      ]
     ],
     [
      [
       116.3318832,
       39.9922988
      ],
      [
       116.3318531,
       39.9929032
      ]
     ],
     [
      [
       116.3318531,
       39.9929032
      ],
      [
       116.3316838,
       39.9928978
      ]
     ],
     [
      [
       116.3316838,
       39.9928978
      ],
      [
       116.3316528,
       39.9935775
      ]
     ],
     [
      [
       116.3316528,
       39.9935775
      ],
      [
       116.3317048,
       39.9935804
      ]
     ],
     [
      [
       116.3317048,
       39.9935804
      ],
      [
       116.3316858,
       39.994033
      ]
     ],
     [
      [
       116.3316858,
       39.994033
      ],
      [
       116.3314282,
       39.9940293
      ]
     ],
     [
      [
       116.3314282,
       39.9940293
      ],
      [
       116.3312703,
       39.9975224
      ]
     ],
     [
      [
       116.3312703,
       39.9975224
      ],
      [
       116.3312932,
       39.9979468
      ]
     ],
     [
      [
       116.3312932,
       39.9979468
      ],
      [
       116.3312681,
       39.9989683
      ]
     ]
    ]
   }
  },
  {
   "type": "Feature",
   "id": "EX-HERITAGE-QHY",
   "properties": {
    "id": "EX-HERITAGE-QHY",
    "layer": "HERITAGE_PROTECTION",
    "name_zh": "清华园车站旧址(1910, 北京市文物保护单位)",
    "note_zh": "位于总体设计范围以西约300米、统筹研究范围内",
    "source_type": "osm",
    "confidence": "medium",
    "geometry_role": "existing_condition",
    "attribution": "© OpenStreetMap contributors, ODbL 1.0"
   },
   "geometry": {
    "type": "Point",
    "coordinates": [
     116.3256,
     39.99023
    ]
   }
  },
  {
   "type": "Feature",
   "id": "EX-HERITAGE-BELL",
   "properties": {
    "id": "EX-HERITAGE-BELL",
    "layer": "HERITAGE_PROTECTION",
    "name_zh": "大钟寺古钟博物馆(觉生寺, 全国重点文物保护单位)",
    "source_type": "osm",
    "confidence": "medium",
    "geometry_role": "existing_condition",
    "attribution": "© OpenStreetMap contributors, ODbL 1.0"
   },
   "geometry": {
    "type": "Point",
    "coordinates": [
     116.33182,
     39.96784
    ]
   }
  }
 ]
}
