{
 "type": "FeatureCollection",
 "features": [
  {
   "type": "Feature",
   "id": "SITE-001",
   "properties": {
    "id": "SITE-001",
    "layer": "SITE_BOUNDARY",
    "scope_id": "overall_design_area",
    "name_zh": "总体设计范围街道贴合临时边界(本方案自行推导)",
    "area_sqm_declared": 11400064.345,
    "announced_area_sqm": 11400000,
    "derivation_method": "以公告文字四至(北五环路、学院路/西土城路/学清路、西直门外大街、大钟寺东路/荷清路等)的 OSM 街道中线为参照重建走廊多边形, 在觉生寺段按文保单位西界局部外扩, 并在 EPSG:4548 下将面积校准至公告约11.4平方公里;街道名称仅用于粗略定位, 折线不代表道路红线或法定范围线。",
    "usage_note": "仅用于 AI agent 生成、展示与包内自检; 不得作为 official redline、审批依据或精确面积复算依据。official polygon 发布后须整包重算。",
    "source_type": "agent_inferred_from_public_data",
    "confidence": "medium",
    "geometry_role": "provisional_constraint",
    "official_boundary": false,
    "boundary_precision": "provisional_rough",
    "derived_from_source_ids": [
     "OFFICIAL-ANNOUNCEMENT",
     "OSM-CONTEXT"
    ]
   },
   "geometry": {
    "type": "Polygon",
    "coordinates": [
     [
      [
       116.3344536,
       39.96
      ],
      [
       116.3312536,
       39.964
      ],
      [
       116.3312536,
       39.9705
      ],
      [
       116.3329536,
       39.9705
      ],
      [
       116.3329536,
       39.9751
      ],
      [
       116.3299536,
       39.9916
      ],
      [
       116.3299536,
       40.0168
      ],
      [
       116.3456464,
       40.0168
      ],
      [
       116.3456464,
       40.0
      ],
      [
       116.3468464,
       39.9997
      ],
      [
       116.3468464,
       39.9751
      ],
      [
       116.3477464,
       39.9751
      ],
      [
       116.3477464,
       39.9567
      ],
      [
       116.3490464,
       39.954
      ],
      [
       116.3490464,
       39.9385
      ],
      [
       116.3344536,
       39.9385
      ],
      [
       116.3344536,
       39.96
      ]
     ]
    ]
   }
  }
 ]
}
