{"type": "FeatureCollection", "features": [{"type": "Feature", "id": "CONST-SITE", "properties": {"id": "CONST-SITE", "layer": "REGULATORY_CONTROL", "source_type": "official_public", "confidence": "low", "geometry_role": "official_constraint", "constraint_type": "site_boundary", "official_boundary": false}, "geometry": {"type": "Polygon", "coordinates": [[[116.3407, 39.939], [116.3553, 39.939], [116.3553, 39.965], [116.3533, 39.99], [116.3553, 40.0265], [116.3427, 40.0265], [116.3417, 40.006], [116.3397, 39.975], [116.3407, 39.939]]]}}, {"type": "Feature", "id": "CONST-KEY1", "properties": {"id": "CONST-KEY1", "layer": "REGULATORY_CONTROL", "source_type": "official_public", "confidence": "medium", "geometry_role": "provisional_constraint", "constraint_type": "key_area", "label_zh": "众智园AI自主创新加速区", "official_boundary": false}, "geometry": {"type": "Polygon", "coordinates": [[[116.343, 40.0075], [116.354, 40.0075], [116.354, 40.026], [116.343, 40.026], [116.343, 40.0075]]]}}, {"type": "Feature", "id": "CONST-KEY2", "properties": {"id": "CONST-KEY2", "layer": "REGULATORY_CONTROL", "source_type": "official_public", "confidence": "medium", "geometry_role": "provisional_constraint", "constraint_type": "key_area", "label_zh": "北京AI原点社区", "official_boundary": false}, "geometry": {"type": "Polygon", "coordinates": [[[116.342, 39.9835], [116.353, 39.9835], [116.353, 39.9935], [116.342, 39.9935], [116.342, 39.9835]]]}}, {"type": "Feature", "id": "CONST-KEY3", "properties": {"id": "CONST-KEY3", "layer": "REGULATORY_CONTROL", "source_type": "official_public", "confidence": "medium", "geometry_role": "provisional_constraint", "constraint_type": "key_area", "label_zh": "大钟寺AI产业聚集区", "official_boundary": false}, "geometry": {"type": "Polygon", "coordinates": [[[116.342, 39.944], [116.355, 39.944], [116.355, 39.94984], [116.342, 39.94984], [116.342, 39.944]]]}}]}