{
  "type": "FeatureCollection",
  "name": "concept_phasing_areas",
  "features": [
    {
      "type": "Feature",
      "id": "PHASE-001",
      "properties": {
        "id": "PHASE-001",
        "layer": "PHASE",
        "source_type": "agent_generated_design",
        "confidence": "medium",
        "geometry_role": "design_proposal",
        "phase": "phase_1_validate",
        "name_zh": "一期验证：AI原点同桌场与连接踏勘",
        "name_en": "Phase 1 Validate: AI Origin Common Table and connection audit",
        "trigger": "operator_site_safety_access_data_review"
      },
      "geometry": {
        "type": "Polygon",
        "coordinates": [
          [
            [
              116.3448,
              39.9838
            ],
            [
              116.3448,
              39.9932
            ],
            [
              116.3507,
              39.9932
            ],
            [
              116.3507,
              39.9838
            ],
            [
              116.3448,
              39.9838
            ]
          ]
        ]
      }
    },
    {
      "type": "Feature",
      "id": "PHASE-002",
      "properties": {
        "id": "PHASE-002",
        "layer": "PHASE",
        "source_type": "agent_generated_design",
        "confidence": "medium",
        "geometry_role": "design_proposal",
        "phase": "phase_2_network",
        "name_zh": "二期联网：众智园受控验证与北段公地",
        "name_en": "Phase 2 Network: controlled Zhongzhiyuan tests and northern commons",
        "trigger": "two_stable_cycles_and_executable_protocols"
      },
      "geometry": {
        "type": "Polygon",
        "coordinates": [
          [
            [
              116.3448,
              40.008
            ],
            [
              116.3448,
              40.0235
            ],
            [
              116.3512,
              40.0235
            ],
            [
              116.3512,
              40.008
            ],
            [
              116.3448,
              40.008
            ]
          ]
        ]
      }
    },
    {
      "type": "Feature",
      "id": "PHASE-003",
      "properties": {
        "id": "PHASE-003",
        "layer": "PHASE",
        "source_type": "agent_generated_design",
        "confidence": "medium",
        "geometry_role": "design_proposal",
        "phase": "phase_3_embed",
        "name_zh": "三期沉淀：大钟寺首用、文化与年度活动",
        "name_en": "Phase 3 Embed: Dazhongsi first use, culture, and annual programme",
        "trigger": "professional_public_review_and_approvals"
      },
      "geometry": {
        "type": "Polygon",
        "coordinates": [
          [
            [
              116.3448,
              39.9435
            ],
            [
              116.3448,
              39.951
            ],
            [
              116.3512,
              39.951
            ],
            [
              116.3512,
              39.9435
            ],
            [
              116.3448,
              39.9435
            ]
          ]
        ]
      }
    }
  ]
}
