{
  "type": "FeatureCollection",
  "name": "three_commons_and_six_encounter_gates",
  "features": [
    {
      "type": "Feature",
      "id": "PUBLIC-COMMON-001",
      "properties": {
        "id": "PUBLIC-COMMON-001",
        "layer": "PUBLIC_SPACE",
        "source_type": "agent_generated_design",
        "confidence": "medium",
        "geometry_role": "design_proposal",
        "name_zh": "众智园同题场概念公共界面",
        "name_en": "Common Problem Yard conceptual public interface",
        "access_status": "candidate_pending_permission",
        "operational_status": "not_authorized",
        "protocol_ref": "visual/assets/encounter-ticket.schema.json",
        "scenario_ticket_ref": "visual/assets/encounter-ticket.example.json#/tickets/0",
        "first_evidence": "venue_release_plus_named_data_ethics_safety_owners",
        "hard_stop": "no_host_or_no_separation_or_unclear_data_boundary_or_any_safety_event",
        "professional_handoff": "architecture_structure_fire_access_venue_operations"
      },
      "geometry": {
        "type": "Polygon",
        "coordinates": [
          [
            [
              116.347,
              40.014
            ],
            [
              116.347,
              40.02
            ],
            [
              116.3503,
              40.02
            ],
            [
              116.3503,
              40.014
            ],
            [
              116.347,
              40.014
            ]
          ]
        ]
      }
    },
    {
      "type": "Feature",
      "id": "PUBLIC-COMMON-002",
      "properties": {
        "id": "PUBLIC-COMMON-002",
        "layer": "PUBLIC_SPACE",
        "source_type": "agent_generated_design",
        "confidence": "medium",
        "geometry_role": "design_proposal",
        "name_zh": "AI原点同桌场概念公共界面",
        "name_en": "Common Table Yard conceptual public interface",
        "access_status": "candidate_pending_permission",
        "operational_status": "not_authorized",
        "protocol_ref": "visual/assets/encounter-ticket.schema.json",
        "scenario_ticket_ref": "visual/assets/encounter-ticket.example.json#/tickets/1",
        "first_evidence": "ninety_day_roster_plus_no_account_offline_multilingual_equivalents",
        "hard_stop": "no_human_host_or_overload_or_unchecked_translation_or_failed_offline_route",
        "professional_handoff": "public_service_information_access_staffing_data_governance"
      },
      "geometry": {
        "type": "Polygon",
        "coordinates": [
          [
            [
              116.347,
              39.985
            ],
            [
              116.347,
              39.9915
            ],
            [
              116.3503,
              39.9915
            ],
            [
              116.3503,
              39.985
            ],
            [
              116.347,
              39.985
            ]
          ]
        ]
      }
    },
    {
      "type": "Feature",
      "id": "PUBLIC-COMMON-003",
      "properties": {
        "id": "PUBLIC-COMMON-003",
        "layer": "PUBLIC_SPACE",
        "source_type": "agent_generated_design",
        "confidence": "medium",
        "geometry_role": "design_proposal",
        "name_zh": "大钟寺同城场概念公共界面",
        "name_en": "Common City Yard conceptual public interface",
        "access_status": "candidate_pending_permission",
        "operational_status": "not_authorized",
        "protocol_ref": "visual/assets/encounter-ticket.schema.json",
        "scenario_ticket_ref": "visual/assets/encounter-ticket.example.json#/tickets/2",
        "first_evidence": "official_scope_real_candidate_site_event_release_heritage_noise_egress_access",
        "hard_stop": "crowd_noise_or_egress_gate_fails_or_quiet_exit_route_blocked",
        "professional_handoff": "planning_transport_heritage_fire_event_safety_acoustics_community"
      },
      "geometry": {
        "type": "Polygon",
        "coordinates": [
          [
            [
              116.347,
              39.944
            ],
            [
              116.347,
              39.9495
            ],
            [
              116.3503,
              39.9495
            ],
            [
              116.3503,
              39.944
            ],
            [
              116.347,
              39.944
            ]
          ]
        ]
      }
    },
    {
      "type": "Feature",
      "id": "PUBLIC-GATE-001",
      "properties": {
        "id": "PUBLIC-GATE-001",
        "layer": "PUBLIC_SPACE",
        "source_type": "agent_generated_design",
        "confidence": "medium",
        "geometry_role": "design_proposal",
        "name_zh": "相遇门 1 候选公共停留点",
        "name_en": "Encounter Gate 1 candidate public stopping point",
        "access_status": "candidate_pending_permission"
      },
      "geometry": {
        "type": "Polygon",
        "coordinates": [
          [
            [
              116.3497,
              39.94635
            ],
            [
              116.3497,
              39.94765
            ],
            [
              116.351,
              39.94765
            ],
            [
              116.351,
              39.94635
            ],
            [
              116.3497,
              39.94635
            ]
          ]
        ]
      }
    },
    {
      "type": "Feature",
      "id": "PUBLIC-GATE-002",
      "properties": {
        "id": "PUBLIC-GATE-002",
        "layer": "PUBLIC_SPACE",
        "source_type": "agent_generated_design",
        "confidence": "medium",
        "geometry_role": "design_proposal",
        "name_zh": "相遇门 2 候选公共停留点",
        "name_en": "Encounter Gate 2 candidate public stopping point",
        "access_status": "candidate_pending_permission"
      },
      "geometry": {
        "type": "Polygon",
        "coordinates": [
          [
            [
              116.3497,
              39.96085
            ],
            [
              116.3497,
              39.96215
            ],
            [
              116.351,
              39.96215
            ],
            [
              116.351,
              39.96085
            ],
            [
              116.3497,
              39.96085
            ]
          ]
        ]
      }
    },
    {
      "type": "Feature",
      "id": "PUBLIC-GATE-003",
      "properties": {
        "id": "PUBLIC-GATE-003",
        "layer": "PUBLIC_SPACE",
        "source_type": "agent_generated_design",
        "confidence": "medium",
        "geometry_role": "design_proposal",
        "name_zh": "相遇门 3 候选公共停留点",
        "name_en": "Encounter Gate 3 candidate public stopping point",
        "access_status": "candidate_pending_permission"
      },
      "geometry": {
        "type": "Polygon",
        "coordinates": [
          [
            [
              116.3497,
              39.98415
            ],
            [
              116.3497,
              39.98545
            ],
            [
              116.351,
              39.98545
            ],
            [
              116.351,
              39.98415
            ],
            [
              116.3497,
              39.98415
            ]
          ]
        ]
      }
    },
    {
      "type": "Feature",
      "id": "PUBLIC-GATE-004",
      "properties": {
        "id": "PUBLIC-GATE-004",
        "layer": "PUBLIC_SPACE",
        "source_type": "agent_generated_design",
        "confidence": "medium",
        "geometry_role": "design_proposal",
        "name_zh": "相遇门 4 候选公共停留点",
        "name_en": "Encounter Gate 4 candidate public stopping point",
        "access_status": "candidate_pending_permission"
      },
      "geometry": {
        "type": "Polygon",
        "coordinates": [
          [
            [
              116.3497,
              39.99085
            ],
            [
              116.3497,
              39.99215
            ],
            [
              116.351,
              39.99215
            ],
            [
              116.351,
              39.99085
            ],
            [
              116.3497,
              39.99085
            ]
          ]
        ]
      }
    },
    {
      "type": "Feature",
      "id": "PUBLIC-GATE-005",
      "properties": {
        "id": "PUBLIC-GATE-005",
        "layer": "PUBLIC_SPACE",
        "source_type": "agent_generated_design",
        "confidence": "medium",
        "geometry_role": "design_proposal",
        "name_zh": "相遇门 5 候选公共停留点",
        "name_en": "Encounter Gate 5 candidate public stopping point",
        "access_status": "candidate_pending_permission"
      },
      "geometry": {
        "type": "Polygon",
        "coordinates": [
          [
            [
              116.3497,
              40.00785
            ],
            [
              116.3497,
              40.00915
            ],
            [
              116.351,
              40.00915
            ],
            [
              116.351,
              40.00785
            ],
            [
              116.3497,
              40.00785
            ]
          ]
        ]
      }
    },
    {
      "type": "Feature",
      "id": "PUBLIC-GATE-006",
      "properties": {
        "id": "PUBLIC-GATE-006",
        "layer": "PUBLIC_SPACE",
        "source_type": "agent_generated_design",
        "confidence": "medium",
        "geometry_role": "design_proposal",
        "name_zh": "相遇门 6 候选公共停留点",
        "name_en": "Encounter Gate 6 candidate public stopping point",
        "access_status": "candidate_pending_permission"
      },
      "geometry": {
        "type": "Polygon",
        "coordinates": [
          [
            [
              116.3497,
              40.01885
            ],
            [
              116.3497,
              40.02015
            ],
            [
              116.351,
              40.02015
            ],
            [
              116.351,
              40.01885
            ],
            [
              116.3497,
              40.01885
            ]
          ]
        ]
      }
    }
  ]
}
