{
  "type": "FeatureCollection",
  "name": "encounter_spine_and_six_connection_needs",
  "features": [
    {
      "type": "Feature",
      "id": "ROAD-SPINE-001",
      "properties": {
        "id": "ROAD-SPINE-001",
        "layer": "ROAD_CENTERLINE",
        "source_type": "agent_generated_design",
        "confidence": "medium",
        "geometry_role": "design_proposal",
        "road_class": "pedestrian",
        "name_zh": "相遇主线（概念公共空间序列）",
        "name_en": "Encounter Spine (conceptual public-space sequence)",
        "not_new_road_or_rail": true
      },
      "geometry": {
        "type": "LineString",
        "coordinates": [
          [
            116.3468,
            39.9445
          ],
          [
            116.3468,
            40.023
          ]
        ]
      }
    },
    {
      "type": "Feature",
      "id": "ROAD-CONNECT-001",
      "properties": {
        "id": "ROAD-CONNECT-001",
        "layer": "ROAD_CENTERLINE",
        "source_type": "agent_generated_design",
        "confidence": "medium",
        "geometry_role": "design_proposal",
        "road_class": "pedestrian",
        "name_zh": "东西向连接需求 1（待现场核验）",
        "name_en": "East–west connection need 1 (field verification required)",
        "not_engineering_alignment": true
      },
      "geometry": {
        "type": "LineString",
        "coordinates": [
          [
            116.3434,
            39.947
          ],
          [
            116.3515,
            39.947
          ]
        ]
      }
    },
    {
      "type": "Feature",
      "id": "ROAD-CONNECT-002",
      "properties": {
        "id": "ROAD-CONNECT-002",
        "layer": "ROAD_CENTERLINE",
        "source_type": "agent_generated_design",
        "confidence": "medium",
        "geometry_role": "design_proposal",
        "road_class": "cycleway",
        "name_zh": "东西向连接需求 2（待现场核验）",
        "name_en": "East–west connection need 2 (field verification required)",
        "not_engineering_alignment": true
      },
      "geometry": {
        "type": "LineString",
        "coordinates": [
          [
            116.3434,
            39.9615
          ],
          [
            116.3515,
            39.9615
          ]
        ]
      }
    },
    {
      "type": "Feature",
      "id": "ROAD-CONNECT-003",
      "properties": {
        "id": "ROAD-CONNECT-003",
        "layer": "ROAD_CENTERLINE",
        "source_type": "agent_generated_design",
        "confidence": "medium",
        "geometry_role": "design_proposal",
        "road_class": "pedestrian",
        "name_zh": "东西向连接需求 3（待现场核验）",
        "name_en": "East–west connection need 3 (field verification required)",
        "not_engineering_alignment": true
      },
      "geometry": {
        "type": "LineString",
        "coordinates": [
          [
            116.3434,
            39.9848
          ],
          [
            116.3515,
            39.9848
          ]
        ]
      }
    },
    {
      "type": "Feature",
      "id": "ROAD-CONNECT-004",
      "properties": {
        "id": "ROAD-CONNECT-004",
        "layer": "ROAD_CENTERLINE",
        "source_type": "agent_generated_design",
        "confidence": "medium",
        "geometry_role": "design_proposal",
        "road_class": "cycleway",
        "name_zh": "东西向连接需求 4（待现场核验）",
        "name_en": "East–west connection need 4 (field verification required)",
        "not_engineering_alignment": true
      },
      "geometry": {
        "type": "LineString",
        "coordinates": [
          [
            116.3434,
            39.9915
          ],
          [
            116.3515,
            39.9915
          ]
        ]
      }
    },
    {
      "type": "Feature",
      "id": "ROAD-CONNECT-005",
      "properties": {
        "id": "ROAD-CONNECT-005",
        "layer": "ROAD_CENTERLINE",
        "source_type": "agent_generated_design",
        "confidence": "medium",
        "geometry_role": "design_proposal",
        "road_class": "pedestrian",
        "name_zh": "东西向连接需求 5（待现场核验）",
        "name_en": "East–west connection need 5 (field verification required)",
        "not_engineering_alignment": true
      },
      "geometry": {
        "type": "LineString",
        "coordinates": [
          [
            116.3434,
            40.0085
          ],
          [
            116.3515,
            40.0085
          ]
        ]
      }
    },
    {
      "type": "Feature",
      "id": "ROAD-CONNECT-006",
      "properties": {
        "id": "ROAD-CONNECT-006",
        "layer": "ROAD_CENTERLINE",
        "source_type": "agent_generated_design",
        "confidence": "medium",
        "geometry_role": "design_proposal",
        "road_class": "cycleway",
        "name_zh": "东西向连接需求 6（待现场核验）",
        "name_en": "East–west connection need 6 (field verification required)",
        "not_engineering_alignment": true
      },
      "geometry": {
        "type": "LineString",
        "coordinates": [
          [
            116.3434,
            40.0195
          ],
          [
            116.3515,
            40.0195
          ]
        ]
      }
    }
  ]
}
