{"type":"FeatureCollection","name":"site_boundary","features":[{"type":"Feature","id":"SITE-001","properties":{"id":"SITE-001","layer":"SITE_BOUNDARY","source_type":"agent_inferred_from_public_data","confidence":"medium","geometry_role":"provisional_constraint","official_boundary":false,"boundary_precision":"provisional_rough","name_zh":"总体设计范围(临时粗略边界)","usage_note":"由公告文字四至与公告面积拟合的临时边界,仅用于方案生成、可视化与自检;不得作为官方红线、审批依据或精确面积依据。","source_id":"BOUNDARY-SOURCE","area_sqm_declared":11412825.385554},"geometry":{"type":"Polygon","coordinates":[[[116.3407,39.939],[116.3553,39.939],[116.3553,39.965],[116.3533,39.99],[116.3553,40.0265],[116.3427,40.0265],[116.3417,40.006],[116.3397,39.975],[116.3407,39.939]]]}}]}