{
  "type": "FeatureCollection",
  "name": "green_space",
  "features": [
    {
      "type": "Feature",
      "id": "GS-001",
      "properties": {
        "id": "GS-001",
        "layer": "GREEN_SPACE",
        "source_type": "agent_generated_design",
        "confidence": "medium",
        "geometry_role": "design_proposal",
        "name_zh": "京张遗址公园核心绿地",
        "green_type": "park"
      },
      "geometry": {
        "type": "Polygon",
        "coordinates": [
          [
            [
              116.3407,
              39.939
            ],
            [
              116.3553,
              39.939
            ],
            [
              116.3553,
              39.944
            ],
            [
              116.3407,
              39.944
            ],
            [
              116.3407,
              39.939
            ]
          ]
        ]
      }
    },
    {
      "type": "Feature",
      "id": "GS-002",
      "properties": {
        "id": "GS-002",
        "layer": "GREEN_SPACE",
        "source_type": "agent_generated_design",
        "confidence": "medium",
        "geometry_role": "design_proposal",
        "name_zh": "清河滨水绿地",
        "green_type": "park"
      },
      "geometry": {
        "type": "Polygon",
        "coordinates": [
          [
            [
              116.342,
              40.0
            ],
            [
              116.354,
              40.0
            ],
            [
              116.354,
              40.0075
            ],
            [
              116.342,
              40.0075
            ],
            [
              116.342,
              40.0
            ]
          ]
        ]
      }
    },
    {
      "type": "Feature",
      "id": "GS-003",
      "properties": {
        "id": "GS-003",
        "layer": "GREEN_SPACE",
        "source_type": "agent_generated_design",
        "confidence": "medium",
        "geometry_role": "design_proposal",
        "name_zh": "小月河绿地走廊",
        "green_type": "park"
      },
      "geometry": {
        "type": "Polygon",
        "coordinates": [
          [
            [
              116.3407,
              39.965
            ],
            [
              116.342,
              39.965
            ],
            [
              116.342,
              39.9835
            ],
            [
              116.3407,
              39.9835
            ],
            [
              116.3407,
              39.965
            ]
          ]
        ]
      }
    },
    {
      "type": "Feature",
      "id": "GS-004",
      "properties": {
        "id": "GS-004",
        "layer": "GREEN_SPACE",
        "source_type": "agent_generated_design",
        "confidence": "medium",
        "geometry_role": "design_proposal",
        "name_zh": "众智园中心公园",
        "green_type": "park"
      },
      "geometry": {
        "type": "Polygon",
        "coordinates": [
          [
            [
              116.348,
              40.012
            ],
            [
              116.352,
              40.012
            ],
            [
              116.352,
              40.015
            ],
            [
              116.348,
              40.015
            ],
            [
              116.348,
              40.012
            ]
          ]
        ]
      }
    },
    {
      "type": "Feature",
      "id": "GS-005",
      "properties": {
        "id": "GS-005",
        "layer": "GREEN_SPACE",
        "source_type": "agent_generated_design",
        "confidence": "medium",
        "geometry_role": "design_proposal",
        "name_zh": "AI原点社区公园",
        "green_type": "park"
      },
      "geometry": {
        "type": "Polygon",
        "coordinates": [
          [
            [
              116.344,
              39.986
            ],
            [
              116.348,
              39.986
            ],
            [
              116.348,
              39.989
            ],
            [
              116.344,
              39.989
            ],
            [
              116.344,
              39.986
            ]
          ]
        ]
      }
    }
  ]
}