{
  "type": "FeatureCollection",
  "name": "public_space",
  "features": [
    {
      "type": "Feature",
      "id": "PS-001",
      "properties": {
        "id": "PS-001",
        "layer": "PUBLIC_SPACE",
        "source_type": "agent_generated_design",
        "confidence": "medium",
        "geometry_role": "design_proposal",
        "name_zh": "开发者星光大道",
        "public_space_type": "landmark"
      },
      "geometry": {
        "type": "Polygon",
        "coordinates": [
          [
            [
              116.3407,
              39.939
            ],
            [
              116.342,
              39.939
            ],
            [
              116.342,
              39.965
            ],
            [
              116.3407,
              39.965
            ],
            [
              116.3407,
              39.939
            ]
          ]
        ]
      }
    },
    {
      "type": "Feature",
      "id": "PS-002",
      "properties": {
        "id": "PS-002",
        "layer": "PUBLIC_SPACE",
        "source_type": "agent_generated_design",
        "confidence": "medium",
        "geometry_role": "design_proposal",
        "name_zh": "开源成果展示廊",
        "public_space_type": "exhibition"
      },
      "geometry": {
        "type": "Polygon",
        "coordinates": [
          [
            [
              116.342,
              39.94984
            ],
            [
              116.355,
              39.94984
            ],
            [
              116.355,
              39.955
            ],
            [
              116.342,
              39.955
            ],
            [
              116.342,
              39.94984
            ]
          ]
        ]
      }
    },
    {
      "type": "Feature",
      "id": "PS-003",
      "properties": {
        "id": "PS-003",
        "layer": "PUBLIC_SPACE",
        "source_type": "agent_generated_design",
        "confidence": "medium",
        "geometry_role": "design_proposal",
        "name_zh": "智能体贡词贡壁",
        "public_space_type": "honor_wall"
      },
      "geometry": {
        "type": "Polygon",
        "coordinates": [
          [
            [
              116.342,
              40.0
            ],
            [
              116.345,
              40.0
            ],
            [
              116.345,
              40.0075
            ],
            [
              116.342,
              40.0075
            ],
            [
              116.342,
              40.0
            ]
          ]
        ]
      }
    },
    {
      "type": "Feature",
      "id": "PS-004",
      "properties": {
        "id": "PS-004",
        "layer": "PUBLIC_SPACE",
        "source_type": "agent_generated_design",
        "confidence": "medium",
        "geometry_role": "design_proposal",
        "name_zh": "AI交互广场",
        "public_space_type": "plaza"
      },
      "geometry": {
        "type": "Polygon",
        "coordinates": [
          [
            [
              116.346,
              40.012
            ],
            [
              116.35,
              40.012
            ],
            [
              116.35,
              40.016
            ],
            [
              116.346,
              40.016
            ],
            [
              116.346,
              40.012
            ]
          ]
        ]
      }
    },
    {
      "type": "Feature",
      "id": "PS-005",
      "properties": {
        "id": "PS-005",
        "layer": "PUBLIC_SPACE",
        "source_type": "agent_generated_design",
        "confidence": "medium",
        "geometry_role": "design_proposal",
        "name_zh": "创新生态公园",
        "public_space_type": "park"
      },
      "geometry": {
        "type": "Polygon",
        "coordinates": [
          [
            [
              116.344,
              39.986
            ],
            [
              116.348,
              39.986
            ],
            [
              116.348,
              39.989
            ],
            [
              116.344,
              39.989
            ],
            [
              116.344,
              39.986
            ]
          ]
        ]
      }
    },
    {
      "type": "Feature",
      "id": "PS-006",
      "properties": {
        "id": "PS-006",
        "layer": "PUBLIC_SPACE",
        "source_type": "agent_generated_design",
        "confidence": "medium",
        "geometry_role": "design_proposal",
        "name_zh": "京张文化广场",
        "public_space_type": "cultural_plaza"
      },
      "geometry": {
        "type": "Polygon",
        "coordinates": [
          [
            [
              116.3407,
              39.944
            ],
            [
              116.342,
              39.944
            ],
            [
              116.342,
              39.94984
            ],
            [
              116.3407,
              39.94984
            ],
            [
              116.3407,
              39.944
            ]
          ]
        ]
      }
    }
  ]
}