{
  "type": "FeatureCollection",
  "name": "three_speed_land_use_structure",
  "features": [
    {
      "type": "Feature",
      "id": "LU-001",
      "properties": {
        "id": "LU-001",
        "layer": "LAND_USE",
        "source_type": "agent_generated_design",
        "confidence": "medium",
        "geometry_role": "design_proposal",
        "land_use_code": "1401",
        "name_zh": "京张百年底盘公共脊·南段",
        "name_en": "Jing-Zhang Long-life Public Spine · south section",
        "planning_note": "One continuous conceptual spine split only for projection-safe topology; not statutory land use.",
        "area_sqm_declared": 414676.445
      },
      "geometry": {
        "type": "Polygon",
        "coordinates": [
          [
            [
              116.34635,
              39.962
            ],
            [
              116.34825,
              39.962
            ],
            [
              116.34825,
              39.939
            ],
            [
              116.34635,
              39.939
            ],
            [
              116.34635,
              39.962
            ]
          ]
        ]
      }
    },
    {
      "type": "Feature",
      "id": "LU-002",
      "properties": {
        "id": "LU-002",
        "layer": "LAND_USE",
        "source_type": "agent_generated_design",
        "confidence": "medium",
        "geometry_role": "design_proposal",
        "land_use_code": "1401",
        "name_zh": "京张百年底盘公共脊·中段",
        "name_en": "Jing-Zhang Long-life Public Spine · central section",
        "planning_note": "One continuous conceptual spine split only for projection-safe topology; not statutory land use.",
        "area_sqm_declared": 720849.366
      },
      "geometry": {
        "type": "Polygon",
        "coordinates": [
          [
            [
              116.34635,
              40.002
            ],
            [
              116.34825,
              40.002
            ],
            [
              116.34825,
              39.962
            ],
            [
              116.34635,
              39.962
            ],
            [
              116.34635,
              40.002
            ]
          ]
        ]
      }
    },
    {
      "type": "Feature",
      "id": "LU-003",
      "properties": {
        "id": "LU-003",
        "layer": "LAND_USE",
        "source_type": "agent_generated_design",
        "confidence": "medium",
        "geometry_role": "design_proposal",
        "land_use_code": "1401",
        "name_zh": "京张百年底盘公共脊·北段",
        "name_en": "Jing-Zhang Long-life Public Spine · north section",
        "planning_note": "One continuous conceptual spine split only for projection-safe topology; not statutory land use.",
        "area_sqm_declared": 441315.038
      },
      "geometry": {
        "type": "Polygon",
        "coordinates": [
          [
            [
              116.34635,
              40.0265
            ],
            [
              116.34825,
              40.0265
            ],
            [
              116.34825,
              40.002
            ],
            [
              116.34635,
              40.002
            ],
            [
              116.34635,
              40.0265
            ]
          ]
        ]
      }
    },
    {
      "type": "Feature",
      "id": "LU-004",
      "properties": {
        "id": "LU-004",
        "layer": "LAND_USE",
        "source_type": "agent_generated_design",
        "confidence": "medium",
        "geometry_role": "design_proposal",
        "land_use_code": "0803",
        "name_zh": "中关村科技服务翼·京张文化与公共记忆",
        "name_en": "Zhongguancun Technology Service Wing · Jing-Zhang culture and public memory",
        "planning_note": "Conceptual functional envelope; official parcels and regulatory controls are unavailable.",
        "area_sqm_declared": 1302825.785
      },
      "geometry": {
        "type": "Polygon",
        "coordinates": [
          [
            [
              116.34006111111111,
              39.962
            ],
            [
              116.34635,
              39.962
            ],
            [
              116.34635,
              39.939
            ],
            [
              116.3407,
              39.939
            ],
            [
              116.34006111111111,
              39.962
            ]
          ]
        ]
      }
    },
    {
      "type": "Feature",
      "id": "LU-005",
      "properties": {
        "id": "LU-005",
        "layer": "LAND_USE",
        "source_type": "agent_generated_design",
        "confidence": "medium",
        "geometry_role": "design_proposal",
        "land_use_code": "0804",
        "name_zh": "中关村科技服务翼·开放学习与人才服务",
        "name_en": "Zhongguancun Technology Service Wing · open learning and talent services",
        "planning_note": "Conceptual functional envelope; official parcels and regulatory controls are unavailable.",
        "area_sqm_declared": 2277728.798
      },
      "geometry": {
        "type": "Polygon",
        "coordinates": [
          [
            [
              116.3397,
              39.975
            ],
            [
              116.34144193548387,
              40.002
            ],
            [
              116.34635,
              40.002
            ],
            [
              116.34635,
              39.962
            ],
            [
              116.34006111111111,
              39.962
            ],
            [
              116.3397,
              39.975
            ]
          ]
        ]
      }
    },
    {
      "type": "Feature",
      "id": "LU-006",
      "properties": {
        "id": "LU-006",
        "layer": "LAND_USE",
        "source_type": "agent_generated_design",
        "confidence": "medium",
        "geometry_role": "design_proposal",
        "land_use_code": "0802",
        "name_zh": "中关村科技服务翼·AI研发与验证",
        "name_en": "Zhongguancun Technology Service Wing · AI research and validation",
        "planning_note": "Conceptual functional envelope; official parcels and regulatory controls are unavailable.",
        "area_sqm_declared": 987798.397
      },
      "geometry": {
        "type": "Polygon",
        "coordinates": [
          [
            [
              116.3417,
              40.006
            ],
            [
              116.3427,
              40.0265
            ],
            [
              116.34635,
              40.0265
            ],
            [
              116.34635,
              40.002
            ],
            [
              116.34144193548387,
              40.002
            ],
            [
              116.3417,
              40.006
            ]
          ]
        ]
      }
    },
    {
      "type": "Feature",
      "id": "LU-007",
      "properties": {
        "id": "LU-007",
        "layer": "LAND_USE",
        "source_type": "agent_generated_design",
        "confidence": "medium",
        "geometry_role": "design_proposal",
        "land_use_code": "05",
        "name_zh": "小月河场景赋能翼·京张文化与公共记忆",
        "name_en": "Xiaoyuehe Scenario Enablement Wing · Jing-Zhang culture and public memory",
        "planning_note": "Conceptual functional envelope; official parcels and regulatory controls are unavailable.",
        "area_sqm_declared": 1538666.252
      },
      "geometry": {
        "type": "Polygon",
        "coordinates": [
          [
            [
              116.3553,
              39.939
            ],
            [
              116.34825,
              39.939
            ],
            [
              116.34825,
              39.962
            ],
            [
              116.3553,
              39.962
            ],
            [
              116.3553,
              39.939
            ]
          ]
        ]
      }
    },
    {
      "type": "Feature",
      "id": "LU-008",
      "properties": {
        "id": "LU-008",
        "layer": "LAND_USE",
        "source_type": "agent_generated_design",
        "confidence": "medium",
        "geometry_role": "design_proposal",
        "land_use_code": "0702",
        "name_zh": "小月河场景赋能翼·开放学习与人才服务",
        "name_en": "Xiaoyuehe Scenario Enablement Wing · open learning and talent services",
        "planning_note": "Conceptual functional envelope; official parcels and regulatory controls are unavailable.",
        "area_sqm_declared": 2247444.696
      },
      "geometry": {
        "type": "Polygon",
        "coordinates": [
          [
            [
              116.3533,
              39.99
            ],
            [
              116.3553,
              39.965
            ],
            [
              116.3553,
              39.962
            ],
            [
              116.34825,
              39.962
            ],
            [
              116.34825,
              40.002
            ],
            [
              116.35395753424658,
              40.002
            ],
            [
              116.3533,
              39.99
            ]
          ]
        ]
      }
    },
    {
      "type": "Feature",
      "id": "LU-009",
      "properties": {
        "id": "LU-009",
        "layer": "LAND_USE",
        "source_type": "agent_generated_design",
        "confidence": "medium",
        "geometry_role": "design_proposal",
        "land_use_code": "0802",
        "name_zh": "小月河场景赋能翼·AI研发与验证",
        "name_en": "Xiaoyuehe Scenario Enablement Wing · AI research and validation",
        "planning_note": "Conceptual functional envelope; official parcels and regulatory controls are unavailable.",
        "area_sqm_declared": 1481574.878
      },
      "geometry": {
        "type": "Polygon",
        "coordinates": [
          [
            [
              116.35395753424658,
              40.002
            ],
            [
              116.34825,
              40.002
            ],
            [
              116.34825,
              40.0265
            ],
            [
              116.3553,
              40.0265
            ],
            [
              116.35395753424658,
              40.002
            ]
          ]
        ]
      }
    }
  ],
  "metadata": {
    "topology_method": "Exact partition of the submitted provisional site polygon by three congruently segmented spine and wing bands.",
    "legal_status": "design_proposal_not_statutory"
  }
}
