{
  "type": "FeatureCollection",
  "name": "phasing_conceptual",
  "features": [
    {
      "type": "Feature",
      "id": "PH1",
      "properties": {
        "id": "PH1",
        "layer": "PHASE",
        "name_zh": "近期示范（2026-2028）：京张绿带中段+原点社区+大钟寺智能原生示范",
        "phase_order": 1,
        "source_type": "agent_generated_design",
        "confidence": "medium",
        "geometry_role": "design_proposal",
        "area_sqm_declared": 8061044.45
      },
      "geometry": {
        "type": "Polygon",
        "coordinates": [
          [
            [
              116.3537542,
              39.9982885
            ],
            [
              116.3533,
              39.99
            ],
            [
              116.3553,
              39.965
            ],
            [
              116.3553,
              39.939
            ],
            [
              116.3407,
              39.939
            ],
            [
              116.3397,
              39.975
            ],
            [
              116.3412025,
              39.9982885
            ],
            [
              116.3537542,
              39.9982885
            ]
          ]
        ]
      }
    },
    {
      "type": "Feature",
      "id": "PH2",
      "properties": {
        "id": "PH2",
        "layer": "PHASE",
        "name_zh": "中期成型（2029-2031）：众智园+中关村服务翼+小月河场景翼",
        "phase_order": 2,
        "source_type": "agent_generated_design",
        "confidence": "medium",
        "geometry_role": "design_proposal",
        "area_sqm_declared": 3351790.956
      },
      "geometry": {
        "type": "Polygon",
        "coordinates": [
          [
            [
              116.3412025,
              39.9982885
            ],
            [
              116.3417,
              40.006
            ],
            [
              116.3427,
              40.0265
            ],
            [
              116.3553,
              40.0265
            ],
            [
              116.3537542,
              39.9982885
            ],
            [
              116.3412025,
              39.9982885
            ]
          ]
        ]
      }
    }
  ]
}
