{
  "type": "FeatureCollection",
  "name": "public_foyer_data_gap_envelope",
  "features": [
    {
      "type": "Feature",
      "id": "CONSTRAINT-001",
      "properties": {
        "id": "CONSTRAINT-001",
        "layer": "REGULATORY_CONTROL",
        "source_type": "agent_inferred_from_public_data",
        "confidence": "high",
        "geometry_role": "analysis_helper",
        "name_zh": "全域官方资料缺口提示面",
        "applies_to": [
          "official_boundary",
          "key_area_polygons",
          "regulatory_controls",
          "road_redlines",
          "existing_buildings_and_ownership",
          "heritage_and_blue_green_controls",
          "municipal_capacity"
        ],
        "usage_note": "该要素表达资料缺口适用范围，不是新增法定控制线。"
      },
      "geometry": {
        "type": "Polygon",
        "coordinates": [
          [
            [
              116.3407,
              39.939
            ],
            [
              116.3553,
              39.939
            ],
            [
              116.3553,
              39.965
            ],
            [
              116.3533,
              39.99
            ],
            [
              116.3553,
              40.0265
            ],
            [
              116.3427,
              40.0265
            ],
            [
              116.3417,
              40.006
            ],
            [
              116.3397,
              39.975
            ],
            [
              116.3407,
              39.939
            ]
          ]
        ]
      }
    }
  ]
}
