{
  "type": "FeatureCollection",
  "name": "land_use_jingzhang_ai_rail",
  "features": [
    {
      "type": "Feature",
      "id": "LU-101",
      "properties": {
        "id": "LU-101",
        "layer": "LAND_USE",
        "source_type": "agent_generated_design",
        "confidence": "medium",
        "geometry_role": "design_proposal",
        "land_use_code": "0701",
        "name_zh": "城镇住宅用地（西南生活片区）",
        "phase_hint": "phase_1",
        "area_sqm_declared": 450845.691
      },
      "geometry": {
        "type": "Polygon",
        "coordinates": [
          [
            [
              116.3407,
              39.939
            ],
            [
              116.3398736,
              39.96875
            ],
            [
              116.341884,
              39.96875
            ],
            [
              116.341884,
              39.939
            ],
            [
              116.3407,
              39.939
            ]
          ]
        ]
      }
    },
    {
      "type": "Feature",
      "id": "LU-102",
      "properties": {
        "id": "LU-102",
        "layer": "LAND_USE",
        "source_type": "agent_generated_design",
        "confidence": "medium",
        "geometry_role": "design_proposal",
        "land_use_code": "0802",
        "name_zh": "科研用地（大钟寺西侧研究更新区）",
        "phase_hint": "phase_1",
        "area_sqm_declared": 616519.582
      },
      "geometry": {
        "type": "Polygon",
        "coordinates": [
          [
            [
              116.341884,
              39.939
            ],
            [
              116.341884,
              39.96875
            ],
            [
              116.344068,
              39.96875
            ],
            [
              116.344068,
              39.939
            ],
            [
              116.341884,
              39.939
            ]
          ]
        ]
      }
    },
    {
      "type": "Feature",
      "id": "LU-103",
      "properties": {
        "id": "LU-103",
        "layer": "LAND_USE",
        "source_type": "agent_generated_design",
        "confidence": "medium",
        "geometry_role": "design_proposal",
        "land_use_code": "1401",
        "name_zh": "公园绿地（京张遗址公园南段）",
        "phase_hint": "phase_1",
        "area_sqm_declared": 704593.419
      },
      "geometry": {
        "type": "Polygon",
        "coordinates": [
          [
            [
              116.344068,
              39.939
            ],
            [
              116.344068,
              39.96875
            ],
            [
              116.346564,
              39.96875
            ],
            [
              116.346564,
              39.939
            ],
            [
              116.344068,
              39.939
            ]
          ]
        ]
      }
    },
    {
      "type": "Feature",
      "id": "LU-104",
      "properties": {
        "id": "LU-104",
        "layer": "LAND_USE",
        "source_type": "agent_generated_design",
        "confidence": "medium",
        "geometry_role": "design_proposal",
        "land_use_code": "1403",
        "name_zh": "广场用地（大钟寺四象限公共广场）",
        "phase_hint": "phase_1",
        "area_sqm_declared": 704593.006
      },
      "geometry": {
        "type": "Polygon",
        "coordinates": [
          [
            [
              116.346564,
              39.939
            ],
            [
              116.346564,
              39.96875
            ],
            [
              116.34906,
              39.96875
            ],
            [
              116.34906,
              39.939
            ],
            [
              116.346564,
              39.939
            ]
          ]
        ]
      }
    },
    {
      "type": "Feature",
      "id": "LU-105",
      "properties": {
        "id": "LU-105",
        "layer": "LAND_USE",
        "source_type": "agent_generated_design",
        "confidence": "medium",
        "geometry_role": "design_proposal",
        "land_use_code": "05",
        "name_zh": "商业服务业用地（大钟寺智能经济街区）",
        "phase_hint": "phase_1",
        "area_sqm_declared": 704592.595
      },
      "geometry": {
        "type": "Polygon",
        "coordinates": [
          [
            [
              116.34906,
              39.939
            ],
            [
              116.34906,
              39.96875
            ],
            [
              116.351556,
              39.96875
            ],
            [
              116.351556,
              39.939
            ],
            [
              116.34906,
              39.939
            ]
          ]
        ]
      }
    },
    {
      "type": "Feature",
      "id": "LU-106",
      "properties": {
        "id": "LU-106",
        "layer": "LAND_USE",
        "source_type": "agent_generated_design",
        "confidence": "medium",
        "geometry_role": "design_proposal",
        "land_use_code": "05",
        "name_zh": "商业服务业用地（南段商务服务区）",
        "phase_hint": "phase_1",
        "area_sqm_declared": 1051550.458
      },
      "geometry": {
        "type": "Polygon",
        "coordinates": [
          [
            [
              116.351556,
              39.939
            ],
            [
              116.351556,
              39.96875
            ],
            [
              116.355,
              39.96875
            ],
            [
              116.3553,
              39.965
            ],
            [
              116.3553,
              39.939
            ],
            [
              116.351556,
              39.939
            ]
          ]
        ]
      }
    },
    {
      "type": "Feature",
      "id": "LU-201",
      "properties": {
        "id": "LU-201",
        "layer": "LAND_USE",
        "source_type": "agent_generated_design",
        "confidence": "medium",
        "geometry_role": "design_proposal",
        "land_use_code": "0701",
        "name_zh": "城镇住宅用地（中部生活社区）",
        "phase_hint": "phase_2",
        "area_sqm_declared": 442183.043
      },
      "geometry": {
        "type": "Polygon",
        "coordinates": [
          [
            [
              116.3412161,
              39.9985
            ],
            [
              116.341884,
              39.9985
            ],
            [
              116.341884,
              39.96875
            ],
            [
              116.3398736,
              39.96875
            ],
            [
              116.3397,
              39.975
            ],
            [
              116.3412161,
              39.9985
            ]
          ]
        ]
      }
    },
    {
      "type": "Feature",
      "id": "LU-202",
      "properties": {
        "id": "LU-202",
        "layer": "LAND_USE",
        "source_type": "agent_generated_design",
        "confidence": "medium",
        "geometry_role": "design_proposal",
        "land_use_code": "0804",
        "name_zh": "教育用地（高校院所集聚区）",
        "phase_hint": "phase_2",
        "area_sqm_declared": 616255.514
      },
      "geometry": {
        "type": "Polygon",
        "coordinates": [
          [
            [
              116.341884,
              39.96875
            ],
            [
              116.341884,
              39.9985
            ],
            [
              116.344068,
              39.9985
            ],
            [
              116.344068,
              39.96875
            ],
            [
              116.341884,
              39.96875
            ]
          ]
        ]
      }
    },
    {
      "type": "Feature",
      "id": "LU-203",
      "properties": {
        "id": "LU-203",
        "layer": "LAND_USE",
        "source_type": "agent_generated_design",
        "confidence": "medium",
        "geometry_role": "design_proposal",
        "land_use_code": "1401",
        "name_zh": "公园绿地（京张遗址公园中段）",
        "phase_hint": "phase_2",
        "area_sqm_declared": 704291.628
      },
      "geometry": {
        "type": "Polygon",
        "coordinates": [
          [
            [
              116.344068,
              39.96875
            ],
            [
              116.344068,
              39.9985
            ],
            [
              116.346564,
              39.9985
            ],
            [
              116.346564,
              39.96875
            ],
            [
              116.344068,
              39.96875
            ]
          ]
        ]
      }
    },
    {
      "type": "Feature",
      "id": "LU-204",
      "properties": {
        "id": "LU-204",
        "layer": "LAND_USE",
        "source_type": "agent_generated_design",
        "confidence": "medium",
        "geometry_role": "design_proposal",
        "land_use_code": "0803",
        "name_zh": "文化用地（原点发布与成果展示界面）",
        "phase_hint": "phase_2",
        "area_sqm_declared": 704291.215
      },
      "geometry": {
        "type": "Polygon",
        "coordinates": [
          [
            [
              116.346564,
              39.96875
            ],
            [
              116.346564,
              39.9985
            ],
            [
              116.34906,
              39.9985
            ],
            [
              116.34906,
              39.96875
            ],
            [
              116.346564,
              39.96875
            ]
          ]
        ]
      }
    },
    {
      "type": "Feature",
      "id": "LU-205",
      "properties": {
        "id": "LU-205",
        "layer": "LAND_USE",
        "source_type": "agent_generated_design",
        "confidence": "medium",
        "geometry_role": "design_proposal",
        "land_use_code": "05",
        "name_zh": "商业服务业用地（五道口国际交往服务带）",
        "phase_hint": "phase_2",
        "area_sqm_declared": 704290.805
      },
      "geometry": {
        "type": "Polygon",
        "coordinates": [
          [
            [
              116.34906,
              39.96875
            ],
            [
              116.34906,
              39.9985
            ],
            [
              116.351556,
              39.9985
            ],
            [
              116.351556,
              39.96875
            ],
            [
              116.34906,
              39.96875
            ]
          ]
        ]
      }
    },
    {
      "type": "Feature",
      "id": "LU-206",
      "properties": {
        "id": "LU-206",
        "layer": "LAND_USE",
        "source_type": "agent_generated_design",
        "confidence": "medium",
        "geometry_role": "design_proposal",
        "land_use_code": "0701",
        "name_zh": "城镇住宅用地（东侧人才社区）",
        "phase_hint": "phase_2",
        "area_sqm_declared": 682221.085
      },
      "geometry": {
        "type": "Polygon",
        "coordinates": [
          [
            [
              116.3533,
              39.99
            ],
            [
              116.355,
              39.96875
            ],
            [
              116.351556,
              39.96875
            ],
            [
              116.351556,
              39.9985
            ],
            [
              116.3537658,
              39.9985
            ],
            [
              116.3533,
              39.99
            ]
          ]
        ]
      }
    },
    {
      "type": "Feature",
      "id": "LU-301",
      "properties": {
        "id": "LU-301",
        "layer": "LAND_USE",
        "source_type": "agent_generated_design",
        "confidence": "medium",
        "geometry_role": "design_proposal",
        "land_use_code": "0701",
        "name_zh": "城镇住宅用地（北部生活片区）",
        "phase_hint": "phase_3",
        "area_sqm_declared": 33582.171
      },
      "geometry": {
        "type": "Polygon",
        "coordinates": [
          [
            [
              116.3417,
              40.006
            ],
            [
              116.341884,
              40.009772
            ],
            [
              116.341884,
              39.9985
            ],
            [
              116.3412161,
              39.9985
            ],
            [
              116.3417,
              40.006
            ]
          ]
        ]
      }
    },
    {
      "type": "Feature",
      "id": "LU-302",
      "properties": {
        "id": "LU-302",
        "layer": "LAND_USE",
        "source_type": "agent_generated_design",
        "confidence": "medium",
        "geometry_role": "design_proposal",
        "land_use_code": "0802",
        "name_zh": "科研用地（众智园西翼全栈研发区）",
        "phase_hint": "phase_3",
        "area_sqm_declared": 515073.399
      },
      "geometry": {
        "type": "Polygon",
        "coordinates": [
          [
            [
              116.344068,
              40.0265
            ],
            [
              116.344068,
              39.9985
            ],
            [
              116.341884,
              39.9985
            ],
            [
              116.341884,
              40.009772
            ],
            [
              116.3427,
              40.0265
            ],
            [
              116.344068,
              40.0265
            ]
          ]
        ]
      }
    },
    {
      "type": "Feature",
      "id": "LU-303",
      "properties": {
        "id": "LU-303",
        "layer": "LAND_USE",
        "source_type": "agent_generated_design",
        "confidence": "medium",
        "geometry_role": "design_proposal",
        "land_use_code": "1401",
        "name_zh": "公园绿地（清河界面与公园北段）",
        "phase_hint": "phase_3",
        "area_sqm_declared": 662586.853
      },
      "geometry": {
        "type": "Polygon",
        "coordinates": [
          [
            [
              116.346564,
              40.0265
            ],
            [
              116.346564,
              39.9985
            ],
            [
              116.344068,
              39.9985
            ],
            [
              116.344068,
              40.0265
            ],
            [
              116.346564,
              40.0265
            ]
          ]
        ]
      }
    },
    {
      "type": "Feature",
      "id": "LU-304",
      "properties": {
        "id": "LU-304",
        "layer": "LAND_USE",
        "source_type": "agent_generated_design",
        "confidence": "medium",
        "geometry_role": "design_proposal",
        "land_use_code": "0802",
        "name_zh": "科研用地（众智园东翼创新加速区）",
        "phase_hint": "phase_3",
        "area_sqm_declared": 662586.465
      },
      "geometry": {
        "type": "Polygon",
        "coordinates": [
          [
            [
              116.34906,
              40.0265
            ],
            [
              116.34906,
              39.9985
            ],
            [
              116.346564,
              39.9985
            ],
            [
              116.346564,
              40.0265
            ],
            [
              116.34906,
              40.0265
            ]
          ]
        ]
      }
    },
    {
      "type": "Feature",
      "id": "LU-305",
      "properties": {
        "id": "LU-305",
        "layer": "LAND_USE",
        "source_type": "agent_generated_design",
        "confidence": "medium",
        "geometry_role": "design_proposal",
        "land_use_code": "0802",
        "name_zh": "科研用地（众智园产业加速区）",
        "phase_hint": "phase_3",
        "area_sqm_declared": 662586.079
      },
      "geometry": {
        "type": "Polygon",
        "coordinates": [
          [
            [
              116.351556,
              40.0265
            ],
            [
              116.351556,
              39.9985
            ],
            [
              116.34906,
              39.9985
            ],
            [
              116.34906,
              40.0265
            ],
            [
              116.351556,
              40.0265
            ]
          ]
        ]
      }
    },
    {
      "type": "Feature",
      "id": "LU-306",
      "properties": {
        "id": "LU-306",
        "layer": "LAND_USE",
        "source_type": "agent_generated_design",
        "confidence": "medium",
        "geometry_role": "design_proposal",
        "land_use_code": "16",
        "name_zh": "留白用地（远景弹性发展区）",
        "phase_hint": "phase_3",
        "area_sqm_declared": 790197.357
      },
      "geometry": {
        "type": "Polygon",
        "coordinates": [
          [
            [
              116.3537658,
              39.9985
            ],
            [
              116.351556,
              39.9985
            ],
            [
              116.351556,
              40.0265
            ],
            [
              116.3553,
              40.0265
            ],
            [
              116.3537658,
              39.9985
            ]
          ]
        ]
      }
    }
  ]
}
