{
  "type": "FeatureCollection",
  "name": "handover_line_conceptual_building_cells",
  "crs_note": "Exchange coordinates EPSG:4326; metric calculations EPSG:4548.",
  "features": [
    {
      "type": "Feature",
      "id": "BLDG-001",
      "properties": {
        "id": "BLDG-001",
        "layer": "BUILDING_FOOTPRINT",
        "source_type": "agent_generated_design",
        "confidence": "medium",
        "geometry_role": "design_proposal",
        "name_zh": "交接型更新单元 1",
        "name_en": "Handover renewal typology cell 1",
        "typology": "验证工坊",
        "building_type": "lab",
        "update_action": "retain_first_adaptive_reuse",
        "side": "west",
        "design_status": "conceptual_typology_cell_not_existing_inventory",
        "area_sqm_declared": 13200.0,
        "protocol_version": "0.2-concept",
        "applicability_scope": "交接型更新单元 1；仅为更新空间原型，不是现状建筑清单或拆改留结论",
        "accountable_role": "经授权的产权/运营牵头角色（任何干预前指派）",
        "next_review_trigger": "取得官方建筑普查、权属、结构、消防、文保或使用者影响证据时；任何干预提案变化后",
        "acceptance_gate": [
          "逐栋测绘与现状使用调查完成",
          "权属、结构、消防、文保与无障碍专业复核通过",
          "使用者协商、全生命周期公共利益与退出处置明确"
        ],
        "rollback_state": "保持现状使用与现状条件；专业调查前不实施建筑干预"
      },
      "geometry": {
        "type": "Polygon",
        "coordinates": [
          [
            [
              116.34331213533245,
              39.94486981332937
            ],
            [
              116.34506717616797,
              39.94487974111067
            ],
            [
              116.34507473287199,
              39.944087239879856
            ],
            [
              116.34331971228283,
              39.94407731237572
            ],
            [
              116.34331213533245,
              39.94486981332937
            ]
          ]
        ]
      }
    },
    {
      "type": "Feature",
      "id": "BLDG-002",
      "properties": {
        "id": "BLDG-002",
        "layer": "BUILDING_FOOTPRINT",
        "source_type": "agent_generated_design",
        "confidence": "medium",
        "geometry_role": "design_proposal",
        "name_zh": "交接型更新单元 2",
        "name_en": "Handover renewal typology cell 2",
        "typology": "共享服务栈",
        "building_type": "incubator",
        "update_action": "retain_first_adaptive_reuse",
        "side": "east",
        "design_status": "conceptual_typology_cell_not_existing_inventory",
        "area_sqm_declared": 13200.0,
        "protocol_version": "0.2-concept",
        "applicability_scope": "交接型更新单元 2；仅为更新空间原型，不是现状建筑清单或拆改留结论",
        "accountable_role": "经授权的产权/运营牵头角色（任何干预前指派）",
        "next_review_trigger": "取得官方建筑普查、权属、结构、消防、文保或使用者影响证据时；任何干预提案变化后",
        "acceptance_gate": [
          "逐栋测绘与现状使用调查完成",
          "权属、结构、消防、文保与无障碍专业复核通过",
          "使用者协商、全生命周期公共利益与退出处置明确"
        ],
        "rollback_state": "保持现状使用与现状条件；专业调查前不实施建筑干预"
      },
      "geometry": {
        "type": "Polygon",
        "coordinates": [
          [
            [
              116.35103432149704,
              39.94491329686085
            ],
            [
              116.35278936614002,
              39.94492310775597
            ],
            [
              116.35279683375958,
              39.94413060531451
            ],
            [
              116.35104180936317,
              39.94412079469326
            ],
            [
              116.35103432149704,
              39.94491329686085
            ]
          ]
        ]
      }
    },
    {
      "type": "Feature",
      "id": "BLDG-003",
      "properties": {
        "id": "BLDG-003",
        "layer": "BUILDING_FOOTPRINT",
        "source_type": "agent_generated_design",
        "confidence": "medium",
        "geometry_role": "design_proposal",
        "name_zh": "交接型更新单元 3",
        "name_en": "Handover renewal typology cell 3",
        "typology": "社区协作屋",
        "building_type": "community_service",
        "update_action": "investigate_before_any_intervention",
        "side": "west",
        "design_status": "conceptual_typology_cell_not_existing_inventory",
        "area_sqm_declared": 9504.0,
        "protocol_version": "0.2-concept",
        "applicability_scope": "交接型更新单元 3；仅为更新空间原型，不是现状建筑清单或拆改留结论",
        "accountable_role": "经授权的产权/运营牵头角色（任何干预前指派）",
        "next_review_trigger": "取得官方建筑普查、权属、结构、消防、文保或使用者影响证据时；任何干预提案变化后",
        "acceptance_gate": [
          "逐栋测绘与现状使用调查完成",
          "权属、结构、消防、文保与无障碍专业复核通过",
          "使用者协商、全生命周期公共利益与退出处置明确"
        ],
        "rollback_state": "保持现状使用与现状条件；专业调查前不实施建筑干预"
      },
      "geometry": {
        "type": "Polygon",
        "coordinates": [
          [
            [
              116.34335120234927,
              39.95179798366253
            ],
            [
              116.34489579405853,
              39.951806722242274
            ],
            [
              116.3449019799731,
              39.95115831295181
            ],
            [
              116.34335740284631,
              39.951149574571666
            ],
            [
              116.34335120234927,
              39.95179798366253
            ]
          ]
        ]
      }
    },
    {
      "type": "Feature",
      "id": "BLDG-004",
      "properties": {
        "id": "BLDG-004",
        "layer": "BUILDING_FOOTPRINT",
        "source_type": "agent_generated_design",
        "confidence": "medium",
        "geometry_role": "design_proposal",
        "name_zh": "交接型更新单元 4",
        "name_en": "Handover renewal typology cell 4",
        "typology": "开放研发院",
        "building_type": "ai_r_and_d",
        "update_action": "retain_first_adaptive_reuse",
        "side": "east",
        "design_status": "conceptual_typology_cell_not_existing_inventory",
        "area_sqm_declared": 9504.0,
        "protocol_version": "0.2-concept",
        "applicability_scope": "交接型更新单元 4；仅为更新空间原型，不是现状建筑清单或拆改留结论",
        "accountable_role": "经授权的产权/运营牵头角色（任何干预前指派）",
        "next_review_trigger": "取得官方建筑普查、权属、结构、消防、文保或使用者影响证据时；任何干预提案变化后",
        "acceptance_gate": [
          "逐栋测绘与现状使用调查完成",
          "权属、结构、消防、文保与无障碍专业复核通过",
          "使用者协商、全生命周期公共利益与退出处置明确"
        ],
        "rollback_state": "保持现状使用与现状条件；专业调查前不实施建筑干预"
      },
      "geometry": {
        "type": "Polygon",
        "coordinates": [
          [
            [
              116.3510741676152,
              39.95184147079166
            ],
            [
              116.35261876267631,
              39.95185010648648
            ],
            [
              116.35262487567813,
              39.95120169620512
            ],
            [
              116.35108029519961,
              39.951193060707546
            ],
            [
              116.3510741676152,
              39.95184147079166
            ]
          ]
        ]
      }
    },
    {
      "type": "Feature",
      "id": "BLDG-005",
      "properties": {
        "id": "BLDG-005",
        "layer": "BUILDING_FOOTPRINT",
        "source_type": "agent_generated_design",
        "confidence": "medium",
        "geometry_role": "design_proposal",
        "name_zh": "交接型更新单元 5",
        "name_en": "Handover renewal typology cell 5",
        "typology": "验证工坊",
        "building_type": "lab",
        "update_action": "retain_first_adaptive_reuse",
        "side": "west",
        "design_status": "conceptual_typology_cell_not_existing_inventory",
        "area_sqm_declared": 10800.0,
        "protocol_version": "0.2-concept",
        "applicability_scope": "交接型更新单元 5；仅为更新空间原型，不是现状建筑清单或拆改留结论",
        "accountable_role": "经授权的产权/运营牵头角色（任何干预前指派）",
        "next_review_trigger": "取得官方建筑普查、权属、结构、消防、文保或使用者影响证据时；任何干预提案变化后",
        "acceptance_gate": [
          "逐栋测绘与现状使用调查完成",
          "权属、结构、消防、文保与无障碍专业复核通过",
          "使用者协商、全生命周期公共利益与退出处置明确"
        ],
        "rollback_state": "保持现状使用与现状条件；专业调查前不实施建筑干预"
      },
      "geometry": {
        "type": "Polygon",
        "coordinates": [
          [
            [
              116.34315022732737,
              39.96179684290429
            ],
            [
              116.34490570079697,
              39.961806776606764
            ],
            [
              116.34491188880799,
              39.96115836843689
            ],
            [
              116.34315643191765,
              39.961148434961295
            ],
            [
              116.34315022732737,
              39.96179684290429
            ]
          ]
        ]
      }
    },
    {
      "type": "Feature",
      "id": "BLDG-006",
      "properties": {
        "id": "BLDG-006",
        "layer": "BUILDING_FOOTPRINT",
        "source_type": "agent_generated_design",
        "confidence": "medium",
        "geometry_role": "design_proposal",
        "name_zh": "交接型更新单元 6",
        "name_en": "Handover renewal typology cell 6",
        "typology": "共享服务栈",
        "building_type": "incubator",
        "update_action": "investigate_before_any_intervention",
        "side": "east",
        "design_status": "conceptual_typology_cell_not_existing_inventory",
        "area_sqm_declared": 10800.0,
        "protocol_version": "0.2-concept",
        "applicability_scope": "交接型更新单元 6；仅为更新空间原型，不是现状建筑清单或拆改留结论",
        "accountable_role": "经授权的产权/运营牵头角色（任何干预前指派）",
        "next_review_trigger": "取得官方建筑普查、权属、结构、消防、文保或使用者影响证据时；任何干预提案变化后",
        "acceptance_gate": [
          "逐栋测绘与现状使用调查完成",
          "权属、结构、消防、文保与无障碍专业复核通过",
          "使用者协商、全生命周期公共利益与退出处置明确"
        ],
        "rollback_state": "保持现状使用与现状条件；专业调查前不实施建筑干预"
      },
      "geometry": {
        "type": "Polygon",
        "coordinates": [
          [
            [
              116.35087431708816,
              39.96184035237048
            ],
            [
              116.35262979436882,
              39.9618501691171
            ],
            [
              116.35263590943063,
              39.96120175995619
            ],
            [
              116.35088044872938,
              39.96119194343378
            ],
            [
              116.35087431708816,
              39.96184035237048
            ]
          ]
        ]
      }
    },
    {
      "type": "Feature",
      "id": "BLDG-007",
      "properties": {
        "id": "BLDG-007",
        "layer": "BUILDING_FOOTPRINT",
        "source_type": "agent_generated_design",
        "confidence": "medium",
        "geometry_role": "design_proposal",
        "name_zh": "交接型更新单元 7",
        "name_en": "Handover renewal typology cell 7",
        "typology": "社区协作屋",
        "building_type": "community_service",
        "update_action": "retain_first_adaptive_reuse",
        "side": "west",
        "design_status": "conceptual_typology_cell_not_existing_inventory",
        "area_sqm_declared": 11616.0,
        "protocol_version": "0.2-concept",
        "applicability_scope": "交接型更新单元 7；仅为更新空间原型，不是现状建筑清单或拆改留结论",
        "accountable_role": "经授权的产权/运营牵头角色（任何干预前指派）",
        "next_review_trigger": "取得官方建筑普查、权属、结构、消防、文保或使用者影响证据时；任何干预提案变化后",
        "acceptance_gate": [
          "逐栋测绘与现状使用调查完成",
          "权属、结构、消防、文保与无障碍专业复核通过",
          "使用者协商、全生命周期公共利益与退出处置明确"
        ],
        "rollback_state": "保持现状使用与现状条件；专业调查前不实施建筑干预"
      },
      "geometry": {
        "type": "Polygon",
        "coordinates": [
          [
            [
              116.34316874311978,
              39.97086899494521
            ],
            [
              116.34471376394094,
              39.97087773939694
            ],
            [
              116.34472133168344,
              39.97008524178694
            ],
            [
              116.34317632870221,
              39.97007649757929
            ],
            [
              116.34316874311978,
              39.97086899494521
            ]
          ]
        ]
      }
    },
    {
      "type": "Feature",
      "id": "BLDG-008",
      "properties": {
        "id": "BLDG-008",
        "layer": "BUILDING_FOOTPRINT",
        "source_type": "agent_generated_design",
        "confidence": "medium",
        "geometry_role": "design_proposal",
        "name_zh": "交接型更新单元 8",
        "name_en": "Handover renewal typology cell 8",
        "typology": "开放研发院",
        "building_type": "ai_r_and_d",
        "update_action": "retain_first_adaptive_reuse",
        "side": "east",
        "design_status": "conceptual_typology_cell_not_existing_inventory",
        "area_sqm_declared": 11616.0,
        "protocol_version": "0.2-concept",
        "applicability_scope": "交接型更新单元 8；仅为更新空间原型，不是现状建筑清单或拆改留结论",
        "accountable_role": "经授权的产权/运营牵头角色（任何干预前指派）",
        "next_review_trigger": "取得官方建筑普查、权属、结构、消防、文保或使用者影响证据时；任何干预提案变化后",
        "acceptance_gate": [
          "逐栋测绘与现状使用调查完成",
          "权属、结构、消防、文保与无障碍专业复核通过",
          "使用者协商、全生命周期公共利益与退出处置明确"
        ],
        "rollback_state": "保持现状使用与现状条件；专业调查前不实施建筑干预"
      },
      "geometry": {
        "type": "Polygon",
        "coordinates": [
          [
            [
              116.35089385395233,
              39.97091251129599
            ],
            [
              116.3524388781289,
              39.97092115279367
            ],
            [
              116.35244635667121,
              39.97012865397192
            ],
            [
              116.35090135033471,
              39.97012001271544
            ],
            [
              116.35089385395233,
              39.97091251129599
            ]
          ]
        ]
      }
    },
    {
      "type": "Feature",
      "id": "BLDG-009",
      "properties": {
        "id": "BLDG-009",
        "layer": "BUILDING_FOOTPRINT",
        "source_type": "agent_generated_design",
        "confidence": "medium",
        "geometry_role": "design_proposal",
        "name_zh": "交接型更新单元 9",
        "name_en": "Handover renewal typology cell 9",
        "typology": "验证工坊",
        "building_type": "lab",
        "update_action": "investigate_before_any_intervention",
        "side": "west",
        "design_status": "conceptual_typology_cell_not_existing_inventory",
        "area_sqm_declared": 10800.0,
        "protocol_version": "0.2-concept",
        "applicability_scope": "交接型更新单元 9；仅为更新空间原型，不是现状建筑清单或拆改留结论",
        "accountable_role": "经授权的产权/运营牵头角色（任何干预前指派）",
        "next_review_trigger": "取得官方建筑普查、权属、结构、消防、文保或使用者影响证据时；任何干预提案变化后",
        "acceptance_gate": [
          "逐栋测绘与现状使用调查完成",
          "权属、结构、消防、文保与无障碍专业复核通过",
          "使用者协商、全生命周期公共利益与退出处置明确"
        ],
        "rollback_state": "保持现状使用与现状条件；专业调查前不实施建筑干预"
      },
      "geometry": {
        "type": "Polygon",
        "coordinates": [
          [
            [
              116.34297791487246,
              39.97979586230817
            ],
            [
              116.34473384877784,
              39.979805802310004
            ],
            [
              116.34474004235645,
              39.97915739618184
            ],
            [
              116.34298412504528,
              39.97914745640699
            ],
            [
              116.34297791487246,
              39.97979586230817
            ]
          ]
        ]
      }
    },
    {
      "type": "Feature",
      "id": "BLDG-010",
      "properties": {
        "id": "BLDG-010",
        "layer": "BUILDING_FOOTPRINT",
        "source_type": "agent_generated_design",
        "confidence": "medium",
        "geometry_role": "design_proposal",
        "name_zh": "交接型更新单元 10",
        "name_en": "Handover renewal typology cell 10",
        "typology": "共享服务栈",
        "building_type": "incubator",
        "update_action": "retain_first_adaptive_reuse",
        "side": "east",
        "design_status": "conceptual_typology_cell_not_existing_inventory",
        "area_sqm_declared": 10800.0,
        "protocol_version": "0.2-concept",
        "applicability_scope": "交接型更新单元 10；仅为更新空间原型，不是现状建筑清单或拆改留结论",
        "accountable_role": "经授权的产权/运营牵头角色（任何干预前指派）",
        "next_review_trigger": "取得官方建筑普查、权属、结构、消防、文保或使用者影响证据时；任何干预提案变化后",
        "acceptance_gate": [
          "逐栋测绘与现状使用调查完成",
          "权属、结构、消防、文保与无障碍专业复核通过",
          "使用者协商、全生命周期公共利益与退出处置明确"
        ],
        "rollback_state": "保持现状使用与现状条件；专业调查前不实施建筑干预"
      },
      "geometry": {
        "type": "Polygon",
        "coordinates": [
          [
            [
              116.35070403055714,
              39.97983939936546
            ],
            [
              116.3524599682774,
              39.979849222337265
            ],
            [
              116.35246608884118,
              39.97920081521757
            ],
            [
              116.35071016771525,
              39.97919099247008
            ],
            [
              116.35070403055714,
              39.97983939936546
            ]
          ]
        ]
      }
    },
    {
      "type": "Feature",
      "id": "BLDG-011",
      "properties": {
        "id": "BLDG-011",
        "layer": "BUILDING_FOOTPRINT",
        "source_type": "agent_generated_design",
        "confidence": "medium",
        "geometry_role": "design_proposal",
        "name_zh": "交接型更新单元 11",
        "name_en": "Handover renewal typology cell 11",
        "typology": "社区协作屋",
        "building_type": "community_service",
        "update_action": "retain_first_adaptive_reuse",
        "side": "west",
        "design_status": "conceptual_typology_cell_not_existing_inventory",
        "area_sqm_declared": 9504.0,
        "protocol_version": "0.2-concept",
        "applicability_scope": "交接型更新单元 11；仅为更新空间原型，不是现状建筑清单或拆改留结论",
        "accountable_role": "经授权的产权/运营牵头角色（任何干预前指派）",
        "next_review_trigger": "取得官方建筑普查、权属、结构、消防、文保或使用者影响证据时；任何干预提案变化后",
        "acceptance_gate": [
          "逐栋测绘与现状使用调查完成",
          "权属、结构、消防、文保与无障碍专业复核通过",
          "使用者协商、全生命周期公共利益与退出处置明确"
        ],
        "rollback_state": "保持现状使用与现状条件；专业调查前不实施建筑干预"
      },
      "geometry": {
        "type": "Polygon",
        "coordinates": [
          [
            [
              116.3429970701461,
              39.98879596884693
            ],
            [
              116.34454249471173,
              39.98880471882134
            ],
            [
              116.34454869207235,
              39.98815631372773
            ],
            [
              116.34300328211617,
              39.98814756395312
            ],
            [
              116.3429970701461,
              39.98879596884693
            ]
          ]
        ]
      }
    },
    {
      "type": "Feature",
      "id": "BLDG-012",
      "properties": {
        "id": "BLDG-012",
        "layer": "BUILDING_FOOTPRINT",
        "source_type": "agent_generated_design",
        "confidence": "medium",
        "geometry_role": "design_proposal",
        "name_zh": "交接型更新单元 12",
        "name_en": "Handover renewal typology cell 12",
        "typology": "开放研发院",
        "building_type": "ai_r_and_d",
        "update_action": "investigate_before_any_intervention",
        "side": "east",
        "design_status": "conceptual_typology_cell_not_existing_inventory",
        "area_sqm_declared": 9504.0,
        "protocol_version": "0.2-concept",
        "applicability_scope": "交接型更新单元 12；仅为更新空间原型，不是现状建筑清单或拆改留结论",
        "accountable_role": "经授权的产权/运营牵头角色（任何干预前指派）",
        "next_review_trigger": "取得官方建筑普查、权属、结构、消防、文保或使用者影响证据时；任何干预提案变化后",
        "acceptance_gate": [
          "逐栋测绘与现状使用调查完成",
          "权属、结构、消防、文保与无障碍专业复核通过",
          "使用者协商、全生命周期公共利益与退出处置明确"
        ],
        "rollback_state": "保持现状使用与现状条件；专业调查前不实施建筑干预"
      },
      "geometry": {
        "type": "Polygon",
        "coordinates": [
          [
            [
              116.3507241997077,
              39.98883951268114
            ],
            [
              116.35226962763211,
              39.988848159636476
            ],
            [
              116.35227575194511,
              39.98819975355093
            ],
            [
              116.35073033863027,
              39.988191106793025
            ],
            [
              116.3507241997077,
              39.98883951268114
            ]
          ]
        ]
      }
    },
    {
      "type": "Feature",
      "id": "BLDG-013",
      "properties": {
        "id": "BLDG-013",
        "layer": "BUILDING_FOOTPRINT",
        "source_type": "agent_generated_design",
        "confidence": "medium",
        "geometry_role": "design_proposal",
        "name_zh": "交接型更新单元 13",
        "name_en": "Handover renewal typology cell 13",
        "typology": "验证工坊",
        "building_type": "lab",
        "update_action": "retain_first_adaptive_reuse",
        "side": "west",
        "design_status": "conceptual_typology_cell_not_existing_inventory",
        "area_sqm_declared": 13200.0,
        "protocol_version": "0.2-concept",
        "applicability_scope": "交接型更新单元 13；仅为更新空间原型，不是现状建筑清单或拆改留结论",
        "accountable_role": "经授权的产权/运营牵头角色（任何干预前指派）",
        "next_review_trigger": "取得官方建筑普查、权属、结构、消防、文保或使用者影响证据时；任何干预提案变化后",
        "acceptance_gate": [
          "逐栋测绘与现状使用调查完成",
          "权属、结构、消防、文保与无障碍专业复核通过",
          "使用者协商、全生命周期公共利益与退出处置明确"
        ],
        "rollback_state": "保持现状使用与现状条件；专业调查前不实施建筑干预"
      },
      "geometry": {
        "type": "Polygon",
        "coordinates": [
          [
            [
              116.34280475618938,
              39.99786692524024
            ],
            [
              116.34456115279164,
              39.997876871569936
            ],
            [
              116.34456872953277,
              39.99708437768681
            ],
            [
              116.34281235323053,
              39.99707443163467
            ],
            [
              116.34280475618938,
              39.99786692524024
            ]
          ]
        ]
      }
    },
    {
      "type": "Feature",
      "id": "BLDG-014",
      "properties": {
        "id": "BLDG-014",
        "layer": "BUILDING_FOOTPRINT",
        "source_type": "agent_generated_design",
        "confidence": "medium",
        "geometry_role": "design_proposal",
        "name_zh": "交接型更新单元 14",
        "name_en": "Handover renewal typology cell 14",
        "typology": "共享服务栈",
        "building_type": "incubator",
        "update_action": "retain_first_adaptive_reuse",
        "side": "east",
        "design_status": "conceptual_typology_cell_not_existing_inventory",
        "area_sqm_declared": 13200.0,
        "protocol_version": "0.2-concept",
        "applicability_scope": "交接型更新单元 14；仅为更新空间原型，不是现状建筑清单或拆改留结论",
        "accountable_role": "经授权的产权/运营牵头角色（任何干预前指派）",
        "next_review_trigger": "取得官方建筑普查、权属、结构、消防、文保或使用者影响证据时；任何干预提案变化后",
        "acceptance_gate": [
          "逐栋测绘与现状使用调查完成",
          "权属、结构、消防、文保与无障碍专业复核通过",
          "使用者协商、全生命周期公共利益与退出处置明确"
        ],
        "rollback_state": "保持现状使用与现状条件；专业调查前不实施建筑干预"
      },
      "geometry": {
        "type": "Polygon",
        "coordinates": [
          [
            [
              116.35053290774695,
              39.99791049001353
            ],
            [
              116.35228930816797,
              39.99792031923872
            ],
            [
              116.35229679558849,
              39.99712782414309
            ],
            [
              116.35054041546768,
              39.997117995192205
            ],
            [
              116.35053290774695,
              39.99791049001353
            ]
          ]
        ]
      }
    },
    {
      "type": "Feature",
      "id": "BLDG-015",
      "properties": {
        "id": "BLDG-015",
        "layer": "BUILDING_FOOTPRINT",
        "source_type": "agent_generated_design",
        "confidence": "medium",
        "geometry_role": "design_proposal",
        "name_zh": "交接型更新单元 15",
        "name_en": "Handover renewal typology cell 15",
        "typology": "社区协作屋",
        "building_type": "community_service",
        "update_action": "investigate_before_any_intervention",
        "side": "west",
        "design_status": "conceptual_typology_cell_not_existing_inventory",
        "area_sqm_declared": 9504.0,
        "protocol_version": "0.2-concept",
        "applicability_scope": "交接型更新单元 15；仅为更新空间原型，不是现状建筑清单或拆改留结论",
        "accountable_role": "经授权的产权/运营牵头角色（任何干预前指派）",
        "next_review_trigger": "取得官方建筑普查、权属、结构、消防、文保或使用者影响证据时；任何干预提案变化后",
        "acceptance_gate": [
          "逐栋测绘与现状使用调查完成",
          "权属、结构、消防、文保与无障碍专业复核通过",
          "使用者协商、全生命周期公共利益与退出处置明确"
        ],
        "rollback_state": "保持现状使用与现状条件；专业调查前不实施建筑干预"
      },
      "geometry": {
        "type": "Polygon",
        "coordinates": [
          [
            [
              116.34281496302071,
              40.00779493201089
            ],
            [
              116.34436081587002,
              40.007803687841374
            ],
            [
              116.34436701911756,
              40.00715528490331
            ],
            [
              116.34282118089158,
              40.00714652927275
            ],
            [
              116.34281496302071,
              40.00779493201089
            ]
          ]
        ]
      }
    },
    {
      "type": "Feature",
      "id": "BLDG-016",
      "properties": {
        "id": "BLDG-016",
        "layer": "BUILDING_FOOTPRINT",
        "source_type": "agent_generated_design",
        "confidence": "medium",
        "geometry_role": "design_proposal",
        "name_zh": "交接型更新单元 16",
        "name_en": "Handover renewal typology cell 16",
        "typology": "开放研发院",
        "building_type": "ai_r_and_d",
        "update_action": "retain_first_adaptive_reuse",
        "side": "east",
        "design_status": "conceptual_typology_cell_not_existing_inventory",
        "area_sqm_declared": 9504.0,
        "protocol_version": "0.2-concept",
        "applicability_scope": "交接型更新单元 16；仅为更新空间原型，不是现状建筑清单或拆改留结论",
        "accountable_role": "经授权的产权/运营牵头角色（任何干预前指派）",
        "next_review_trigger": "取得官方建筑普查、权属、结构、消防、文保或使用者影响证据时；任何干预提案变化后",
        "acceptance_gate": [
          "逐栋测绘与现状使用调查完成",
          "权属、结构、消防、文保与无障碍专业复核通过",
          "使用者协商、全生命周期公共利益与退出处置明确"
        ],
        "rollback_state": "保持现状使用与现状条件；专业调查前不实施建筑干预"
      },
      "geometry": {
        "type": "Polygon",
        "coordinates": [
          [
            [
              116.35054423400788,
              40.00783850498755
            ],
            [
              116.35209009021955,
              40.00784715773002
            ],
            [
              116.35209622035008,
              40.00719875379947
            ],
            [
              116.35055037876188,
              40.00719010125455
            ],
            [
              116.35054423400788,
              40.00783850498755
            ]
          ]
        ]
      }
    },
    {
      "type": "Feature",
      "id": "BLDG-017",
      "properties": {
        "id": "BLDG-017",
        "layer": "BUILDING_FOOTPRINT",
        "source_type": "agent_generated_design",
        "confidence": "medium",
        "geometry_role": "design_proposal",
        "name_zh": "交接型更新单元 17",
        "name_en": "Handover renewal typology cell 17",
        "typology": "验证工坊",
        "building_type": "lab",
        "update_action": "retain_first_adaptive_reuse",
        "side": "west",
        "design_status": "conceptual_typology_cell_not_existing_inventory",
        "area_sqm_declared": 10800.0,
        "protocol_version": "0.2-concept",
        "applicability_scope": "交接型更新单元 17；仅为更新空间原型，不是现状建筑清单或拆改留结论",
        "accountable_role": "经授权的产权/运营牵头角色（任何干预前指派）",
        "next_review_trigger": "取得官方建筑普查、权属、结构、消防、文保或使用者影响证据时；任何干预提案变化后",
        "acceptance_gate": [
          "逐栋测绘与现状使用调查完成",
          "权属、结构、消防、文保与无障碍专业复核通过",
          "使用者协商、全生命周期公共利益与退出处置明确"
        ],
        "rollback_state": "保持现状使用与现状条件；专业调查前不实施建筑干预"
      },
      "geometry": {
        "type": "Polygon",
        "coordinates": [
          [
            [
              116.3426280257493,
              40.01629386976115
            ],
            [
              116.34438489459252,
              40.01630382254677
            ],
            [
              116.34439109947823,
              40.015655420559504
            ],
            [
              116.34263424725953,
              40.01564546800111
            ],
            [
              116.3426280257493,
              40.01629386976115
            ]
          ]
        ]
      }
    },
    {
      "type": "Feature",
      "id": "BLDG-018",
      "properties": {
        "id": "BLDG-018",
        "layer": "BUILDING_FOOTPRINT",
        "source_type": "agent_generated_design",
        "confidence": "medium",
        "geometry_role": "design_proposal",
        "name_zh": "交接型更新单元 18",
        "name_en": "Handover renewal typology cell 18",
        "typology": "共享服务栈",
        "building_type": "incubator",
        "update_action": "investigate_before_any_intervention",
        "side": "east",
        "design_status": "conceptual_typology_cell_not_existing_inventory",
        "area_sqm_declared": 10726.099,
        "protocol_version": "0.2-concept",
        "applicability_scope": "交接型更新单元 18；仅为更新空间原型，不是现状建筑清单或拆改留结论",
        "accountable_role": "经授权的产权/运营牵头角色（任何干预前指派）",
        "next_review_trigger": "取得官方建筑普查、权属、结构、消防、文保或使用者影响证据时；任何干预提案变化后",
        "acceptance_gate": [
          "逐栋测绘与现状使用调查完成",
          "权属、结构、消防、文保与无障碍专业复核通过",
          "使用者协商、全生命周期公共利益与退出处置明确"
        ],
        "rollback_state": "保持现状使用与现状条件；专业调查前不实施建筑干预"
      },
      "geometry": {
        "type": "Polygon",
        "coordinates": [
          [
            [
              116.35036034414199,
              40.01611716377436
            ],
            [
              116.35036179958813,
              40.016120364777116
            ],
            [
              116.35041277657247,
              40.016281828059405
            ],
            [
              116.35042303778306,
              40.01633782596057
            ],
            [
              116.35211512783953,
              40.01634729841633
            ],
            [
              116.35212125957716,
              40.01569889543648
            ],
            [
              116.3503644035359,
              40.01568906005594
            ],
            [
              116.35036034414199,
              40.01611716377436
            ]
          ]
        ]
      }
    },
    {
      "type": "Feature",
      "id": "BLDG-019",
      "properties": {
        "id": "BLDG-019",
        "layer": "BUILDING_FOOTPRINT",
        "source_type": "agent_generated_design",
        "confidence": "medium",
        "geometry_role": "design_proposal",
        "name_zh": "交接型更新单元 19",
        "name_en": "Handover renewal typology cell 19",
        "typology": "社区协作屋",
        "building_type": "community_service",
        "update_action": "retain_first_adaptive_reuse",
        "side": "west",
        "design_status": "conceptual_typology_cell_not_existing_inventory",
        "area_sqm_declared": 11616.0,
        "protocol_version": "0.2-concept",
        "applicability_scope": "交接型更新单元 19；仅为更新空间原型，不是现状建筑清单或拆改留结论",
        "accountable_role": "经授权的产权/运营牵头角色（任何干预前指派）",
        "next_review_trigger": "取得官方建筑普查、权属、结构、消防、文保或使用者影响证据时；任何干预提案变化后",
        "acceptance_gate": [
          "逐栋测绘与现状使用调查完成",
          "权属、结构、消防、文保与无障碍专业复核通过",
          "使用者协商、全生命周期公共利益与退出处置明确"
        ],
        "rollback_state": "保持现状使用与现状条件；专业调查前不实施建筑干预"
      },
      "geometry": {
        "type": "Polygon",
        "coordinates": [
          [
            [
              116.34267038022482,
              40.02286615695533
            ],
            [
              116.34421657310719,
              40.022874917433526
            ],
            [
              116.34422416053998,
              40.02208242703384
            ],
            [
              116.34267798554397,
              40.022073666800075
            ],
            [
              116.34267038022482,
              40.02286615695533
            ]
          ]
        ]
      }
    },
    {
      "type": "Feature",
      "id": "BLDG-020",
      "properties": {
        "id": "BLDG-020",
        "layer": "BUILDING_FOOTPRINT",
        "source_type": "agent_generated_design",
        "confidence": "medium",
        "geometry_role": "design_proposal",
        "name_zh": "交接型更新单元 20",
        "name_en": "Handover renewal typology cell 20",
        "typology": "开放研发院",
        "building_type": "ai_r_and_d",
        "update_action": "retain_first_adaptive_reuse",
        "side": "east",
        "design_status": "conceptual_typology_cell_not_existing_inventory",
        "area_sqm_declared": 11616.0,
        "protocol_version": "0.2-concept",
        "applicability_scope": "交接型更新单元 20；仅为更新空间原型，不是现状建筑清单或拆改留结论",
        "accountable_role": "经授权的产权/运营牵头角色（任何干预前指派）",
        "next_review_trigger": "取得官方建筑普查、权属、结构、消防、文保或使用者影响证据时；任何干预提案变化后",
        "acceptance_gate": [
          "逐栋测绘与现状使用调查完成",
          "权属、结构、消防、文保与无障碍专业复核通过",
          "使用者协商、全生命周期公共利益与退出处置明确"
        ],
        "rollback_state": "保持现状使用与现状条件；专业调查前不实施建筑干预"
      },
      "geometry": {
        "type": "Polygon",
        "coordinates": [
          [
            [
              116.35040135138303,
              40.0229097530611
            ],
            [
              116.35194754763057,
              40.022918410396564
            ],
            [
              116.35195504563112,
              40.0221259187833
            ],
            [
              116.35040886727006,
              40.022117261689395
            ],
            [
              116.35040135138303,
              40.0229097530611
            ]
          ]
        ]
      }
    }
  ]
}
