{
 "type": "FeatureCollection",
 "features": [
  {
   "type": "Feature",
   "id": "PUBLIC-001",
   "properties": {
    "id": "PUBLIC-001",
    "layer": "PUBLIC_SPACE",
    "node_name_zh": "北口·众智园交汇场",
    "source_type": "agent_generated_design",
    "confidence": "low",
    "geometry_role": "design_proposal",
    "official_boundary": false,
    "usage_note": "Conceptual crossing/public-space node; provisional location.",
    "area_sqm_declared": 96341.8
   },
   "geometry": {
    "type": "Polygon",
    "coordinates": [
     [
      [
       116.35079133250801,
       40.01582356914741
      ],
      [
       116.35076541350473,
       40.01564883742037
      ],
      [
       116.35072249260432,
       40.01547748758094
      ],
      [
       116.35066298315853,
       40.01531116982174
      ],
      [
       116.35058745827583,
       40.01515148587371
      ],
      [
       116.35049664530214,
       40.014999973580565
      ],
      [
       116.35039141881606,
       40.0148580920885
      ],
      [
       116.35027279220614,
       40.01472720779386
      ],
      [
       116.35014190791149,
       40.01460858118394
      ],
      [
       116.35000002641944,
       40.01450335469785
      ],
      [
       116.3498485141263,
       40.01441254172417
      ],
      [
       116.34968883017827,
       40.01433701684148
      ],
      [
       116.34952251241906,
       40.01427750739568
      ],
      [
       116.34935116257964,
       40.01423458649527
      ],
      [
       116.3491764308526,
       40.014208667491985
      ],
      [
       116.349,
       40.014199999999995
      ],
      [
       116.34882356914741,
       40.014208667491985
      ],
      [
       116.34864883742037,
       40.01423458649527
      ],
      [
       116.34847748758095,
       40.01427750739568
      ],
      [
       116.34831116982174,
       40.01433701684148
      ],
      [
       116.34815148587371,
       40.01441254172417
      ],
      [
       116.34799997358057,
       40.01450335469785
      ],
      [
       116.34785809208852,
       40.01460858118394
      ],
      [
       116.34772720779387,
       40.01472720779386
      ],
      [
       116.34760858118395,
       40.0148580920885
      ],
      [
       116.34750335469786,
       40.014999973580565
      ],
      [
       116.34741254172418,
       40.01515148587371
      ],
      [
       116.34733701684148,
       40.01531116982174
      ],
      [
       116.34727750739569,
       40.01547748758094
      ],
      [
       116.34723458649528,
       40.01564883742037
      ],
      [
       116.347208667492,
       40.01582356914741
      ],
      [
       116.3472,
       40.016
      ],
      [
       116.347208667492,
       40.01617643085259
      ],
      [
       116.34723458649528,
       40.016351162579625
      ],
      [
       116.34727750739569,
       40.01652251241906
      ],
      [
       116.34733701684148,
       40.01668883017825
      ],
      [
       116.34741254172418,
       40.01684851412629
      ],
      [
       116.34750335469786,
       40.01700002641943
      ],
      [
       116.34760858118395,
       40.017141907911494
      ],
      [
       116.34772720779387,
       40.017272792206136
      ],
      [
       116.34785809208852,
       40.017391418816054
      ],
      [
       116.34799997358057,
       40.017496645302145
      ],
      [
       116.34815148587371,
       40.01758745827583
      ],
      [
       116.34831116982174,
       40.017662983158516
      ],
      [
       116.34847748758095,
       40.017722492604314
      ],
      [
       116.34864883742037,
       40.017765413504726
      ],
      [
       116.34882356914741,
       40.01779133250801
      ],
      [
       116.349,
       40.0178
      ],
      [
       116.3491764308526,
       40.01779133250801
      ],
      [
       116.34935116257964,
       40.017765413504726
      ],
      [
       116.34952251241906,
       40.017722492604314
      ],
      [
       116.34968883017827,
       40.017662983158516
      ],
      [
       116.3498485141263,
       40.01758745827583
      ],
      [
       116.35000002641944,
       40.017496645302145
      ],
      [
       116.35014190791149,
       40.017391418816054
      ],
      [
       116.35027279220614,
       40.017272792206136
      ],
      [
       116.35039141881606,
       40.017141907911494
      ],
      [
       116.35049664530214,
       40.01700002641943
      ],
      [
       116.35058745827583,
       40.01684851412629
      ],
      [
       116.35066298315853,
       40.01668883017825
      ],
      [
       116.35072249260432,
       40.01652251241906
      ],
      [
       116.35076541350473,
       40.016351162579625
      ],
      [
       116.35079133250801,
       40.01617643085259
      ],
      [
       116.3508,
       40.016
      ],
      [
       116.35079133250801,
       40.01582356914741
      ]
     ]
    ]
   }
  },
  {
   "type": "Feature",
   "id": "PUBLIC-002",
   "properties": {
    "id": "PUBLIC-002",
    "layer": "PUBLIC_SPACE",
    "node_name_zh": "中口·原点交汇场",
    "source_type": "agent_generated_design",
    "confidence": "low",
    "geometry_role": "design_proposal",
    "official_boundary": false,
    "usage_note": "Conceptual crossing/public-space node; provisional location.",
    "area_sqm_declared": 96379.4
   },
   "geometry": {
    "type": "Polygon",
    "coordinates": [
     [
      [
       116.349791332508,
       39.98882356914741
      ],
      [
       116.34976541350473,
       39.98864883742037
      ],
      [
       116.34972249260431,
       39.98847748758094
      ],
      [
       116.34966298315852,
       39.98831116982174
      ],
      [
       116.34958745827582,
       39.98815148587371
      ],
      [
       116.34949664530214,
       39.987999973580564
      ],
      [
       116.34939141881605,
       39.9878580920885
      ],
      [
       116.34927279220614,
       39.98772720779386
      ],
      [
       116.34914190791149,
       39.98760858118394
      ],
      [
       116.34900002641943,
       39.98750335469785
      ],
      [
       116.34884851412629,
       39.98741254172417
      ],
      [
       116.34868883017826,
       39.98733701684148
      ],
      [
       116.34852251241905,
       39.98727750739568
      ],
      [
       116.34835116257963,
       39.98723458649527
      ],
      [
       116.34817643085259,
       39.987208667491984
      ],
      [
       116.348,
       39.987199999999994
      ],
      [
       116.34782356914741,
       39.987208667491984
      ],
      [
       116.34764883742037,
       39.98723458649527
      ],
      [
       116.34747748758095,
       39.98727750739568
      ],
      [
       116.34731116982174,
       39.98733701684148
      ],
      [
       116.34715148587371,
       39.98741254172417
      ],
      [
       116.34699997358057,
       39.98750335469785
      ],
      [
       116.34685809208851,
       39.98760858118394
      ],
      [
       116.34672720779386,
       39.98772720779386
      ],
      [
       116.34660858118394,
       39.9878580920885
      ],
      [
       116.34650335469786,
       39.987999973580564
      ],
      [
       116.34641254172418,
       39.98815148587371
      ],
      [
       116.34633701684147,
       39.98831116982174
      ],
      [
       116.34627750739568,
       39.98847748758094
      ],
      [
       116.34623458649527,
       39.98864883742037
      ],
      [
       116.346208667492,
       39.98882356914741
      ],
      [
       116.3462,
       39.989
      ],
      [
       116.346208667492,
       39.98917643085259
      ],
      [
       116.34623458649527,
       39.989351162579624
      ],
      [
       116.34627750739568,
       39.98952251241906
      ],
      [
       116.34633701684147,
       39.98968883017825
      ],
      [
       116.34641254172418,
       39.98984851412629
      ],
      [
       116.34650335469786,
       39.99000002641943
      ],
      [
       116.34660858118394,
       39.99014190791149
      ],
      [
       116.34672720779386,
       39.990272792206135
      ],
      [
       116.34685809208851,
       39.99039141881605
      ],
      [
       116.34699997358057,
       39.990496645302144
      ],
      [
       116.34715148587371,
       39.990587458275826
      ],
      [
       116.34731116982174,
       39.990662983158515
      ],
      [
       116.34747748758095,
       39.99072249260431
      ],
      [
       116.34764883742037,
       39.990765413504725
      ],
      [
       116.34782356914741,
       39.99079133250801
      ],
      [
       116.348,
       39.9908
      ],
      [
       116.34817643085259,
       39.99079133250801
      ],
      [
       116.34835116257963,
       39.990765413504725
      ],
      [
       116.34852251241905,
       39.99072249260431
      ],
      [
       116.34868883017826,
       39.990662983158515
      ],
      [
       116.34884851412629,
       39.990587458275826
      ],
      [
       116.34900002641943,
       39.990496645302144
      ],
      [
       116.34914190791149,
       39.99039141881605
      ],
      [
       116.34927279220614,
       39.990272792206135
      ],
      [
       116.34939141881605,
       39.99014190791149
      ],
      [
       116.34949664530214,
       39.99000002641943
      ],
      [
       116.34958745827582,
       39.98984851412629
      ],
      [
       116.34966298315852,
       39.98968883017825
      ],
      [
       116.34972249260431,
       39.98952251241906
      ],
      [
       116.34976541350473,
       39.989351162579624
      ],
      [
       116.349791332508,
       39.98917643085259
      ],
      [
       116.3498,
       39.989
      ],
      [
       116.349791332508,
       39.98882356914741
      ]
     ]
    ]
   }
  },
  {
   "type": "Feature",
   "id": "PUBLIC-003",
   "properties": {
    "id": "PUBLIC-003",
    "layer": "PUBLIC_SPACE",
    "node_name_zh": "南口·大钟寺交汇场",
    "source_type": "agent_generated_design",
    "confidence": "low",
    "geometry_role": "design_proposal",
    "official_boundary": false,
    "usage_note": "Conceptual crossing/public-space node; provisional location.",
    "area_sqm_declared": 96438.4
   },
   "geometry": {
    "type": "Polygon",
    "coordinates": [
     [
      [
       116.35029133250801,
       39.94632356914741
      ],
      [
       116.35026541350473,
       39.946148837420374
      ],
      [
       116.35022249260432,
       39.94597748758094
      ],
      [
       116.35016298315853,
       39.945811169821745
      ],
      [
       116.35008745827582,
       39.94565148587371
      ],
      [
       116.34999664530214,
       39.94549997358057
      ],
      [
       116.34989141881606,
       39.945358092088505
      ],
      [
       116.34977279220614,
       39.94522720779386
      ],
      [
       116.34964190791149,
       39.945108581183945
      ],
      [
       116.34950002641943,
       39.94500335469785
      ],
      [
       116.34934851412629,
       39.94491254172417
      ],
      [
       116.34918883017826,
       39.94483701684148
      ],
      [
       116.34902251241905,
       39.944777507395685
      ],
      [
       116.34885116257963,
       39.94473458649527
      ],
      [
       116.34867643085259,
       39.94470866749199
      ],
      [
       116.3485,
       39.9447
      ],
      [
       116.34832356914741,
       39.94470866749199
      ],
      [
       116.34814883742037,
       39.94473458649527
      ],
      [
       116.34797748758095,
       39.944777507395685
      ],
      [
       116.34781116982174,
       39.94483701684148
      ],
      [
       116.34765148587371,
       39.94491254172417
      ],
      [
       116.34749997358057,
       39.94500335469785
      ],
      [
       116.34735809208851,
       39.945108581183945
      ],
      [
       116.34722720779386,
       39.94522720779386
      ],
      [
       116.34710858118395,
       39.945358092088505
      ],
      [
       116.34700335469786,
       39.94549997358057
      ],
      [
       116.34691254172418,
       39.94565148587371
      ],
      [
       116.34683701684148,
       39.945811169821745
      ],
      [
       116.34677750739569,
       39.94597748758094
      ],
      [
       116.34673458649527,
       39.946148837420374
      ],
      [
       116.346708667492,
       39.94632356914741
      ],
      [
       116.3467,
       39.9465
      ],
      [
       116.346708667492,
       39.94667643085259
      ],
      [
       116.34673458649527,
       39.94685116257963
      ],
      [
       116.34677750739569,
       39.94702251241906
      ],
      [
       116.34683701684148,
       39.947188830178256
      ],
      [
       116.34691254172418,
       39.94734851412629
      ],
      [
       116.34700335469786,
       39.94750002641943
      ],
      [
       116.34710858118395,
       39.947641907911496
      ],
      [
       116.34722720779386,
       39.94777279220614
      ],
      [
       116.34735809208851,
       39.947891418816056
      ],
      [
       116.34749997358057,
       39.94799664530215
      ],
      [
       116.34765148587371,
       39.94808745827583
      ],
      [
       116.34781116982174,
       39.94816298315852
      ],
      [
       116.34797748758095,
       39.948222492604316
      ],
      [
       116.34814883742037,
       39.94826541350473
      ],
      [
       116.34832356914741,
       39.94829133250801
      ],
      [
       116.3485,
       39.9483
      ],
      [
       116.34867643085259,
       39.94829133250801
      ],
      [
       116.34885116257963,
       39.94826541350473
      ],
      [
       116.34902251241905,
       39.948222492604316
      ],
      [
       116.34918883017826,
       39.94816298315852
      ],
      [
       116.34934851412629,
       39.94808745827583
      ],
      [
       116.34950002641943,
       39.94799664530215
      ],
      [
       116.34964190791149,
       39.947891418816056
      ],
      [
       116.34977279220614,
       39.94777279220614
      ],
      [
       116.34989141881606,
       39.947641907911496
      ],
      [
       116.34999664530214,
       39.94750002641943
      ],
      [
       116.35008745827582,
       39.94734851412629
      ],
      [
       116.35016298315853,
       39.947188830178256
      ],
      [
       116.35022249260432,
       39.94702251241906
      ],
      [
       116.35026541350473,
       39.94685116257963
      ],
      [
       116.35029133250801,
       39.94667643085259
      ],
      [
       116.3503,
       39.9465
      ],
      [
       116.35029133250801,
       39.94632356914741
      ]
     ]
    ]
   }
  },
  {
   "type": "Feature",
   "id": "PUBLIC-004",
   "properties": {
    "id": "PUBLIC-004",
    "layer": "PUBLIC_SPACE",
    "node_name_zh": "西口·科技服务交汇场",
    "source_type": "agent_generated_design",
    "confidence": "low",
    "geometry_role": "design_proposal",
    "official_boundary": false,
    "usage_note": "Conceptual crossing/public-space node; provisional location.",
    "area_sqm_declared": 66855.3
   },
   "geometry": {
    "type": "Polygon",
    "coordinates": [
     [
      [
       116.34299277709,
       39.9798529742895
      ],
      [
       116.3429711779206,
       39.979707364516976
      ],
      [
       116.3429354105036,
       39.97956457298412
      ],
      [
       116.34288581929876,
       39.97942597485145
      ],
      [
       116.34282288189652,
       39.979292904894756
      ],
      [
       116.34274720441844,
       39.97916664465047
      ],
      [
       116.34265951568004,
       39.97904841007375
      ],
      [
       116.34256066017177,
       39.978939339828216
      ],
      [
       116.34245158992624,
       39.97884048431995
      ],
      [
       116.34233335534952,
       39.97875279558154
      ],
      [
       116.34220709510524,
       39.97867711810348
      ],
      [
       116.34207402514855,
       39.97861418070123
      ],
      [
       116.34193542701588,
       39.9785645894964
      ],
      [
       116.34179263548302,
       39.97852882207939
      ],
      [
       116.34164702571049,
       39.97850722290999
      ],
      [
       116.3415,
       39.9785
      ],
      [
       116.3413529742895,
       39.97850722290999
      ],
      [
       116.34120736451698,
       39.97852882207939
      ],
      [
       116.34106457298411,
       39.9785645894964
      ],
      [
       116.34092597485144,
       39.97861418070123
      ],
      [
       116.34079290489476,
       39.97867711810348
      ],
      [
       116.34066664465047,
       39.97875279558154
      ],
      [
       116.34054841007375,
       39.97884048431995
      ],
      [
       116.34043933982822,
       39.978939339828216
      ],
      [
       116.34034048431995,
       39.97904841007375
      ],
      [
       116.34025279558155,
       39.97916664465047
      ],
      [
       116.34017711810347,
       39.979292904894756
      ],
      [
       116.34011418070124,
       39.97942597485145
      ],
      [
       116.3400645894964,
       39.97956457298412
      ],
      [
       116.34002882207939,
       39.979707364516976
      ],
      [
       116.34001131523198,
       39.97982538609563
      ],
      [
       116.34004584476463,
       39.98036059385193
      ],
      [
       116.3400645894964,
       39.98043542701588
      ],
      [
       116.34011418070124,
       39.98057402514854
      ],
      [
       116.34017711810347,
       39.98070709510524
      ],
      [
       116.34025279558155,
       39.980833355349525
      ],
      [
       116.34034048431995,
       39.98095158992624
      ],
      [
       116.34043933982822,
       39.98106066017178
      ],
      [
       116.34054841007375,
       39.98115951568004
      ],
      [
       116.34066664465047,
       39.98124720441845
      ],
      [
       116.34079290489476,
       39.98132288189652
      ],
      [
       116.34092597485144,
       39.981385819298765
      ],
      [
       116.34106457298411,
       39.98143541050359
      ],
      [
       116.34120736451698,
       39.981471177920604
      ],
      [
       116.3413529742895,
       39.981492777090004
      ],
      [
       116.3415,
       39.9815
      ],
      [
       116.34164702571049,
       39.981492777090004
      ],
      [
       116.34179263548302,
       39.981471177920604
      ],
      [
       116.34193542701588,
       39.98143541050359
      ],
      [
       116.34207402514855,
       39.981385819298765
      ],
      [
       116.34220709510524,
       39.98132288189652
      ],
      [
       116.34233335534952,
       39.98124720441845
      ],
      [
       116.34245158992624,
       39.98115951568004
      ],
      [
       116.34256066017177,
       39.98106066017178
      ],
      [
       116.34265951568004,
       39.98095158992624
      ],
      [
       116.34274720441844,
       39.980833355349525
      ],
      [
       116.34282288189652,
       39.98070709510524
      ],
      [
       116.34288581929876,
       39.98057402514854
      ],
      [
       116.3429354105036,
       39.98043542701588
      ],
      [
       116.3429711779206,
       39.98029263548302
      ],
      [
       116.34299277709,
       39.980147025710494
      ],
      [
       116.34299999999999,
       39.98
      ],
      [
       116.34299277709,
       39.9798529742895
      ]
     ]
    ]
   }
  },
  {
   "type": "Feature",
   "id": "PUBLIC-005",
   "properties": {
    "id": "PUBLIC-005",
    "layer": "PUBLIC_SPACE",
    "node_name_zh": "东口·小月河交汇场",
    "source_type": "agent_generated_design",
    "confidence": "low",
    "geometry_role": "design_proposal",
    "official_boundary": false,
    "usage_note": "Conceptual crossing/public-space node; provisional location.",
    "area_sqm_declared": 65343.3
   },
   "geometry": {
    "type": "Polygon",
    "coordinates": [
     [
      [
       116.35332288189653,
       39.98929290489476
      ],
      [
       116.35324720441845,
       39.989166644650474
      ],
      [
       116.35315951568005,
       39.98904841007376
      ],
      [
       116.35306066017178,
       39.98893933982822
      ],
      [
       116.35295158992625,
       39.98884048431996
      ],
      [
       116.35283335534953,
       39.98875279558155
      ],
      [
       116.35270709510525,
       39.98867711810348
      ],
      [
       116.35257402514856,
       39.988614180701234
      ],
      [
       116.35243542701589,
       39.988564589496406
      ],
      [
       116.35229263548302,
       39.988528822079395
      ],
      [
       116.3521470257105,
       39.988507222909995
      ],
      [
       116.352,
       39.9885
      ],
      [
       116.35185297428951,
       39.988507222909995
      ],
      [
       116.35170736451698,
       39.988528822079395
      ],
      [
       116.35156457298412,
       39.988564589496406
      ],
      [
       116.35142597485145,
       39.988614180701234
      ],
      [
       116.35129290489476,
       39.98867711810348
      ],
      [
       116.35116664465048,
       39.98875279558155
      ],
      [
       116.35104841007376,
       39.98884048431996
      ],
      [
       116.35093933982823,
       39.98893933982822
      ],
      [
       116.35084048431996,
       39.98904841007376
      ],
      [
       116.35075279558156,
       39.989166644650474
      ],
      [
       116.35067711810348,
       39.98929290489476
      ],
      [
       116.35061418070124,
       39.98942597485146
      ],
      [
       116.3505645894964,
       39.98956457298412
      ],
      [
       116.3505288220794,
       39.98970736451698
      ],
      [
       116.35050722291,
       39.989852974289505
      ],
      [
       116.35050000000001,
       39.99
      ],
      [
       116.35050722291,
       39.9901470257105
      ],
      [
       116.3505288220794,
       39.99029263548302
      ],
      [
       116.3505645894964,
       39.99043542701588
      ],
      [
       116.35061418070124,
       39.99057402514855
      ],
      [
       116.35067711810348,
       39.99070709510524
      ],
      [
       116.35075279558156,
       39.99083335534953
      ],
      [
       116.35084048431996,
       39.99095158992625
      ],
      [
       116.35093933982823,
       39.99106066017178
      ],
      [
       116.35104841007376,
       39.991159515680046
      ],
      [
       116.35116664465048,
       39.99124720441846
      ],
      [
       116.35129290489476,
       39.99132288189652
      ],
      [
       116.35142597485145,
       39.99138581929877
      ],
      [
       116.35156457298412,
       39.9914354105036
      ],
      [
       116.35170736451698,
       39.99147117792061
      ],
      [
       116.35185297428951,
       39.99149277709001
      ],
      [
       116.352,
       39.9915
      ],
      [
       116.3521470257105,
       39.99149277709001
      ],
      [
       116.35229263548302,
       39.99147117792061
      ],
      [
       116.35243542701589,
       39.9914354105036
      ],
      [
       116.35257402514856,
       39.99138581929877
      ],
      [
       116.35270709510525,
       39.99132288189652
      ],
      [
       116.35283335534953,
       39.99124720441846
      ],
      [
       116.35295158992625,
       39.991159515680046
      ],
      [
       116.35306066017178,
       39.99106066017178
      ],
      [
       116.35315951568005,
       39.99095158992625
      ],
      [
       116.35324720441845,
       39.99083335534953
      ],
      [
       116.35332288189653,
       39.99070709510524
      ],
      [
       116.35333709795972,
       39.99067703776498
      ],
      [
       116.3533,
       39.99
      ],
      [
       116.35335169413895,
       39.9893538232631
      ],
      [
       116.35332288189653,
       39.98929290489476
      ]
     ]
    ]
   }
  },
  {
   "type": "Feature",
   "id": "PUBLIC-006",
   "properties": {
    "id": "PUBLIC-006",
    "layer": "PUBLIC_SPACE",
    "node_name_zh": "五道口·宇宙中心节点",
    "source_type": "agent_generated_design",
    "confidence": "low",
    "geometry_role": "design_proposal",
    "official_boundary": false,
    "usage_note": "Conceptual crossing/public-space node; provisional location.",
    "area_sqm_declared": 42832.8
   },
   "geometry": {
    "type": "Polygon",
    "coordinates": [
     [
      [
       116.345194221672,
       39.992882379431606
      ],
      [
       116.34517694233648,
       39.99276589161358
      ],
      [
       116.34514832840287,
       39.992651658387295
      ],
      [
       116.345108655439,
       39.99254077988116
      ],
      [
       116.34505830551721,
       39.99243432391581
      ],
      [
       116.34499776353476,
       39.99233331572038
      ],
      [
       116.34492761254403,
       39.99223872805901
      ],
      [
       116.34484852813742,
       39.99215147186258
      ],
      [
       116.344761271941,
       39.99207238745597
      ],
      [
       116.34466668427962,
       39.99200223646524
      ],
      [
       116.34456567608419,
       39.99194169448278
      ],
      [
       116.34445922011884,
       39.99189134456099
      ],
      [
       116.3443483416127,
       39.991851671597125
      ],
      [
       116.34423410838642,
       39.99182305766352
      ],
      [
       116.34411762056838,
       39.99180577832799
      ],
      [
       116.344,
       39.991800000000005
      ],
      [
       116.3438823794316,
       39.99180577832799
      ],
      [
       116.34376589161357,
       39.99182305766352
      ],
      [
       116.34365165838729,
       39.991851671597125
      ],
      [
       116.34354077988115,
       39.99189134456099
      ],
      [
       116.3434343239158,
       39.99194169448278
      ],
      [
       116.34333331572037,
       39.99200223646524
      ],
      [
       116.34323872805899,
       39.99207238745597
      ],
      [
       116.34315147186257,
       39.99215147186258
      ],
      [
       116.34307238745596,
       39.99223872805901
      ],
      [
       116.34300223646522,
       39.99233331572038
      ],
      [
       116.34294169448278,
       39.99243432391581
      ],
      [
       116.34289134456098,
       39.99254077988116
      ],
      [
       116.34285167159712,
       39.992651658387295
      ],
      [
       116.34282305766351,
       39.99276589161358
      ],
      [
       116.34280577832799,
       39.992882379431606
      ],
      [
       116.3428,
       39.993
      ],
      [
       116.34280577832799,
       39.9931176205684
      ],
      [
       116.34282305766351,
       39.993234108386424
      ],
      [
       116.34285167159712,
       39.99334834161271
      ],
      [
       116.34289134456098,
       39.993459220118844
      ],
      [
       116.34294169448278,
       39.993565676084195
      ],
      [
       116.34300223646522,
       39.993666684279624
      ],
      [
       116.34307238745596,
       39.993761271941
      ],
      [
       116.34315147186257,
       39.99384852813743
      ],
      [
       116.34323872805899,
       39.993927612544034
      ],
      [
       116.34333331572037,
       39.993997763534765
      ],
      [
       116.3434343239158,
       39.99405830551722
      ],
      [
       116.34354077988115,
       39.994108655439014
      ],
      [
       116.34365165838729,
       39.99414832840288
      ],
      [
       116.34376589161357,
       39.99417694233649
      ],
      [
       116.3438823794316,
       39.99419422167201
      ],
      [
       116.344,
       39.9942
      ],
      [
       116.34411762056838,
       39.99419422167201
      ],
      [
       116.34423410838642,
       39.99417694233649
      ],
      [
       116.3443483416127,
       39.99414832840288
      ],
      [
       116.34445922011884,
       39.994108655439014
      ],
      [
       116.34456567608419,
       39.99405830551722
      ],
      [
       116.34466668427962,
       39.993997763534765
      ],
      [
       116.344761271941,
       39.993927612544034
      ],
      [
       116.34484852813742,
       39.99384852813743
      ],
      [
       116.34492761254403,
       39.993761271941
      ],
      [
       116.34499776353476,
       39.993666684279624
      ],
      [
       116.34505830551721,
       39.993565676084195
      ],
      [
       116.345108655439,
       39.993459220118844
      ],
      [
       116.34514832840287,
       39.99334834161271
      ],
      [
       116.34517694233648,
       39.993234108386424
      ],
      [
       116.345194221672,
       39.9931176205684
      ],
      [
       116.34519999999999,
       39.993
      ],
      [
       116.345194221672,
       39.992882379431606
      ]
     ]
    ]
   }
  },
  {
   "type": "Feature",
   "id": "PUBLIC-007",
   "properties": {
    "id": "PUBLIC-007",
    "layer": "PUBLIC_SPACE",
    "node_name_zh": "四道口·1909时间节点",
    "source_type": "agent_generated_design",
    "confidence": "low",
    "geometry_role": "design_proposal",
    "official_boundary": false,
    "usage_note": "Conceptual crossing/public-space node; provisional location.",
    "area_sqm_declared": 42853.2
   },
   "geometry": {
    "type": "Polygon",
    "coordinates": [
     [
      [
       116.348194221672,
       39.959882379431605
      ],
      [
       116.34817694233648,
       39.95976589161358
      ],
      [
       116.34814832840287,
       39.959651658387294
      ],
      [
       116.348108655439,
       39.95954077988116
      ],
      [
       116.34805830551721,
       39.95943432391581
      ],
      [
       116.34799776353476,
       39.95933331572038
      ],
      [
       116.34792761254403,
       39.959238728059006
      ],
      [
       116.34784852813742,
       39.959151471862576
      ],
      [
       116.347761271941,
       39.95907238745597
      ],
      [
       116.34766668427962,
       39.95900223646524
      ],
      [
       116.34756567608419,
       39.95894169448278
      ],
      [
       116.34745922011884,
       39.95889134456099
      ],
      [
       116.3473483416127,
       39.958851671597124
      ],
      [
       116.34723410838642,
       39.958823057663515
      ],
      [
       116.34711762056838,
       39.95880577832799
      ],
      [
       116.347,
       39.958800000000004
      ],
      [
       116.3468823794316,
       39.95880577832799
      ],
      [
       116.34676589161357,
       39.958823057663515
      ],
      [
       116.34665165838729,
       39.958851671597124
      ],
      [
       116.34654077988115,
       39.95889134456099
      ],
      [
       116.3464343239158,
       39.95894169448278
      ],
      [
       116.34633331572037,
       39.95900223646524
      ],
      [
       116.34623872805899,
       39.95907238745597
      ],
      [
       116.34615147186257,
       39.959151471862576
      ],
      [
       116.34607238745596,
       39.959238728059006
      ],
      [
       116.34600223646522,
       39.95933331572038
      ],
      [
       116.34594169448278,
       39.95943432391581
      ],
      [
       116.34589134456098,
       39.95954077988116
      ],
      [
       116.34585167159712,
       39.959651658387294
      ],
      [
       116.34582305766351,
       39.95976589161358
      ],
      [
       116.34580577832799,
       39.959882379431605
      ],
      [
       116.3458,
       39.96
      ],
      [
       116.34580577832799,
       39.9601176205684
      ],
      [
       116.34582305766351,
       39.96023410838642
      ],
      [
       116.34585167159712,
       39.96034834161271
      ],
      [
       116.34589134456098,
       39.96045922011884
      ],
      [
       116.34594169448278,
       39.960565676084194
      ],
      [
       116.34600223646522,
       39.96066668427962
      ],
      [
       116.34607238745596,
       39.960761271940996
      ],
      [
       116.34615147186257,
       39.960848528137426
      ],
      [
       116.34623872805899,
       39.96092761254403
      ],
      [
       116.34633331572037,
       39.96099776353476
      ],
      [
       116.3464343239158,
       39.96105830551722
      ],
      [
       116.34654077988115,
       39.96110865543901
      ],
      [
       116.34665165838729,
       39.96114832840288
      ],
      [
       116.34676589161357,
       39.961176942336486
      ],
      [
       116.3468823794316,
       39.96119422167201
      ],
      [
       116.347,
       39.9612
      ],
      [
       116.34711762056838,
       39.96119422167201
      ],
      [
       116.34723410838642,
       39.961176942336486
      ],
      [
       116.3473483416127,
       39.96114832840288
      ],
      [
       116.34745922011884,
       39.96110865543901
      ],
      [
       116.34756567608419,
       39.96105830551722
      ],
      [
       116.34766668427962,
       39.96099776353476
      ],
      [
       116.347761271941,
       39.96092761254403
      ],
      [
       116.34784852813742,
       39.960848528137426
      ],
      [
       116.34792761254403,
       39.960761271940996
      ],
      [
       116.34799776353476,
       39.96066668427962
      ],
      [
       116.34805830551721,
       39.960565676084194
      ],
      [
       116.348108655439,
       39.96045922011884
      ],
      [
       116.34814832840287,
       39.96034834161271
      ],
      [
       116.34817694233648,
       39.96023410838642
      ],
      [
       116.348194221672,
       39.9601176205684
      ],
      [
       116.34819999999999,
       39.96
      ],
      [
       116.348194221672,
       39.959882379431605
      ]
     ]
    ]
   }
  },
  {
   "type": "Feature",
   "id": "PUBLIC-008",
   "properties": {
    "id": "PUBLIC-008",
    "layer": "PUBLIC_SPACE",
    "node_name_zh": "知春路·知识交汇节点",
    "source_type": "agent_generated_design",
    "confidence": "low",
    "geometry_role": "design_proposal",
    "official_boundary": false,
    "usage_note": "Conceptual crossing/public-space node; provisional location.",
    "area_sqm_declared": 29752.7
   },
   "geometry": {
    "type": "Polygon",
    "coordinates": [
     [
      [
       116.34599518472668,
       39.97490198285967
      ],
      [
       116.3459807852804,
       39.974804909677985
      ],
      [
       116.34595694033572,
       39.974709715322746
      ],
      [
       116.3459238795325,
       39.97461731656764
      ],
      [
       116.34588192126435,
       39.974528603263174
      ],
      [
       116.3458314696123,
       39.97444442976698
      ],
      [
       116.34577301045336,
       39.974365606715835
      ],
      [
       116.34570710678119,
       39.974292893218816
      ],
      [
       116.34563439328416,
       39.974226989546636
      ],
      [
       116.34555557023302,
       39.9741685303877
      ],
      [
       116.34547139673683,
       39.97411807873565
      ],
      [
       116.34538268343236,
       39.97407612046749
      ],
      [
       116.34529028467725,
       39.97404305966427
      ],
      [
       116.34519509032201,
       39.9740192147196
      ],
      [
       116.34509801714033,
       39.97400481527333
      ],
      [
       116.345,
       39.974000000000004
      ],
      [
       116.34490198285967,
       39.97400481527333
      ],
      [
       116.34480490967799,
       39.9740192147196
      ],
      [
       116.34470971532275,
       39.97404305966427
      ],
      [
       116.34461731656764,
       39.97407612046749
      ],
      [
       116.34452860326317,
       39.97411807873565
      ],
      [
       116.34444442976698,
       39.9741685303877
      ],
      [
       116.34436560671584,
       39.974226989546636
      ],
      [
       116.3442928932188,
       39.974292893218816
      ],
      [
       116.34422698954664,
       39.974365606715835
      ],
      [
       116.34416853038769,
       39.97444442976698
      ],
      [
       116.34411807873565,
       39.974528603263174
      ],
      [
       116.34407612046749,
       39.97461731656764
      ],
      [
       116.34404305966427,
       39.974709715322746
      ],
      [
       116.3440192147196,
       39.974804909677985
      ],
      [
       116.34400481527332,
       39.97490198285967
      ],
      [
       116.344,
       39.975
      ],
      [
       116.34400481527332,
       39.97509801714033
      ],
      [
       116.3440192147196,
       39.97519509032202
      ],
      [
       116.34404305966427,
       39.97529028467726
      ],
      [
       116.34407612046749,
       39.975382683432365
      ],
      [
       116.34411807873565,
       39.97547139673683
      ],
      [
       116.34416853038769,
       39.97555557023302
      ],
      [
       116.34422698954664,
       39.97563439328417
      ],
      [
       116.3442928932188,
       39.975707106781186
      ],
      [
       116.34436560671584,
       39.975773010453366
      ],
      [
       116.34444442976698,
       39.9758314696123
      ],
      [
       116.34452860326317,
       39.97588192126435
      ],
      [
       116.34461731656764,
       39.975923879532516
      ],
      [
       116.34470971532275,
       39.975956940335735
      ],
      [
       116.34480490967799,
       39.975980785280406
      ],
      [
       116.34490198285967,
       39.97599518472667
      ],
      [
       116.345,
       39.976
      ],
      [
       116.34509801714033,
       39.97599518472667
      ],
      [
       116.34519509032201,
       39.975980785280406
      ],
      [
       116.34529028467725,
       39.975956940335735
      ],
      [
       116.34538268343236,
       39.975923879532516
      ],
      [
       116.34547139673683,
       39.97588192126435
      ],
      [
       116.34555557023302,
       39.9758314696123
      ],
      [
       116.34563439328416,
       39.975773010453366
      ],
      [
       116.34570710678119,
       39.975707106781186
      ],
      [
       116.34577301045336,
       39.97563439328417
      ],
      [
       116.3458314696123,
       39.97555557023302
      ],
      [
       116.34588192126435,
       39.97547139673683
      ],
      [
       116.3459238795325,
       39.975382683432365
      ],
      [
       116.34595694033572,
       39.97529028467726
      ],
      [
       116.3459807852804,
       39.97519509032202
      ],
      [
       116.34599518472668,
       39.97509801714033
      ],
      [
       116.346,
       39.975
      ],
      [
       116.34599518472668,
       39.97490198285967
      ]
     ]
    ]
   }
  },
  {
   "type": "Feature",
   "id": "PUBLIC-009",
   "properties": {
    "id": "PUBLIC-009",
    "layer": "PUBLIC_SPACE",
    "node_name_zh": "清华东路·学府节点",
    "source_type": "agent_generated_design",
    "confidence": "low",
    "geometry_role": "design_proposal",
    "official_boundary": false,
    "usage_note": "Conceptual crossing/public-space node; provisional location.",
    "area_sqm_declared": 29740.3
   },
   "geometry": {
    "type": "Polygon",
    "coordinates": [
     [
      [
       116.35099518472667,
       40.00390198285967
      ],
      [
       116.3509807852804,
       40.00380490967798
      ],
      [
       116.35095694033572,
       40.00370971532274
      ],
      [
       116.3509238795325,
       40.003617316567635
      ],
      [
       116.35088192126435,
       40.00352860326317
      ],
      [
       116.3508314696123,
       40.00344442976698
      ],
      [
       116.35077301045335,
       40.00336560671583
      ],
      [
       116.35070710678119,
       40.00329289321881
      ],
      [
       116.35063439328415,
       40.00322698954663
      ],
      [
       116.35055557023301,
       40.0031685303877
      ],
      [
       116.35047139673682,
       40.003118078735646
      ],
      [
       116.35038268343236,
       40.00307612046748
      ],
      [
       116.35029028467724,
       40.003043059664265
      ],
      [
       116.350195090322,
       40.00301921471959
      ],
      [
       116.35009801714033,
       40.00300481527333
      ],
      [
       116.35,
       40.003
      ],
      [
       116.34990198285966,
       40.00300481527333
      ],
      [
       116.34980490967799,
       40.00301921471959
      ],
      [
       116.34970971532275,
       40.003043059664265
      ],
      [
       116.34961731656763,
       40.00307612046748
      ],
      [
       116.34952860326317,
       40.003118078735646
      ],
      [
       116.34944442976698,
       40.0031685303877
      ],
      [
       116.34936560671584,
       40.00322698954663
      ],
      [
       116.3492928932188,
       40.00329289321881
      ],
      [
       116.34922698954664,
       40.00336560671583
      ],
      [
       116.34916853038769,
       40.00344442976698
      ],
      [
       116.34911807873564,
       40.00352860326317
      ],
      [
       116.34907612046749,
       40.003617316567635
      ],
      [
       116.34904305966427,
       40.00370971532274
      ],
      [
       116.34901921471959,
       40.00380490967798
      ],
      [
       116.34900481527332,
       40.00390198285967
      ],
      [
       116.34899999999999,
       40.004
      ],
      [
       116.34900481527332,
       40.00409801714033
      ],
      [
       116.34901921471959,
       40.004195090322014
      ],
      [
       116.34904305966427,
       40.00429028467725
      ],
      [
       116.34907612046749,
       40.00438268343236
      ],
      [
       116.34911807873564,
       40.004471396736825
      ],
      [
       116.34916853038769,
       40.004555570233016
      ],
      [
       116.34922698954664,
       40.004634393284164
      ],
      [
       116.3492928932188,
       40.00470710678118
      ],
      [
       116.34936560671584,
       40.00477301045336
      ],
      [
       116.34944442976698,
       40.0048314696123
      ],
      [
       116.34952860326317,
       40.00488192126435
      ],
      [
       116.34961731656763,
       40.00492387953251
      ],
      [
       116.34970971532275,
       40.00495694033573
      ],
      [
       116.34980490967799,
       40.0049807852804
      ],
      [
       116.34990198285966,
       40.00499518472667
      ],
      [
       116.35,
       40.004999999999995
      ],
      [
       116.35009801714033,
       40.00499518472667
      ],
      [
       116.350195090322,
       40.0049807852804
      ],
      [
       116.35029028467724,
       40.00495694033573
      ],
      [
       116.35038268343236,
       40.00492387953251
      ],
      [
       116.35047139673682,
       40.00488192126435
      ],
      [
       116.35055557023301,
       40.0048314696123
      ],
      [
       116.35063439328415,
       40.00477301045336
      ],
      [
       116.35070710678119,
       40.00470710678118
      ],
      [
       116.35077301045335,
       40.004634393284164
      ],
      [
       116.3508314696123,
       40.004555570233016
      ],
      [
       116.35088192126435,
       40.004471396736825
      ],
      [
       116.3509238795325,
       40.00438268343236
      ],
      [
       116.35095694033572,
       40.00429028467725
      ],
      [
       116.3509807852804,
       40.004195090322014
      ],
      [
       116.35099518472667,
       40.00409801714033
      ],
      [
       116.351,
       40.004
      ],
      [
       116.35099518472667,
       40.00390198285967
      ]
     ]
    ]
   }
  }
 ]
}