{
 "type": "FeatureCollection",
 "features": [
  {
   "type": "Feature",
   "id": "ROAD-0001",
   "properties": {
    "id": "ROAD-0001",
    "layer": "ROAD_CENTERLINE",
    "source_type": "agent_generated_design",
    "confidence": "medium",
    "geometry_role": "design_proposal",
    "road_class": "branch",
    "road_label_zh": "横向连接路 @ 40.0260"
   },
   "geometry": {
    "type": "LineString",
    "coordinates": [
     [
      116.34009999999999,
      40.026
     ],
     [
      116.3549,
      40.026
     ]
    ]
   }
  },
  {
   "type": "Feature",
   "id": "ROAD-0002",
   "properties": {
    "id": "ROAD-0002",
    "layer": "ROAD_CENTERLINE",
    "source_type": "agent_generated_design",
    "confidence": "medium",
    "geometry_role": "design_proposal",
    "road_class": "branch",
    "road_label_zh": "横向连接路 @ 40.0170"
   },
   "geometry": {
    "type": "LineString",
    "coordinates": [
     [
      116.34009999999999,
      40.017
     ],
     [
      116.3549,
      40.017
     ]
    ]
   }
  },
  {
   "type": "Feature",
   "id": "ROAD-0003",
   "properties": {
    "id": "ROAD-0003",
    "layer": "ROAD_CENTERLINE",
    "source_type": "agent_generated_design",
    "confidence": "medium",
    "geometry_role": "design_proposal",
    "road_class": "secondary",
    "road_label_zh": "横向连接路 @ 40.0075"
   },
   "geometry": {
    "type": "LineString",
    "coordinates": [
     [
      116.34009999999999,
      40.0075
     ],
     [
      116.3549,
      40.0075
     ]
    ]
   }
  },
  {
   "type": "Feature",
   "id": "ROAD-0004",
   "properties": {
    "id": "ROAD-0004",
    "layer": "ROAD_CENTERLINE",
    "source_type": "agent_generated_design",
    "confidence": "medium",
    "geometry_role": "design_proposal",
    "road_class": "branch",
    "road_label_zh": "横向连接路 @ 40.0060"
   },
   "geometry": {
    "type": "LineString",
    "coordinates": [
     [
      116.34009999999999,
      40.006
     ],
     [
      116.3549,
      40.006
     ]
    ]
   }
  },
  {
   "type": "Feature",
   "id": "ROAD-0005",
   "properties": {
    "id": "ROAD-0005",
    "layer": "ROAD_CENTERLINE",
    "source_type": "agent_generated_design",
    "confidence": "medium",
    "geometry_role": "design_proposal",
    "road_class": "branch",
    "road_label_zh": "横向连接路 @ 39.9998"
   },
   "geometry": {
    "type": "LineString",
    "coordinates": [
     [
      116.34009999999999,
      39.9998
     ],
     [
      116.3549,
      39.9998
     ]
    ]
   }
  },
  {
   "type": "Feature",
   "id": "ROAD-0006",
   "properties": {
    "id": "ROAD-0006",
    "layer": "ROAD_CENTERLINE",
    "source_type": "agent_generated_design",
    "confidence": "medium",
    "geometry_role": "design_proposal",
    "road_class": "branch",
    "road_label_zh": "横向连接路 @ 39.9935"
   },
   "geometry": {
    "type": "LineString",
    "coordinates": [
     [
      116.34009999999999,
      39.9935
     ],
     [
      116.3549,
      39.9935
     ]
    ]
   }
  },
  {
   "type": "Feature",
   "id": "ROAD-0007",
   "properties": {
    "id": "ROAD-0007",
    "layer": "ROAD_CENTERLINE",
    "source_type": "agent_generated_design",
    "confidence": "medium",
    "geometry_role": "design_proposal",
    "road_class": "branch",
    "road_label_zh": "横向连接路 @ 39.9885"
   },
   "geometry": {
    "type": "LineString",
    "coordinates": [
     [
      116.34009999999999,
      39.9885
     ],
     [
      116.3549,
      39.9885
     ]
    ]
   }
  },
  {
   "type": "Feature",
   "id": "ROAD-0008",
   "properties": {
    "id": "ROAD-0008",
    "layer": "ROAD_CENTERLINE",
    "source_type": "agent_generated_design",
    "confidence": "medium",
    "geometry_role": "design_proposal",
    "road_class": "secondary",
    "road_label_zh": "横向连接路 @ 39.9835"
   },
   "geometry": {
    "type": "LineString",
    "coordinates": [
     [
      116.34009999999999,
      39.9835
     ],
     [
      116.3549,
      39.9835
     ]
    ]
   }
  },
  {
   "type": "Feature",
   "id": "ROAD-0009",
   "properties": {
    "id": "ROAD-0009",
    "layer": "ROAD_CENTERLINE",
    "source_type": "agent_generated_design",
    "confidence": "medium",
    "geometry_role": "design_proposal",
    "road_class": "branch",
    "road_label_zh": "横向连接路 @ 39.9790"
   },
   "geometry": {
    "type": "LineString",
    "coordinates": [
     [
      116.34009999999999,
      39.979
     ],
     [
      116.3549,
      39.979
     ]
    ]
   }
  },
  {
   "type": "Feature",
   "id": "ROAD-0010",
   "properties": {
    "id": "ROAD-0010",
    "layer": "ROAD_CENTERLINE",
    "source_type": "agent_generated_design",
    "confidence": "medium",
    "geometry_role": "design_proposal",
    "road_class": "branch",
    "road_label_zh": "横向连接路 @ 39.9750"
   },
   "geometry": {
    "type": "LineString",
    "coordinates": [
     [
      116.34009999999999,
      39.975
     ],
     [
      116.3549,
      39.975
     ]
    ]
   }
  },
  {
   "type": "Feature",
   "id": "ROAD-0011",
   "properties": {
    "id": "ROAD-0011",
    "layer": "ROAD_CENTERLINE",
    "source_type": "agent_generated_design",
    "confidence": "medium",
    "geometry_role": "design_proposal",
    "road_class": "branch",
    "road_label_zh": "横向连接路 @ 39.9624"
   },
   "geometry": {
    "type": "LineString",
    "coordinates": [
     [
      116.34009999999999,
      39.9624
     ],
     [
      116.3549,
      39.9624
     ]
    ]
   }
  },
  {
   "type": "Feature",
   "id": "ROAD-0012",
   "properties": {
    "id": "ROAD-0012",
    "layer": "ROAD_CENTERLINE",
    "source_type": "agent_generated_design",
    "confidence": "medium",
    "geometry_role": "design_proposal",
    "road_class": "secondary",
    "road_label_zh": "横向连接路 @ 39.9498"
   },
   "geometry": {
    "type": "LineString",
    "coordinates": [
     [
      116.34009999999999,
      39.94984
     ],
     [
      116.3549,
      39.94984
     ]
    ]
   }
  },
  {
   "type": "Feature",
   "id": "ROAD-0013",
   "properties": {
    "id": "ROAD-0013",
    "layer": "ROAD_CENTERLINE",
    "source_type": "agent_generated_design",
    "confidence": "medium",
    "geometry_role": "design_proposal",
    "road_class": "secondary",
    "road_label_zh": "横向连接路 @ 39.9440"
   },
   "geometry": {
    "type": "LineString",
    "coordinates": [
     [
      116.34009999999999,
      39.944
     ],
     [
      116.3549,
      39.944
     ]
    ]
   }
  },
  {
   "type": "Feature",
   "id": "ROAD-0014",
   "properties": {
    "id": "ROAD-0014",
    "layer": "ROAD_CENTERLINE",
    "source_type": "agent_generated_design",
    "confidence": "medium",
    "geometry_role": "design_proposal",
    "road_class": "branch",
    "road_label_zh": "横向连接路 @ 39.9395"
   },
   "geometry": {
    "type": "LineString",
    "coordinates": [
     [
      116.34009999999999,
      39.9395
     ],
     [
      116.3549,
      39.9395
     ]
    ]
   }
  },
  {
   "type": "Feature",
   "id": "ROAD-0015",
   "properties": {
    "id": "ROAD-0015",
    "layer": "ROAD_CENTERLINE",
    "source_type": "agent_generated_design",
    "confidence": "medium",
    "geometry_role": "design_proposal",
    "road_class": "arterial",
    "road_label_zh": "西侧纵向干道"
   },
   "geometry": {
    "type": "LineString",
    "coordinates": [
     [
      116.344,
      39.9394
     ],
     [
      116.344,
      40.0261
     ]
    ]
   }
  },
  {
   "type": "Feature",
   "id": "ROAD-0016",
   "properties": {
    "id": "ROAD-0016",
    "layer": "ROAD_CENTERLINE",
    "source_type": "agent_generated_design",
    "confidence": "medium",
    "geometry_role": "design_proposal",
    "road_class": "arterial",
    "road_label_zh": "东侧纵向干道"
   },
   "geometry": {
    "type": "LineString",
    "coordinates": [
     [
      116.35,
      39.9394
     ],
     [
      116.35,
      40.0261
     ]
    ]
   }
  }
 ]
}