{
  "type": "FeatureCollection",
  "name": "land_use_time_spine_partition",
  "features": [
    {
      "type": "Feature",
      "id": "LU-001",
      "properties": {
        "id": "LU-001",
        "layer": "LAND_USE",
        "source_type": "agent_generated_design",
        "confidence": "medium",
        "geometry_role": "design_proposal",
        "area_sqm_declared": 37773.994,
        "land_use_code": "1207",
        "name_zh": "城市道路用地（西侧）",
        "band_id": "B1"
      },
      "geometry": {
        "type": "Polygon",
        "coordinates": [
          [
            [
              116.3405611,
              39.944
            ],
            [
              116.3414266,
              39.944
            ],
            [
              116.3414266,
              39.939
            ],
            [
              116.3407,
              39.939
            ],
            [
              116.3405611,
              39.944
            ]
          ]
        ]
      }
    },
    {
      "type": "Feature",
      "id": "LU-002",
      "properties": {
        "id": "LU-002",
        "layer": "LAND_USE",
        "source_type": "agent_generated_design",
        "confidence": "medium",
        "geometry_role": "design_proposal",
        "area_sqm_declared": 184812.164,
        "land_use_code": "0701",
        "name_zh": "既有居住与社区服务用地",
        "band_id": "B1"
      },
      "geometry": {
        "type": "Polygon",
        "coordinates": [
          [
            [
              116.3414266,
              39.944
            ],
            [
              116.3453213,
              39.944
            ],
            [
              116.3453213,
              39.939
            ],
            [
              116.3414266,
              39.939
            ],
            [
              116.3414266,
              39.944
            ]
          ]
        ]
      }
    },
    {
      "type": "Feature",
      "id": "LU-003",
      "properties": {
        "id": "LU-003",
        "layer": "LAND_USE",
        "source_type": "agent_generated_design",
        "confidence": "medium",
        "geometry_role": "design_proposal",
        "area_sqm_declared": 130385.46,
        "land_use_code": "0702",
        "name_zh": "社区服务与配套用地",
        "band_id": "B1"
      },
      "geometry": {
        "type": "Polygon",
        "coordinates": [
          [
            [
              116.3453213,
              39.944
            ],
            [
              116.349216,
              39.944
            ],
            [
              116.347011,
              39.9392749
            ],
            [
              116.3476,
              39.939
            ],
            [
              116.3453213,
              39.939
            ],
            [
              116.3453213,
              39.944
            ]
          ]
        ]
      }
    },
    {
      "type": "Feature",
      "id": "LU-004",
      "properties": {
        "id": "LU-004",
        "layer": "LAND_USE",
        "source_type": "agent_generated_design",
        "confidence": "medium",
        "geometry_role": "design_proposal",
        "area_sqm_declared": 33134.25,
        "land_use_code": "05",
        "name_zh": "智能原生商业与消费体验用地",
        "band_id": "B1"
      },
      "geometry": {
        "type": "Polygon",
        "coordinates": [
          [
            [
              116.3553,
              39.944
            ],
            [
              116.3553,
              39.939
            ],
            [
              116.3546017,
              39.939
            ],
            [
              116.3546017,
              39.944
            ],
            [
              116.3553,
              39.944
            ]
          ]
        ]
      }
    },
    {
      "type": "Feature",
      "id": "LU-005",
      "properties": {
        "id": "LU-005",
        "layer": "LAND_USE",
        "source_type": "agent_generated_design",
        "confidence": "medium",
        "geometry_role": "design_proposal",
        "area_sqm_declared": 149104.192,
        "land_use_code": "0701",
        "name_zh": "既有居住用地",
        "band_id": "B1"
      },
      "geometry": {
        "type": "Polygon",
        "coordinates": [
          [
            [
              116.3546017,
              39.939
            ],
            [
              116.3514595,
              39.939
            ],
            [
              116.3514595,
              39.944
            ],
            [
              116.3546017,
              39.944
            ],
            [
              116.3546017,
              39.939
            ]
          ]
        ]
      }
    },
    {
      "type": "Feature",
      "id": "LU-006",
      "properties": {
        "id": "LU-006",
        "layer": "LAND_USE",
        "source_type": "agent_generated_design",
        "confidence": "medium",
        "geometry_role": "design_proposal",
        "area_sqm_declared": 93745.592,
        "land_use_code": "1207",
        "name_zh": "城市道路用地（东侧）",
        "band_id": "B1"
      },
      "geometry": {
        "type": "Polygon",
        "coordinates": [
          [
            [
              116.3514595,
              39.939
            ],
            [
              116.3483173,
              39.939
            ],
            [
              116.3506506,
              39.944
            ],
            [
              116.3514595,
              39.944
            ],
            [
              116.3514595,
              39.939
            ]
          ]
        ]
      }
    },
    {
      "type": "Feature",
      "id": "LU-007",
      "properties": {
        "id": "LU-007",
        "layer": "LAND_USE",
        "source_type": "agent_generated_design",
        "confidence": "medium",
        "geometry_role": "design_proposal",
        "area_sqm_declared": 47198.857,
        "land_use_code": "1207",
        "name_zh": "城市道路用地（西侧）",
        "band_id": "B2"
      },
      "geometry": {
        "type": "Polygon",
        "coordinates": [
          [
            [
              116.3405611,
              39.944
            ],
            [
              116.3403989,
              39.94984
            ],
            [
              116.3413317,
              39.94984
            ],
            [
              116.3413317,
              39.944
            ],
            [
              116.3405611,
              39.944
            ]
          ]
        ]
      }
    },
    {
      "type": "Feature",
      "id": "LU-008",
      "properties": {
        "id": "LU-008",
        "layer": "LAND_USE",
        "source_type": "agent_generated_design",
        "confidence": "medium",
        "geometry_role": "design_proposal",
        "area_sqm_declared": 232623.741,
        "land_use_code": "05",
        "name_zh": "智能原生商业与消费体验用地",
        "band_id": "B2"
      },
      "geometry": {
        "type": "Polygon",
        "coordinates": [
          [
            [
              116.3413317,
              39.94984
            ],
            [
              116.3455292,
              39.94984
            ],
            [
              116.3455292,
              39.944
            ],
            [
              116.3413317,
              39.944
            ],
            [
              116.3413317,
              39.94984
            ]
          ]
        ]
      }
    },
    {
      "type": "Feature",
      "id": "LU-009",
      "properties": {
        "id": "LU-009",
        "layer": "LAND_USE",
        "source_type": "agent_generated_design",
        "confidence": "medium",
        "geometry_role": "design_proposal",
        "area_sqm_declared": 212874.428,
        "land_use_code": "0803",
        "name_zh": "文化展示用地",
        "band_id": "B2"
      },
      "geometry": {
        "type": "Polygon",
        "coordinates": [
          [
            [
              116.3455292,
              39.94984
            ],
            [
              116.3489673,
              39.94984
            ],
            [
              116.3497267,
              39.9450942
            ],
            [
              116.349216,
              39.944
            ],
            [
              116.3455292,
              39.944
            ],
            [
              116.3455292,
              39.94984
            ]
          ]
        ]
      }
    },
    {
      "type": "Feature",
      "id": "LU-010",
      "properties": {
        "id": "LU-010",
        "layer": "LAND_USE",
        "source_type": "agent_generated_design",
        "confidence": "medium",
        "geometry_role": "design_proposal",
        "area_sqm_declared": 59944.471,
        "land_use_code": "05",
        "name_zh": "智能原生商业与消费体验用地",
        "band_id": "B2"
      },
      "geometry": {
        "type": "Polygon",
        "coordinates": [
          [
            [
              116.3506506,
              39.944
            ],
            [
              116.3510733,
              39.9449058
            ],
            [
              116.3502839,
              39.94984
            ],
            [
              116.3517887,
              39.94984
            ],
            [
              116.3517887,
              39.944
            ],
            [
              116.3506506,
              39.944
            ]
          ]
        ]
      }
    },
    {
      "type": "Feature",
      "id": "LU-011",
      "properties": {
        "id": "LU-011",
        "layer": "LAND_USE",
        "source_type": "agent_generated_design",
        "confidence": "medium",
        "geometry_role": "design_proposal",
        "area_sqm_declared": 83397.472,
        "land_use_code": "05",
        "name_zh": "产业服务与商业服务用地",
        "band_id": "B2"
      },
      "geometry": {
        "type": "Polygon",
        "coordinates": [
          [
            [
              116.3517887,
              39.94984
            ],
            [
              116.3532935,
              39.94984
            ],
            [
              116.3532935,
              39.944
            ],
            [
              116.3517887,
              39.944
            ],
            [
              116.3517887,
              39.94984
            ]
          ]
        ]
      }
    },
    {
      "type": "Feature",
      "id": "LU-012",
      "properties": {
        "id": "LU-012",
        "layer": "LAND_USE",
        "source_type": "agent_generated_design",
        "confidence": "medium",
        "geometry_role": "design_proposal",
        "area_sqm_declared": 83397.443,
        "land_use_code": "0701",
        "name_zh": "既有居住与配套用地",
        "band_id": "B2"
      },
      "geometry": {
        "type": "Polygon",
        "coordinates": [
          [
            [
              116.3532935,
              39.94984
            ],
            [
              116.3547984,
              39.94984
            ],
            [
              116.3547984,
              39.944
            ],
            [
              116.3532935,
              39.944
            ],
            [
              116.3532935,
              39.94984
            ]
          ]
        ]
      }
    },
    {
      "type": "Feature",
      "id": "LU-013",
      "properties": {
        "id": "LU-013",
        "layer": "LAND_USE",
        "source_type": "agent_generated_design",
        "confidence": "medium",
        "geometry_role": "design_proposal",
        "area_sqm_declared": 27799.141,
        "land_use_code": "1207",
        "name_zh": "城市道路用地（东侧）",
        "band_id": "B2"
      },
      "geometry": {
        "type": "Polygon",
        "coordinates": [
          [
            [
              116.3547984,
              39.94984
            ],
            [
              116.3553,
              39.94984
            ],
            [
              116.3553,
              39.944
            ],
            [
              116.3547984,
              39.944
            ],
            [
              116.3547984,
              39.94984
            ]
          ]
        ]
      }
    },
    {
      "type": "Feature",
      "id": "LU-014",
      "properties": {
        "id": "LU-014",
        "layer": "LAND_USE",
        "source_type": "agent_generated_design",
        "confidence": "medium",
        "geometry_role": "design_proposal",
        "area_sqm_declared": 99017.222,
        "land_use_code": "1207",
        "name_zh": "城市道路用地（西侧）",
        "band_id": "B3"
      },
      "geometry": {
        "type": "Polygon",
        "coordinates": [
          [
            [
              116.3403989,
              39.94984
            ],
            [
              116.3399778,
              39.965
            ],
            [
              116.3408767,
              39.965
            ],
            [
              116.3408767,
              39.94984
            ],
            [
              116.3403989,
              39.94984
            ]
          ]
        ]
      }
    },
    {
      "type": "Feature",
      "id": "LU-015",
      "properties": {
        "id": "LU-015",
        "layer": "LAND_USE",
        "source_type": "agent_generated_design",
        "confidence": "medium",
        "geometry_role": "design_proposal",
        "area_sqm_declared": 581882.142,
        "land_use_code": "0802",
        "name_zh": "科研与科技服务用地",
        "band_id": "B3"
      },
      "geometry": {
        "type": "Polygon",
        "coordinates": [
          [
            [
              116.3408767,
              39.965
            ],
            [
              116.344922,
              39.965
            ],
            [
              116.344922,
              39.94984
            ],
            [
              116.3408767,
              39.94984
            ],
            [
              116.3408767,
              39.965
            ]
          ]
        ]
      }
    },
    {
      "type": "Feature",
      "id": "LU-016",
      "properties": {
        "id": "LU-016",
        "layer": "LAND_USE",
        "source_type": "agent_generated_design",
        "confidence": "medium",
        "geometry_role": "design_proposal",
        "area_sqm_declared": 414476.521,
        "land_use_code": "0701",
        "name_zh": "既有居住用地",
        "band_id": "B3"
      },
      "geometry": {
        "type": "Polygon",
        "coordinates": [
          [
            [
              116.344922,
              39.965
            ],
            [
              116.3466886,
              39.965
            ],
            [
              116.3481574,
              39.9549019
            ],
            [
              116.3489673,
              39.94984
            ],
            [
              116.344922,
              39.94984
            ],
            [
              116.344922,
              39.965
            ]
          ]
        ]
      }
    },
    {
      "type": "Feature",
      "id": "LU-017",
      "properties": {
        "id": "LU-017",
        "layer": "LAND_USE",
        "source_type": "agent_generated_design",
        "confidence": "medium",
        "geometry_role": "design_proposal",
        "area_sqm_declared": 311861.558,
        "land_use_code": "0802",
        "name_zh": "科研与产业孵化用地",
        "band_id": "B3"
      },
      "geometry": {
        "type": "Polygon",
        "coordinates": [
          [
            [
              116.3502839,
              39.94984
            ],
            [
              116.3494426,
              39.9550981
            ],
            [
              116.3480023,
              39.965
            ],
            [
              116.3512863,
              39.965
            ],
            [
              116.3512863,
              39.94984
            ],
            [
              116.3502839,
              39.94984
            ]
          ]
        ]
      }
    },
    {
      "type": "Feature",
      "id": "LU-018",
      "properties": {
        "id": "LU-018",
        "layer": "LAND_USE",
        "source_type": "agent_generated_design",
        "confidence": "medium",
        "geometry_role": "design_proposal",
        "area_sqm_declared": 472369.831,
        "land_use_code": "05",
        "name_zh": "商业服务与配套设施用地",
        "band_id": "B3"
      },
      "geometry": {
        "type": "Polygon",
        "coordinates": [
          [
            [
              116.3512863,
              39.965
            ],
            [
              116.3545702,
              39.965
            ],
            [
              116.3545702,
              39.94984
            ],
            [
              116.3512863,
              39.94984
            ],
            [
              116.3512863,
              39.965
            ]
          ]
        ]
      }
    },
    {
      "type": "Feature",
      "id": "LU-019",
      "properties": {
        "id": "LU-019",
        "layer": "LAND_USE",
        "source_type": "agent_generated_design",
        "confidence": "medium",
        "geometry_role": "design_proposal",
        "area_sqm_declared": 104971.025,
        "land_use_code": "1207",
        "name_zh": "城市道路用地（东侧）",
        "band_id": "B3"
      },
      "geometry": {
        "type": "Polygon",
        "coordinates": [
          [
            [
              116.3545702,
              39.965
            ],
            [
              116.3553,
              39.965
            ],
            [
              116.3553,
              39.94984
            ],
            [
              116.3545702,
              39.94984
            ],
            [
              116.3545702,
              39.965
            ]
          ]
        ]
      }
    },
    {
      "type": "Feature",
      "id": "LU-020",
      "properties": {
        "id": "LU-020",
        "layer": "LAND_USE",
        "source_type": "agent_generated_design",
        "confidence": "medium",
        "geometry_role": "design_proposal",
        "area_sqm_declared": 87361.743,
        "land_use_code": "1207",
        "name_zh": "城市道路用地（西侧）",
        "band_id": "B4"
      },
      "geometry": {
        "type": "Polygon",
        "coordinates": [
          [
            [
              116.3399778,
              39.965
            ],
            [
              116.3397,
              39.975
            ],
            [
              116.3402484,
              39.9835
            ],
            [
              116.3403989,
              39.9835
            ],
            [
              116.3403989,
              39.965
            ],
            [
              116.3399778,
              39.965
            ]
          ]
        ]
      }
    },
    {
      "type": "Feature",
      "id": "LU-021",
      "properties": {
        "id": "LU-021",
        "layer": "LAND_USE",
        "source_type": "agent_generated_design",
        "confidence": "medium",
        "geometry_role": "design_proposal",
        "area_sqm_declared": 551893.534,
        "land_use_code": "0802",
        "name_zh": "科研与教育发展用地",
        "band_id": "B4"
      },
      "geometry": {
        "type": "Polygon",
        "coordinates": [
          [
            [
              116.3403989,
              39.9835
            ],
            [
              116.3435437,
              39.9835
            ],
            [
              116.3435437,
              39.965
            ],
            [
              116.3403989,
              39.965
            ],
            [
              116.3403989,
              39.9835
            ]
          ]
        ]
      }
    },
    {
      "type": "Feature",
      "id": "LU-022",
      "properties": {
        "id": "LU-022",
        "layer": "LAND_USE",
        "source_type": "agent_generated_design",
        "confidence": "medium",
        "geometry_role": "design_proposal",
        "area_sqm_declared": 470150.088,
        "land_use_code": "0701",
        "name_zh": "既有居住与配套用地",
        "band_id": "B4"
      },
      "geometry": {
        "type": "Polygon",
        "coordinates": [
          [
            [
              116.3435437,
              39.9835
            ],
            [
              116.3463493,
              39.9835
            ],
            [
              116.345949,
              39.9749936
            ],
            [
              116.3465531,
              39.9659315
            ],
            [
              116.3466886,
              39.965
            ],
            [
              116.3435437,
              39.965
            ],
            [
              116.3435437,
              39.9835
            ]
          ]
        ]
      }
    },
    {
      "type": "Feature",
      "id": "LU-023",
      "properties": {
        "id": "LU-023",
        "layer": "LAND_USE",
        "source_type": "agent_generated_design",
        "confidence": "medium",
        "geometry_role": "design_proposal",
        "area_sqm_declared": 375562.574,
        "land_use_code": "0804",
        "name_zh": "教育科研用地（学院路沿线）",
        "band_id": "B4"
      },
      "geometry": {
        "type": "Polygon",
        "coordinates": [
          [
            [
              116.3480023,
              39.965
            ],
            [
              116.3478469,
              39.9660685
            ],
            [
              116.347251,
              39.9750064
            ],
            [
              116.347648,
              39.9834417
            ],
            [
              116.3476558,
              39.9835
            ],
            [
              116.3496657,
              39.9835
            ],
            [
              116.3496657,
              39.965
            ],
            [
              116.3480023,
              39.965
            ]
          ]
        ]
      }
    },
    {
      "type": "Feature",
      "id": "LU-024",
      "properties": {
        "id": "LU-024",
        "layer": "LAND_USE",
        "source_type": "agent_generated_design",
        "confidence": "medium",
        "geometry_role": "design_proposal",
        "area_sqm_declared": 423753.182,
        "land_use_code": "0802",
        "name_zh": "科研与创新孵化用地",
        "band_id": "B4"
      },
      "geometry": {
        "type": "Polygon",
        "coordinates": [
          [
            [
              116.3496657,
              39.9835
            ],
            [
              116.3520804,
              39.9835
            ],
            [
              116.3520804,
              39.965
            ],
            [
              116.3496657,
              39.965
            ],
            [
              116.3496657,
              39.9835
            ]
          ]
        ]
      }
    },
    {
      "type": "Feature",
      "id": "LU-025",
      "properties": {
        "id": "LU-025",
        "layer": "LAND_USE",
        "source_type": "agent_generated_design",
        "confidence": "medium",
        "geometry_role": "design_proposal",
        "area_sqm_declared": 396735.028,
        "land_use_code": "05",
        "name_zh": "商业服务与生活配套用地",
        "band_id": "B4"
      },
      "geometry": {
        "type": "Polygon",
        "coordinates": [
          [
            [
              116.3520804,
              39.9835
            ],
            [
              116.35382,
              39.9835
            ],
            [
              116.3544951,
              39.9750612
            ],
            [
              116.3544951,
              39.965
            ],
            [
              116.3520804,
              39.965
            ],
            [
              116.3520804,
              39.9835
            ]
          ]
        ]
      }
    },
    {
      "type": "Feature",
      "id": "LU-026",
      "properties": {
        "id": "LU-026",
        "layer": "LAND_USE",
        "source_type": "agent_generated_design",
        "confidence": "medium",
        "geometry_role": "design_proposal",
        "area_sqm_declared": 38414.817,
        "land_use_code": "1207",
        "name_zh": "城市道路用地（东侧）",
        "band_id": "B4"
      },
      "geometry": {
        "type": "Polygon",
        "coordinates": [
          [
            [
              116.3544951,
              39.9750612
            ],
            [
              116.3553,
              39.965
            ],
            [
              116.3544951,
              39.965
            ],
            [
              116.3544951,
              39.9750612
            ]
          ]
        ]
      }
    },
    {
      "type": "Feature",
      "id": "LU-027",
      "properties": {
        "id": "LU-027",
        "layer": "LAND_USE",
        "source_type": "agent_generated_design",
        "confidence": "medium",
        "geometry_role": "design_proposal",
        "area_sqm_declared": 38620.551,
        "land_use_code": "1207",
        "name_zh": "城市道路用地（西侧）",
        "band_id": "B5"
      },
      "geometry": {
        "type": "Polygon",
        "coordinates": [
          [
            [
              116.3402484,
              39.9835
            ],
            [
              116.3408935,
              39.9935
            ],
            [
              116.3409782,
              39.9935
            ],
            [
              116.3409782,
              39.9835
            ],
            [
              116.3402484,
              39.9835
            ]
          ]
        ]
      }
    },
    {
      "type": "Feature",
      "id": "LU-028",
      "properties": {
        "id": "LU-028",
        "layer": "LAND_USE",
        "source_type": "agent_generated_design",
        "confidence": "medium",
        "geometry_role": "design_proposal",
        "area_sqm_declared": 311453.089,
        "land_use_code": "0802",
        "name_zh": "科研成果转化与孵化用地",
        "band_id": "B5"
      },
      "geometry": {
        "type": "Polygon",
        "coordinates": [
          [
            [
              116.3409782,
              39.9935
            ],
            [
              116.3442622,
              39.9935
            ],
            [
              116.3442622,
              39.9835
            ],
            [
              116.3409782,
              39.9835
            ],
            [
              116.3409782,
              39.9935
            ]
          ]
        ]
      }
    },
    {
      "type": "Feature",
      "id": "LU-029",
      "properties": {
        "id": "LU-029",
        "layer": "LAND_USE",
        "source_type": "agent_generated_design",
        "confidence": "medium",
        "geometry_role": "design_proposal",
        "area_sqm_declared": 257311.985,
        "land_use_code": "0701",
        "name_zh": "人才居住与社区服务用地",
        "band_id": "B5"
      },
      "geometry": {
        "type": "Polygon",
        "coordinates": [
          [
            [
              116.3442622,
              39.9935
            ],
            [
              116.3475461,
              39.9935
            ],
            [
              116.3469547,
              39.9880782
            ],
            [
              116.346352,
              39.9835583
            ],
            [
              116.3463493,
              39.9835
            ],
            [
              116.3442622,
              39.9835
            ],
            [
              116.3442622,
              39.9935
            ]
          ]
        ]
      }
    },
    {
      "type": "Feature",
      "id": "LU-030",
      "properties": {
        "id": "LU-030",
        "layer": "LAND_USE",
        "source_type": "agent_generated_design",
        "confidence": "medium",
        "geometry_role": "design_proposal",
        "area_sqm_declared": 28356.576,
        "land_use_code": "0804",
        "name_zh": "教育科研用地（近校联动）",
        "band_id": "B5"
      },
      "geometry": {
        "type": "Polygon",
        "coordinates": [
          [
            [
              116.35382,
              39.9835
            ],
            [
              116.3532036,
              39.9835
            ],
            [
              116.3532036,
              39.9935
            ],
            [
              116.3534918,
              39.9935
            ],
            [
              116.3533,
              39.99
            ],
            [
              116.35382,
              39.9835
            ]
          ]
        ]
      }
    },
    {
      "type": "Feature",
      "id": "LU-031",
      "properties": {
        "id": "LU-031",
        "layer": "LAND_USE",
        "source_type": "agent_generated_design",
        "confidence": "medium",
        "geometry_role": "design_proposal",
        "area_sqm_declared": 175384.459,
        "land_use_code": "0802",
        "name_zh": "科研孵化与成果展示用地",
        "band_id": "B5"
      },
      "geometry": {
        "type": "Polygon",
        "coordinates": [
          [
            [
              116.3532036,
              39.9835
            ],
            [
              116.3513543,
              39.9835
            ],
            [
              116.3513543,
              39.9935
            ],
            [
              116.3532036,
              39.9935
            ],
            [
              116.3532036,
              39.9835
            ]
          ]
        ]
      }
    },
    {
      "type": "Feature",
      "id": "LU-032",
      "properties": {
        "id": "LU-032",
        "layer": "LAND_USE",
        "source_type": "agent_generated_design",
        "confidence": "medium",
        "geometry_role": "design_proposal",
        "area_sqm_declared": 175384.535,
        "land_use_code": "05",
        "name_zh": "商业服务与人才生活配套用地",
        "band_id": "B5"
      },
      "geometry": {
        "type": "Polygon",
        "coordinates": [
          [
            [
              116.3513543,
              39.9835
            ],
            [
              116.349505,
              39.9835
            ],
            [
              116.349505,
              39.9935
            ],
            [
              116.3513543,
              39.9935
            ],
            [
              116.3513543,
              39.9835
            ]
          ]
        ]
      }
    },
    {
      "type": "Feature",
      "id": "LU-033",
      "properties": {
        "id": "LU-033",
        "layer": "LAND_USE",
        "source_type": "agent_generated_design",
        "confidence": "medium",
        "geometry_role": "design_proposal",
        "area_sqm_declared": 115736.948,
        "land_use_code": "1207",
        "name_zh": "城市道路用地（东侧）",
        "band_id": "B5"
      },
      "geometry": {
        "type": "Polygon",
        "coordinates": [
          [
            [
              116.349505,
              39.9835
            ],
            [
              116.3476558,
              39.9835
            ],
            [
              116.3482453,
              39.9879218
            ],
            [
              116.3488457,
              39.9934251
            ],
            [
              116.3488549,
              39.9935
            ],
            [
              116.349505,
              39.9935
            ],
            [
              116.349505,
              39.9835
            ]
          ]
        ]
      }
    },
    {
      "type": "Feature",
      "id": "LU-034",
      "properties": {
        "id": "LU-034",
        "layer": "LAND_USE",
        "source_type": "agent_generated_design",
        "confidence": "medium",
        "geometry_role": "design_proposal",
        "area_sqm_declared": 47678.813,
        "land_use_code": "1207",
        "name_zh": "城市道路用地（西侧）",
        "band_id": "B6"
      },
      "geometry": {
        "type": "Polygon",
        "coordinates": [
          [
            [
              116.3408935,
              39.9935
            ],
            [
              116.341699,
              40.0059843
            ],
            [
              116.341699,
              39.9935
            ],
            [
              116.3408935,
              39.9935
            ]
          ]
        ]
      }
    },
    {
      "type": "Feature",
      "id": "LU-035",
      "properties": {
        "id": "LU-035",
        "layer": "LAND_USE",
        "source_type": "agent_generated_design",
        "confidence": "medium",
        "geometry_role": "design_proposal",
        "area_sqm_declared": 480623.538,
        "land_use_code": "1402",
        "name_zh": "防护绿地与开敞空间",
        "band_id": "B6"
      },
      "geometry": {
        "type": "Polygon",
        "coordinates": [
          [
            [
              116.341699,
              40.0059843
            ],
            [
              116.3417,
              40.006
            ],
            [
              116.3417732,
              40.0075
            ],
            [
              116.3453235,
              40.0075
            ],
            [
              116.3453235,
              39.9935
            ],
            [
              116.341699,
              39.9935
            ],
            [
              116.341699,
              40.0059843
            ]
          ]
        ]
      }
    },
    {
      "type": "Feature",
      "id": "LU-036",
      "properties": {
        "id": "LU-036",
        "layer": "LAND_USE",
        "source_type": "agent_generated_design",
        "confidence": "medium",
        "geometry_role": "design_proposal",
        "area_sqm_declared": 398007.923,
        "land_use_code": "0701",
        "name_zh": "既有居住与配套用地",
        "band_id": "B6"
      },
      "geometry": {
        "type": "Polygon",
        "coordinates": [
          [
            [
              116.3453235,
              40.0075
            ],
            [
              116.3489479,
              40.0075
            ],
            [
              116.3483532,
              40.0000656
            ],
            [
              116.3475543,
              39.9935749
            ],
            [
              116.3475461,
              39.9935
            ],
            [
              116.3453235,
              39.9935
            ],
            [
              116.3453235,
              40.0075
            ]
          ]
        ]
      }
    },
    {
      "type": "Feature",
      "id": "LU-037",
      "properties": {
        "id": "LU-037",
        "layer": "LAND_USE",
        "source_type": "agent_generated_design",
        "confidence": "medium",
        "geometry_role": "design_proposal",
        "area_sqm_declared": 220151.267,
        "land_use_code": "0802",
        "name_zh": "科研与产业服务用地",
        "band_id": "B6"
      },
      "geometry": {
        "type": "Polygon",
        "coordinates": [
          [
            [
              116.3488549,
              39.9935
            ],
            [
              116.3496468,
              39.9999344
            ],
            [
              116.3502479,
              40.0074482
            ],
            [
              116.3502521,
              40.0075
            ],
            [
              116.3512867,
              40.0075
            ],
            [
              116.3512867,
              39.9935
            ],
            [
              116.3488549,
              39.9935
            ]
          ]
        ]
      }
    },
    {
      "type": "Feature",
      "id": "LU-038",
      "properties": {
        "id": "LU-038",
        "layer": "LAND_USE",
        "source_type": "agent_generated_design",
        "confidence": "medium",
        "geometry_role": "design_proposal",
        "area_sqm_declared": 318379.036,
        "land_use_code": "05",
        "name_zh": "商业服务与配套设施用地",
        "band_id": "B6"
      },
      "geometry": {
        "type": "Polygon",
        "coordinates": [
          [
            [
              116.3512867,
              40.0075
            ],
            [
              116.3537185,
              40.0075
            ],
            [
              116.3537185,
              39.9976377
            ],
            [
              116.3534918,
              39.9935
            ],
            [
              116.3512867,
              39.9935
            ],
            [
              116.3512867,
              40.0075
            ]
          ]
        ]
      }
    },
    {
      "type": "Feature",
      "id": "LU-039",
      "properties": {
        "id": "LU-039",
        "layer": "LAND_USE",
        "source_type": "agent_generated_design",
        "confidence": "medium",
        "geometry_role": "design_proposal",
        "area_sqm_declared": 25265.842,
        "land_use_code": "1207",
        "name_zh": "城市道路用地（东侧）",
        "band_id": "B6"
      },
      "geometry": {
        "type": "Polygon",
        "coordinates": [
          [
            [
              116.3537185,
              40.0075
            ],
            [
              116.3542589,
              40.0075
            ],
            [
              116.3537185,
              39.9976377
            ],
            [
              116.3537185,
              40.0075
            ]
          ]
        ]
      }
    },
    {
      "type": "Feature",
      "id": "LU-040",
      "properties": {
        "id": "LU-040",
        "layer": "LAND_USE",
        "source_type": "agent_generated_design",
        "confidence": "medium",
        "geometry_role": "design_proposal",
        "area_sqm_declared": 68181.098,
        "land_use_code": "1207",
        "name_zh": "城市道路用地（西侧）",
        "band_id": "B7"
      },
      "geometry": {
        "type": "Polygon",
        "coordinates": [
          [
            [
              116.3417732,
              40.0075
            ],
            [
              116.3426108,
              40.0246707
            ],
            [
              116.3426108,
              40.0075
            ],
            [
              116.3417732,
              40.0075
            ]
          ]
        ]
      }
    },
    {
      "type": "Feature",
      "id": "LU-041",
      "properties": {
        "id": "LU-041",
        "layer": "LAND_USE",
        "source_type": "agent_generated_design",
        "confidence": "medium",
        "geometry_role": "design_proposal",
        "area_sqm_declared": 451833.186,
        "land_use_code": "0802",
        "name_zh": "AI研发与自主创新用地",
        "band_id": "B7"
      },
      "geometry": {
        "type": "Polygon",
        "coordinates": [
          [
            [
              116.3426108,
              40.0246707
            ],
            [
              116.3427,
              40.0265
            ],
            [
              116.3451235,
              40.0265
            ],
            [
              116.3451235,
              40.0075
            ],
            [
              116.3426108,
              40.0075
            ],
            [
              116.3426108,
              40.0246707
            ]
          ]
        ]
      }
    },
    {
      "type": "Feature",
      "id": "LU-042",
      "properties": {
        "id": "LU-042",
        "layer": "LAND_USE",
        "source_type": "agent_generated_design",
        "confidence": "medium",
        "geometry_role": "design_proposal",
        "area_sqm_declared": 452606.298,
        "land_use_code": "05",
        "name_zh": "产业服务与花园商业用地",
        "band_id": "B7"
      },
      "geometry": {
        "type": "Polygon",
        "coordinates": [
          [
            [
              116.3451235,
              40.0265
            ],
            [
              116.3476363,
              40.0265
            ],
            [
              116.3476363,
              40.0075
            ],
            [
              116.3451235,
              40.0075
            ],
            [
              116.3451235,
              40.0265
            ]
          ]
        ]
      }
    },
    {
      "type": "Feature",
      "id": "LU-043",
      "properties": {
        "id": "LU-043",
        "layer": "LAND_USE",
        "source_type": "agent_generated_design",
        "confidence": "medium",
        "geometry_role": "design_proposal",
        "area_sqm_declared": 355816.163,
        "land_use_code": "16",
        "name_zh": "留白用地（更新潜力）",
        "band_id": "B7"
      },
      "geometry": {
        "type": "Polygon",
        "coordinates": [
          [
            [
              116.3476363,
              40.0265
            ],
            [
              116.3501491,
              40.0265
            ],
            [
              116.3495514,
              40.0150429
            ],
            [
              116.3489521,
              40.0075518
            ],
            [
              116.3489479,
              40.0075
            ],
            [
              116.3476363,
              40.0075
            ],
            [
              116.3476363,
              40.0265
            ]
          ]
        ]
      }
    },
    {
      "type": "Feature",
      "id": "LU-044",
      "properties": {
        "id": "LU-044",
        "layer": "LAND_USE",
        "source_type": "agent_generated_design",
        "confidence": "medium",
        "geometry_role": "design_proposal",
        "area_sqm_declared": 153565.587,
        "land_use_code": "0802",
        "name_zh": "AI研发与自主创新用地",
        "band_id": "B7"
      },
      "geometry": {
        "type": "Polygon",
        "coordinates": [
          [
            [
              116.3502521,
              40.0075
            ],
            [
              116.3508486,
              40.0149571
            ],
            [
              116.3514491,
              40.0264661
            ],
            [
              116.3508,
              40.0265
            ],
            [
              116.3517665,
              40.0265
            ],
            [
              116.3517665,
              40.0075
            ],
            [
              116.3502521,
              40.0075
            ]
          ]
        ]
      }
    },
    {
      "type": "Feature",
      "id": "LU-045",
      "properties": {
        "id": "LU-045",
        "layer": "LAND_USE",
        "source_type": "agent_generated_design",
        "confidence": "medium",
        "geometry_role": "design_proposal",
        "area_sqm_declared": 272771.438,
        "land_use_code": "05",
        "name_zh": "产业服务与配套设施用地",
        "band_id": "B7"
      },
      "geometry": {
        "type": "Polygon",
        "coordinates": [
          [
            [
              116.3517665,
              40.0265
            ],
            [
              116.3532808,
              40.0265
            ],
            [
              116.3532808,
              40.0075
            ],
            [
              116.3517665,
              40.0075
            ],
            [
              116.3517665,
              40.0265
            ]
          ]
        ]
      }
    },
    {
      "type": "Feature",
      "id": "LU-046",
      "properties": {
        "id": "LU-046",
        "layer": "LAND_USE",
        "source_type": "agent_generated_design",
        "confidence": "medium",
        "geometry_role": "design_proposal",
        "area_sqm_declared": 247886.277,
        "land_use_code": "16",
        "name_zh": "留白用地（更新潜力）",
        "band_id": "B7"
      },
      "geometry": {
        "type": "Polygon",
        "coordinates": [
          [
            [
              116.3532808,
              40.0265
            ],
            [
              116.3547952,
              40.0265
            ],
            [
              116.3547952,
              40.0172875
            ],
            [
              116.3542589,
              40.0075
            ],
            [
              116.3532808,
              40.0075
            ],
            [
              116.3532808,
              40.0265
            ]
          ]
        ]
      }
    },
    {
      "type": "Feature",
      "id": "LU-047",
      "properties": {
        "id": "LU-047",
        "layer": "LAND_USE",
        "source_type": "agent_generated_design",
        "confidence": "medium",
        "geometry_role": "design_proposal",
        "area_sqm_declared": 22039.897,
        "land_use_code": "1207",
        "name_zh": "城市道路用地（东侧）",
        "band_id": "B7"
      },
      "geometry": {
        "type": "Polygon",
        "coordinates": [
          [
            [
              116.3547952,
              40.0265
            ],
            [
              116.3553,
              40.0265
            ],
            [
              116.3547952,
              40.0172875
            ],
            [
              116.3547952,
              40.0265
            ]
          ]
        ]
      }
    },
    {
      "type": "Feature",
      "id": "LU-048",
      "properties": {
        "id": "LU-048",
        "layer": "LAND_USE",
        "source_type": "agent_generated_design",
        "confidence": "medium",
        "geometry_role": "design_proposal",
        "area_sqm_declared": 189101.152,
        "land_use_code": "1401",
        "name_zh": "京张遗址公园活力带（时间脊）",
        "band_id": "B1",
        "spine_segment": true
      },
      "geometry": {
        "type": "Polygon",
        "coordinates": [
          [
            [
              116.3481574,
              39.9549019
            ],
            [
              116.3466886,
              39.965
            ],
            [
              116.3480023,
              39.965
            ],
            [
              116.3494426,
              39.9550981
            ],
            [
              116.3502839,
              39.94984
            ],
            [
              116.3489673,
              39.94984
            ],
            [
              116.3481574,
              39.9549019
            ]
          ]
        ]
      }
    },
    {
      "type": "Feature",
      "id": "LU-049",
      "properties": {
        "id": "LU-049",
        "layer": "LAND_USE",
        "source_type": "agent_generated_design",
        "confidence": "medium",
        "geometry_role": "design_proposal",
        "area_sqm_declared": 228629.893,
        "land_use_code": "1401",
        "name_zh": "京张遗址公园活力带（时间脊）",
        "band_id": "B2",
        "spine_segment": true
      },
      "geometry": {
        "type": "Polygon",
        "coordinates": [
          [
            [
              116.3466886,
              39.965
            ],
            [
              116.3465531,
              39.9659315
            ],
            [
              116.345949,
              39.9749936
            ],
            [
              116.3463493,
              39.9835
            ],
            [
              116.3476558,
              39.9835
            ],
            [
              116.347648,
              39.9834417
            ],
            [
              116.347251,
              39.9750064
            ],
            [
              116.3478469,
              39.9660685
            ],
            [
              116.3480023,
              39.965
            ],
            [
              116.3466886,
              39.965
            ]
          ]
        ]
      }
    },
    {
      "type": "Feature",
      "id": "LU-050",
      "properties": {
        "id": "LU-050",
        "layer": "LAND_USE",
        "source_type": "agent_generated_design",
        "confidence": "medium",
        "geometry_role": "design_proposal",
        "area_sqm_declared": 124183.918,
        "land_use_code": "1401",
        "name_zh": "京张遗址公园活力带（时间脊）",
        "band_id": "B3",
        "spine_segment": true
      },
      "geometry": {
        "type": "Polygon",
        "coordinates": [
          [
            [
              116.3463493,
              39.9835
            ],
            [
              116.346352,
              39.9835583
            ],
            [
              116.3469547,
              39.9880782
            ],
            [
              116.3475461,
              39.9935
            ],
            [
              116.3488549,
              39.9935
            ],
            [
              116.3488457,
              39.9934251
            ],
            [
              116.3482453,
              39.9879218
            ],
            [
              116.3476558,
              39.9835
            ],
            [
              116.3463493,
              39.9835
            ]
          ]
        ]
      }
    },
    {
      "type": "Feature",
      "id": "LU-051",
      "properties": {
        "id": "LU-051",
        "layer": "LAND_USE",
        "source_type": "agent_generated_design",
        "confidence": "medium",
        "geometry_role": "design_proposal",
        "area_sqm_declared": 173477.984,
        "land_use_code": "1401",
        "name_zh": "京张遗址公园活力带（时间脊）",
        "band_id": "B4",
        "spine_segment": true
      },
      "geometry": {
        "type": "Polygon",
        "coordinates": [
          [
            [
              116.3475461,
              39.9935
            ],
            [
              116.3475543,
              39.9935749
            ],
            [
              116.3483532,
              40.0000656
            ],
            [
              116.3489479,
              40.0075
            ],
            [
              116.3502521,
              40.0075
            ],
            [
              116.3502479,
              40.0074482
            ],
            [
              116.3496468,
              39.9999344
            ],
            [
              116.3488549,
              39.9935
            ],
            [
              116.3475461,
              39.9935
            ]
          ]
        ]
      }
    },
    {
      "type": "Feature",
      "id": "LU-052",
      "properties": {
        "id": "LU-052",
        "layer": "LAND_USE",
        "source_type": "agent_generated_design",
        "confidence": "medium",
        "geometry_role": "design_proposal",
        "area_sqm_declared": 234541.308,
        "land_use_code": "1401",
        "name_zh": "京张遗址公园活力带（时间脊）",
        "band_id": "B5",
        "spine_segment": true
      },
      "geometry": {
        "type": "Polygon",
        "coordinates": [
          [
            [
              116.3489479,
              40.0075
            ],
            [
              116.3489521,
              40.0075518
            ],
            [
              116.3495514,
              40.0150429
            ],
            [
              116.3501491,
              40.0265
            ],
            [
              116.3508,
              40.0265
            ],
            [
              116.3514491,
              40.0264661
            ],
            [
              116.3508486,
              40.0149571
            ],
            [
              116.3502521,
              40.0075
            ],
            [
              116.3489479,
              40.0075
            ]
          ]
        ]
      }
    },
    {
      "type": "Feature",
      "id": "LU-053",
      "properties": {
        "id": "LU-053",
        "layer": "LAND_USE",
        "source_type": "agent_generated_design",
        "confidence": "medium",
        "geometry_role": "design_proposal",
        "area_sqm_declared": 74082.13,
        "land_use_code": "1401",
        "name_zh": "京张遗址公园活力带（时间脊）",
        "band_id": "B6",
        "spine_segment": true
      },
      "geometry": {
        "type": "Polygon",
        "coordinates": [
          [
            [
              116.3502839,
              39.94984
            ],
            [
              116.3510733,
              39.9449058
            ],
            [
              116.3506506,
              39.944
            ],
            [
              116.349216,
              39.944
            ],
            [
              116.3497267,
              39.9450942
            ],
            [
              116.3489673,
              39.94984
            ],
            [
              116.3502839,
              39.94984
            ]
          ]
        ]
      }
    },
    {
      "type": "Feature",
      "id": "LU-054",
      "properties": {
        "id": "LU-054",
        "layer": "LAND_USE",
        "source_type": "agent_generated_design",
        "confidence": "medium",
        "geometry_role": "design_proposal",
        "area_sqm_declared": 67138.189,
        "land_use_code": "1401",
        "name_zh": "京张遗址公园活力带（时间脊）",
        "band_id": "B7",
        "spine_segment": true
      },
      "geometry": {
        "type": "Polygon",
        "coordinates": [
          [
            [
              116.3506506,
              39.944
            ],
            [
              116.3483173,
              39.939
            ],
            [
              116.3476,
              39.939
            ],
            [
              116.347011,
              39.9392749
            ],
            [
              116.349216,
              39.944
            ],
            [
              116.3506506,
              39.944
            ]
          ]
        ]
      }
    }
  ]
}