{
  "type": "FeatureCollection",
  "name": "buildings",
  "features": [
    {
      "type": "Feature",
      "id": "BLDG-001",
      "properties": {
        "id": "BLDG-001",
        "layer": "BUILDING_FOOTPRINT",
        "source_type": "agent_generated_design",
        "confidence": "medium",
        "geometry_role": "design_proposal",
        "building_type": "retail",
        "status": "conceptual_proposal",
        "land_use_code": "05",
        "area_sqm_declared": 20886.731
      },
      "geometry": {
        "type": "Polygon",
        "coordinates": [
          [
            [
              116.34120883333334,
              39.939775000000004
            ],
            [
              116.34120883333334,
              39.94157500000001
            ],
            [
              116.34243150000002,
              39.94157500000001
            ],
            [
              116.34243150000002,
              39.939775000000004
            ],
            [
              116.34120883333334,
              39.939775000000004
            ]
          ]
        ]
      }
    },
    {
      "type": "Feature",
      "id": "BLDG-002",
      "properties": {
        "id": "BLDG-002",
        "layer": "BUILDING_FOOTPRINT",
        "source_type": "agent_generated_design",
        "confidence": "medium",
        "geometry_role": "design_proposal",
        "building_type": "retail",
        "status": "conceptual_proposal",
        "land_use_code": "05",
        "area_sqm_declared": 20886.23
      },
      "geometry": {
        "type": "Polygon",
        "coordinates": [
          [
            [
              116.34232961111111,
              39.941425
            ],
            [
              116.34232961111111,
              39.943225000000005
            ],
            [
              116.34355227777779,
              39.943225000000005
            ],
            [
              116.34355227777779,
              39.941425
            ],
            [
              116.34232961111111,
              39.941425
            ]
          ]
        ]
      }
    },
    {
      "type": "Feature",
      "id": "BLDG-003",
      "properties": {
        "id": "BLDG-003",
        "layer": "BUILDING_FOOTPRINT",
        "source_type": "agent_generated_design",
        "confidence": "medium",
        "geometry_role": "design_proposal",
        "building_type": "ai_r_and_d",
        "status": "conceptual_proposal",
        "land_use_code": "0802",
        "area_sqm_declared": 25299.408
      },
      "geometry": {
        "type": "Polygon",
        "coordinates": [
          [
            [
              116.34107639999999,
              39.944899
            ],
            [
              116.34107639999999,
              39.946987
            ],
            [
              116.34235319999999,
              39.946987
            ],
            [
              116.34235319999999,
              39.944899
            ],
            [
              116.34107639999999,
              39.944899
            ]
          ]
        ]
      }
    },
    {
      "type": "Feature",
      "id": "BLDG-004",
      "properties": {
        "id": "BLDG-004",
        "layer": "BUILDING_FOOTPRINT",
        "source_type": "agent_generated_design",
        "confidence": "medium",
        "geometry_role": "design_proposal",
        "building_type": "ai_r_and_d",
        "status": "conceptual_proposal",
        "land_use_code": "0802",
        "area_sqm_declared": 25298.704
      },
      "geometry": {
        "type": "Polygon",
        "coordinates": [
          [
            [
              116.3422468,
              39.946813
            ],
            [
              116.3422468,
              39.948901
            ],
            [
              116.3435236,
              39.948901
            ],
            [
              116.3435236,
              39.946813
            ],
            [
              116.3422468,
              39.946813
            ]
          ]
        ]
      }
    },
    {
      "type": "Feature",
      "id": "BLDG-005",
      "properties": {
        "id": "BLDG-005",
        "layer": "BUILDING_FOOTPRINT",
        "source_type": "agent_generated_design",
        "confidence": "medium",
        "geometry_role": "design_proposal",
        "building_type": "residential",
        "status": "conceptual_proposal",
        "land_use_code": "0701",
        "area_sqm_declared": 47804.451
      },
      "geometry": {
        "type": "Polygon",
        "coordinates": [
          [
            [
              116.34084349999999,
              39.951381000000005
            ],
            [
              116.34084349999999,
              39.955053
            ],
            [
              116.3422155,
              39.955053
            ],
            [
              116.3422155,
              39.951381000000005
            ],
            [
              116.34084349999999,
              39.951381000000005
            ]
          ]
        ]
      }
    },
    {
      "type": "Feature",
      "id": "BLDG-006",
      "properties": {
        "id": "BLDG-006",
        "layer": "BUILDING_FOOTPRINT",
        "source_type": "agent_generated_design",
        "confidence": "medium",
        "geometry_role": "design_proposal",
        "building_type": "residential",
        "status": "conceptual_proposal",
        "land_use_code": "0701",
        "area_sqm_declared": 47802.12
      },
      "geometry": {
        "type": "Polygon",
        "coordinates": [
          [
            [
              116.34210116666667,
              39.954747000000005
            ],
            [
              116.34210116666667,
              39.958419
            ],
            [
              116.34347316666667,
              39.958419
            ],
            [
              116.34347316666667,
              39.954747000000005
            ],
            [
              116.34210116666667,
              39.954747000000005
            ]
          ]
        ]
      }
    },
    {
      "type": "Feature",
      "id": "BLDG-007",
      "properties": {
        "id": "BLDG-007",
        "layer": "BUILDING_FOOTPRINT",
        "source_type": "agent_generated_design",
        "confidence": "medium",
        "geometry_role": "design_proposal",
        "building_type": "ai_r_and_d",
        "status": "conceptual_proposal",
        "land_use_code": "0802",
        "area_sqm_declared": 121350.648
      },
      "geometry": {
        "type": "Polygon",
        "coordinates": [
          [
            [
              116.340501,
              39.9636425
            ],
            [
              116.340501,
              39.9721025
            ],
            [
              116.342013,
              39.9721025
            ],
            [
              116.342013,
              39.9636425
            ],
            [
              116.340501,
              39.9636425
            ]
          ]
        ]
      }
    },
    {
      "type": "Feature",
      "id": "BLDG-008",
      "properties": {
        "id": "BLDG-008",
        "layer": "BUILDING_FOOTPRINT",
        "source_type": "agent_generated_design",
        "confidence": "medium",
        "geometry_role": "design_proposal",
        "building_type": "ai_r_and_d",
        "status": "conceptual_proposal",
        "land_use_code": "0802",
        "area_sqm_declared": 121337.056
      },
      "geometry": {
        "type": "Polygon",
        "coordinates": [
          [
            [
              116.341887,
              39.9713975
            ],
            [
              116.341887,
              39.9798575
            ],
            [
              116.34339899999999,
              39.9798575
            ],
            [
              116.34339899999999,
              39.9713975
            ],
            [
              116.341887,
              39.9713975
            ]
          ]
        ]
      }
    },
    {
      "type": "Feature",
      "id": "BLDG-009",
      "properties": {
        "id": "BLDG-009",
        "layer": "BUILDING_FOOTPRINT",
        "source_type": "agent_generated_design",
        "confidence": "medium",
        "geometry_role": "design_proposal",
        "building_type": "ai_r_and_d",
        "status": "conceptual_proposal",
        "land_use_code": "0802",
        "area_sqm_declared": 45333.303
      },
      "geometry": {
        "type": "Polygon",
        "coordinates": [
          [
            [
              116.34095177419356,
              39.98505
            ],
            [
              116.34095177419356,
              39.98865000000001
            ],
            [
              116.34227951612904,
              39.98865000000001
            ],
            [
              116.34227951612904,
              39.98505
            ],
            [
              116.34095177419356,
              39.98505
            ]
          ]
        ]
      }
    },
    {
      "type": "Feature",
      "id": "BLDG-010",
      "properties": {
        "id": "BLDG-010",
        "layer": "BUILDING_FOOTPRINT",
        "source_type": "agent_generated_design",
        "confidence": "medium",
        "geometry_role": "design_proposal",
        "building_type": "ai_r_and_d",
        "status": "conceptual_proposal",
        "land_use_code": "0802",
        "area_sqm_declared": 45331.134
      },
      "geometry": {
        "type": "Polygon",
        "coordinates": [
          [
            [
              116.34216887096774,
              39.98835
            ],
            [
              116.34216887096774,
              39.99195
            ],
            [
              116.34349661290322,
              39.99195
            ],
            [
              116.34349661290322,
              39.98835
            ],
            [
              116.34216887096774,
              39.98835
            ]
          ]
        ]
      }
    },
    {
      "type": "Feature",
      "id": "BLDG-011",
      "properties": {
        "id": "BLDG-011",
        "layer": "BUILDING_FOOTPRINT",
        "source_type": "agent_generated_design",
        "confidence": "medium",
        "geometry_role": "design_proposal",
        "building_type": "retail",
        "status": "conceptual_proposal",
        "land_use_code": "05",
        "area_sqm_declared": 53096.042
      },
      "geometry": {
        "type": "Polygon",
        "coordinates": [
          [
            [
              116.3414820967742,
              39.995670000000004
            ],
            [
              116.3414820967742,
              40.00071
            ],
            [
              116.34259306451614,
              40.00071
            ],
            [
              116.34259306451614,
              39.995670000000004
            ],
            [
              116.3414820967742,
              39.995670000000004
            ]
          ]
        ]
      }
    },
    {
      "type": "Feature",
      "id": "BLDG-012",
      "properties": {
        "id": "BLDG-012",
        "layer": "BUILDING_FOOTPRINT",
        "source_type": "agent_generated_design",
        "confidence": "medium",
        "geometry_role": "design_proposal",
        "building_type": "retail",
        "status": "conceptual_proposal",
        "land_use_code": "05",
        "area_sqm_declared": 53092.493
      },
      "geometry": {
        "type": "Polygon",
        "coordinates": [
          [
            [
              116.34250048387096,
              40.00029000000001
            ],
            [
              116.34250048387096,
              40.00533
            ],
            [
              116.3436114516129,
              40.00533
            ],
            [
              116.3436114516129,
              40.00029000000001
            ],
            [
              116.34250048387096,
              40.00029000000001
            ]
          ]
        ]
      }
    },
    {
      "type": "Feature",
      "id": "BLDG-013",
      "properties": {
        "id": "BLDG-013",
        "layer": "BUILDING_FOOTPRINT",
        "source_type": "agent_generated_design",
        "confidence": "medium",
        "geometry_role": "design_proposal",
        "building_type": "ai_r_and_d",
        "status": "conceptual_proposal",
        "land_use_code": "0802",
        "area_sqm_declared": 51381.189
      },
      "geometry": {
        "type": "Polygon",
        "coordinates": [
          [
            [
              116.3430205609756,
              40.0170275
            ],
            [
              116.3430205609756,
              40.0103675
            ],
            [
              116.34220514634147,
              40.0103675
            ],
            [
              116.34220514634147,
              40.0163555000002
            ],
            [
              116.34223792682927,
              40.0170275
            ],
            [
              116.3430205609756,
              40.0170275
            ]
          ]
        ]
      }
    },
    {
      "type": "Feature",
      "id": "BLDG-014",
      "properties": {
        "id": "BLDG-014",
        "layer": "BUILDING_FOOTPRINT",
        "source_type": "agent_generated_design",
        "confidence": "medium",
        "geometry_role": "design_proposal",
        "building_type": "ai_r_and_d",
        "status": "conceptual_proposal",
        "land_use_code": "0802",
        "area_sqm_declared": 51481.05
      },
      "geometry": {
        "type": "Polygon",
        "coordinates": [
          [
            [
              116.3429526097561,
              40.016472500000006
            ],
            [
              116.3429526097561,
              40.0231325
            ],
            [
              116.34376802439023,
              40.0231325
            ],
            [
              116.34376802439023,
              40.016472500000006
            ],
            [
              116.3429526097561,
              40.016472500000006
            ]
          ]
        ]
      }
    },
    {
      "type": "Feature",
      "id": "BLDG-015",
      "properties": {
        "id": "BLDG-015",
        "layer": "BUILDING_FOOTPRINT",
        "source_type": "agent_generated_design",
        "confidence": "medium",
        "geometry_role": "design_proposal",
        "building_type": "residential",
        "status": "conceptual_proposal",
        "land_use_code": "0701",
        "area_sqm_declared": 53380.651
      },
      "geometry": {
        "type": "Polygon",
        "coordinates": [
          [
            [
              116.34765540000001,
              39.939775000000004
            ],
            [
              116.34765540000001,
              39.94157500000001
            ],
            [
              116.3507802,
              39.94157500000001
            ],
            [
              116.3507802,
              39.939775000000004
            ],
            [
              116.34765540000001,
              39.939775000000004
            ]
          ]
        ]
      }
    },
    {
      "type": "Feature",
      "id": "BLDG-016",
      "properties": {
        "id": "BLDG-016",
        "layer": "BUILDING_FOOTPRINT",
        "source_type": "agent_generated_design",
        "confidence": "medium",
        "geometry_role": "design_proposal",
        "building_type": "residential",
        "status": "conceptual_proposal",
        "land_use_code": "0701",
        "area_sqm_declared": 53379.349
      },
      "geometry": {
        "type": "Polygon",
        "coordinates": [
          [
            [
              116.3505198,
              39.941425
            ],
            [
              116.3505198,
              39.943225000000005
            ],
            [
              116.3536446,
              39.943225000000005
            ],
            [
              116.3536446,
              39.941425
            ],
            [
              116.3505198,
              39.941425
            ]
          ]
        ]
      }
    },
    {
      "type": "Feature",
      "id": "BLDG-017",
      "properties": {
        "id": "BLDG-017",
        "layer": "BUILDING_FOOTPRINT",
        "source_type": "agent_generated_design",
        "confidence": "medium",
        "geometry_role": "design_proposal",
        "building_type": "retail",
        "status": "conceptual_proposal",
        "land_use_code": "05",
        "area_sqm_declared": 61916.863
      },
      "geometry": {
        "type": "Polygon",
        "coordinates": [
          [
            [
              116.34765540000001,
              39.944899
            ],
            [
              116.34765540000001,
              39.946987
            ],
            [
              116.3507802,
              39.946987
            ],
            [
              116.3507802,
              39.944899
            ],
            [
              116.34765540000001,
              39.944899
            ]
          ]
        ]
      }
    },
    {
      "type": "Feature",
      "id": "BLDG-018",
      "properties": {
        "id": "BLDG-018",
        "layer": "BUILDING_FOOTPRINT",
        "source_type": "agent_generated_design",
        "confidence": "medium",
        "geometry_role": "design_proposal",
        "building_type": "retail",
        "status": "conceptual_proposal",
        "land_use_code": "05",
        "area_sqm_declared": 61915.116
      },
      "geometry": {
        "type": "Polygon",
        "coordinates": [
          [
            [
              116.3505198,
              39.946813
            ],
            [
              116.3505198,
              39.948901
            ],
            [
              116.3536446,
              39.948901
            ],
            [
              116.3536446,
              39.946813
            ],
            [
              116.3505198,
              39.946813
            ]
          ]
        ]
      }
    },
    {
      "type": "Feature",
      "id": "BLDG-019",
      "properties": {
        "id": "BLDG-019",
        "layer": "BUILDING_FOOTPRINT",
        "source_type": "agent_generated_design",
        "confidence": "medium",
        "geometry_role": "design_proposal",
        "building_type": "residential",
        "status": "conceptual_proposal",
        "land_use_code": "0701",
        "area_sqm_declared": 108876.878
      },
      "geometry": {
        "type": "Polygon",
        "coordinates": [
          [
            [
              116.34765540000001,
              39.951381000000005
            ],
            [
              116.34765540000001,
              39.955053
            ],
            [
              116.3507802,
              39.955053
            ],
            [
              116.3507802,
              39.951381000000005
            ],
            [
              116.34765540000001,
              39.951381000000005
            ]
          ]
        ]
      }
    },
    {
      "type": "Feature",
      "id": "BLDG-020",
      "properties": {
        "id": "BLDG-020",
        "layer": "BUILDING_FOOTPRINT",
        "source_type": "agent_generated_design",
        "confidence": "medium",
        "geometry_role": "design_proposal",
        "building_type": "residential",
        "status": "conceptual_proposal",
        "land_use_code": "0701",
        "area_sqm_declared": 108871.531
      },
      "geometry": {
        "type": "Polygon",
        "coordinates": [
          [
            [
              116.3505198,
              39.954747000000005
            ],
            [
              116.3505198,
              39.958419
            ],
            [
              116.3536446,
              39.958419
            ],
            [
              116.3536446,
              39.954747000000005
            ],
            [
              116.3505198,
              39.954747000000005
            ]
          ]
        ]
      }
    },
    {
      "type": "Feature",
      "id": "BLDG-021",
      "properties": {
        "id": "BLDG-021",
        "layer": "BUILDING_FOOTPRINT",
        "source_type": "agent_generated_design",
        "confidence": "medium",
        "geometry_role": "design_proposal",
        "building_type": "community_service",
        "status": "conceptual_proposal",
        "land_use_code": "0702",
        "area_sqm_declared": 250790.869
      },
      "geometry": {
        "type": "Polygon",
        "coordinates": [
          [
            [
              116.34765540000001,
              39.9636425
            ],
            [
              116.34765540000001,
              39.9721025
            ],
            [
              116.3507802,
              39.9721025
            ],
            [
              116.3507802,
              39.9636425
            ],
            [
              116.34765540000001,
              39.9636425
            ]
          ]
        ]
      }
    },
    {
      "type": "Feature",
      "id": "BLDG-022",
      "properties": {
        "id": "BLDG-022",
        "layer": "BUILDING_FOOTPRINT",
        "source_type": "agent_generated_design",
        "confidence": "medium",
        "geometry_role": "design_proposal",
        "building_type": "community_service",
        "status": "conceptual_proposal",
        "land_use_code": "0702",
        "area_sqm_declared": 250762.693
      },
      "geometry": {
        "type": "Polygon",
        "coordinates": [
          [
            [
              116.3505198,
              39.9713975
            ],
            [
              116.3505198,
              39.9798575
            ],
            [
              116.3536446,
              39.9798575
            ],
            [
              116.3536446,
              39.9713975
            ],
            [
              116.3505198,
              39.9713975
            ]
          ]
        ]
      }
    },
    {
      "type": "Feature",
      "id": "BLDG-023",
      "properties": {
        "id": "BLDG-023",
        "layer": "BUILDING_FOOTPRINT",
        "source_type": "agent_generated_design",
        "confidence": "medium",
        "geometry_role": "design_proposal",
        "building_type": "ai_r_and_d",
        "status": "conceptual_proposal",
        "land_use_code": "0804",
        "area_sqm_declared": 89711.681
      },
      "geometry": {
        "type": "Polygon",
        "coordinates": [
          [
            [
              116.34739196,
              39.98505
            ],
            [
              116.34739196,
              39.98865000000001
            ],
            [
              116.35001948,
              39.98865000000001
            ],
            [
              116.35001948,
              39.98505
            ],
            [
              116.34739196,
              39.98505
            ]
          ]
        ]
      }
    },
    {
      "type": "Feature",
      "id": "BLDG-024",
      "properties": {
        "id": "BLDG-024",
        "layer": "BUILDING_FOOTPRINT",
        "source_type": "agent_generated_design",
        "confidence": "medium",
        "geometry_role": "design_proposal",
        "building_type": "ai_r_and_d",
        "status": "conceptual_proposal",
        "land_use_code": "0804",
        "area_sqm_declared": 89707.364
      },
      "geometry": {
        "type": "Polygon",
        "coordinates": [
          [
            [
              116.34980051999999,
              39.98835
            ],
            [
              116.34980051999999,
              39.99195
            ],
            [
              116.35242803999999,
              39.99195
            ],
            [
              116.35242803999999,
              39.98835
            ],
            [
              116.34980051999999,
              39.98835
            ]
          ]
        ]
      }
    },
    {
      "type": "Feature",
      "id": "BLDG-025",
      "properties": {
        "id": "BLDG-025",
        "layer": "BUILDING_FOOTPRINT",
        "source_type": "agent_generated_design",
        "confidence": "medium",
        "geometry_role": "design_proposal",
        "building_type": "residential",
        "status": "conceptual_proposal",
        "land_use_code": "0701",
        "area_sqm_declared": 132623.872
      },
      "geometry": {
        "type": "Polygon",
        "coordinates": [
          [
            [
              116.34747008493152,
              39.995670000000004
            ],
            [
              116.34747008493152,
              40.00071
            ],
            [
              116.35024507671234,
              40.00071
            ],
            [
              116.35024507671234,
              39.995670000000004
            ],
            [
              116.34747008493152,
              39.995670000000004
            ]
          ]
        ]
      }
    },
    {
      "type": "Feature",
      "id": "BLDG-026",
      "properties": {
        "id": "BLDG-026",
        "layer": "BUILDING_FOOTPRINT",
        "source_type": "agent_generated_design",
        "confidence": "medium",
        "geometry_role": "design_proposal",
        "building_type": "residential",
        "status": "conceptual_proposal",
        "land_use_code": "0701",
        "area_sqm_declared": 132614.96
      },
      "geometry": {
        "type": "Polygon",
        "coordinates": [
          [
            [
              116.35001382739726,
              40.00029000000001
            ],
            [
              116.35001382739726,
              40.00533
            ],
            [
              116.35278881917809,
              40.00533
            ],
            [
              116.35278881917809,
              40.00029000000001
            ],
            [
              116.35001382739726,
              40.00029000000001
            ]
          ]
        ]
      }
    },
    {
      "type": "Feature",
      "id": "BLDG-027",
      "properties": {
        "id": "BLDG-027",
        "layer": "BUILDING_FOOTPRINT",
        "source_type": "agent_generated_design",
        "confidence": "medium",
        "geometry_role": "design_proposal",
        "building_type": "ai_r_and_d",
        "status": "conceptual_proposal",
        "land_use_code": "0802",
        "area_sqm_declared": 196719.53
      },
      "geometry": {
        "type": "Polygon",
        "coordinates": [
          [
            [
              116.34765052328767,
              40.0103675
            ],
            [
              116.34765052328767,
              40.0170275
            ],
            [
              116.35076611780822,
              40.0170275
            ],
            [
              116.35076611780822,
              40.0103675
            ],
            [
              116.34765052328767,
              40.0103675
            ]
          ]
        ]
      }
    },
    {
      "type": "Feature",
      "id": "BLDG-028",
      "properties": {
        "id": "BLDG-028",
        "layer": "BUILDING_FOOTPRINT",
        "source_type": "agent_generated_design",
        "confidence": "medium",
        "geometry_role": "design_proposal",
        "building_type": "ai_r_and_d",
        "status": "conceptual_proposal",
        "land_use_code": "0802",
        "area_sqm_declared": 196702.075
      },
      "geometry": {
        "type": "Polygon",
        "coordinates": [
          [
            [
              116.3505064849315,
              40.016472500000006
            ],
            [
              116.3505064849315,
              40.0231325
            ],
            [
              116.35362207945205,
              40.0231325
            ],
            [
              116.35362207945205,
              40.016472500000006
            ],
            [
              116.3505064849315,
              40.016472500000006
            ]
          ]
        ]
      }
    }
  ]
}
