{
  "type": "FeatureCollection",
  "name": "green_space_agents_concept",
  "features": [
    {
      "type": "Feature",
      "properties": {
        "id": "GREEN-001",
        "layer": "GREEN_SPACE",
        "source_type": "agent_generated_design",
        "confidence": "medium",
        "geometry_role": "design_proposal",
        "land_use_code": "1401",
        "name_zh": "京张遗址公园主轴连续绿带",
        "location_zh": "贯穿三区两翼",
        "area_sqm_declared": 2589339.239,
        "clipped_to_site": true
      },
      "geometry": {
        "type": "Polygon",
        "coordinates": [
          [
            [
              116.344068,
              39.939
            ],
            [
              116.344068,
              40.0265
            ],
            [
              116.347188,
              40.0265
            ],
            [
              116.347188,
              39.939
            ],
            [
              116.344068,
              39.939
            ]
          ]
        ]
      },
      "id": "GREEN-001"
    },
    {
      "type": "Feature",
      "properties": {
        "id": "GREEN-002",
        "layer": "GREEN_SPACE",
        "source_type": "agent_generated_design",
        "confidence": "medium",
        "geometry_role": "design_proposal",
        "land_use_code": "1402",
        "name_zh": "清河小月河蓝绿界面",
        "location_zh": "众智园东翼 / AI 原点西翼",
        "area_sqm_declared": 294061.537,
        "clipped_to_site": true
      },
      "geometry": {
        "type": "Polygon",
        "coordinates": [
          [
            [
              116.3417,
              39.975
            ],
            [
              116.3397,
              39.975
            ],
            [
              116.3417,
              40.006
            ],
            [
              116.3417,
              39.975
            ]
          ]
        ]
      },
      "id": "GREEN-002"
    },
    {
      "type": "Feature",
      "properties": {
        "id": "GREEN-003",
        "layer": "GREEN_SPACE",
        "source_type": "agent_generated_design",
        "confidence": "medium",
        "geometry_role": "design_proposal",
        "land_use_code": "1401",
        "name_zh": "大钟寺入口口袋公园",
        "location_zh": "大钟寺站四象限",
        "area_sqm_declared": 104189.356,
        "clipped_to_site": true
      },
      "geometry": {
        "type": "Polygon",
        "coordinates": [
          [
            [
              116.342,
              39.9535
            ],
            [
              116.345,
              39.9535
            ],
            [
              116.345,
              39.94984
            ],
            [
              116.342,
              39.94984
            ],
            [
              116.342,
              39.9535
            ]
          ]
        ]
      },
      "id": "GREEN-003"
    },
    {
      "type": "Feature",
      "properties": {
        "id": "GREEN-004",
        "layer": "GREEN_SPACE",
        "source_type": "agent_generated_design",
        "confidence": "medium",
        "geometry_role": "design_proposal",
        "land_use_code": "1401",
        "name_zh": "众智园临清河低碳创新廊",
        "location_zh": "众智园南段",
        "area_sqm_declared": 183420.391,
        "clipped_to_site": true
      },
      "geometry": {
        "type": "Polygon",
        "coordinates": [
          [
            [
              116.347,
              40.022
            ],
            [
              116.3427,
              40.022
            ],
            [
              116.3427,
              40.0265
            ],
            [
              116.347,
              40.0265
            ],
            [
              116.347,
              40.022
            ]
          ]
        ]
      },
      "id": "GREEN-004"
    }
  ]
}