{
  "type": "FeatureCollection",
  "name": "land_use_concept",
  "features": [
    {
      "type": "Feature",
      "id": "LU-001",
      "properties": {
        "id": "LU-001",
        "layer": "LAND_USE",
        "source_type": "agent_generated_design",
        "confidence": "medium",
        "geometry_role": "design_proposal",
        "land_use_code": "05",
        "name_zh": "大钟寺科创商业服务",
        "area_sqm_declared": 905662.686
      },
      "geometry": {
        "type": "Polygon",
        "coordinates": [
          [
            [
              116.34612626145362,
              39.956006583142866
            ],
            [
              116.35454298105203,
              39.939
            ],
            [
              116.34332068825414,
              39.939
            ],
            [
              116.34612626145362,
              39.956006583142866
            ]
          ]
        ]
      }
    },
    {
      "type": "Feature",
      "id": "LU-002",
      "properties": {
        "id": "LU-002",
        "layer": "LAND_USE",
        "source_type": "agent_generated_design",
        "confidence": "medium",
        "geometry_role": "design_proposal",
        "land_use_code": "0803",
        "name_zh": "京张文化展示",
        "area_sqm_declared": 737202.141
      },
      "geometry": {
        "type": "Polygon",
        "coordinates": [
          [
            [
              116.34562799999999,
              39.956801748163265
            ],
            [
              116.34601744637959,
              39.95666618903162
            ],
            [
              116.34612626145362,
              39.956006583142866
            ],
            [
              116.34332068825414,
              39.939
            ],
            [
              116.3407,
              39.939
            ],
            [
              116.34019910557801,
              39.95703219919179
            ],
            [
              116.34562799999999,
              39.956801748163265
            ]
          ]
        ]
      }
    },
    {
      "type": "Feature",
      "id": "LU-003",
      "properties": {
        "id": "LU-003",
        "layer": "LAND_USE",
        "source_type": "agent_generated_design",
        "confidence": "medium",
        "geometry_role": "design_proposal",
        "land_use_code": "0701",
        "name_zh": "城市居住更新",
        "area_sqm_declared": 962577.288
      },
      "geometry": {
        "type": "Polygon",
        "coordinates": [
          [
            [
              116.34612626145362,
              39.956006583142866
            ],
            [
              116.34601744637959,
              39.95666618903162
            ],
            [
              116.3553,
              39.9590179553985
            ],
            [
              116.3553,
              39.939
            ],
            [
              116.35454298105203,
              39.939
            ],
            [
              116.34612626145362,
              39.956006583142866
            ]
          ]
        ]
      }
    },
    {
      "type": "Feature",
      "id": "LU-004",
      "properties": {
        "id": "LU-004",
        "layer": "LAND_USE",
        "source_type": "agent_generated_design",
        "confidence": "medium",
        "geometry_role": "design_proposal",
        "land_use_code": "0702",
        "name_zh": "社区公共服务",
        "area_sqm_declared": 1066839.103
      },
      "geometry": {
        "type": "Polygon",
        "coordinates": [
          [
            [
              116.34562799999999,
              39.956801748163265
            ],
            [
              116.34562799999999,
              39.97312099224491
            ],
            [
              116.35523773008033,
              39.965778373995754
            ],
            [
              116.3553,
              39.965
            ],
            [
              116.3553,
              39.9590179553985
            ],
            [
              116.34601744637959,
              39.95666618903162
            ],
            [
              116.34562799999999,
              39.956801748163265
            ]
          ]
        ]
      }
    },
    {
      "type": "Feature",
      "id": "LU-005",
      "properties": {
        "id": "LU-005",
        "layer": "LAND_USE",
        "source_type": "agent_generated_design",
        "confidence": "medium",
        "geometry_role": "design_proposal",
        "land_use_code": "0802",
        "name_zh": "AI成果转化研发",
        "area_sqm_declared": 1043838.455
      },
      "geometry": {
        "type": "Polygon",
        "coordinates": [
          [
            [
              116.34327029571605,
              39.97708424502979
            ],
            [
              116.34562799999999,
              39.97312099224491
            ],
            [
              116.34562799999999,
              39.956801748163265
            ],
            [
              116.34019910557801,
              39.95703219919179
            ],
            [
              116.3397,
              39.975
            ],
            [
              116.33982813257208,
              39.976986054867425
            ],
            [
              116.34327029571605,
              39.97708424502979
            ]
          ]
        ]
      }
    },
    {
      "type": "Feature",
      "id": "LU-006",
      "properties": {
        "id": "LU-006",
        "layer": "LAND_USE",
        "source_type": "agent_generated_design",
        "confidence": "medium",
        "geometry_role": "design_proposal",
        "land_use_code": "1403",
        "name_zh": "公共活动与广场",
        "area_sqm_declared": 946645.199
      },
      "geometry": {
        "type": "Polygon",
        "coordinates": [
          [
            [
              116.34562799999999,
              39.97312099224491
            ],
            [
              116.34327029571605,
              39.97708424502979
            ],
            [
              116.34469200000001,
              39.97806996
            ],
            [
              116.35397489093357,
              39.98156386333042
            ],
            [
              116.35523773008033,
              39.965778373995754
            ],
            [
              116.34562799999999,
              39.97312099224491
            ]
          ]
        ]
      }
    },
    {
      "type": "Feature",
      "id": "LU-007",
      "properties": {
        "id": "LU-007",
        "layer": "LAND_USE",
        "source_type": "agent_generated_design",
        "confidence": "medium",
        "geometry_role": "design_proposal",
        "land_use_code": "0804",
        "name_zh": "近校教育科研",
        "area_sqm_declared": 951837.07
      },
      "geometry": {
        "type": "Polygon",
        "coordinates": [
          [
            [
              116.34469200000001,
              39.996153296571414
            ],
            [
              116.3536510998597,
              39.98561125175366
            ],
            [
              116.35397489093357,
              39.98156386333042
            ],
            [
              116.34469200000001,
              39.97806996
            ],
            [
              116.34469200000001,
              39.996153296571414
            ]
          ]
        ]
      }
    },
    {
      "type": "Feature",
      "id": "LU-008",
      "properties": {
        "id": "LU-008",
        "layer": "LAND_USE",
        "source_type": "agent_generated_design",
        "confidence": "medium",
        "geometry_role": "design_proposal",
        "land_use_code": "0802",
        "name_zh": "开源创新研发",
        "area_sqm_declared": 848705.921
      },
      "geometry": {
        "type": "Polygon",
        "coordinates": [
          [
            [
              116.3426106803653,
              39.999392731726026
            ],
            [
              116.34340065783475,
              39.99914625875556
            ],
            [
              116.34469200000001,
              39.996153296571414
            ],
            [
              116.34469200000001,
              39.97806996
            ],
            [
              116.34327029571605,
              39.97708424502979
            ],
            [
              116.33982813257208,
              39.976986054867425
            ],
            [
              116.34127902669556,
              39.99947491378107
            ],
            [
              116.3426106803653,
              39.999392731726026
            ]
          ]
        ]
      }
    },
    {
      "type": "Feature",
      "id": "LU-009",
      "properties": {
        "id": "LU-009",
        "layer": "LAND_USE",
        "source_type": "agent_generated_design",
        "confidence": "medium",
        "geometry_role": "design_proposal",
        "land_use_code": "0701",
        "name_zh": "人才居住更新",
        "area_sqm_declared": 816400.204
      },
      "geometry": {
        "type": "Polygon",
        "coordinates": [
          [
            [
              116.34469200000001,
              39.996153296571414
            ],
            [
              116.34340065783475,
              39.99914625875556
            ],
            [
              116.35392563033271,
              40.00141775357196
            ],
            [
              116.3533,
              39.99
            ],
            [
              116.3536510998597,
              39.98561125175366
            ],
            [
              116.34469200000001,
              39.996153296571414
            ]
          ]
        ]
      }
    },
    {
      "type": "Feature",
      "id": "LU-010",
      "properties": {
        "id": "LU-010",
        "layer": "LAND_USE",
        "source_type": "agent_generated_design",
        "confidence": "medium",
        "geometry_role": "design_proposal",
        "land_use_code": "1401",
        "name_zh": "京张生态绿廊",
        "area_sqm_declared": 1075774.935
      },
      "geometry": {
        "type": "Polygon",
        "coordinates": [
          [
            [
              116.3426106803653,
              39.999392731726026
            ],
            [
              116.34777668609651,
              40.01458964458563
            ],
            [
              116.35441238822445,
              40.01030108509608
            ],
            [
              116.35392563033271,
              40.00141775357196
            ],
            [
              116.34340065783475,
              39.99914625875556
            ],
            [
              116.3426106803653,
              39.999392731726026
            ]
          ]
        ]
      }
    },
    {
      "type": "Feature",
      "id": "LU-011",
      "properties": {
        "id": "LU-011",
        "layer": "LAND_USE",
        "source_type": "agent_generated_design",
        "confidence": "medium",
        "geometry_role": "design_proposal",
        "land_use_code": "0802",
        "name_zh": "自主技术验证研发",
        "area_sqm_declared": 755618.826
      },
      "geometry": {
        "type": "Polygon",
        "coordinates": [
          [
            [
              116.34777668609651,
              40.01458964458563
            ],
            [
              116.3426106803653,
              39.999392731726026
            ],
            [
              116.34127902669556,
              39.99947491378107
            ],
            [
              116.3417,
              40.006
            ],
            [
              116.3425855242845,
              40.024153247832444
            ],
            [
              116.34777668609651,
              40.01458964458563
            ]
          ]
        ]
      }
    },
    {
      "type": "Feature",
      "id": "LU-012",
      "properties": {
        "id": "LU-012",
        "layer": "LAND_USE",
        "source_type": "agent_generated_design",
        "confidence": "medium",
        "geometry_role": "design_proposal",
        "land_use_code": "16",
        "name_zh": "弹性留白与待确认区",
        "area_sqm_declared": 1301758.695
      },
      "geometry": {
        "type": "Polygon",
        "coordinates": [
          [
            [
              116.34777668609651,
              40.01458964458563
            ],
            [
              116.3425855242845,
              40.024153247832444
            ],
            [
              116.3427,
              40.0265
            ],
            [
              116.3553,
              40.0265
            ],
            [
              116.35441238822445,
              40.01030108509608
            ],
            [
              116.34777668609651,
              40.01458964458563
            ]
          ]
        ]
      }
    }
  ]
}
