{
  "type": "FeatureCollection",
  "name": "phasing_scaffold",
  "features": [
    {
      "type": "Feature",
      "id": "PHASE-001",
      "properties": {
        "id": "PHASE-001",
        "layer": "PHASE",
        "source_type": "agent_generated_design",
        "confidence": "medium",
        "geometry_role": "design_proposal",
        "phase": "phase_1",
        "name_zh": "一期：服务等级样板段",
        "area_sqm_declared": 4587013.573,
        "name_en": "Phase 1: service-level pilot segment",
        "implementation_note": "pilot with removable service modules, signage and public feedback before any engineering design"
      },
      "geometry": {
        "type": "Polygon",
        "coordinates": [
          [
            [
              116.3417,
              40.006
            ],
            [
              116.34218780487805,
              40.016
            ],
            [
              116.34843599999999,
              40.016
            ],
            [
              116.34843599999999,
              39.9495
            ],
            [
              116.340948,
              39.9495
            ],
            [
              116.340948,
              39.99434399999997
            ],
            [
              116.3417,
              40.006
            ]
          ]
        ]
      }
    }
  ]
}
