{
  "type": "FeatureCollection",
  "name": "land_use_design_proposal",
  "features": [
    {
      "type": "Feature",
      "id": "LU-001",
      "properties": {
        "id": "LU-001",
        "layer": "LAND_USE",
        "source_type": "agent_generated_design",
        "confidence": "medium",
        "geometry_role": "design_proposal",
        "land_use_code": "0701",
        "name_zh": "城镇住宅与社区生活",
        "name_en": "Land use: 城镇住宅与社区生活",
        "land_use_group": "design_proposal",
        "area_sqm_declared": 981747.719
      },
      "geometry": {
        "type": "Polygon",
        "coordinates": [
          [
            [
              116.3407,
              39.939
            ],
            [
              116.3397,
              39.975
            ],
            [
              116.3416602,
              40.0053827
            ],
            [
              116.3422968,
              39.9390001
            ],
            [
              116.3407,
              39.939
            ]
          ]
        ]
      }
    },
    {
      "type": "Feature",
      "id": "LU-002",
      "properties": {
        "id": "LU-002",
        "layer": "LAND_USE",
        "source_type": "agent_generated_design",
        "confidence": "medium",
        "geometry_role": "design_proposal",
        "land_use_code": "0802",
        "name_zh": "AI研发与实验室",
        "name_en": "Land use: AI研发与实验室",
        "land_use_group": "design_proposal",
        "area_sqm_declared": 2010675.244
      },
      "geometry": {
        "type": "Polygon",
        "coordinates": [
          [
            [
              116.3422968,
              39.9390001
            ],
            [
              116.3416602,
              40.0053827
            ],
            [
              116.3417,
              40.006
            ],
            [
              116.3427,
              40.0265
            ],
            [
              116.3440326,
              40.0265001
            ],
            [
              116.3448689,
              39.9390002
            ],
            [
              116.3422968,
              39.9390001
            ]
          ]
        ]
      }
    },
    {
      "type": "Feature",
      "id": "LU-003",
      "properties": {
        "id": "LU-003",
        "layer": "LAND_USE",
        "source_type": "agent_generated_design",
        "confidence": "medium",
        "geometry_role": "design_proposal",
        "land_use_code": "1401",
        "name_zh": "公园绿地与开敞空间",
        "name_en": "Land use: 公园绿地与开敞空间",
        "land_use_group": "design_proposal",
        "area_sqm_declared": 1602002.647
      },
      "geometry": {
        "type": "Polygon",
        "coordinates": [
          [
            [
              116.3448689,
              39.9390002
            ],
            [
              116.3440326,
              40.0265001
            ],
            [
              116.3459642,
              40.0265001
            ],
            [
              116.346798,
              39.9390002
            ],
            [
              116.3448689,
              39.9390002
            ]
          ]
        ]
      }
    },
    {
      "type": "Feature",
      "id": "LU-004",
      "properties": {
        "id": "LU-004",
        "layer": "LAND_USE",
        "source_type": "agent_generated_design",
        "confidence": "medium",
        "geometry_role": "design_proposal",
        "land_use_code": "05",
        "name_zh": "产业服务与商业服务",
        "name_en": "Land use: 产业服务与商业服务",
        "land_use_group": "design_proposal",
        "area_sqm_declared": 2670004.285
      },
      "geometry": {
        "type": "Polygon",
        "coordinates": [
          [
            [
              116.346798,
              39.9390002
            ],
            [
              116.3459642,
              40.0265001
            ],
            [
              116.3491834,
              40.0265002
            ],
            [
              116.3500131,
              39.9390002
            ],
            [
              116.346798,
              39.9390002
            ]
          ]
        ]
      }
    },
    {
      "type": "Feature",
      "id": "LU-005",
      "properties": {
        "id": "LU-005",
        "layer": "LAND_USE",
        "source_type": "agent_generated_design",
        "confidence": "medium",
        "geometry_role": "design_proposal",
        "land_use_code": "0804",
        "name_zh": "教育科研与成果转化",
        "name_en": "Land use: 教育科研与成果转化",
        "land_use_group": "design_proposal",
        "area_sqm_declared": 2136003.315
      },
      "geometry": {
        "type": "Polygon",
        "coordinates": [
          [
            [
              116.3500131,
              39.9390002
            ],
            [
              116.3491834,
              40.0265002
            ],
            [
              116.3517588,
              40.0265001
            ],
            [
              116.3525852,
              39.9390001
            ],
            [
              116.3500131,
              39.9390002
            ]
          ]
        ]
      }
    },
    {
      "type": "Feature",
      "id": "LU-006",
      "properties": {
        "id": "LU-006",
        "layer": "LAND_USE",
        "source_type": "agent_generated_design",
        "confidence": "medium",
        "geometry_role": "design_proposal",
        "land_use_code": "0803",
        "name_zh": "文化展示与公共设施",
        "name_en": "Land use: 文化展示与公共设施",
        "land_use_group": "design_proposal",
        "area_sqm_declared": 1310975.006
      },
      "geometry": {
        "type": "Polygon",
        "coordinates": [
          [
            [
              116.3525852,
              39.9390001
            ],
            [
              116.3517588,
              40.0265001
            ],
            [
              116.3533684,
              40.0265001
            ],
            [
              116.3536522,
              39.9964294
            ],
            [
              116.3533,
              39.99
            ],
            [
              116.3537679,
              39.9841536
            ],
            [
              116.3541928,
              39.9390001
            ],
            [
              116.3525852,
              39.9390001
            ]
          ]
        ]
      }
    },
    {
      "type": "Feature",
      "id": "LU-007",
      "properties": {
        "id": "LU-007",
        "layer": "LAND_USE",
        "source_type": "agent_generated_design",
        "confidence": "medium",
        "geometry_role": "design_proposal",
        "land_use_code": "0702",
        "name_zh": "城镇社区服务设施",
        "name_en": "Land use: 城镇社区服务设施",
        "land_use_group": "design_proposal",
        "area_sqm_declared": 701417.17
      },
      "geometry": {
        "type": "MultiPolygon",
        "coordinates": [
          [
            [
              [
                116.3537679,
                39.9841536
              ],
              [
                116.3553,
                39.965
              ],
              [
                116.3553,
                39.939
              ],
              [
                116.3541928,
                39.9390001
              ],
              [
                116.3537679,
                39.9841536
              ]
            ]
          ],
          [
            [
              [
                116.3533684,
                40.0265001
              ],
              [
                116.3553,
                40.0265
              ],
              [
                116.3536522,
                39.9964294
              ],
              [
                116.3533684,
                40.0265001
              ]
            ]
          ]
        ]
      }
    }
  ]
}
