{
 "type": "FeatureCollection",
 "name": "buildings",
 "features": [
  {
   "type": "Feature",
   "id": "BLDG-001",
   "properties": {
    "id": "BLDG-001",
    "layer": "BUILDING_FOOTPRINT",
    "source_type": "agent_generated_design",
    "confidence": "medium",
    "geometry_role": "design_proposal",
    "name_zh": "加速站全栈研发组团",
    "land_use_code": "0802",
    "massing_status": "concept_massing_only",
    "note_zh": "概念体量示意，不构成建筑高度、强度或拆改留结论",
    "area_sqm_declared": 3525.254
   },
   "geometry": {
    "type": "Polygon",
    "coordinates": [
     [
      [
       116.35223649,
       40.00790757
      ],
      [
       116.35216445,
       40.00828137
      ],
      [
       116.35313723,
       40.00839217
      ],
      [
       116.35320928,
       40.00801792
      ],
      [
       116.35223649,
       40.00790757
      ]
     ]
    ]
   }
  },
  {
   "type": "Feature",
   "id": "BLDG-002",
   "properties": {
    "id": "BLDG-002",
    "layer": "BUILDING_FOOTPRINT",
    "source_type": "agent_generated_design",
    "confidence": "medium",
    "geometry_role": "design_proposal",
    "name_zh": "加速站全栈研发组团",
    "land_use_code": "0802",
    "massing_status": "concept_massing_only",
    "note_zh": "概念体量示意，不构成建筑高度、强度或拆改留结论",
    "area_sqm_declared": 3527.929
   },
   "geometry": {
    "type": "Polygon",
    "coordinates": [
     [
      [
       116.34365853,
       40.00818758
      ],
      [
       116.34358644,
       40.00856182
      ],
      [
       116.3445598,
       40.00867225
      ],
      [
       116.34463131,
       40.008298
      ],
      [
       116.34365853,
       40.00818758
      ]
     ]
    ]
   }
  },
  {
   "type": "Feature",
   "id": "BLDG-003",
   "properties": {
    "id": "BLDG-003",
    "layer": "BUILDING_FOOTPRINT",
    "source_type": "agent_generated_design",
    "confidence": "medium",
    "geometry_role": "design_proposal",
    "name_zh": "加速站全栈研发组团",
    "land_use_code": "0802",
    "massing_status": "concept_massing_only",
    "note_zh": "概念体量示意，不构成建筑高度、强度或拆改留结论",
    "area_sqm_declared": 3525.244
   },
   "geometry": {
    "type": "Polygon",
    "coordinates": [
     [
      [
       116.34574388,
       40.00842497
      ],
      [
       116.34567179,
       40.00879922
      ],
      [
       116.34664458,
       40.00890962
      ],
      [
       116.34671665,
       40.00853583
      ],
      [
       116.34574388,
       40.00842497
      ]
     ]
    ]
   }
  },
  {
   "type": "Feature",
   "id": "BLDG-004",
   "properties": {
    "id": "BLDG-004",
    "layer": "BUILDING_FOOTPRINT",
    "source_type": "agent_generated_design",
    "confidence": "medium",
    "geometry_role": "design_proposal",
    "name_zh": "加速站全栈研发组团",
    "land_use_code": "0802",
    "massing_status": "concept_massing_only",
    "note_zh": "概念体量示意，不构成建筑高度、强度或拆改留结论",
    "area_sqm_declared": 3525.21
   },
   "geometry": {
    "type": "Polygon",
    "coordinates": [
     [
      [
       116.34991462,
       40.00889965
      ],
      [
       116.34984255,
       40.00927389
      ],
      [
       116.35081535,
       40.00938427
      ],
      [
       116.3508874,
       40.00901047
      ],
      [
       116.34991462,
       40.00889965
      ]
     ]
    ]
   }
  },
  {
   "type": "Feature",
   "id": "BLDG-005",
   "properties": {
    "id": "BLDG-005",
    "layer": "BUILDING_FOOTPRINT",
    "source_type": "agent_generated_design",
    "confidence": "medium",
    "geometry_role": "design_proposal",
    "name_zh": "加速站全栈研发组团",
    "land_use_code": "0802",
    "massing_status": "concept_massing_only",
    "note_zh": "概念体量示意，不构成建筑高度、强度或拆改留结论",
    "area_sqm_declared": 3525.25
   },
   "geometry": {
    "type": "Polygon",
    "coordinates": [
     [
      [
       116.35200001,
       40.00913693
      ],
      [
       116.35192795,
       40.00951118
      ],
      [
       116.35290076,
       40.00962153
      ],
      [
       116.3529728,
       40.00924773
      ],
      [
       116.35200001,
       40.00913693
      ]
     ]
    ]
   }
  },
  {
   "type": "Feature",
   "id": "BLDG-006",
   "properties": {
    "id": "BLDG-006",
    "layer": "BUILDING_FOOTPRINT",
    "source_type": "agent_generated_design",
    "confidence": "medium",
    "geometry_role": "design_proposal",
    "name_zh": "加速站全栈研发组团",
    "land_use_code": "0802",
    "massing_status": "concept_massing_only",
    "note_zh": "概念体量示意，不构成建筑高度、强度或拆改留结论",
    "area_sqm_declared": 3525.265
   },
   "geometry": {
    "type": "Polygon",
    "coordinates": [
     [
      [
       116.34342189,
       40.00941692
      ],
      [
       116.34334979,
       40.00979116
      ],
      [
       116.34432258,
       40.00990159
      ],
      [
       116.34439468,
       40.00952779
      ],
      [
       116.34342189,
       40.00941692
      ]
     ]
    ]
   }
  },
  {
   "type": "Feature",
   "id": "BLDG-007",
   "properties": {
    "id": "BLDG-007",
    "layer": "BUILDING_FOOTPRINT",
    "source_type": "agent_generated_design",
    "confidence": "medium",
    "geometry_role": "design_proposal",
    "name_zh": "加速站全栈研发组团",
    "land_use_code": "0802",
    "massing_status": "concept_massing_only",
    "note_zh": "概念体量示意，不构成建筑高度、强度或拆改留结论",
    "area_sqm_declared": 3525.247
   },
   "geometry": {
    "type": "Polygon",
    "coordinates": [
     [
      [
       116.34550727,
       40.00965431
      ],
      [
       116.34543518,
       40.01002856
      ],
      [
       116.34640798,
       40.01013897
      ],
      [
       116.34648006,
       40.00976518
      ],
      [
       116.34550727,
       40.00965431
      ]
     ]
    ]
   }
  },
  {
   "type": "Feature",
   "id": "BLDG-008",
   "properties": {
    "id": "BLDG-008",
    "layer": "BUILDING_FOOTPRINT",
    "source_type": "agent_generated_design",
    "confidence": "medium",
    "geometry_role": "design_proposal",
    "name_zh": "加速站全栈研发组团",
    "land_use_code": "0802",
    "massing_status": "concept_massing_only",
    "note_zh": "概念体量示意，不构成建筑高度、强度或拆改留结论",
    "area_sqm_declared": 3527.471
   },
   "geometry": {
    "type": "Polygon",
    "coordinates": [
     [
      [
       116.34967808,
       40.010129
      ],
      [
       116.34960601,
       40.01050325
      ],
      [
       116.35057883,
       40.01061407
      ],
      [
       116.35065089,
       40.01023983
      ],
      [
       116.34967808,
       40.010129
      ]
     ]
    ]
   }
  },
  {
   "type": "Feature",
   "id": "BLDG-009",
   "properties": {
    "id": "BLDG-009",
    "layer": "BUILDING_FOOTPRINT",
    "source_type": "agent_generated_design",
    "confidence": "medium",
    "geometry_role": "design_proposal",
    "name_zh": "加速站全栈研发组团",
    "land_use_code": "0802",
    "massing_status": "concept_massing_only",
    "note_zh": "概念体量示意，不构成建筑高度、强度或拆改留结论",
    "area_sqm_declared": 3527.475
   },
   "geometry": {
    "type": "Polygon",
    "coordinates": [
     [
      [
       116.35176351,
       40.01036629
      ],
      [
       116.35169145,
       40.01074054
      ],
      [
       116.35266427,
       40.01085134
      ],
      [
       116.35273632,
       40.01047709
      ],
      [
       116.35176351,
       40.01036629
      ]
     ]
    ]
   }
  },
  {
   "type": "Feature",
   "id": "BLDG-010",
   "properties": {
    "id": "BLDG-010",
    "layer": "BUILDING_FOOTPRINT",
    "source_type": "agent_generated_design",
    "confidence": "medium",
    "geometry_role": "design_proposal",
    "name_zh": "加速站全栈研发组团",
    "land_use_code": "0802",
    "massing_status": "concept_massing_only",
    "note_zh": "概念体量示意，不构成建筑高度、强度或拆改留结论",
    "area_sqm_declared": 3528.231
   },
   "geometry": {
    "type": "Polygon",
    "coordinates": [
     [
      [
       116.34527007,
       40.01088366
      ],
      [
       116.34519856,
       40.0112579
      ],
      [
       116.34617138,
       40.01136877
      ],
      [
       116.34624347,
       40.01099452
      ],
      [
       116.34527007,
       40.01088366
      ]
     ]
    ]
   }
  },
  {
   "type": "Feature",
   "id": "BLDG-011",
   "properties": {
    "id": "BLDG-011",
    "layer": "BUILDING_FOOTPRINT",
    "source_type": "agent_generated_design",
    "confidence": "medium",
    "geometry_role": "design_proposal",
    "name_zh": "加速站全栈研发组团",
    "land_use_code": "0802",
    "massing_status": "concept_massing_only",
    "note_zh": "概念体量示意，不构成建筑高度、强度或拆改留结论",
    "area_sqm_declared": 3528.23
   },
   "geometry": {
    "type": "Polygon",
    "coordinates": [
     [
      [
       116.34944095,
       40.01135835
      ],
      [
       116.34936947,
       40.0117326
      ],
      [
       116.3503423,
       40.01184343
      ],
      [
       116.35041436,
       40.01146918
      ],
      [
       116.34944095,
       40.01135835
      ]
     ]
    ]
   }
  },
  {
   "type": "Feature",
   "id": "BLDG-012",
   "properties": {
    "id": "BLDG-012",
    "layer": "BUILDING_FOOTPRINT",
    "source_type": "agent_generated_design",
    "confidence": "medium",
    "geometry_role": "design_proposal",
    "name_zh": "加速站全栈研发组团",
    "land_use_code": "0802",
    "massing_status": "concept_massing_only",
    "note_zh": "概念体量示意，不构成建筑高度、强度或拆改留结论",
    "area_sqm_declared": 3529.549
   },
   "geometry": {
    "type": "Polygon",
    "coordinates": [
     [
      [
       116.35152642,
       40.01159564
      ],
      [
       116.35145436,
       40.01196989
      ],
      [
       116.35242778,
       40.0120807
      ],
      [
       116.35249983,
       40.01170645
      ],
      [
       116.35152642,
       40.01159564
      ]
     ]
    ]
   }
  },
  {
   "type": "Feature",
   "id": "BLDG-013",
   "properties": {
    "id": "BLDG-013",
    "layer": "BUILDING_FOOTPRINT",
    "source_type": "agent_generated_design",
    "confidence": "medium",
    "geometry_role": "design_proposal",
    "name_zh": "加速站全栈研发组团",
    "land_use_code": "0802",
    "massing_status": "concept_massing_only",
    "note_zh": "概念体量示意，不构成建筑高度、强度或拆改留结论",
    "area_sqm_declared": 3529.519
   },
   "geometry": {
    "type": "Polygon",
    "coordinates": [
     [
      [
       116.34503345,
       40.012113
      ],
      [
       116.34496135,
       40.01248724
      ],
      [
       116.34593477,
       40.01259811
      ],
      [
       116.34600686,
       40.01222387
      ],
      [
       116.34503345,
       40.012113
      ]
     ]
    ]
   }
  },
  {
   "type": "Feature",
   "id": "BLDG-014",
   "properties": {
    "id": "BLDG-014",
    "layer": "BUILDING_FOOTPRINT",
    "source_type": "agent_generated_design",
    "confidence": "medium",
    "geometry_role": "design_proposal",
    "name_zh": "加速站全栈研发组团",
    "land_use_code": "0802",
    "massing_status": "concept_massing_only",
    "note_zh": "概念体量示意，不构成建筑高度、强度或拆改留结论",
    "area_sqm_declared": 3529.557
   },
   "geometry": {
    "type": "Polygon",
    "coordinates": [
     [
      [
       116.3512899,
       40.012825
      ],
      [
       116.35121784,
       40.01319925
      ],
      [
       116.35219128,
       40.01331006
      ],
      [
       116.35226333,
       40.01293581
      ],
      [
       116.3512899,
       40.012825
      ]
     ]
    ]
   }
  },
  {
   "type": "Feature",
   "id": "BLDG-015",
   "properties": {
    "id": "BLDG-015",
    "layer": "BUILDING_FOOTPRINT",
    "source_type": "agent_generated_design",
    "confidence": "medium",
    "geometry_role": "design_proposal",
    "name_zh": "加速站全栈研发组团",
    "land_use_code": "0802",
    "massing_status": "concept_massing_only",
    "note_zh": "概念体量示意，不构成建筑高度、强度或拆改留结论",
    "area_sqm_declared": 3529.596
   },
   "geometry": {
    "type": "Polygon",
    "coordinates": [
     [
      [
       116.34479681,
       40.01334234
      ],
      [
       116.34472472,
       40.01371659
      ],
      [
       116.34569815,
       40.01382746
      ],
      [
       116.34577024,
       40.01345321
      ],
      [
       116.34479681,
       40.01334234
      ]
     ]
    ]
   }
  },
  {
   "type": "Feature",
   "id": "BLDG-016",
   "properties": {
    "id": "BLDG-016",
    "layer": "BUILDING_FOOTPRINT",
    "source_type": "agent_generated_design",
    "confidence": "medium",
    "geometry_role": "design_proposal",
    "name_zh": "加速站全栈研发组团",
    "land_use_code": "0802",
    "massing_status": "concept_massing_only",
    "note_zh": "概念体量示意，不构成建筑高度、强度或拆改留结论",
    "area_sqm_declared": 3529.583
   },
   "geometry": {
    "type": "Polygon",
    "coordinates": [
     [
      [
       116.35105338,
       40.01405435
      ],
      [
       116.35098131,
       40.0144286
      ],
      [
       116.35195477,
       40.01453942
      ],
      [
       116.35202683,
       40.01416517
      ],
      [
       116.35105338,
       40.01405435
      ]
     ]
    ]
   }
  },
  {
   "type": "Feature",
   "id": "BLDG-017",
   "properties": {
    "id": "BLDG-017",
    "layer": "BUILDING_FOOTPRINT",
    "source_type": "agent_generated_design",
    "confidence": "medium",
    "geometry_role": "design_proposal",
    "name_zh": "原点站研发社区组团",
    "land_use_code": "0802",
    "massing_status": "concept_massing_only",
    "note_zh": "概念体量示意，不构成建筑高度、强度或拆改留结论",
    "area_sqm_declared": 2591.804
   },
   "geometry": {
    "type": "Polygon",
    "coordinates": [
     [
      [
       116.35027521,
       39.98376879
      ],
      [
       116.35021364,
       39.98408951
      ],
      [
       116.35104749,
       39.98418424
      ],
      [
       116.35110906,
       39.98386352
      ],
      [
       116.35027521,
       39.98376879
      ]
     ]
    ]
   }
  },
  {
   "type": "Feature",
   "id": "BLDG-018",
   "properties": {
    "id": "BLDG-018",
    "layer": "BUILDING_FOOTPRINT",
    "source_type": "agent_generated_design",
    "confidence": "medium",
    "geometry_role": "design_proposal",
    "name_zh": "原点站研发社区组团",
    "land_use_code": "0802",
    "massing_status": "concept_massing_only",
    "note_zh": "概念体量示意，不构成建筑高度、强度或拆改留结论",
    "area_sqm_declared": 2592.102
   },
   "geometry": {
    "type": "Polygon",
    "coordinates": [
     [
      [
       116.34265052,
       39.9840293
      ],
      [
       116.34258891,
       39.98435002
      ],
      [
       116.34342275,
       39.98444526
      ],
      [
       116.34348436,
       39.98412454
      ],
      [
       116.34265052,
       39.9840293
      ]
     ]
    ]
   }
  },
  {
   "type": "Feature",
   "id": "BLDG-019",
   "properties": {
    "id": "BLDG-019",
    "layer": "BUILDING_FOOTPRINT",
    "source_type": "agent_generated_design",
    "confidence": "medium",
    "geometry_role": "design_proposal",
    "name_zh": "原点站研发社区组团",
    "land_use_code": "0802",
    "massing_status": "concept_massing_only",
    "note_zh": "概念体量示意，不构成建筑高度、强度或拆改留结论",
    "area_sqm_declared": 2591.865
   },
   "geometry": {
    "type": "Polygon",
    "coordinates": [
     [
      [
       116.34450357,
       39.98424063
      ],
      [
       116.34444196,
       39.98456135
      ],
      [
       116.34527582,
       39.98465613
      ],
      [
       116.34533742,
       39.98433541
      ],
      [
       116.34450357,
       39.98424063
      ]
     ]
    ]
   }
  },
  {
   "type": "Feature",
   "id": "BLDG-020",
   "properties": {
    "id": "BLDG-020",
    "layer": "BUILDING_FOOTPRINT",
    "source_type": "agent_generated_design",
    "confidence": "medium",
    "geometry_role": "design_proposal",
    "name_zh": "原点站研发社区组团",
    "land_use_code": "0802",
    "massing_status": "concept_massing_only",
    "note_zh": "概念体量示意，不构成建筑高度、强度或拆改留结论",
    "area_sqm_declared": 2591.813
   },
   "geometry": {
    "type": "Polygon",
    "coordinates": [
     [
      [
       116.35006279,
       39.98487355
      ],
      [
       116.35000121,
       39.98519427
      ],
      [
       116.35083508,
       39.985289
      ],
      [
       116.35089665,
       39.98496828
      ],
      [
       116.35006279,
       39.98487355
      ]
     ]
    ]
   }
  },
  {
   "type": "Feature",
   "id": "BLDG-021",
   "properties": {
    "id": "BLDG-021",
    "layer": "BUILDING_FOOTPRINT",
    "source_type": "agent_generated_design",
    "confidence": "medium",
    "geometry_role": "design_proposal",
    "name_zh": "原点站研发社区组团",
    "land_use_code": "0802",
    "massing_status": "concept_massing_only",
    "note_zh": "概念体量示意，不构成建筑高度、强度或拆改留结论",
    "area_sqm_declared": 2592.122
   },
   "geometry": {
    "type": "Polygon",
    "coordinates": [
     [
      [
       116.34243797,
       39.98513405
      ],
      [
       116.34237636,
       39.98545477
      ],
      [
       116.34321022,
       39.98555001
      ],
      [
       116.34327183,
       39.98522929
      ],
      [
       116.34243797,
       39.98513405
      ]
     ]
    ]
   }
  },
  {
   "type": "Feature",
   "id": "BLDG-022",
   "properties": {
    "id": "BLDG-022",
    "layer": "BUILDING_FOOTPRINT",
    "source_type": "agent_generated_design",
    "confidence": "medium",
    "geometry_role": "design_proposal",
    "name_zh": "原点站研发社区组团",
    "land_use_code": "0802",
    "massing_status": "concept_massing_only",
    "note_zh": "概念体量示意，不构成建筑高度、强度或拆改留结论",
    "area_sqm_declared": 2591.855
   },
   "geometry": {
    "type": "Polygon",
    "coordinates": [
     [
      [
       116.34429105,
       39.98534538
      ],
      [
       116.34422944,
       39.9856661
      ],
      [
       116.34506331,
       39.98576088
      ],
      [
       116.34512491,
       39.98544016
      ],
      [
       116.34429105,
       39.98534538
      ]
     ]
    ]
   }
  },
  {
   "type": "Feature",
   "id": "BLDG-023",
   "properties": {
    "id": "BLDG-023",
    "layer": "BUILDING_FOOTPRINT",
    "source_type": "agent_generated_design",
    "confidence": "medium",
    "geometry_role": "design_proposal",
    "name_zh": "原点站研发社区组团",
    "land_use_code": "0802",
    "massing_status": "concept_massing_only",
    "note_zh": "概念体量示意，不构成建筑高度、强度或拆改留结论",
    "area_sqm_declared": 2592.332
   },
   "geometry": {
    "type": "Polygon",
    "coordinates": [
     [
      [
       116.34985036,
       39.98597831
      ],
      [
       116.34978819,
       39.98629903
      ],
      [
       116.35062207,
       39.98639376
      ],
      [
       116.35068423,
       39.98607304
      ],
      [
       116.34985036,
       39.98597831
      ]
     ]
    ]
   }
  },
  {
   "type": "Feature",
   "id": "BLDG-024",
   "properties": {
    "id": "BLDG-024",
    "layer": "BUILDING_FOOTPRINT",
    "source_type": "agent_generated_design",
    "confidence": "medium",
    "geometry_role": "design_proposal",
    "name_zh": "原点站研发社区组团",
    "land_use_code": "0802",
    "massing_status": "concept_massing_only",
    "note_zh": "概念体量示意，不构成建筑高度、强度或拆改留结论",
    "area_sqm_declared": 2591.84
   },
   "geometry": {
    "type": "Polygon",
    "coordinates": [
     [
      [
       116.3517029,
       39.98618907
      ],
      [
       116.35164133,
       39.98650979
      ],
      [
       116.35247521,
       39.98660452
      ],
      [
       116.35253678,
       39.98628379
      ],
      [
       116.3517029,
       39.98618907
      ]
     ]
    ]
   }
  },
  {
   "type": "Feature",
   "id": "BLDG-025",
   "properties": {
    "id": "BLDG-025",
    "layer": "BUILDING_FOOTPRINT",
    "source_type": "agent_generated_design",
    "confidence": "medium",
    "geometry_role": "design_proposal",
    "name_zh": "原点站研发社区组团",
    "land_use_code": "0802",
    "massing_status": "concept_massing_only",
    "note_zh": "概念体量示意，不构成建筑高度、强度或拆改留结论",
    "area_sqm_declared": 2591.844
   },
   "geometry": {
    "type": "Polygon",
    "coordinates": [
     [
      [
       116.34407853,
       39.98645013
      ],
      [
       116.34401692,
       39.98677085
      ],
      [
       116.3448508,
       39.98686563
      ],
      [
       116.3449124,
       39.98654491
      ],
      [
       116.34407853,
       39.98645013
      ]
     ]
    ]
   }
  },
  {
   "type": "Feature",
   "id": "BLDG-026",
   "properties": {
    "id": "BLDG-026",
    "layer": "BUILDING_FOOTPRINT",
    "source_type": "agent_generated_design",
    "confidence": "medium",
    "geometry_role": "design_proposal",
    "name_zh": "原点站研发社区组团",
    "land_use_code": "0802",
    "massing_status": "concept_massing_only",
    "note_zh": "概念体量示意，不构成建筑高度、强度或拆改留结论",
    "area_sqm_declared": 2591.864
   },
   "geometry": {
    "type": "Polygon",
    "coordinates": [
     [
      [
       116.34963733,
       39.98708306
      ],
      [
       116.34957575,
       39.98740379
      ],
      [
       116.35040965,
       39.98749852
      ],
      [
       116.35047122,
       39.9871778
      ],
      [
       116.34963733,
       39.98708306
      ]
     ]
    ]
   }
  },
  {
   "type": "Feature",
   "id": "BLDG-027",
   "properties": {
    "id": "BLDG-027",
    "layer": "BUILDING_FOOTPRINT",
    "source_type": "agent_generated_design",
    "confidence": "medium",
    "geometry_role": "design_proposal",
    "name_zh": "原点站研发社区组团",
    "land_use_code": "0802",
    "massing_status": "concept_massing_only",
    "note_zh": "概念体量示意，不构成建筑高度、强度或拆改留结论",
    "area_sqm_declared": 2591.86
   },
   "geometry": {
    "type": "Polygon",
    "coordinates": [
     [
      [
       116.35149049,
       39.98729383
      ],
      [
       116.35142892,
       39.98761456
      ],
      [
       116.35226282,
       39.98770928
      ],
      [
       116.35232439,
       39.98738856
      ],
      [
       116.35149049,
       39.98729383
      ]
     ]
    ]
   }
  },
  {
   "type": "Feature",
   "id": "BLDG-028",
   "properties": {
    "id": "BLDG-028",
    "layer": "BUILDING_FOOTPRINT",
    "source_type": "agent_generated_design",
    "confidence": "medium",
    "geometry_role": "design_proposal",
    "name_zh": "原点站研发社区组团",
    "land_use_code": "0802",
    "massing_status": "concept_massing_only",
    "note_zh": "概念体量示意，不构成建筑高度、强度或拆改留结论",
    "area_sqm_declared": 2592.55
   },
   "geometry": {
    "type": "Polygon",
    "coordinates": [
     [
      [
       116.343866,
       39.98755443
      ],
      [
       116.3438038,
       39.98787514
      ],
      [
       116.34463769,
       39.98797037
      ],
      [
       116.34469988,
       39.98764966
      ],
      [
       116.343866,
       39.98755443
      ]
     ]
    ]
   }
  },
  {
   "type": "Feature",
   "id": "BLDG-029",
   "properties": {
    "id": "BLDG-029",
    "layer": "BUILDING_FOOTPRINT",
    "source_type": "agent_generated_design",
    "confidence": "medium",
    "geometry_role": "design_proposal",
    "name_zh": "原点站研发社区组团",
    "land_use_code": "0802",
    "massing_status": "concept_massing_only",
    "note_zh": "概念体量示意，不构成建筑高度、强度或拆改留结论",
    "area_sqm_declared": 2592.069
   },
   "geometry": {
    "type": "Polygon",
    "coordinates": [
     [
      [
       116.34942489,
       39.98818737
      ],
      [
       116.34936331,
       39.98850809
      ],
      [
       116.35019721,
       39.98860328
      ],
      [
       116.35025879,
       39.98828256
      ],
      [
       116.34942489,
       39.98818737
      ]
     ]
    ]
   }
  },
  {
   "type": "Feature",
   "id": "BLDG-030",
   "properties": {
    "id": "BLDG-030",
    "layer": "BUILDING_FOOTPRINT",
    "source_type": "agent_generated_design",
    "confidence": "medium",
    "geometry_role": "design_proposal",
    "name_zh": "大钟站智能消费组团",
    "land_use_code": "05",
    "massing_status": "concept_massing_only",
    "note_zh": "概念体量示意，不构成建筑高度、强度或拆改留结论",
    "area_sqm_declared": 1983.217
   },
   "geometry": {
    "type": "Polygon",
    "coordinates": [
     [
      [
       116.35273563,
       39.94429192
      ],
      [
       116.35268088,
       39.94457711
      ],
      [
       116.35339854,
       39.94465857
      ],
      [
       116.35345329,
       39.94437383
      ],
      [
       116.35273563,
       39.94429192
      ]
     ]
    ]
   }
  },
  {
   "type": "Feature",
   "id": "BLDG-031",
   "properties": {
    "id": "BLDG-031",
    "layer": "BUILDING_FOOTPRINT",
    "source_type": "agent_generated_design",
    "confidence": "medium",
    "geometry_role": "design_proposal",
    "name_zh": "大钟站智能消费组团",
    "land_use_code": "05",
    "massing_status": "concept_massing_only",
    "note_zh": "概念体量示意，不构成建筑高度、强度或拆改留结论",
    "area_sqm_declared": 1983.191
   },
   "geometry": {
    "type": "Polygon",
    "coordinates": [
     [
      [
       116.34432567,
       39.94435364
      ],
      [
       116.34427088,
       39.94463882
      ],
      [
       116.34498854,
       39.94472033
      ],
      [
       116.34504332,
       39.9444356
      ],
      [
       116.34432567,
       39.94435364
      ]
     ]
    ]
   }
  },
  {
   "type": "Feature",
   "id": "BLDG-032",
   "properties": {
    "id": "BLDG-032",
    "layer": "BUILDING_FOOTPRINT",
    "source_type": "agent_generated_design",
    "confidence": "medium",
    "geometry_role": "design_proposal",
    "name_zh": "大钟站智能消费组团",
    "land_use_code": "05",
    "massing_status": "concept_massing_only",
    "note_zh": "概念体量示意，不构成建筑高度、强度或拆改留结论",
    "area_sqm_declared": 1984.811
   },
   "geometry": {
    "type": "Polygon",
    "coordinates": [
     [
      [
       116.34596961,
       39.9445408
      ],
      [
       116.34591483,
       39.94482598
      ],
      [
       116.34663248,
       39.94490793
      ],
      [
       116.34668726,
       39.94462275
      ],
      [
       116.34596961,
       39.9445408
      ]
     ]
    ]
   }
  },
  {
   "type": "Feature",
   "id": "BLDG-033",
   "properties": {
    "id": "BLDG-033",
    "layer": "BUILDING_FOOTPRINT",
    "source_type": "agent_generated_design",
    "confidence": "medium",
    "geometry_role": "design_proposal",
    "name_zh": "大钟站智能消费组团",
    "land_use_code": "05",
    "massing_status": "concept_massing_only",
    "note_zh": "概念体量示意，不构成建筑高度、强度或拆改留结论",
    "area_sqm_declared": 1983.225
   },
   "geometry": {
    "type": "Polygon",
    "coordinates": [
     [
      [
       116.35090031,
       39.94510257
      ],
      [
       116.35084554,
       39.94538776
      ],
      [
       116.35156321,
       39.94546923
      ],
      [
       116.35161797,
       39.94518449
      ],
      [
       116.35090031,
       39.94510257
      ]
     ]
    ]
   }
  },
  {
   "type": "Feature",
   "id": "BLDG-034",
   "properties": {
    "id": "BLDG-034",
    "layer": "BUILDING_FOOTPRINT",
    "source_type": "agent_generated_design",
    "confidence": "medium",
    "geometry_role": "design_proposal",
    "name_zh": "大钟站智能消费组团",
    "land_use_code": "05",
    "massing_status": "concept_massing_only",
    "note_zh": "概念体量示意，不构成建筑高度、强度或拆改留结论",
    "area_sqm_declared": 1984.887
   },
   "geometry": {
    "type": "Polygon",
    "coordinates": [
     [
      [
       116.3525437,
       39.94528964
      ],
      [
       116.35248894,
       39.94557483
      ],
      [
       116.35320661,
       39.94565674
      ],
      [
       116.35326136,
       39.94537154
      ],
      [
       116.3525437,
       39.94528964
      ]
     ]
    ]
   }
  },
  {
   "type": "Feature",
   "id": "BLDG-035",
   "properties": {
    "id": "BLDG-035",
    "layer": "BUILDING_FOOTPRINT",
    "source_type": "agent_generated_design",
    "confidence": "medium",
    "geometry_role": "design_proposal",
    "name_zh": "大钟站智能消费组团",
    "land_use_code": "05",
    "massing_status": "concept_massing_only",
    "note_zh": "概念体量示意，不构成建筑高度、强度或拆改留结论",
    "area_sqm_declared": 1983.181
   },
   "geometry": {
    "type": "Polygon",
    "coordinates": [
     [
      [
       116.34249025,
       39.94516416
      ],
      [
       116.34243545,
       39.94544934
      ],
      [
       116.34315311,
       39.94553086
      ],
      [
       116.3432079,
       39.94524613
      ],
      [
       116.34249025,
       39.94516416
      ]
     ]
    ]
   }
  },
  {
   "type": "Feature",
   "id": "BLDG-036",
   "properties": {
    "id": "BLDG-036",
    "layer": "BUILDING_FOOTPRINT",
    "source_type": "agent_generated_design",
    "confidence": "medium",
    "geometry_role": "design_proposal",
    "name_zh": "大钟站智能消费组团",
    "land_use_code": "05",
    "massing_status": "concept_massing_only",
    "note_zh": "概念体量示意，不构成建筑高度、强度或拆改留结论",
    "area_sqm_declared": 1984.328
   },
   "geometry": {
    "type": "Polygon",
    "coordinates": [
     [
      [
       116.3441342,
       39.94535134
      ],
      [
       116.34407941,
       39.94563653
      ],
      [
       116.34479648,
       39.94571849
      ],
      [
       116.34485186,
       39.9454333
      ],
      [
       116.3441342,
       39.94535134
      ]
     ]
    ]
   }
  },
  {
   "type": "Feature",
   "id": "BLDG-037",
   "properties": {
    "id": "BLDG-037",
    "layer": "BUILDING_FOOTPRINT",
    "source_type": "agent_generated_design",
    "confidence": "medium",
    "geometry_role": "design_proposal",
    "name_zh": "大钟站智能消费组团",
    "land_use_code": "05",
    "massing_status": "concept_massing_only",
    "note_zh": "概念体量示意，不构成建筑高度、强度或拆改留结论",
    "area_sqm_declared": 1984.864
   },
   "geometry": {
    "type": "Polygon",
    "coordinates": [
     [
      [
       116.34577758,
       39.9455385
      ],
      [
       116.34572279,
       39.94582368
      ],
      [
       116.34644046,
       39.94590564
      ],
      [
       116.34649524,
       39.94562045
      ],
      [
       116.34577758,
       39.9455385
      ]
     ]
    ]
   }
  },
  {
   "type": "Feature",
   "id": "BLDG-038",
   "properties": {
    "id": "BLDG-038",
    "layer": "BUILDING_FOOTPRINT",
    "source_type": "agent_generated_design",
    "confidence": "medium",
    "geometry_role": "design_proposal",
    "name_zh": "大钟站智能消费组团",
    "land_use_code": "05",
    "massing_status": "concept_massing_only",
    "note_zh": "概念体量示意，不构成建筑高度、强度或拆改留结论",
    "area_sqm_declared": 1984.841
   },
   "geometry": {
    "type": "Polygon",
    "coordinates": [
     [
      [
       116.35070834,
       39.94610028
      ],
      [
       116.35065357,
       39.94638547
      ],
      [
       116.35137125,
       39.94646739
      ],
      [
       116.35142601,
       39.94618221
      ],
      [
       116.35070834,
       39.94610028
      ]
     ]
    ]
   }
  },
  {
   "type": "Feature",
   "id": "BLDG-039",
   "properties": {
    "id": "BLDG-039",
    "layer": "BUILDING_FOOTPRINT",
    "source_type": "agent_generated_design",
    "confidence": "medium",
    "geometry_role": "design_proposal",
    "name_zh": "大钟站智能消费组团",
    "land_use_code": "05",
    "massing_status": "concept_massing_only",
    "note_zh": "概念体量示意，不构成建筑高度、强度或拆改留结论",
    "area_sqm_declared": 1984.871
   },
   "geometry": {
    "type": "Polygon",
    "coordinates": [
     [
      [
       116.35235175,
       39.94628735
      ],
      [
       116.35229699,
       39.94657254
      ],
      [
       116.35301467,
       39.94665445
      ],
      [
       116.35306943,
       39.94636926
      ],
      [
       116.35235175,
       39.94628735
      ]
     ]
    ]
   }
  },
  {
   "type": "Feature",
   "id": "BLDG-P01",
   "properties": {
    "id": "BLDG-P01",
    "layer": "BUILDING_FOOTPRINT",
    "source_type": "agent_generated_design",
    "confidence": "medium",
    "geometry_role": "design_proposal",
    "name_zh": "智线场景亭01（AI体验驿站）",
    "land_use_code": "1401",
    "massing_status": "concept_massing_only",
    "note_zh": "概念体量示意，不构成建筑高度、强度或工程结论",
    "area_sqm_declared": 784.002
   },
   "geometry": {
    "type": "Polygon",
    "coordinates": [
     [
      [
       116.34901654,
       39.94935238
      ],
      [
       116.34901415,
       39.94960454
      ],
      [
       116.34934178,
       39.94960638
      ],
      [
       116.34934417,
       39.94935422
      ],
      [
       116.34901654,
       39.94935238
      ]
     ]
    ]
   }
  },
  {
   "type": "Feature",
   "id": "BLDG-P02",
   "properties": {
    "id": "BLDG-P02",
    "layer": "BUILDING_FOOTPRINT",
    "source_type": "agent_generated_design",
    "confidence": "medium",
    "geometry_role": "design_proposal",
    "name_zh": "智线场景亭02（AI体验驿站）",
    "land_use_code": "1401",
    "massing_status": "concept_massing_only",
    "note_zh": "概念体量示意，不构成建筑高度、强度或工程结论",
    "area_sqm_declared": 784.016
   },
   "geometry": {
    "type": "Polygon",
    "coordinates": [
     [
      [
       116.34859087,
       39.96511123
      ],
      [
       116.34858848,
       39.96536339
      ],
      [
       116.34891619,
       39.96536523
      ],
      [
       116.34891858,
       39.96511307
      ],
      [
       116.34859087,
       39.96511123
      ]
     ]
    ]
   }
  },
  {
   "type": "Feature",
   "id": "BLDG-P03",
   "properties": {
    "id": "BLDG-P03",
    "layer": "BUILDING_FOOTPRINT",
    "source_type": "agent_generated_design",
    "confidence": "medium",
    "geometry_role": "design_proposal",
    "name_zh": "智线场景亭03（AI体验驿站）",
    "land_use_code": "1401",
    "massing_status": "concept_massing_only",
    "note_zh": "概念体量示意，不构成建筑高度、强度或工程结论",
    "area_sqm_declared": 784.006
   },
   "geometry": {
    "type": "Polygon",
    "coordinates": [
     [
      [
       116.34812751,
       39.98086936
      ],
      [
       116.34812511,
       39.98112152
      ],
      [
       116.34845289,
       39.98112337
      ],
      [
       116.34845529,
       39.98087121
      ],
      [
       116.34812751,
       39.98086936
      ]
     ]
    ]
   }
  },
  {
   "type": "Feature",
   "id": "BLDG-P04",
   "properties": {
    "id": "BLDG-P04",
    "layer": "BUILDING_FOOTPRINT",
    "source_type": "agent_generated_design",
    "confidence": "medium",
    "geometry_role": "design_proposal",
    "name_zh": "智线场景亭04（AI体验驿站）",
    "land_use_code": "1401",
    "massing_status": "concept_massing_only",
    "note_zh": "概念体量示意，不构成建筑高度、强度或工程结论",
    "area_sqm_declared": 784.011
   },
   "geometry": {
    "type": "Polygon",
    "coordinates": [
     [
      [
       116.34806601,
       39.99312814
      ],
      [
       116.34806361,
       39.9933803
      ],
      [
       116.34839145,
       39.99338215
      ],
      [
       116.34839385,
       39.99312999
      ],
      [
       116.34806601,
       39.99312814
      ]
     ]
    ]
   }
  },
  {
   "type": "Feature",
   "id": "BLDG-P05",
   "properties": {
    "id": "BLDG-P05",
    "layer": "BUILDING_FOOTPRINT",
    "source_type": "agent_generated_design",
    "confidence": "medium",
    "geometry_role": "design_proposal",
    "name_zh": "智线场景亭05（AI体验驿站）",
    "land_use_code": "1401",
    "massing_status": "concept_massing_only",
    "note_zh": "概念体量示意，不构成建筑高度、强度或工程结论",
    "area_sqm_declared": 783.992
   },
   "geometry": {
    "type": "Polygon",
    "coordinates": [
     [
      [
       116.34854297,
       40.0071335
      ],
      [
       116.34854057,
       40.00738566
      ],
      [
       116.34886848,
       40.0073875
      ],
      [
       116.34887087,
       40.00713535
      ],
      [
       116.34854297,
       40.0071335
      ]
     ]
    ]
   }
  },
  {
   "type": "Feature",
   "id": "BLDG-P06",
   "properties": {
    "id": "BLDG-P06",
    "layer": "BUILDING_FOOTPRINT",
    "source_type": "agent_generated_design",
    "confidence": "medium",
    "geometry_role": "design_proposal",
    "name_zh": "智线场景亭06（AI体验驿站）",
    "land_use_code": "1401",
    "massing_status": "concept_massing_only",
    "note_zh": "概念体量示意，不构成建筑高度、强度或工程结论",
    "area_sqm_declared": 784.008
   },
   "geometry": {
    "type": "Polygon",
    "coordinates": [
     [
      [
       116.34907682,
       40.01763399
      ],
      [
       116.34907442,
       40.01788615
      ],
      [
       116.34940238,
       40.01788799
      ],
      [
       116.34940477,
       40.01763583
      ],
      [
       116.34907682,
       40.01763399
      ]
     ]
    ]
   }
  }
 ]
}