{
  "type": "FeatureCollection",
  "name": "land_use_design",
  "features": [
    {
      "type": "Feature",
      "id": "LU-001",
      "properties": {
        "id": "LU-001",
        "layer": "LAND_USE",
        "source_type": "agent_generated_design",
        "confidence": "medium",
        "geometry_role": "design_proposal",
        "source_id": "DATA-SRC-PROVISIONAL-BOUNDARIES-20260605",
        "derived_from_source_ids": [
          "DATA-SRC-OFFICIAL-ANNOUNCEMENT-20260509"
        ],
        "usage_note": "AI agent 生成的概念设计建议，非审批依据；边界为临时粗略约束。",
        "land_use_code": "05",
        "name_zh": "大钟寺门户商业",
        "design_intent_zh": "依托轨道站点的大钟寺门户商业服务概念建议。",
        "zone_segment": "block_4422955",
        "area_sqm_declared": 62556.994
      },
      "geometry": {
        "type": "Polygon",
        "coordinates": [
          [
            [
              116.3553,
              39.940126
            ],
            [
              116.3553,
              39.939
            ],
            [
              116.3493633,
              39.9390002
            ],
            [
              116.3493529,
              39.9400928
            ],
            [
              116.3553,
              39.940126
            ]
          ]
        ]
      }
    },
    {
      "type": "Feature",
      "id": "LU-002",
      "properties": {
        "id": "LU-002",
        "layer": "LAND_USE",
        "source_type": "agent_generated_design",
        "confidence": "medium",
        "geometry_role": "design_proposal",
        "source_id": "DATA-SRC-PROVISIONAL-BOUNDARIES-20260605",
        "derived_from_source_ids": [
          "DATA-SRC-OFFICIAL-ANNOUNCEMENT-20260509"
        ],
        "usage_note": "AI agent 生成的概念设计建议，非审批依据；边界为临时粗略约束。",
        "land_use_code": "0702",
        "name_zh": "社区服务与首站配套",
        "design_intent_zh": "服务大钟寺门户的社区配套与游客服务概念建议。",
        "zone_segment": "block_4422955",
        "area_sqm_declared": 62607.182
      },
      "geometry": {
        "type": "Polygon",
        "coordinates": [
          [
            [
              116.3469063,
              39.9390002
            ],
            [
              116.3407,
              39.939
            ],
            [
              116.340671,
              39.9400437
            ],
            [
              116.346896,
              39.940079
            ],
            [
              116.3469063,
              39.9390002
            ]
          ]
        ]
      }
    },
    {
      "type": "Feature",
      "id": "LU-003",
      "properties": {
        "id": "LU-003",
        "layer": "LAND_USE",
        "source_type": "agent_generated_design",
        "confidence": "medium",
        "geometry_role": "design_proposal",
        "source_id": "DATA-SRC-PROVISIONAL-BOUNDARIES-20260605",
        "derived_from_source_ids": [
          "DATA-SRC-OFFICIAL-ANNOUNCEMENT-20260509"
        ],
        "usage_note": "AI agent 生成的概念设计建议，非审批依据；边界为临时粗略约束。",
        "land_use_code": "05",
        "name_zh": "大钟寺产业服务街坊",
        "design_intent_zh": "面向AI企业的产业服务与商业配套概念建议。",
        "zone_segment": "block_4423108",
        "area_sqm_declared": 230590.842
      },
      "geometry": {
        "type": "Polygon",
        "coordinates": [
          [
            [
              116.3553,
              39.944449
            ],
            [
              116.3553,
              39.9403782
            ],
            [
              116.3493505,
              39.9403449
            ],
            [
              116.349312,
              39.9444155
            ],
            [
              116.3553,
              39.944449
            ]
          ]
        ]
      }
    },
    {
      "type": "Feature",
      "id": "LU-004",
      "properties": {
        "id": "LU-004",
        "layer": "LAND_USE",
        "source_type": "agent_generated_design",
        "confidence": "medium",
        "geometry_role": "design_proposal",
        "source_id": "DATA-SRC-PROVISIONAL-BOUNDARIES-20260605",
        "derived_from_source_ids": [
          "DATA-SRC-OFFICIAL-ANNOUNCEMENT-20260509"
        ],
        "usage_note": "AI agent 生成的概念设计建议，非审批依据；边界为临时粗略约束。",
        "land_use_code": "0802",
        "name_zh": "大钟寺AI产业街坊",
        "design_intent_zh": "大钟寺AI产业聚集区内的研发办公街坊概念建议。",
        "zone_segment": "block_4423108",
        "area_sqm_declared": 242102.444
      },
      "geometry": {
        "type": "Polygon",
        "coordinates": [
          [
            [
              116.340664,
              39.9402959
            ],
            [
              116.340551,
              39.944366
            ],
            [
              116.3468549,
              39.9444017
            ],
            [
              116.3468936,
              39.9403311
            ],
            [
              116.340664,
              39.9402959
            ]
          ]
        ]
      }
    },
    {
      "type": "Feature",
      "id": "LU-005",
      "properties": {
        "id": "LU-005",
        "layer": "LAND_USE",
        "source_type": "agent_generated_design",
        "confidence": "medium",
        "geometry_role": "design_proposal",
        "source_id": "DATA-SRC-PROVISIONAL-BOUNDARIES-20260605",
        "derived_from_source_ids": [
          "DATA-SRC-OFFICIAL-ANNOUNCEMENT-20260509"
        ],
        "usage_note": "AI agent 生成的概念设计建议，非审批依据；边界为临时粗略约束。",
        "land_use_code": "0802",
        "name_zh": "大钟寺AI研发街坊",
        "design_intent_zh": "大钟寺AI产业聚集区内的研发街坊概念建议。",
        "zone_segment": "block_4423588",
        "area_sqm_declared": 314690.648
      },
      "geometry": {
        "type": "Polygon",
        "coordinates": [
          [
            [
              116.3553,
              39.9447011
            ],
            [
              116.3493096,
              39.9446677
            ],
            [
              116.3493069,
              39.9449558
            ],
            [
              116.3492915,
              39.9465769
            ],
            [
              116.3492574,
              39.9501792
            ],
            [
              116.3553,
              39.9502129
            ],
            [
              116.3553,
              39.9466104
            ],
            [
              116.3553,
              39.9449893
            ],
            [
              116.3553,
              39.9447011
            ]
          ]
        ]
      }
    },
    {
      "type": "Feature",
      "id": "LU-006",
      "properties": {
        "id": "LU-006",
        "layer": "LAND_USE",
        "source_type": "agent_generated_design",
        "confidence": "medium",
        "geometry_role": "design_proposal",
        "source_id": "DATA-SRC-PROVISIONAL-BOUNDARIES-20260605",
        "derived_from_source_ids": [
          "DATA-SRC-OFFICIAL-ANNOUNCEMENT-20260509"
        ],
        "usage_note": "AI agent 生成的概念设计建议，非审批依据；边界为临时粗略约束。",
        "land_use_code": "0803",
        "name_zh": "京张记忆文化街坊",
        "design_intent_zh": "承载京张铁路工业记忆展示的文化设施街坊概念建议。",
        "zone_segment": "block_4423588",
        "area_sqm_declared": 332596.049
      },
      "geometry": {
        "type": "Polygon",
        "coordinates": [
          [
            [
              116.340536,
              39.9449063
            ],
            [
              116.340491,
              39.9465271
            ],
            [
              116.340391,
              39.950129
            ],
            [
              116.3468001,
              39.9501653
            ],
            [
              116.3468344,
              39.9465631
            ],
            [
              116.3468498,
              39.944942
            ],
            [
              116.3468525,
              39.9446538
            ],
            [
              116.340544,
              39.9446181
            ],
            [
              116.340536,
              39.9449063
            ]
          ]
        ]
      }
    },
    {
      "type": "Feature",
      "id": "LU-007",
      "properties": {
        "id": "LU-007",
        "layer": "LAND_USE",
        "source_type": "agent_generated_design",
        "confidence": "medium",
        "geometry_role": "design_proposal",
        "source_id": "DATA-SRC-PROVISIONAL-BOUNDARIES-20260605",
        "derived_from_source_ids": [
          "DATA-SRC-OFFICIAL-ANNOUNCEMENT-20260509"
        ],
        "usage_note": "AI agent 生成的概念设计建议，非审批依据；边界为临时粗略约束。",
        "land_use_code": "0701",
        "name_zh": "知春路居住保留街坊",
        "design_intent_zh": "现状居住功能保留与渐进更新的概念建议。",
        "zone_segment": "block_4424228",
        "area_sqm_declared": 472071.903
      },
      "geometry": {
        "type": "Polygon",
        "coordinates": [
          [
            [
              116.340384,
              39.9503812
            ],
            [
              116.3401709,
              39.9580532
            ],
            [
              116.3467247,
              39.9580903
            ],
            [
              116.3467977,
              39.9504175
            ],
            [
              116.340384,
              39.9503812
            ]
          ]
        ]
      }
    },
    {
      "type": "Feature",
      "id": "LU-008",
      "properties": {
        "id": "LU-008",
        "layer": "LAND_USE",
        "source_type": "agent_generated_design",
        "confidence": "medium",
        "geometry_role": "design_proposal",
        "source_id": "DATA-SRC-PROVISIONAL-BOUNDARIES-20260605",
        "derived_from_source_ids": [
          "DATA-SRC-OFFICIAL-ANNOUNCEMENT-20260509"
        ],
        "usage_note": "AI agent 生成的概念设计建议，非审批依据；边界为临时粗略约束。",
        "land_use_code": "0702",
        "name_zh": "知春路社区服务街坊",
        "design_intent_zh": "15分钟生活圈社区服务配套概念建议。",
        "zone_segment": "block_4424228",
        "area_sqm_declared": 442775.111
      },
      "geometry": {
        "type": "Polygon",
        "coordinates": [
          [
            [
              116.3553,
              39.9581383
            ],
            [
              116.3553,
              39.9504651
            ],
            [
              116.349255,
              39.9504313
            ],
            [
              116.3491823,
              39.9581042
            ],
            [
              116.3553,
              39.9581383
            ]
          ]
        ]
      }
    },
    {
      "type": "Feature",
      "id": "LU-009",
      "properties": {
        "id": "LU-009",
        "layer": "LAND_USE",
        "source_type": "agent_generated_design",
        "confidence": "medium",
        "geometry_role": "design_proposal",
        "source_id": "DATA-SRC-PROVISIONAL-BOUNDARIES-20260605",
        "derived_from_source_ids": [
          "DATA-SRC-OFFICIAL-ANNOUNCEMENT-20260509"
        ],
        "usage_note": "AI agent 生成的概念设计建议，非审批依据；边界为临时粗略约束。",
        "land_use_code": "0701",
        "name_zh": "双榆树居住保留街坊",
        "design_intent_zh": "现状居住功能保留与渐进更新的概念建议。",
        "zone_segment": "block_4425108",
        "area_sqm_declared": 436816.48
      },
      "geometry": {
        "type": "Polygon",
        "coordinates": [
          [
            [
              116.3401639,
              39.9583053
            ],
            [
              116.3399708,
              39.965257
            ],
            [
              116.3466562,
              39.9652949
            ],
            [
              116.3467223,
              39.9583425
            ],
            [
              116.3401639,
              39.9583053
            ]
          ]
        ]
      }
    },
    {
      "type": "Feature",
      "id": "LU-010",
      "properties": {
        "id": "LU-010",
        "layer": "LAND_USE",
        "source_type": "agent_generated_design",
        "confidence": "medium",
        "geometry_role": "design_proposal",
        "source_id": "DATA-SRC-PROVISIONAL-BOUNDARIES-20260605",
        "derived_from_source_ids": [
          "DATA-SRC-OFFICIAL-ANNOUNCEMENT-20260509"
        ],
        "usage_note": "AI agent 生成的概念设计建议，非审批依据；边界为临时粗略约束。",
        "land_use_code": "0804",
        "name_zh": "学院路教育科研配套街坊",
        "design_intent_zh": "服务沿线高校的科教配套功能概念建议。",
        "zone_segment": "block_4425108",
        "area_sqm_declared": 405844.742
      },
      "geometry": {
        "type": "Polygon",
        "coordinates": [
          [
            [
              116.3552726,
              39.9653431
            ],
            [
              116.3553,
              39.965
            ],
            [
              116.3553,
              39.9583905
            ],
            [
              116.3491799,
              39.9583563
            ],
            [
              116.3491139,
              39.9653087
            ],
            [
              116.3552726,
              39.9653431
            ]
          ]
        ]
      }
    },
    {
      "type": "Feature",
      "id": "LU-011",
      "properties": {
        "id": "LU-011",
        "layer": "LAND_USE",
        "source_type": "agent_generated_design",
        "confidence": "medium",
        "geometry_role": "design_proposal",
        "source_id": "DATA-SRC-PROVISIONAL-BOUNDARIES-20260605",
        "derived_from_source_ids": [
          "DATA-SRC-OFFICIAL-ANNOUNCEMENT-20260509"
        ],
        "usage_note": "AI agent 生成的概念设计建议，非审批依据；边界为临时粗略约束。",
        "land_use_code": "0701",
        "name_zh": "双榆树东居住保留街坊",
        "design_intent_zh": "现状居住功能保留与渐进更新的概念建议。",
        "zone_segment": "block_4425908",
        "area_sqm_declared": 531277.319
      },
      "geometry": {
        "type": "Polygon",
        "coordinates": [
          [
            [
              116.3544806,
              39.9752455
            ],
            [
              116.3552524,
              39.9655952
            ],
            [
              116.3491115,
              39.9655609
            ],
            [
              116.34902,
              39.9752149
            ],
            [
              116.3544806,
              39.9752455
            ]
          ]
        ]
      }
    },
    {
      "type": "Feature",
      "id": "LU-012",
      "properties": {
        "id": "LU-012",
        "layer": "LAND_USE",
        "source_type": "agent_generated_design",
        "confidence": "medium",
        "geometry_role": "design_proposal",
        "source_id": "DATA-SRC-PROVISIONAL-BOUNDARIES-20260605",
        "derived_from_source_ids": [
          "DATA-SRC-OFFICIAL-ANNOUNCEMENT-20260509"
        ],
        "usage_note": "AI agent 生成的概念设计建议，非审批依据；边界为临时粗略约束。",
        "land_use_code": "0804",
        "name_zh": "学院路高校联动街坊",
        "design_intent_zh": "高校成果转化与校企联合实验室配套概念建议。",
        "zone_segment": "block_4425908",
        "area_sqm_declared": 620787.367
      },
      "geometry": {
        "type": "Polygon",
        "coordinates": [
          [
            [
              116.3399638,
              39.9655091
            ],
            [
              116.3397,
              39.975
            ],
            [
              116.3397105,
              39.9751623
            ],
            [
              116.3465618,
              39.9752011
            ],
            [
              116.3466538,
              39.965547
            ],
            [
              116.3399638,
              39.9655091
            ]
          ]
        ]
      }
    },
    {
      "type": "Feature",
      "id": "LU-013",
      "properties": {
        "id": "LU-013",
        "layer": "LAND_USE",
        "source_type": "agent_generated_design",
        "confidence": "medium",
        "geometry_role": "design_proposal",
        "source_id": "DATA-SRC-PROVISIONAL-BOUNDARIES-20260605",
        "derived_from_source_ids": [
          "DATA-SRC-OFFICIAL-ANNOUNCEMENT-20260509"
        ],
        "usage_note": "AI agent 生成的概念设计建议，非审批依据；边界为临时粗略约束。",
        "land_use_code": "05",
        "name_zh": "五道口创新商业街坊",
        "design_intent_zh": "服务青年创新人群的五道口商业服务概念建议。",
        "zone_segment": "block_4427008",
        "area_sqm_declared": 467264.567
      },
      "geometry": {
        "type": "Polygon",
        "coordinates": [
          [
            [
              116.3536883,
              39.9851478
            ],
            [
              116.3544604,
              39.9754975
            ],
            [
              116.3490176,
              39.9754671
            ],
            [
              116.348926,
              39.9851211
            ],
            [
              116.3536883,
              39.9851478
            ]
          ]
        ]
      }
    },
    {
      "type": "Feature",
      "id": "LU-014",
      "properties": {
        "id": "LU-014",
        "layer": "LAND_USE",
        "source_type": "agent_generated_design",
        "confidence": "medium",
        "geometry_role": "design_proposal",
        "source_id": "DATA-SRC-PROVISIONAL-BOUNDARIES-20260605",
        "derived_from_source_ids": [
          "DATA-SRC-OFFICIAL-ANNOUNCEMENT-20260509"
        ],
        "usage_note": "AI agent 生成的概念设计建议，非审批依据；边界为临时粗略约束。",
        "land_use_code": "0802",
        "name_zh": "AI原点南研发街坊",
        "design_intent_zh": "北京AI原点社区南侧的研发与孵化街坊概念建议。",
        "zone_segment": "block_4427008",
        "area_sqm_declared": 592968.653
      },
      "geometry": {
        "type": "Polygon",
        "coordinates": [
          [
            [
              116.3397267,
              39.9754145
            ],
            [
              116.3403497,
              39.9850726
            ],
            [
              116.3464675,
              39.9851073
            ],
            [
              116.3465594,
              39.9754533
            ],
            [
              116.3397267,
              39.9754145
            ]
          ]
        ]
      }
    },
    {
      "type": "Feature",
      "id": "LU-015",
      "properties": {
        "id": "LU-015",
        "layer": "LAND_USE",
        "source_type": "agent_generated_design",
        "confidence": "medium",
        "geometry_role": "design_proposal",
        "source_id": "DATA-SRC-PROVISIONAL-BOUNDARIES-20260605",
        "derived_from_source_ids": [
          "DATA-SRC-OFFICIAL-ANNOUNCEMENT-20260509"
        ],
        "usage_note": "AI agent 生成的概念设计建议，非审批依据；边界为临时粗略约束。",
        "land_use_code": "05",
        "name_zh": "AI原点混合活力街坊",
        "design_intent_zh": "AI原点社区核心的混合功能与活力界面概念建议。",
        "zone_segment": "block_4428108",
        "area_sqm_declared": 571408.096
      },
      "geometry": {
        "type": "Polygon",
        "coordinates": [
          [
            [
              116.3404892,
              39.9872349
            ],
            [
              116.3406286,
              39.9893972
            ],
            [
              116.3410472,
              39.9958839
            ],
            [
              116.3463645,
              39.9959141
            ],
            [
              116.3464263,
              39.98943
            ],
            [
              116.3464469,
              39.9872687
            ],
            [
              116.3464651,
              39.9853595
            ],
            [
              116.3403659,
              39.9853249
            ],
            [
              116.3404892,
              39.9872349
            ]
          ]
        ]
      }
    },
    {
      "type": "Feature",
      "id": "LU-016",
      "properties": {
        "id": "LU-016",
        "layer": "LAND_USE",
        "source_type": "agent_generated_design",
        "confidence": "medium",
        "geometry_role": "design_proposal",
        "source_id": "DATA-SRC-PROVISIONAL-BOUNDARIES-20260605",
        "derived_from_source_ids": [
          "DATA-SRC-OFFICIAL-ANNOUNCEMENT-20260509"
        ],
        "usage_note": "AI agent 生成的概念设计建议，非审批依据；边界为临时粗略约束。",
        "land_use_code": "0802",
        "name_zh": "AI原点核心研发街坊",
        "design_intent_zh": "AI原点社区核心的研发与总部功能概念建议。",
        "zone_segment": "block_4428108",
        "area_sqm_declared": 460346.897
      },
      "geometry": {
        "type": "Polygon",
        "coordinates": [
          [
            [
              116.3536681,
              39.9853999
            ],
            [
              116.3489236,
              39.9853733
            ],
            [
              116.3489054,
              39.9872825
            ],
            [
              116.3488849,
              39.9894438
            ],
            [
              116.3488233,
              39.9959279
            ],
            [
              116.3536262,
              39.9959548
            ],
            [
              116.3533,
              39.99
            ],
            [
              116.3533425,
              39.9894688
            ],
            [
              116.3535154,
              39.9873083
            ],
            [
              116.3536681,
              39.9853999
            ]
          ]
        ]
      }
    },
    {
      "type": "Feature",
      "id": "LU-017",
      "properties": {
        "id": "LU-017",
        "layer": "LAND_USE",
        "source_type": "agent_generated_design",
        "confidence": "medium",
        "geometry_role": "design_proposal",
        "source_id": "DATA-SRC-PROVISIONAL-BOUNDARIES-20260605",
        "derived_from_source_ids": [
          "DATA-SRC-OFFICIAL-ANNOUNCEMENT-20260509"
        ],
        "usage_note": "AI agent 生成的概念设计建议，非审批依据；边界为临时粗略约束。",
        "land_use_code": "0702",
        "name_zh": "清华东路社区服务街坊",
        "design_intent_zh": "服务创新社区的公共服务配套概念建议。",
        "zone_segment": "block_4429308",
        "area_sqm_declared": 372919.909
      },
      "geometry": {
        "type": "Polygon",
        "coordinates": [
          [
            [
              116.3410634,
              39.9961362
            ],
            [
              116.3415704,
              40.0039924
            ],
            [
              116.3462872,
              40.0040191
            ],
            [
              116.3463621,
              39.9961662
            ],
            [
              116.3410634,
              39.9961362
            ]
          ]
        ]
      }
    },
    {
      "type": "Feature",
      "id": "LU-018",
      "properties": {
        "id": "LU-018",
        "layer": "LAND_USE",
        "source_type": "agent_generated_design",
        "confidence": "medium",
        "geometry_role": "design_proposal",
        "source_id": "DATA-SRC-PROVISIONAL-BOUNDARIES-20260605",
        "derived_from_source_ids": [
          "DATA-SRC-OFFICIAL-ANNOUNCEMENT-20260509"
        ],
        "usage_note": "AI agent 生成的概念设计建议，非审批依据；边界为临时粗略约束。",
        "land_use_code": "0803",
        "name_zh": "京张工业文化街坊",
        "design_intent_zh": "京张工业遗产活化利用的文化展示街坊概念建议。",
        "zone_segment": "block_4429308",
        "area_sqm_declared": 377667.413
      },
      "geometry": {
        "type": "Polygon",
        "coordinates": [
          [
            [
              116.3540703,
              40.0040627
            ],
            [
              116.35364,
              39.996207
            ],
            [
              116.3488209,
              39.9961801
            ],
            [
              116.3487463,
              40.004033
            ],
            [
              116.3540703,
              40.0040627
            ]
          ]
        ]
      }
    },
    {
      "type": "Feature",
      "id": "LU-019",
      "properties": {
        "id": "LU-019",
        "layer": "LAND_USE",
        "source_type": "agent_generated_design",
        "confidence": "medium",
        "geometry_role": "design_proposal",
        "source_id": "DATA-SRC-PROVISIONAL-BOUNDARIES-20260605",
        "derived_from_source_ids": [
          "DATA-SRC-OFFICIAL-ANNOUNCEMENT-20260509"
        ],
        "usage_note": "AI agent 生成的概念设计建议，非审批依据；边界为临时粗略约束。",
        "land_use_code": "0802",
        "name_zh": "众智园东南研发街坊",
        "design_intent_zh": "众智园AI自主创新加速区东南研发街坊概念建议。",
        "zone_segment": "block_4430208",
        "area_sqm_declared": 466588.185
      },
      "geometry": {
        "type": "Polygon",
        "coordinates": [
          [
            [
              116.354564,
              40.0130716
            ],
            [
              116.3540842,
              40.004315
            ],
            [
              116.348744,
              40.0042851
            ],
            [
              116.3486608,
              40.0130386
            ],
            [
              116.354564,
              40.0130716
            ]
          ]
        ]
      }
    },
    {
      "type": "Feature",
      "id": "LU-020",
      "properties": {
        "id": "LU-020",
        "layer": "LAND_USE",
        "source_type": "agent_generated_design",
        "confidence": "medium",
        "geometry_role": "design_proposal",
        "source_id": "DATA-SRC-PROVISIONAL-BOUNDARIES-20260605",
        "derived_from_source_ids": [
          "DATA-SRC-OFFICIAL-ANNOUNCEMENT-20260509"
        ],
        "usage_note": "AI agent 生成的概念设计建议，非审批依据；边界为临时粗略约束。",
        "land_use_code": "0802",
        "name_zh": "众智园南研发街坊",
        "design_intent_zh": "众智园AI自主创新加速区南侧研发街坊概念建议。",
        "zone_segment": "block_4430208",
        "area_sqm_declared": 366674.827
      },
      "geometry": {
        "type": "Polygon",
        "coordinates": [
          [
            [
              116.3415867,
              40.0042447
            ],
            [
              116.3417,
              40.006
            ],
            [
              116.3420415,
              40.0130012
            ],
            [
              116.3462013,
              40.0130247
            ],
            [
              116.3462848,
              40.0042713
            ],
            [
              116.3415867,
              40.0042447
            ]
          ]
        ]
      }
    },
    {
      "type": "Feature",
      "id": "LU-021",
      "properties": {
        "id": "LU-021",
        "layer": "LAND_USE",
        "source_type": "agent_generated_design",
        "confidence": "medium",
        "geometry_role": "design_proposal",
        "source_id": "DATA-SRC-PROVISIONAL-BOUNDARIES-20260605",
        "derived_from_source_ids": [
          "DATA-SRC-OFFICIAL-ANNOUNCEMENT-20260509"
        ],
        "usage_note": "AI agent 生成的概念设计建议，非审批依据；边界为临时粗略约束。",
        "land_use_code": "0802",
        "name_zh": "众智园核心研发街坊",
        "design_intent_zh": "众智园核心区的AI自主创新研发功能概念建议。",
        "zone_segment": "block_4431208",
        "area_sqm_declared": 291545.696
      },
      "geometry": {
        "type": "Polygon",
        "coordinates": [
          [
            [
              116.3421733,
              40.0157037
            ],
            [
              116.34227,
              40.0176856
            ],
            [
              116.342437,
              40.0211089
            ],
            [
              116.3461239,
              40.0211297
            ],
            [
              116.3461566,
              40.0177076
            ],
            [
              116.3461755,
              40.0157264
            ],
            [
              116.3461989,
              40.0132769
            ],
            [
              116.3420538,
              40.0132534
            ],
            [
              116.3421733,
              40.0157037
            ]
          ]
        ]
      }
    },
    {
      "type": "Feature",
      "id": "LU-022",
      "properties": {
        "id": "LU-022",
        "layer": "LAND_USE",
        "source_type": "agent_generated_design",
        "confidence": "medium",
        "geometry_role": "design_proposal",
        "source_id": "DATA-SRC-PROVISIONAL-BOUNDARIES-20260605",
        "derived_from_source_ids": [
          "DATA-SRC-OFFICIAL-ANNOUNCEMENT-20260509"
        ],
        "usage_note": "AI agent 生成的概念设计建议，非审批依据；边界为临时粗略约束。",
        "land_use_code": "16",
        "name_zh": "众智园战略留白街坊",
        "design_intent_zh": "面向未来产业不确定性的战略留白用地概念建议。",
        "zone_segment": "block_4431208",
        "area_sqm_declared": 459504.577
      },
      "geometry": {
        "type": "Polygon",
        "coordinates": [
          [
            [
              116.3545778,
              40.0133238
            ],
            [
              116.3486584,
              40.0132907
            ],
            [
              116.3486351,
              40.0157402
            ],
            [
              116.3486162,
              40.0177215
            ],
            [
              116.3485837,
              40.0211436
            ],
            [
              116.3550083,
              40.0211795
            ],
            [
              116.3548207,
              40.0177562
            ],
            [
              116.3547121,
              40.0157742
            ],
            [
              116.3545778,
              40.0133238
            ]
          ]
        ]
      }
    },
    {
      "type": "Feature",
      "id": "LU-023",
      "properties": {
        "id": "LU-023",
        "layer": "LAND_USE",
        "source_type": "agent_generated_design",
        "confidence": "medium",
        "geometry_role": "design_proposal",
        "source_id": "DATA-SRC-PROVISIONAL-BOUNDARIES-20260605",
        "derived_from_source_ids": [
          "DATA-SRC-OFFICIAL-ANNOUNCEMENT-20260509"
        ],
        "usage_note": "AI agent 生成的概念设计建议，非审批依据；边界为临时粗略约束。",
        "land_use_code": "1402",
        "name_zh": "北五环防护绿地",
        "design_intent_zh": "邻近北五环的防护绿地概念建议。",
        "zone_segment": "block_4432108",
        "area_sqm_declared": 318391.2
      },
      "geometry": {
        "type": "Polygon",
        "coordinates": [
          [
            [
              116.3485327,
              40.0265002
            ],
            [
              116.3553,
              40.0265
            ],
            [
              116.3550222,
              40.0214318
            ],
            [
              116.3485813,
              40.0213957
            ],
            [
              116.3485327,
              40.0265002
            ]
          ]
        ]
      }
    },
    {
      "type": "Feature",
      "id": "LU-024",
      "properties": {
        "id": "LU-024",
        "layer": "LAND_USE",
        "source_type": "agent_generated_design",
        "confidence": "medium",
        "geometry_role": "design_proposal",
        "source_id": "DATA-SRC-PROVISIONAL-BOUNDARIES-20260605",
        "derived_from_source_ids": [
          "DATA-SRC-OFFICIAL-ANNOUNCEMENT-20260509"
        ],
        "usage_note": "AI agent 生成的概念设计建议，非审批依据；边界为临时粗略约束。",
        "land_use_code": "16",
        "name_zh": "北端战略留白街坊",
        "design_intent_zh": "走廊北端面向远期的战略留白概念建议。",
        "zone_segment": "block_4432108",
        "area_sqm_declared": 171228.907
      },
      "geometry": {
        "type": "Polygon",
        "coordinates": [
          [
            [
              116.3424493,
              40.0213611
            ],
            [
              116.3427,
              40.0265
            ],
            [
              116.3460726,
              40.0265001
            ],
            [
              116.3461215,
              40.0213819
            ],
            [
              116.3424493,
              40.0213611
            ]
          ]
        ]
      }
    },
    {
      "type": "Feature",
      "id": "LU-025",
      "properties": {
        "id": "LU-025",
        "layer": "LAND_USE",
        "source_type": "agent_generated_design",
        "confidence": "medium",
        "geometry_role": "design_proposal",
        "source_id": "DATA-SRC-PROVISIONAL-BOUNDARIES-20260605",
        "derived_from_source_ids": [
          "DATA-SRC-OFFICIAL-ANNOUNCEMENT-20260509"
        ],
        "usage_note": "AI agent 生成的概念设计建议，非审批依据；边界为临时粗略约束。",
        "land_use_code": "1207",
        "name_zh": "横向街坊路",
        "design_intent_zh": "连通脊柱与两侧街坊的东西向街坊路，建议慢行优先。",
        "zone_segment": "cross_street",
        "area_sqm_declared": 301225.615
      },
      "geometry": {
        "type": "MultiPolygon",
        "coordinates": [
          [
            [
              [
                116.340671,
                39.9400437
              ],
              [
                116.340664,
                39.9402959
              ],
              [
                116.3468936,
                39.9403311
              ],
              [
                116.346896,
                39.940079
              ],
              [
                116.340671,
                39.9400437
              ]
            ]
          ],
          [
            [
              [
                116.340551,
                39.944366
              ],
              [
                116.340544,
                39.9446181
              ],
              [
                116.3468525,
                39.9446538
              ],
              [
                116.3468549,
                39.9444017
              ],
              [
                116.340551,
                39.944366
              ]
            ]
          ],
          [
            [
              [
                116.340391,
                39.950129
              ],
              [
                116.340384,
                39.9503812
              ],
              [
                116.3467977,
                39.9504175
              ],
              [
                116.3468001,
                39.9501653
              ],
              [
                116.340391,
                39.950129
              ]
            ]
          ],
          [
            [
              [
                116.3401639,
                39.9583053
              ],
              [
                116.3467223,
                39.9583425
              ],
              [
                116.3467247,
                39.9580903
              ],
              [
                116.3401709,
                39.9580532
              ],
              [
                116.3401639,
                39.9583053
              ]
            ]
          ],
          [
            [
              [
                116.3399638,
                39.9655091
              ],
              [
                116.3466538,
                39.965547
              ],
              [
                116.3466562,
                39.9652949
              ],
              [
                116.3399708,
                39.965257
              ],
              [
                116.3399638,
                39.9655091
              ]
            ]
          ],
          [
            [
              [
                116.3397105,
                39.9751623
              ],
              [
                116.3397267,
                39.9754145
              ],
              [
                116.3465594,
                39.9754533
              ],
              [
                116.3465618,
                39.9752011
              ],
              [
                116.3397105,
                39.9751623
              ]
            ]
          ],
          [
            [
              [
                116.3403659,
                39.9853249
              ],
              [
                116.3464651,
                39.9853595
              ],
              [
                116.3464675,
                39.9851073
              ],
              [
                116.3403497,
                39.9850726
              ],
              [
                116.3403659,
                39.9853249
              ]
            ]
          ],
          [
            [
              [
                116.3410634,
                39.9961362
              ],
              [
                116.3463621,
                39.9961662
              ],
              [
                116.3463645,
                39.9959141
              ],
              [
                116.3410472,
                39.9958839
              ],
              [
                116.3410634,
                39.9961362
              ]
            ]
          ],
          [
            [
              [
                116.3415704,
                40.0039924
              ],
              [
                116.3415867,
                40.0042447
              ],
              [
                116.3462848,
                40.0042713
              ],
              [
                116.3462872,
                40.0040191
              ],
              [
                116.3415704,
                40.0039924
              ]
            ]
          ],
          [
            [
              [
                116.3420538,
                40.0132534
              ],
              [
                116.3461989,
                40.0132769
              ],
              [
                116.3462013,
                40.0130247
              ],
              [
                116.3420415,
                40.0130012
              ],
              [
                116.3420538,
                40.0132534
              ]
            ]
          ],
          [
            [
              [
                116.3424493,
                40.0213611
              ],
              [
                116.3461215,
                40.0213819
              ],
              [
                116.3461239,
                40.0211297
              ],
              [
                116.342437,
                40.0211089
              ],
              [
                116.3424493,
                40.0213611
              ]
            ]
          ],
          [
            [
              [
                116.3553,
                39.9403782
              ],
              [
                116.3553,
                39.940126
              ],
              [
                116.3493529,
                39.9400928
              ],
              [
                116.3493505,
                39.9403449
              ],
              [
                116.3553,
                39.9403782
              ]
            ]
          ],
          [
            [
              [
                116.3553,
                39.9447011
              ],
              [
                116.3553,
                39.944449
              ],
              [
                116.349312,
                39.9444155
              ],
              [
                116.3493096,
                39.9446677
              ],
              [
                116.3553,
                39.9447011
              ]
            ]
          ],
          [
            [
              [
                116.3553,
                39.9504651
              ],
              [
                116.3553,
                39.9502129
              ],
              [
                116.3492574,
                39.9501792
              ],
              [
                116.349255,
                39.9504313
              ],
              [
                116.3553,
                39.9504651
              ]
            ]
          ],
          [
            [
              [
                116.3553,
                39.9581383
              ],
              [
                116.3491823,
                39.9581042
              ],
              [
                116.3491799,
                39.9583563
              ],
              [
                116.3553,
                39.9583905
              ],
              [
                116.3553,
                39.9581383
              ]
            ]
          ],
          [
            [
              [
                116.3552726,
                39.9653431
              ],
              [
                116.3491139,
                39.9653087
              ],
              [
                116.3491115,
                39.9655609
              ],
              [
                116.3552524,
                39.9655952
              ],
              [
                116.3552726,
                39.9653431
              ]
            ]
          ],
          [
            [
              [
                116.3544604,
                39.9754975
              ],
              [
                116.3544806,
                39.9752455
              ],
              [
                116.34902,
                39.9752149
              ],
              [
                116.3490176,
                39.9754671
              ],
              [
                116.3544604,
                39.9754975
              ]
            ]
          ],
          [
            [
              [
                116.3536883,
                39.9851478
              ],
              [
                116.348926,
                39.9851211
              ],
              [
                116.3489236,
                39.9853733
              ],
              [
                116.3536681,
                39.9853999
              ],
              [
                116.3536883,
                39.9851478
              ]
            ]
          ],
          [
            [
              [
                116.3536262,
                39.9959548
              ],
              [
                116.3488233,
                39.9959279
              ],
              [
                116.3488209,
                39.9961801
              ],
              [
                116.35364,
                39.996207
              ],
              [
                116.3536262,
                39.9959548
              ]
            ]
          ],
          [
            [
              [
                116.3540842,
                40.004315
              ],
              [
                116.3540703,
                40.0040627
              ],
              [
                116.3487463,
                40.004033
              ],
              [
                116.348744,
                40.0042851
              ],
              [
                116.3540842,
                40.004315
              ]
            ]
          ],
          [
            [
              [
                116.354564,
                40.0130716
              ],
              [
                116.3486608,
                40.0130386
              ],
              [
                116.3486584,
                40.0132907
              ],
              [
                116.3545778,
                40.0133238
              ],
              [
                116.354564,
                40.0130716
              ]
            ]
          ],
          [
            [
              [
                116.3550083,
                40.0211795
              ],
              [
                116.3485837,
                40.0211436
              ],
              [
                116.3485813,
                40.0213957
              ],
              [
                116.3550222,
                40.0214318
              ],
              [
                116.3550083,
                40.0211795
              ]
            ]
          ]
        ]
      }
    },
    {
      "type": "Feature",
      "id": "LU-026",
      "properties": {
        "id": "LU-026",
        "layer": "LAND_USE",
        "source_type": "agent_generated_design",
        "confidence": "medium",
        "geometry_role": "design_proposal",
        "source_id": "DATA-SRC-PROVISIONAL-BOUNDARIES-20260605",
        "derived_from_source_ids": [
          "DATA-SRC-OFFICIAL-ANNOUNCEMENT-20260509"
        ],
        "usage_note": "AI agent 生成的概念设计建议，非审批依据；边界为临时粗略约束。",
        "land_use_code": "1401",
        "name_zh": "智源脊遗址公园绿地",
        "design_intent_zh": "沿用百年京张铁路廊道的连续线性公园，串联三大重点片区的概念建议。",
        "zone_segment": "spine_park",
        "area_sqm_declared": 1452179.326
      },
      "geometry": {
        "type": "MultiPolygon",
        "coordinates": [
          [
            [
              [
                116.3471474,
                39.9444033
              ],
              [
                116.347145,
                39.9446555
              ],
              [
                116.3471423,
                39.9449437
              ],
              [
                116.3490143,
                39.9449542
              ],
              [
                116.3490171,
                39.944666
              ],
              [
                116.3490195,
                39.9444139
              ],
              [
                116.349058,
                39.9403433
              ],
              [
                116.3490604,
                39.9400911
              ],
              [
                116.3490708,
                39.9390002
              ],
              [
                116.3471988,
                39.9390002
              ],
              [
                116.3471885,
                39.9400806
              ],
              [
                116.3471861,
                39.9403328
              ],
              [
                116.3471474,
                39.9444033
              ]
            ]
          ],
          [
            [
              [
                116.3470926,
                39.950167
              ],
              [
                116.3470903,
                39.9504191
              ],
              [
                116.3470173,
                39.958092
              ],
              [
                116.3470149,
                39.9583441
              ],
              [
                116.3469487,
                39.9652965
              ],
              [
                116.3469463,
                39.9655487
              ],
              [
                116.3468545,
                39.9752027
              ],
              [
                116.3468521,
                39.9754549
              ],
              [
                116.3467601,
                39.985109
              ],
              [
                116.3467577,
                39.9853611
              ],
              [
                116.3467396,
                39.9872703
              ],
              [
                116.3486128,
                39.9872808
              ],
              [
                116.3486309,
                39.9853717
              ],
              [
                116.3486333,
                39.9851195
              ],
              [
                116.3487249,
                39.9754654
              ],
              [
                116.3487273,
                39.9752133
              ],
              [
                116.348819,
                39.9655592
              ],
              [
                116.3488213,
                39.9653071
              ],
              [
                116.3488873,
                39.9583547
              ],
              [
                116.3488897,
                39.9581025
              ],
              [
                116.3489624,
                39.9504297
              ],
              [
                116.3489648,
                39.9501775
              ],
              [
                116.348999,
                39.9465752
              ],
              [
                116.3471269,
                39.9465647
              ],
              [
                116.3470926,
                39.950167
              ]
            ]
          ],
          [
            [
              [
                116.3482399,
                40.0265002
              ],
              [
                116.3482885,
                40.0213941
              ],
              [
                116.3482909,
                40.0211419
              ],
              [
                116.3483234,
                40.0177198
              ],
              [
                116.3464494,
                40.0177093
              ],
              [
                116.3464167,
                40.0211314
              ],
              [
                116.3464143,
                40.0213835
              ],
              [
                116.3463655,
                40.0265001
              ],
              [
                116.3482399,
                40.0265002
              ]
            ]
          ],
          [
            [
              [
                116.3485922,
                39.9894422
              ],
              [
                116.346719,
                39.9894317
              ],
              [
                116.3466572,
                39.9959157
              ],
              [
                116.3466548,
                39.9961679
              ],
              [
                116.3465799,
                40.0040208
              ],
              [
                116.3465775,
                40.0042729
              ],
              [
                116.3464941,
                40.0130264
              ],
              [
                116.3464916,
                40.0132785
              ],
              [
                116.3464683,
                40.015728
              ],
              [
                116.3483423,
                40.0157386
              ],
              [
                116.3483656,
                40.0132891
              ],
              [
                116.348368,
                40.0130369
              ],
              [
                116.3484512,
                40.0042835
              ],
              [
                116.3484536,
                40.0040313
              ],
              [
                116.3485282,
                39.9961784
              ],
              [
                116.3485306,
                39.9959263
              ],
              [
                116.3485922,
                39.9894422
              ]
            ]
          ]
        ]
      }
    },
    {
      "type": "Feature",
      "id": "LU-027",
      "properties": {
        "id": "LU-027",
        "layer": "LAND_USE",
        "source_type": "agent_generated_design",
        "confidence": "medium",
        "geometry_role": "design_proposal",
        "source_id": "DATA-SRC-PROVISIONAL-BOUNDARIES-20260605",
        "derived_from_source_ids": [
          "DATA-SRC-OFFICIAL-ANNOUNCEMENT-20260509"
        ],
        "usage_note": "AI agent 生成的概念设计建议，非审批依据；边界为临时粗略约束。",
        "land_use_code": "1207",
        "name_zh": "智源脊两侧慢行辅路",
        "design_intent_zh": "服务沿线地块的慢行优先辅路，建议限速稳静化。",
        "zone_segment": "spine_road",
        "area_sqm_declared": 485798.243
      },
      "geometry": {
        "type": "MultiPolygon",
        "coordinates": [
          [
            [
              [
                116.3468525,
                39.9446538
              ],
              [
                116.3468498,
                39.944942
              ],
              [
                116.3468344,
                39.9465631
              ],
              [
                116.3468001,
                39.9501653
              ],
              [
                116.3467977,
                39.9504175
              ],
              [
                116.3467247,
                39.9580903
              ],
              [
                116.3467223,
                39.9583425
              ],
              [
                116.3466562,
                39.9652949
              ],
              [
                116.3466538,
                39.965547
              ],
              [
                116.3465618,
                39.9752011
              ],
              [
                116.3465594,
                39.9754533
              ],
              [
                116.3464675,
                39.9851073
              ],
              [
                116.3464651,
                39.9853595
              ],
              [
                116.3464469,
                39.9872687
              ],
              [
                116.3464263,
                39.98943
              ],
              [
                116.3463645,
                39.9959141
              ],
              [
                116.3463621,
                39.9961662
              ],
              [
                116.3462872,
                40.0040191
              ],
              [
                116.3462848,
                40.0042713
              ],
              [
                116.3462013,
                40.0130247
              ],
              [
                116.3461989,
                40.0132769
              ],
              [
                116.3461755,
                40.0157264
              ],
              [
                116.3461566,
                40.0177076
              ],
              [
                116.3461239,
                40.0211297
              ],
              [
                116.3461215,
                40.0213819
              ],
              [
                116.3460726,
                40.0265001
              ],
              [
                116.3463655,
                40.0265001
              ],
              [
                116.3464143,
                40.0213835
              ],
              [
                116.3464167,
                40.0211314
              ],
              [
                116.3464494,
                40.0177093
              ],
              [
                116.3464683,
                40.015728
              ],
              [
                116.3464916,
                40.0132785
              ],
              [
                116.3464941,
                40.0130264
              ],
              [
                116.3465775,
                40.0042729
              ],
              [
                116.3465799,
                40.0040208
              ],
              [
                116.3466548,
                39.9961679
              ],
              [
                116.3466572,
                39.9959157
              ],
              [
                116.346719,
                39.9894317
              ],
              [
                116.3467396,
                39.9872703
              ],
              [
                116.3467577,
                39.9853611
              ],
              [
                116.3467601,
                39.985109
              ],
              [
                116.3468521,
                39.9754549
              ],
              [
                116.3468545,
                39.9752027
              ],
              [
                116.3469463,
                39.9655487
              ],
              [
                116.3469487,
                39.9652965
              ],
              [
                116.3470149,
                39.9583441
              ],
              [
                116.3470173,
                39.958092
              ],
              [
                116.3470903,
                39.9504191
              ],
              [
                116.3470926,
                39.950167
              ],
              [
                116.3471269,
                39.9465647
              ],
              [
                116.3471423,
                39.9449437
              ],
              [
                116.347145,
                39.9446555
              ],
              [
                116.3471474,
                39.9444033
              ],
              [
                116.3471861,
                39.9403328
              ],
              [
                116.3471885,
                39.9400806
              ],
              [
                116.3471988,
                39.9390002
              ],
              [
                116.3469063,
                39.9390002
              ],
              [
                116.346896,
                39.940079
              ],
              [
                116.3468936,
                39.9403311
              ],
              [
                116.3468549,
                39.9444017
              ],
              [
                116.3468525,
                39.9446538
              ]
            ]
          ],
          [
            [
              [
                116.3490604,
                39.9400911
              ],
              [
                116.349058,
                39.9403433
              ],
              [
                116.3490195,
                39.9444139
              ],
              [
                116.3490171,
                39.944666
              ],
              [
                116.3490143,
                39.9449542
              ],
              [
                116.348999,
                39.9465752
              ],
              [
                116.3489648,
                39.9501775
              ],
              [
                116.3489624,
                39.9504297
              ],
              [
                116.3488897,
                39.9581025
              ],
              [
                116.3488873,
                39.9583547
              ],
              [
                116.3488213,
                39.9653071
              ],
              [
                116.348819,
                39.9655592
              ],
              [
                116.3487273,
                39.9752133
              ],
              [
                116.3487249,
                39.9754654
              ],
              [
                116.3486333,
                39.9851195
              ],
              [
                116.3486309,
                39.9853717
              ],
              [
                116.3486128,
                39.9872808
              ],
              [
                116.3485922,
                39.9894422
              ],
              [
                116.3485306,
                39.9959263
              ],
              [
                116.3485282,
                39.9961784
              ],
              [
                116.3484536,
                40.0040313
              ],
              [
                116.3484512,
                40.0042835
              ],
              [
                116.348368,
                40.0130369
              ],
              [
                116.3483656,
                40.0132891
              ],
              [
                116.3483423,
                40.0157386
              ],
              [
                116.3483234,
                40.0177198
              ],
              [
                116.3482909,
                40.0211419
              ],
              [
                116.3482885,
                40.0213941
              ],
              [
                116.3482399,
                40.0265002
              ],
              [
                116.3485327,
                40.0265002
              ],
              [
                116.3485813,
                40.0213957
              ],
              [
                116.3485837,
                40.0211436
              ],
              [
                116.3486162,
                40.0177215
              ],
              [
                116.3486351,
                40.0157402
              ],
              [
                116.3486584,
                40.0132907
              ],
              [
                116.3486608,
                40.0130386
              ],
              [
                116.348744,
                40.0042851
              ],
              [
                116.3487463,
                40.004033
              ],
              [
                116.3488209,
                39.9961801
              ],
              [
                116.3488233,
                39.9959279
              ],
              [
                116.3488849,
                39.9894438
              ],
              [
                116.3489054,
                39.9872825
              ],
              [
                116.3489236,
                39.9853733
              ],
              [
                116.348926,
                39.9851211
              ],
              [
                116.3490176,
                39.9754671
              ],
              [
                116.34902,
                39.9752149
              ],
              [
                116.3491115,
                39.9655609
              ],
              [
                116.3491139,
                39.9653087
              ],
              [
                116.3491799,
                39.9583563
              ],
              [
                116.3491823,
                39.9581042
              ],
              [
                116.349255,
                39.9504313
              ],
              [
                116.3492574,
                39.9501792
              ],
              [
                116.3492915,
                39.9465769
              ],
              [
                116.3493069,
                39.9449558
              ],
              [
                116.3493096,
                39.9446677
              ],
              [
                116.349312,
                39.9444155
              ],
              [
                116.3493505,
                39.9403449
              ],
              [
                116.3493529,
                39.9400928
              ],
              [
                116.3493633,
                39.9390002
              ],
              [
                116.3490708,
                39.9390002
              ],
              [
                116.3490604,
                39.9400911
              ]
            ]
          ]
        ]
      }
    },
    {
      "type": "Feature",
      "id": "LU-028",
      "properties": {
        "id": "LU-028",
        "layer": "LAND_USE",
        "source_type": "agent_generated_design",
        "confidence": "medium",
        "geometry_role": "design_proposal",
        "source_id": "DATA-SRC-PROVISIONAL-BOUNDARIES-20260605",
        "derived_from_source_ids": [
          "DATA-SRC-OFFICIAL-ANNOUNCEMENT-20260509"
        ],
        "usage_note": "AI agent 生成的概念设计建议，非审批依据；边界为临时粗略约束。",
        "land_use_code": "1403",
        "name_zh": "大钟寺智源广场",
        "design_intent_zh": "位于京张旧线廊道上的节点广场，承载集散、展演与市集功能的概念建议。",
        "zone_segment": "spine_square",
        "area_sqm_declared": 28799.239
      },
      "geometry": {
        "type": "Polygon",
        "coordinates": [
          [
            [
              116.3471423,
              39.9449437
            ],
            [
              116.3471269,
              39.9465647
            ],
            [
              116.348999,
              39.9465752
            ],
            [
              116.3490143,
              39.9449542
            ],
            [
              116.3471423,
              39.9449437
            ]
          ]
        ]
      }
    },
    {
      "type": "Feature",
      "id": "LU-029",
      "properties": {
        "id": "LU-029",
        "layer": "LAND_USE",
        "source_type": "agent_generated_design",
        "confidence": "medium",
        "geometry_role": "design_proposal",
        "source_id": "DATA-SRC-PROVISIONAL-BOUNDARIES-20260605",
        "derived_from_source_ids": [
          "DATA-SRC-OFFICIAL-ANNOUNCEMENT-20260509"
        ],
        "usage_note": "AI agent 生成的概念设计建议，非审批依据；边界为临时粗略约束。",
        "land_use_code": "1403",
        "name_zh": "AI原点众创广场",
        "design_intent_zh": "位于京张旧线廊道上的节点广场，承载集散、展演与市集功能的概念建议。",
        "zone_segment": "spine_square",
        "area_sqm_declared": 38400.214
      },
      "geometry": {
        "type": "Polygon",
        "coordinates": [
          [
            [
              116.3467396,
              39.9872703
            ],
            [
              116.346719,
              39.9894317
            ],
            [
              116.3485922,
              39.9894422
            ],
            [
              116.3486128,
              39.9872808
            ],
            [
              116.3467396,
              39.9872703
            ]
          ]
        ]
      }
    },
    {
      "type": "Feature",
      "id": "LU-030",
      "properties": {
        "id": "LU-030",
        "layer": "LAND_USE",
        "source_type": "agent_generated_design",
        "confidence": "medium",
        "geometry_role": "design_proposal",
        "source_id": "DATA-SRC-PROVISIONAL-BOUNDARIES-20260605",
        "derived_from_source_ids": [
          "DATA-SRC-OFFICIAL-ANNOUNCEMENT-20260509"
        ],
        "usage_note": "AI agent 生成的概念设计建议，非审批依据；边界为临时粗略约束。",
        "land_use_code": "1403",
        "name_zh": "众智园开源广场",
        "design_intent_zh": "位于京张旧线廊道上的节点广场，承载集散、展演与市集功能的概念建议。",
        "zone_segment": "spine_square",
        "area_sqm_declared": 35200.249
      },
      "geometry": {
        "type": "Polygon",
        "coordinates": [
          [
            [
              116.3464683,
              40.015728
            ],
            [
              116.3464494,
              40.0177093
            ],
            [
              116.3483234,
              40.0177198
            ],
            [
              116.3483423,
              40.0157386
            ],
            [
              116.3464683,
              40.015728
            ]
          ]
        ]
      }
    }
  ]
}