{
 "type": "FeatureCollection",
 "generator": "ceceliacchen",
 "crs": {
  "type": "name",
  "properties": {
   "name": "EPSG:4326"
  }
 },
 "features": [
  {
   "type": "Feature",
   "properties": {
    "id": "road-001",
    "layer": "ROAD_CENTERLINE",
    "source_type": "agent_generated_design",
    "confidence": "medium",
    "geometry_role": "design_proposal",
    "road_class": "greenway",
    "name_zh": "京张遗址公园慢行与创新服务主轴"
   },
   "geometry": {
    "type": "LineString",
    "coordinates": [
     [
      116.340948,
      39.96525
     ],
     [
      116.341494,
      39.96678125
     ],
     [
      116.34204,
      39.968312499999996
     ],
     [
      116.342586,
      39.969843749999995
     ],
     [
      116.343132,
      39.971374999999995
     ],
     [
      116.343678,
      39.97290625
     ],
     [
      116.344224,
      39.9744375
     ],
     [
      116.34477,
      39.97596875
     ],
     [
      116.345316,
      39.9775
     ],
     [
      116.345862,
      39.97903125
     ],
     [
      116.346408,
      39.9805625
     ],
     [
      116.346954,
      39.98209375
     ],
     [
      116.3475,
      39.983625
     ],
     [
      116.348046,
      39.98515625
     ],
     [
      116.348592,
      39.9866875
     ],
     [
      116.349138,
      39.98821875
     ],
     [
      116.349684,
      39.98975
     ],
     [
      116.35023,
      39.99128125
     ],
     [
      116.350776,
      39.9928125
     ],
     [
      116.351322,
      39.99434375
     ],
     [
      116.351868,
      39.995875
     ],
     [
      116.352414,
      39.997406250000004
     ],
     [
      116.35296,
      39.998937500000004
     ],
     [
      116.353506,
      40.00046875
     ],
     [
      116.354052,
      40.002
     ]
    ]
   },
   "id": "road-001"
  },
  {
   "type": "Feature",
   "properties": {
    "id": "road-002",
    "layer": "ROAD_CENTERLINE",
    "source_type": "agent_generated_design",
    "confidence": "medium",
    "geometry_role": "design_proposal",
    "road_class": "greenway",
    "name_zh": "京张铁路遗产轨道廊道（预留）"
   },
   "geometry": {
    "type": "LineString",
    "coordinates": [
     [
      116.34125999999999,
      39.95825
     ],
     [
      116.34177999999999,
      39.96036458333333
     ],
     [
      116.3423,
      39.96247916666667
     ],
     [
      116.34281999999999,
      39.96459375
     ],
     [
      116.34334,
      39.96670833333333
     ],
     [
      116.34385999999999,
      39.96882291666667
     ],
     [
      116.34438,
      39.9709375
     ],
     [
      116.3449,
      39.973052083333336
     ],
     [
      116.34541999999999,
      39.97516666666667
     ],
     [
      116.34594,
      39.97728125
     ],
     [
      116.34646,
      39.979395833333335
     ],
     [
      116.34698,
      39.981510416666666
     ],
     [
      116.3475,
      39.983625
     ],
     [
      116.34801999999999,
      39.985739583333334
     ],
     [
      116.34854,
      39.987854166666665
     ],
     [
      116.34906,
      39.98996875
     ],
     [
      116.34958,
      39.99208333333333
     ],
     [
      116.3501,
      39.994197916666664
     ],
     [
      116.35061999999999,
      39.9963125
     ],
     [
      116.35114,
      39.99842708333333
     ],
     [
      116.35166,
      40.00054166666666
     ],
     [
      116.35218,
      40.00265625
     ],
     [
      116.3527,
      40.00477083333333
     ],
     [
      116.35322000000001,
      40.00688541666667
     ],
     [
      116.35374,
      40.009
     ]
    ]
   },
   "id": "road-002"
  },
  {
   "type": "Feature",
   "properties": {
    "id": "road-003",
    "layer": "ROAD_CENTERLINE",
    "source_type": "agent_generated_design",
    "confidence": "medium",
    "geometry_role": "design_proposal",
    "road_class": "secondary",
    "name_zh": "微循环次干道一"
   },
   "geometry": {
    "type": "LineString",
    "coordinates": [
     [
      116.34438,
      39.939
     ],
     [
      116.34438,
      39.94264583333333
     ],
     [
      116.34438,
      39.94629166666667
     ],
     [
      116.34438,
      39.9499375
     ],
     [
      116.34438,
      39.953583333333334
     ],
     [
      116.34438,
      39.957229166666664
     ],
     [
      116.34438,
      39.960875
     ],
     [
      116.34438,
      39.96452083333333
     ],
     [
      116.34438,
      39.96816666666667
     ],
     [
      116.34438,
      39.9718125
     ],
     [
      116.34438,
      39.975458333333336
     ],
     [
      116.34438,
      39.979104166666666
     ],
     [
      116.34438,
      39.982749999999996
     ],
     [
      116.34438,
      39.98639583333333
     ],
     [
      116.34438,
      39.99004166666666
     ],
     [
      116.34438,
      39.9936875
     ],
     [
      116.34438,
      39.99733333333333
     ],
     [
      116.34438,
      40.00097916666667
     ],
     [
      116.34438,
      40.004625
     ],
     [
      116.34438,
      40.008270833333334
     ],
     [
      116.34438,
      40.011916666666664
     ],
     [
      116.34438,
      40.0155625
     ],
     [
      116.34438,
      40.01920833333333
     ],
     [
      116.34438,
      40.02285416666667
     ],
     [
      116.34438,
      40.0265
     ]
    ]
   },
   "id": "road-003"
  },
  {
   "type": "Feature",
   "properties": {
    "id": "road-004",
    "layer": "ROAD_CENTERLINE",
    "source_type": "agent_generated_design",
    "confidence": "medium",
    "geometry_role": "design_proposal",
    "road_class": "secondary",
    "name_zh": "微循环次干道二"
   },
   "geometry": {
    "type": "LineString",
    "coordinates": [
     [
      116.349372,
      39.939
     ],
     [
      116.349372,
      39.94264583333333
     ],
     [
      116.349372,
      39.94629166666667
     ],
     [
      116.349372,
      39.9499375
     ],
     [
      116.349372,
      39.953583333333334
     ],
     [
      116.349372,
      39.957229166666664
     ],
     [
      116.349372,
      39.960875
     ],
     [
      116.349372,
      39.96452083333333
     ],
     [
      116.349372,
      39.96816666666667
     ],
     [
      116.349372,
      39.9718125
     ],
     [
      116.349372,
      39.975458333333336
     ],
     [
      116.349372,
      39.979104166666666
     ],
     [
      116.349372,
      39.982749999999996
     ],
     [
      116.349372,
      39.98639583333333
     ],
     [
      116.349372,
      39.99004166666666
     ],
     [
      116.349372,
      39.9936875
     ],
     [
      116.349372,
      39.99733333333333
     ],
     [
      116.349372,
      40.00097916666667
     ],
     [
      116.349372,
      40.004625
     ],
     [
      116.349372,
      40.008270833333334
     ],
     [
      116.349372,
      40.011916666666664
     ],
     [
      116.349372,
      40.0155625
     ],
     [
      116.349372,
      40.01920833333333
     ],
     [
      116.349372,
      40.02285416666667
     ],
     [
      116.349372,
      40.0265
     ]
    ]
   },
   "id": "road-004"
  },
  {
   "type": "Feature",
   "properties": {
    "id": "road-005",
    "layer": "ROAD_CENTERLINE",
    "source_type": "agent_generated_design",
    "confidence": "medium",
    "geometry_role": "design_proposal",
    "road_class": "transit_connection",
    "name_zh": "横向慢行联系带"
   },
   "geometry": {
    "type": "LineString",
    "coordinates": [
     [
      116.3397,
      39.987125
     ],
     [
      116.34035,
      39.987125
     ],
     [
      116.341,
      39.987125
     ],
     [
      116.34164999999999,
      39.987125
     ],
     [
      116.3423,
      39.987125
     ],
     [
      116.34295,
      39.987125
     ],
     [
      116.3436,
      39.987125
     ],
     [
      116.34424999999999,
      39.987125
     ],
     [
      116.3449,
      39.987125
     ],
     [
      116.34555,
      39.987125
     ],
     [
      116.3462,
      39.987125
     ],
     [
      116.34684999999999,
      39.987125
     ],
     [
      116.3475,
      39.987125
     ],
     [
      116.34815,
      39.987125
     ],
     [
      116.3488,
      39.987125
     ],
     [
      116.34944999999999,
      39.987125
     ],
     [
      116.3501,
      39.987125
     ],
     [
      116.35075,
      39.987125
     ],
     [
      116.3514,
      39.987125
     ],
     [
      116.35204999999999,
      39.987125
     ],
     [
      116.3527,
      39.987125
     ],
     [
      116.35335,
      39.987125
     ],
     [
      116.354,
      39.987125
     ],
     [
      116.35464999999999,
      39.987125
     ],
     [
      116.3553,
      39.987125
     ]
    ]
   },
   "id": "road-005"
  }
 ]
}