{
 "type": "FeatureCollection",
 "name": "phasing_design",
 "features": [
  {
   "type": "Feature",
   "id": "PHASE-001",
   "properties": {
    "id": "PHASE-001",
    "layer": "PHASE",
    "source_type": "agent_generated_design",
    "confidence": "medium",
    "geometry_role": "design_proposal",
    "area_sqm_declared": 3387552.0,
    "name_zh": "近期试点带（2026-2028）",
    "phase_label": "1"
   },
   "geometry": {
    "type": "Polygon",
    "coordinates": [
     [
      [
       116.3407,
       39.939
      ],
      [
       116.3407,
       39.96525
      ],
      [
       116.3543,
       39.96525
      ],
      [
       116.3543,
       39.939
      ],
      [
       116.3407,
       39.939
      ]
     ]
    ]
   }
  },
  {
   "type": "Feature",
   "id": "PHASE-002",
   "properties": {
    "id": "PHASE-002",
    "layer": "PHASE",
    "source_type": "agent_generated_design",
    "confidence": "medium",
    "geometry_role": "design_proposal",
    "area_sqm_declared": 3522308.3,
    "name_zh": "中期更新带（2028-2032）",
    "phase_label": "2"
   },
   "geometry": {
    "type": "Polygon",
    "coordinates": [
     [
      [
       116.3543,
       39.96525
      ],
      [
       116.3407,
       39.96525
      ],
      [
       116.3407,
       39.990500000000004
      ],
      [
       116.34087741935484,
       39.993249999999996
      ],
      [
       116.35347808219178,
       39.993249999999996
      ],
      [
       116.3533,
       39.99
      ],
      [
       116.3543,
       39.97750000000009
      ],
      [
       116.3543,
       39.96525
      ]
     ]
    ]
   }
  },
  {
   "type": "Feature",
   "id": "PHASE-003",
   "properties": {
    "id": "PHASE-003",
    "layer": "PHASE",
    "source_type": "agent_generated_design",
    "confidence": "medium",
    "geometry_role": "design_proposal",
    "area_sqm_declared": 3866196.1,
    "name_zh": "长期治理带（2032-2035）",
    "phase_label": "3"
   },
   "geometry": {
    "type": "Polygon",
    "coordinates": [
     [
      [
       116.34087741935484,
       39.993249999999996
      ],
      [
       116.3417,
       40.006
      ],
      [
       116.3427,
       40.0265
      ],
      [
       116.3543,
       40.0265
      ],
      [
       116.3543,
       40.00824999999987
      ],
      [
       116.35347808219178,
       39.993249999999996
      ],
      [
       116.34087741935484,
       39.993249999999996
      ]
     ]
    ]
   }
  }
 ]
}