{
  "type": "FeatureCollection",
  "name": "land_use_spine_partition",
  "features": [
    {
      "type": "Feature",
      "id": "LU-001",
      "properties": {
        "id": "LU-001",
        "layer": "LAND_USE",
        "source_type": "agent_generated_design",
        "confidence": "medium",
        "geometry_role": "design_proposal",
        "land_use_code": "0701",
        "name_zh": "南部门户居住生活区",
        "design_band": "B1",
        "design_column": "W",
        "area_sqm_declared": 298350.096
      },
      "geometry": {
        "type": "Polygon",
        "coordinates": [
          [
            [
              116.34070000000001,
              39.93899999999999
            ],
            [
              116.34056235767126,
              39.943957933413756
            ],
            [
              116.34692505359224,
              39.94399394970622
            ],
            [
              116.34697252846183,
              39.939000225274114
            ],
            [
              116.34070000000001,
              39.93899999999999
            ]
          ]
        ]
      }
    },
    {
      "type": "Feature",
      "id": "LU-002",
      "properties": {
        "id": "LU-002",
        "layer": "LAND_USE",
        "source_type": "agent_generated_design",
        "confidence": "medium",
        "geometry_role": "design_proposal",
        "land_use_code": "1401",
        "name_zh": "智脊南门户公园段",
        "design_band": "B1",
        "design_column": "S",
        "area_sqm_declared": 105488.168
      },
      "geometry": {
        "type": "Polygon",
        "coordinates": [
          [
            [
              116.34697252846183,
              39.939000225274114
            ],
            [
              116.34692505359224,
              39.94399394970622
            ],
            [
              116.3491480787196,
              39.9440064509084
            ],
            [
              116.34919551043843,
              39.93900022366307
            ],
            [
              116.34697252846183,
              39.939000225274114
            ]
          ]
        ]
      }
    },
    {
      "type": "Feature",
      "id": "LU-003",
      "properties": {
        "id": "LU-003",
        "layer": "LAND_USE",
        "source_type": "agent_generated_design",
        "confidence": "medium",
        "geometry_role": "design_proposal",
        "land_use_code": "05",
        "name_zh": "大钟寺南站商业服务区",
        "design_band": "B1",
        "design_column": "E",
        "area_sqm_declared": 292167.306
      },
      "geometry": {
        "type": "Polygon",
        "coordinates": [
          [
            [
              116.34919551043843,
              39.93900022366307
            ],
            [
              116.3491480787196,
              39.9440064509084
            ],
            [
              116.35530001033246,
              39.944040824135875
            ],
            [
              116.3553,
              39.939
            ],
            [
              116.34919551043843,
              39.93900022366307
            ]
          ]
        ]
      }
    },
    {
      "type": "Feature",
      "id": "LU-004",
      "properties": {
        "id": "LU-004",
        "layer": "LAND_USE",
        "source_type": "agent_generated_design",
        "confidence": "medium",
        "geometry_role": "design_proposal",
        "land_use_code": "0701",
        "name_zh": "大钟寺生活配套区",
        "design_band": "B2",
        "design_column": "W",
        "area_sqm_declared": 355572.104
      },
      "geometry": {
        "type": "Polygon",
        "coordinates": [
          [
            [
              116.34040022107465,
              39.94979700953723
            ],
            [
              116.34686952115834,
              39.9498336366464
            ],
            [
              116.34692505359224,
              39.94399394970622
            ],
            [
              116.34056235767126,
              39.943957933413756
            ],
            [
              116.34040022107465,
              39.94979700953723
            ]
          ]
        ]
      }
    },
    {
      "type": "Feature",
      "id": "LU-005",
      "properties": {
        "id": "LU-005",
        "layer": "LAND_USE",
        "source_type": "agent_generated_design",
        "confidence": "medium",
        "geometry_role": "design_proposal",
        "land_use_code": "1401",
        "name_zh": "智脊大钟寺公园段",
        "design_band": "B2",
        "design_column": "S",
        "area_sqm_declared": 123204.315
      },
      "geometry": {
        "type": "Polygon",
        "coordinates": [
          [
            [
              116.34692505359224,
              39.94399394970622
            ],
            [
              116.34686952115834,
              39.9498336366464
            ],
            [
              116.34909273528194,
              39.94984614042045
            ],
            [
              116.3491480787196,
              39.9440064509084
            ],
            [
              116.34692505359224,
              39.94399394970622
            ]
          ]
        ]
      }
    },
    {
      "type": "Feature",
      "id": "LU-006",
      "properties": {
        "id": "LU-006",
        "layer": "LAND_USE",
        "source_type": "agent_generated_design",
        "confidence": "medium",
        "geometry_role": "design_proposal",
        "land_use_code": "0802",
        "name_zh": "大钟寺AI产业研发区",
        "design_band": "B2",
        "design_column": "E",
        "area_sqm_declared": 342470.599
      },
      "geometry": {
        "type": "Polygon",
        "coordinates": [
          [
            [
              116.35530001033246,
              39.944040824135875
            ],
            [
              116.3491480787196,
              39.9440064509084
            ],
            [
              116.34909273528194,
              39.94984614042045
            ],
            [
              116.35530001608949,
              39.94988082562374
            ],
            [
              116.35530001033246,
              39.944040824135875
            ]
          ]
        ]
      }
    },
    {
      "type": "Feature",
      "id": "LU-007",
      "properties": {
        "id": "LU-007",
        "layer": "LAND_USE",
        "source_type": "agent_generated_design",
        "confidence": "medium",
        "geometry_role": "design_proposal",
        "land_use_code": "0803",
        "name_zh": "清华园车站文化展示区",
        "design_band": "B3",
        "design_column": "W",
        "area_sqm_declared": 381425.567
      },
      "geometry": {
        "type": "Polygon",
        "coordinates": [
          [
            [
              116.34022916283006,
              39.95595603450914
            ],
            [
              116.34681092823111,
              39.95599330628065
            ],
            [
              116.34686952115834,
              39.9498336366464
            ],
            [
              116.34040022107465,
              39.94979700953723
            ],
            [
              116.34022916283006,
              39.95595603450914
            ]
          ]
        ]
      }
    },
    {
      "type": "Feature",
      "id": "LU-008",
      "properties": {
        "id": "LU-008",
        "layer": "LAND_USE",
        "source_type": "agent_generated_design",
        "confidence": "medium",
        "geometry_role": "design_proposal",
        "land_use_code": "1401",
        "name_zh": "智脊车站记忆公园段",
        "design_band": "B3",
        "design_column": "S",
        "area_sqm_declared": 129955.369
      },
      "geometry": {
        "type": "Polygon",
        "coordinates": [
          [
            [
              116.34686952115834,
              39.9498336366464
            ],
            [
              116.34681092823111,
              39.95599330628065
            ],
            [
              116.3490343417669,
              39.95600581276796
            ],
            [
              116.34909273528194,
              39.94984614042045
            ],
            [
              116.34686952115834,
              39.9498336366464
            ]
          ]
        ]
      }
    },
    {
      "type": "Feature",
      "id": "LU-009",
      "properties": {
        "id": "LU-009",
        "layer": "LAND_USE",
        "source_type": "agent_generated_design",
        "confidence": "medium",
        "geometry_role": "design_proposal",
        "land_use_code": "0702",
        "name_zh": "知春路社区服务区",
        "design_band": "B3",
        "design_column": "E",
        "area_sqm_declared": 364529.078
      },
      "geometry": {
        "type": "Polygon",
        "coordinates": [
          [
            [
              116.35530001608949,
              39.94988082562374
            ],
            [
              116.34909273528194,
              39.94984614042045
            ],
            [
              116.3490343417669,
              39.95600581276796
            ],
            [
              116.35530001493265,
              39.95604082715108
            ],
            [
              116.35530001608949,
              39.94988082562374
            ]
          ]
        ]
      }
    },
    {
      "type": "Feature",
      "id": "LU-010",
      "properties": {
        "id": "LU-010",
        "layer": "LAND_USE",
        "source_type": "agent_generated_design",
        "confidence": "medium",
        "geometry_role": "design_proposal",
        "land_use_code": "0701",
        "name_zh": "中部更新居住区",
        "design_band": "B4",
        "design_column": "W",
        "area_sqm_declared": 1021270.131
      },
      "geometry": {
        "type": "Polygon",
        "coordinates": [
          [
            [
              116.3397846759556,
              39.97195349943381
            ],
            [
              116.3466586542495,
              39.971992447458504
            ],
            [
              116.34681092823111,
              39.95599330628065
            ],
            [
              116.34022916283006,
              39.95595603450914
            ],
            [
              116.3397846759556,
              39.97195349943381
            ]
          ]
        ]
      }
    },
    {
      "type": "Feature",
      "id": "LU-011",
      "properties": {
        "id": "LU-011",
        "layer": "LAND_USE",
        "source_type": "agent_generated_design",
        "confidence": "medium",
        "geometry_role": "design_proposal",
        "land_use_code": "1401",
        "name_zh": "智脊中央公园段",
        "design_band": "B4",
        "design_column": "S",
        "area_sqm_declared": 337547.052
      },
      "geometry": {
        "type": "Polygon",
        "coordinates": [
          [
            [
              116.34681092823111,
              39.95599330628065
            ],
            [
              116.3466586542495,
              39.971992447458504
            ],
            [
              116.34888258602672,
              39.97200496099554
            ],
            [
              116.3490343417669,
              39.95600581276796
            ],
            [
              116.34681092823111,
              39.95599330628065
            ]
          ]
        ]
      }
    },
    {
      "type": "Feature",
      "id": "LU-012",
      "properties": {
        "id": "LU-012",
        "layer": "LAND_USE",
        "source_type": "agent_generated_design",
        "confidence": "medium",
        "geometry_role": "design_proposal",
        "land_use_code": "0804",
        "name_zh": "学院路科教融合区",
        "design_band": "B4",
        "design_column": "E",
        "area_sqm_declared": 943827.705
      },
      "geometry": {
        "type": "Polygon",
        "coordinates": [
          [
            [
              116.3553,
              39.965
            ],
            [
              116.35530001493265,
              39.95604082715108
            ],
            [
              116.3490343417669,
              39.95600581276796
            ],
            [
              116.34888258602672,
              39.97200496099554
            ],
            [
              116.3547371450386,
              39.97203769918792
            ],
            [
              116.3553,
              39.965
            ]
          ]
        ]
      }
    },
    {
      "type": "Feature",
      "id": "LU-013",
      "properties": {
        "id": "LU-013",
        "layer": "LAND_USE",
        "source_type": "agent_generated_design",
        "confidence": "medium",
        "geometry_role": "design_proposal",
        "land_use_code": "0804",
        "name_zh": "五道口高校创新区",
        "design_band": "B5",
        "design_column": "W",
        "area_sqm_declared": 730008.978
      },
      "geometry": {
        "type": "Polygon",
        "coordinates": [
          [
            [
              116.34024539460424,
              39.98345611955413
            ],
            [
              116.34654913185415,
              39.983491829529406
            ],
            [
              116.3466586542495,
              39.971992447458504
            ],
            [
              116.3397846759556,
              39.97195349943381
            ],
            [
              116.3397,
              39.975
            ],
            [
              116.34024539460424,
              39.98345611955413
            ]
          ]
        ]
      }
    },
    {
      "type": "Feature",
      "id": "LU-014",
      "properties": {
        "id": "LU-014",
        "layer": "LAND_USE",
        "source_type": "agent_generated_design",
        "confidence": "medium",
        "geometry_role": "design_proposal",
        "land_use_code": "1401",
        "name_zh": "智脊学院公园段",
        "design_band": "B5",
        "design_column": "S",
        "area_sqm_declared": 242612.514
      },
      "geometry": {
        "type": "Polygon",
        "coordinates": [
          [
            [
              116.3466586542495,
              39.971992447458504
            ],
            [
              116.34654913185415,
              39.983491829529406
            ],
            [
              116.34877343637422,
              39.98350434813544
            ],
            [
              116.34888258602672,
              39.97200496099554
            ],
            [
              116.3466586542495,
              39.971992447458504
            ]
          ]
        ]
      }
    },
    {
      "type": "Feature",
      "id": "LU-015",
      "properties": {
        "id": "LU-015",
        "layer": "LAND_USE",
        "source_type": "agent_generated_design",
        "confidence": "medium",
        "geometry_role": "design_proposal",
        "land_use_code": "0802",
        "name_zh": "五道口AI孵化研发区",
        "design_band": "B5",
        "design_column": "E",
        "area_sqm_declared": 594430.455
      },
      "geometry": {
        "type": "Polygon",
        "coordinates": [
          [
            [
              116.3547371450386,
              39.97203769918792
            ],
            [
              116.34888258602672,
              39.97200496099554
            ],
            [
              116.34877343637422,
              39.98350434813544
            ],
            [
              116.35381754637048,
              39.983532578720734
            ],
            [
              116.3547371450386,
              39.97203769918792
            ]
          ]
        ]
      }
    },
    {
      "type": "Feature",
      "id": "LU-016",
      "properties": {
        "id": "LU-016",
        "layer": "LAND_USE",
        "source_type": "agent_generated_design",
        "confidence": "medium",
        "geometry_role": "design_proposal",
        "land_use_code": "0804",
        "name_zh": "原点社区高校策源区",
        "design_band": "B6",
        "design_column": "W",
        "area_sqm_declared": 562726.281
      },
      "geometry": {
        "type": "Polygon",
        "coordinates": [
          [
            [
              116.34089075795526,
              39.993459788785614
            ],
            [
              116.34645384364426,
              39.993491291757195
            ],
            [
              116.34654913185415,
              39.983491829529406
            ],
            [
              116.34024539460424,
              39.98345611955413
            ],
            [
              116.34089075795526,
              39.993459788785614
            ]
          ]
        ]
      }
    },
    {
      "type": "Feature",
      "id": "LU-017",
      "properties": {
        "id": "LU-017",
        "layer": "LAND_USE",
        "source_type": "agent_generated_design",
        "confidence": "medium",
        "geometry_role": "design_proposal",
        "land_use_code": "1401",
        "name_zh": "智脊原点公园段",
        "design_band": "B6",
        "design_column": "S",
        "area_sqm_declared": 210967.791
      },
      "geometry": {
        "type": "Polygon",
        "coordinates": [
          [
            [
              116.34654913185415,
              39.983491829529406
            ],
            [
              116.34645384364426,
              39.993491291757195
            ],
            [
              116.34867847246323,
              39.99350381477243
            ],
            [
              116.34877343637422,
              39.98350434813544
            ],
            [
              116.34654913185415,
              39.983491829529406
            ]
          ]
        ]
      }
    },
    {
      "type": "Feature",
      "id": "LU-018",
      "properties": {
        "id": "LU-018",
        "layer": "LAND_USE",
        "source_type": "agent_generated_design",
        "confidence": "medium",
        "geometry_role": "design_proposal",
        "land_use_code": "0802",
        "name_zh": "原点社区成果转化区",
        "design_band": "B6",
        "design_column": "E",
        "area_sqm_declared": 452917.47
      },
      "geometry": {
        "type": "Polygon",
        "coordinates": [
          [
            [
              116.3533,
              39.99
            ],
            [
              116.35381754637048,
              39.983532578720734
            ],
            [
              116.34877343637422,
              39.98350434813544
            ],
            [
              116.34867847246323,
              39.99350381477243
            ],
            [
              116.35349338475588,
              39.99353077293517
            ],
            [
              116.3533,
              39.99
            ]
          ]
        ]
      }
    },
    {
      "type": "Feature",
      "id": "LU-019",
      "properties": {
        "id": "LU-019",
        "layer": "LAND_USE",
        "source_type": "agent_generated_design",
        "confidence": "medium",
        "geometry_role": "design_proposal",
        "land_use_code": "0802",
        "name_zh": "北院创新走廊西区",
        "design_band": "B7",
        "design_column": "W",
        "area_sqm_declared": 669831.887
      },
      "geometry": {
        "type": "Polygon",
        "coordinates": [
          [
            [
              116.34169999999999,
              40.00600000000001
            ],
            [
              116.34177143601359,
              40.0074647907559
            ],
            [
              116.34632035985652,
              40.00749053818425
            ],
            [
              116.34645384364426,
              39.993491291757195
            ],
            [
              116.34089075795526,
              39.993459788785614
            ],
            [
              116.34169999999999,
              40.00600000000001
            ]
          ]
        ]
      }
    },
    {
      "type": "Feature",
      "id": "LU-020",
      "properties": {
        "id": "LU-020",
        "layer": "LAND_USE",
        "source_type": "agent_generated_design",
        "confidence": "medium",
        "geometry_role": "design_proposal",
        "land_use_code": "1401",
        "name_zh": "智脊走廊公园段",
        "design_band": "B7",
        "design_column": "S",
        "area_sqm_declared": 295355.512
      },
      "geometry": {
        "type": "Polygon",
        "coordinates": [
          [
            [
              116.34645384364426,
              39.993491291757195
            ],
            [
              116.34632035985652,
              40.00749053818425
            ],
            [
              116.34854544296724,
              40.0075030673745
            ],
            [
              116.34867847246323,
              39.99350381477243
            ],
            [
              116.34645384364426,
              39.993491291757195
            ]
          ]
        ]
      }
    },
    {
      "type": "Feature",
      "id": "LU-021",
      "properties": {
        "id": "LU-021",
        "layer": "LAND_USE",
        "source_type": "agent_generated_design",
        "confidence": "medium",
        "geometry_role": "design_proposal",
        "land_use_code": "0802",
        "name_zh": "北院创新走廊东区",
        "design_band": "B7",
        "design_column": "E",
        "area_sqm_declared": 698939.762
      },
      "geometry": {
        "type": "Polygon",
        "coordinates": [
          [
            [
              116.35349338475588,
              39.99353077293517
            ],
            [
              116.34867847246323,
              39.99350381477243
            ],
            [
              116.34854544296724,
              40.0075030673745
            ],
            [
              116.3542605897439,
              40.00753505291806
            ],
            [
              116.35349338475588,
              39.99353077293517
            ]
          ]
        ]
      }
    },
    {
      "type": "Feature",
      "id": "LU-022",
      "properties": {
        "id": "LU-022",
        "layer": "LAND_USE",
        "source_type": "agent_generated_design",
        "confidence": "medium",
        "geometry_role": "design_proposal",
        "land_use_code": "0802",
        "name_zh": "众智园全栈研发区",
        "design_band": "B8",
        "design_column": "W",
        "area_sqm_declared": 703173.948
      },
      "geometry": {
        "type": "Polygon",
        "coordinates": [
          [
            [
              116.34267413546833,
              40.02596991098945
            ],
            [
              116.34614382677067,
              40.025989541152754
            ],
            [
              116.34632035985652,
              40.00749053818425
            ],
            [
              116.34177143601359,
              40.0074647907559
            ],
            [
              116.34267413546833,
              40.02596991098945
            ]
          ]
        ]
      }
    },
    {
      "type": "Feature",
      "id": "LU-023",
      "properties": {
        "id": "LU-023",
        "layer": "LAND_USE",
        "source_type": "agent_generated_design",
        "confidence": "medium",
        "geometry_role": "design_proposal",
        "land_use_code": "1401",
        "name_zh": "智脊众智园公园段",
        "design_band": "B8",
        "design_column": "S",
        "area_sqm_declared": 390292.296
      },
      "geometry": {
        "type": "Polygon",
        "coordinates": [
          [
            [
              116.34632035985652,
              40.00749053818425
            ],
            [
              116.34614382677067,
              40.025989541152754
            ],
            [
              116.34836951068475,
              40.026002078506714
            ],
            [
              116.34854544296724,
              40.0075030673745
            ],
            [
              116.34632035985652,
              40.00749053818425
            ]
          ]
        ]
      }
    },
    {
      "type": "Feature",
      "id": "LU-024",
      "properties": {
        "id": "LU-024",
        "layer": "LAND_USE",
        "source_type": "agent_generated_design",
        "confidence": "medium",
        "geometry_role": "design_proposal",
        "land_use_code": "0802",
        "name_zh": "众智园标准治理与展示区",
        "design_band": "B8",
        "design_column": "E",
        "area_sqm_declared": 1106685.379
      },
      "geometry": {
        "type": "Polygon",
        "coordinates": [
          [
            [
              116.3542605897439,
              40.00753505291806
            ],
            [
              116.34854544296724,
              40.0075030673745
            ],
            [
              116.34836951068475,
              40.026002078506714
            ],
            [
              116.35527482140402,
              40.02604070427761
            ],
            [
              116.3542605897439,
              40.00753505291806
            ]
          ]
        ]
      }
    },
    {
      "type": "Feature",
      "id": "LU-025",
      "properties": {
        "id": "LU-025",
        "layer": "LAND_USE",
        "source_type": "agent_generated_design",
        "confidence": "medium",
        "geometry_role": "design_proposal",
        "land_use_code": "1401",
        "name_zh": "清河滨水生态区",
        "design_band": "B9",
        "design_column": "W",
        "area_sqm_declared": 17036.507
      },
      "geometry": {
        "type": "Polygon",
        "coordinates": [
          [
            [
              116.3461389519214,
              40.026500135943024
            ],
            [
              116.34614382677067,
              40.025989541152754
            ],
            [
              116.34267413546833,
              40.02596991098945
            ],
            [
              116.34270000000001,
              40.026500000000006
            ],
            [
              116.3461389519214,
              40.026500135943024
            ]
          ]
        ]
      }
    },
    {
      "type": "Feature",
      "id": "LU-026",
      "properties": {
        "id": "LU-026",
        "layer": "LAND_USE",
        "source_type": "agent_generated_design",
        "confidence": "medium",
        "geometry_role": "design_proposal",
        "land_use_code": "1401",
        "name_zh": "清河滨水生态区",
        "design_band": "B9",
        "design_column": "S",
        "area_sqm_declared": 10640.651
      },
      "geometry": {
        "type": "Polygon",
        "coordinates": [
          [
            [
              116.34836477140202,
              40.02650016952306
            ],
            [
              116.34836951068475,
              40.026002078506714
            ],
            [
              116.34614382677067,
              40.025989541152754
            ],
            [
              116.3461389519214,
              40.026500135943024
            ],
            [
              116.34836477140202,
              40.02650016952306
            ]
          ]
        ]
      }
    },
    {
      "type": "Feature",
      "id": "LU-027",
      "properties": {
        "id": "LU-027",
        "layer": "LAND_USE",
        "source_type": "agent_generated_design",
        "confidence": "medium",
        "geometry_role": "design_proposal",
        "land_use_code": "1401",
        "name_zh": "清河滨水生态区",
        "design_band": "B9",
        "design_column": "E",
        "area_sqm_declared": 31398.465
      },
      "geometry": {
        "type": "Polygon",
        "coordinates": [
          [
            [
              116.35527482140402,
              40.02604070427761
            ],
            [
              116.34836951068475,
              40.026002078506714
            ],
            [
              116.34836477140202,
              40.02650016952306
            ],
            [
              116.3553,
              40.02649999999999
            ],
            [
              116.35527482140402,
              40.02604070427761
            ]
          ]
        ]
      }
    }
  ]
}
