{"type": "FeatureCollection", "name": "buildings_ai_pilgrimage", "features": [{"type": "Feature", "id": "BLDG-0001", "properties": {"id": "BLDG-0001", "layer": "BUILDING_FOOTPRINT", "source_type": "agent_generated_design", "confidence": "medium", "geometry_role": "design_proposal", "building_type": "residential", "action": "retain_or_renovate", "area_sqm_declared": 1972.932}, "geometry": {"type": "Polygon", "coordinates": [[[116.3420863489047, 39.941634923334256], [116.3420863489047, 39.94204140871525], [116.34157492080072, 39.94204140871525], [116.34157492080072, 39.941634923334256], [116.3420863489047, 39.941634923334256]]]}}, {"type": "Feature", "id": "BLDG-0002", "properties": {"id": "BLDG-0002", "layer": "BUILDING_FOOTPRINT", "source_type": "agent_generated_design", "confidence": "medium", "geometry_role": "design_proposal", "building_type": "residential", "action": "retain_or_renovate", "area_sqm_declared": 1169.736}, "geometry": {"type": "Polygon", "coordinates": [[[116.34188782169221, 39.940801271561675], [116.34188782169221, 39.941129928300676], [116.34151279922256, 39.941129928300676], [116.34151279922256, 39.940801271561675], [116.34188782169221, 39.940801271561675]]]}}, {"type": "Feature", "id": "BLDG-0003", "properties": {"id": "BLDG-0003", "layer": "BUILDING_FOOTPRINT", "source_type": "agent_generated_design", "confidence": "medium", "geometry_role": "design_proposal", "building_type": "residential", "action": "retain_or_renovate", "area_sqm_declared": 2177.317}, "geometry": {"type": "Polygon", "coordinates": [[[116.3421155462517, 39.94847245841933], [116.3421155462517, 39.94892988416149], [116.34161394183408, 39.94892988416149], [116.34161394183408, 39.94847245841933], [116.3421155462517, 39.94847245841933]]]}}, {"type": "Feature", "id": "BLDG-0004", "properties": {"id": "BLDG-0004", "layer": "BUILDING_FOOTPRINT", "source_type": "agent_generated_design", "confidence": "medium", "geometry_role": "design_proposal", "building_type": "residential", "action": "retain_or_renovate", "area_sqm_declared": 1793.042}, "geometry": {"type": "Polygon", "coordinates": [[[116.34299356287518, 39.94533232304878], [116.34299356287518, 39.94578392726799], [116.34257518068715, 39.94578392726799], [116.34257518068715, 39.94533232304878], [116.34299356287518, 39.94533232304878]]]}}, {"type": "Feature", "id": "BLDG-0005", "properties": {"id": "BLDG-0005", "layer": "BUILDING_FOOTPRINT", "source_type": "agent_generated_design", "confidence": "medium", "geometry_role": "design_proposal", "building_type": "residential", "action": "retain_or_renovate", "area_sqm_declared": 8025.226}, "geometry": {"type": "Polygon", "coordinates": [[[116.34006770450874, 39.961762637685], [116.3400092339133, 39.963867579120674], [116.34044032114328, 39.963867579120674], [116.34044032114328, 39.961762637685], [116.34006770450874, 39.961762637685]]]}}, {"type": "Feature", "id": "BLDG-0006", "properties": {"id": "BLDG-0006", "layer": "BUILDING_FOOTPRINT", "source_type": "agent_generated_design", "confidence": "medium", "geometry_role": "design_proposal", "building_type": "residential", "action": "retain_or_renovate", "area_sqm_declared": 8383.761}, "geometry": {"type": "Polygon", "coordinates": [[[116.34292350385417, 39.95006618021597], [116.34292350385417, 39.95155719106633], [116.34233094481053, 39.95155719106633], [116.34233094481053, 39.95006618021597], [116.34292350385417, 39.95006618021597]]]}}, {"type": "Feature", "id": "BLDG-0007", "properties": {"id": "BLDG-0007", "layer": "BUILDING_FOOTPRINT", "source_type": "agent_generated_design", "confidence": "medium", "geometry_role": "design_proposal", "building_type": "residential", "action": "retain_or_renovate", "area_sqm_declared": 7165.538}, "geometry": {"type": "Polygon", "coordinates": [[[116.34311174522522, 39.968757790940394], [116.34311174522522, 39.97036582462423], [116.34264201940256, 39.97036582462423], [116.34264201940256, 39.968757790940394], [116.34311174522522, 39.968757790940394]]]}}, {"type": "Feature", "id": "BLDG-0008", "properties": {"id": "BLDG-0008", "layer": "BUILDING_FOOTPRINT", "source_type": "agent_generated_design", "confidence": "medium", "geometry_role": "design_proposal", "building_type": "residential", "action": "retain_or_renovate", "area_sqm_declared": 6868.308}, "geometry": {"type": "Polygon", "coordinates": [[[116.34136303274279, 39.9759537062535], [116.34136303274279, 39.977788379468144], [116.34096836887171, 39.977788379468144], [116.34096836887171, 39.9759537062535], [116.34136303274279, 39.9759537062535]]]}}, {"type": "Feature", "id": "BLDG-0009", "properties": {"id": "BLDG-0009", "layer": "BUILDING_FOOTPRINT", "source_type": "agent_generated_design", "confidence": "medium", "geometry_role": "design_proposal", "building_type": "residential", "action": "retain_or_renovate", "area_sqm_declared": 5626.31}, "geometry": {"type": "Polygon", "coordinates": [[[116.3429739144147, 39.97222401180405], [116.3429739144147, 39.97377816299221], [116.34259228423889, 39.97377816299221], [116.34259228423889, 39.97222401180405], [116.3429739144147, 39.97222401180405]]]}}, {"type": "Feature", "id": "BLDG-0010", "properties": {"id": "BLDG-0010", "layer": "BUILDING_FOOTPRINT", "source_type": "agent_generated_design", "confidence": "medium", "geometry_role": "design_proposal", "building_type": "residential", "action": "retain_or_renovate", "area_sqm_declared": 1739.875}, "geometry": {"type": "Polygon", "coordinates": [[[116.34050275767882, 39.98744274402182], [116.34055983010715, 39.9883273666609], [116.34073867289716, 39.9883273666609], [116.34073867289716, 39.98744274402182], [116.34050275767882, 39.98744274402182]]]}}, {"type": "Feature", "id": "BLDG-0011", "properties": {"id": "BLDG-0011", "layer": "BUILDING_FOOTPRINT", "source_type": "agent_generated_design", "confidence": "medium", "geometry_role": "design_proposal", "building_type": "residential", "action": "retain_or_renovate", "area_sqm_declared": 4668.57}, "geometry": {"type": "Polygon", "coordinates": [[[116.34186890252363, 39.996616925935214], [116.34186890252363, 39.99804000561454], [116.34152294793844, 39.99804000561454], [116.34152294793844, 39.996616925935214], [116.34186890252363, 39.996616925935214]]]}}, {"type": "Feature", "id": "BLDG-0012", "properties": {"id": "BLDG-0012", "layer": "BUILDING_FOOTPRINT", "source_type": "agent_generated_design", "confidence": "medium", "geometry_role": "design_proposal", "building_type": "ai_r_and_d", "action": "retain_or_renovate", "area_sqm_declared": 797.905}, "geometry": {"type": "Polygon", "coordinates": [[[116.34212694126852, 40.014752296004595], [116.34217648669154, 40.015767977176786], [116.3422345787291, 40.015767977176786], [116.3422345787291, 40.014752296004595], [116.34212694126852, 40.014752296004595]]]}}, {"type": "Feature", "id": "BLDG-0013", "properties": {"id": "BLDG-0013", "layer": "BUILDING_FOOTPRINT", "source_type": "agent_generated_design", "confidence": "medium", "geometry_role": "design_proposal", "building_type": "ai_r_and_d", "action": "retain_or_renovate", "area_sqm_declared": 1783.925}, "geometry": {"type": "Polygon", "coordinates": [[[116.34221932368688, 40.01128499619042], [116.34221932368688, 40.01234102560257], [116.34204114504358, 40.01234102560257], [116.34204114504358, 40.01128499619042], [116.34221932368688, 40.01128499619042]]]}}, {"type": "Feature", "id": "BLDG-0014", "properties": {"id": "BLDG-0014", "layer": "BUILDING_FOOTPRINT", "source_type": "agent_generated_design", "confidence": "medium", "geometry_role": "design_proposal", "building_type": "ai_r_and_d", "action": "retain_or_renovate", "area_sqm_declared": 652.689}, "geometry": {"type": "Polygon", "coordinates": [[[116.34312755863316, 40.02493187121494], [116.34312755863316, 40.02544365741979], [116.34299301693942, 40.02544365741979], [116.34299301693942, 40.02493187121494], [116.34312755863316, 40.02493187121494]]]}}, {"type": "Feature", "id": "BLDG-0015", "properties": {"id": "BLDG-0015", "layer": "BUILDING_FOOTPRINT", "source_type": "agent_generated_design", "confidence": "medium", "geometry_role": "design_proposal", "building_type": "mixed_use", "action": "retain_or_renovate", "area_sqm_declared": 1542.493}, "geometry": {"type": "Polygon", "coordinates": [[[116.34622614150969, 39.942419625352386], [116.34622614150969, 39.94278544340433], [116.34578183715148, 39.94278544340433], [116.34578183715148, 39.942419625352386], [116.34622614150969, 39.942419625352386]]]}}, {"type": "Feature", "id": "BLDG-0016", "properties": {"id": "BLDG-0016", "layer": "BUILDING_FOOTPRINT", "source_type": "agent_generated_design", "confidence": "medium", "geometry_role": "design_proposal", "building_type": "mixed_use", "action": "retain_or_renovate", "area_sqm_declared": 2063.87}, "geometry": {"type": "Polygon", "coordinates": [[[116.34400442182354, 39.94347074869288], [116.34400442182354, 39.943913769993294], [116.34351352872747, 39.943913769993294], [116.34351352872747, 39.94347074869288], [116.34400442182354, 39.94347074869288]]]}}, {"type": "Feature", "id": "BLDG-0017", "properties": {"id": "BLDG-0017", "layer": "BUILDING_FOOTPRINT", "source_type": "agent_generated_design", "confidence": "medium", "geometry_role": "design_proposal", "building_type": "mixed_use", "action": "retain_or_renovate", "area_sqm_declared": 2408.452}, "geometry": {"type": "Polygon", "coordinates": [[[116.34519501551094, 39.94492887805695], [116.34519501551094, 39.945399495745995], [116.34465574301771, 39.945399495745995], [116.34465574301771, 39.94492887805695], [116.34519501551094, 39.94492887805695]]]}}, {"type": "Feature", "id": "BLDG-0018", "properties": {"id": "BLDG-0018", "layer": "BUILDING_FOOTPRINT", "source_type": "agent_generated_design", "confidence": "medium", "geometry_role": "design_proposal", "building_type": "mixed_use", "action": "retain_or_renovate", "area_sqm_declared": 2874.1}, "geometry": {"type": "Polygon", "coordinates": [[[116.34463618527546, 39.94644745633309], [116.34463618527546, 39.94684756338228], [116.34387922449942, 39.94684756338228], [116.34387922449942, 39.94644745633309], [116.34463618527546, 39.94644745633309]]]}}, {"type": "Feature", "id": "BLDG-0019", "properties": {"id": "BLDG-0019", "layer": "BUILDING_FOOTPRINT", "source_type": "agent_generated_design", "confidence": "medium", "geometry_role": "design_proposal", "building_type": "mixed_use", "action": "retain_or_renovate", "area_sqm_declared": 6620.729}, "geometry": {"type": "Polygon", "coordinates": [[[116.34634943813168, 39.95191028475676], [116.34634943813168, 39.95316613721848], [116.3457938514278, 39.95316613721848], [116.3457938514278, 39.95191028475676], [116.34634943813168, 39.95191028475676]]]}}, {"type": "Feature", "id": "BLDG-0020", "properties": {"id": "BLDG-0020", "layer": "BUILDING_FOOTPRINT", "source_type": "agent_generated_design", "confidence": "medium", "geometry_role": "design_proposal", "building_type": "mixed_use", "action": "retain_or_renovate", "area_sqm_declared": 11656.074}, "geometry": {"type": "Polygon", "coordinates": [[[116.34498101712414, 39.95349388926023], [116.34498101712414, 39.9554468021892], [116.34435199487648, 39.9554468021892], [116.34435199487648, 39.95349388926023], [116.34498101712414, 39.95349388926023]]]}}, {"type": "Feature", "id": "BLDG-0021", "properties": {"id": "BLDG-0021", "layer": "BUILDING_FOOTPRINT", "source_type": "agent_generated_design", "confidence": "medium", "geometry_role": "design_proposal", "building_type": "mixed_use", "action": "retain_or_renovate", "area_sqm_declared": 6923.238}, "geometry": {"type": "Polygon", "coordinates": [[[116.34653179814173, 39.97914118277213], [116.34653179814173, 39.98022345656879], [116.34585738418464, 39.98022345656879], [116.34585738418464, 39.97914118277213], [116.34653179814173, 39.97914118277213]]]}}, {"type": "Feature", "id": "BLDG-0022", "properties": {"id": "BLDG-0022", "layer": "BUILDING_FOOTPRINT", "source_type": "agent_generated_design", "confidence": "medium", "geometry_role": "design_proposal", "building_type": "mixed_use", "action": "retain_or_renovate", "area_sqm_declared": 5775.441}, "geometry": {"type": "Polygon", "coordinates": [[[116.34689296303353, 39.970452826664804], [116.34689296303353, 39.97186257656805], [116.34646110177817, 39.97186257656805], [116.34646110177817, 39.970452826664804], [116.34689296303353, 39.970452826664804]]]}}, {"type": "Feature", "id": "BLDG-0023", "properties": {"id": "BLDG-0023", "layer": "BUILDING_FOOTPRINT", "source_type": "agent_generated_design", "confidence": "medium", "geometry_role": "design_proposal", "building_type": "education", "action": "retain_or_renovate", "area_sqm_declared": 3861.264}, "geometry": {"type": "Polygon", "coordinates": [[[116.34526757426661, 39.98929830790881], [116.34526757426661, 39.989900627511915], [116.344591617542, 39.989900627511915], [116.344591617542, 39.98929830790881], [116.34526757426661, 39.98929830790881]]]}}, {"type": "Feature", "id": "BLDG-0024", "properties": {"id": "BLDG-0024", "layer": "BUILDING_FOOTPRINT", "source_type": "agent_generated_design", "confidence": "medium", "geometry_role": "design_proposal", "building_type": "education", "action": "retain_or_renovate", "area_sqm_declared": 4482.005}, "geometry": {"type": "Polygon", "coordinates": [[[116.34675565874349, 39.997006479616644], [116.34675565874349, 39.997955603367885], [116.34625767479065, 39.997955603367885], [116.34625767479065, 39.997006479616644], [116.34675565874349, 39.997006479616644]]]}}, {"type": "Feature", "id": "BLDG-0025", "properties": {"id": "BLDG-0025", "layer": "BUILDING_FOOTPRINT", "source_type": "agent_generated_design", "confidence": "medium", "geometry_role": "design_proposal", "building_type": "ai_r_and_d", "action": "retain_or_renovate", "area_sqm_declared": 6572.729}, "geometry": {"type": "Polygon", "coordinates": [[[116.34638804998465, 40.01565037016645], [116.34638804998465, 40.01675416726291], [116.34575993449795, 40.01675416726291], [116.34575993449795, 40.01565037016645], [116.34638804998465, 40.01565037016645]]]}}, {"type": "Feature", "id": "BLDG-0026", "properties": {"id": "BLDG-0026", "layer": "BUILDING_FOOTPRINT", "source_type": "agent_generated_design", "confidence": "medium", "geometry_role": "design_proposal", "building_type": "ai_r_and_d", "action": "retain_or_renovate", "area_sqm_declared": 4083.701}, "geometry": {"type": "Polygon", "coordinates": [[[116.34528093049272, 40.01419310235097], [116.34528093049272, 40.01518777549764], [116.34484787156364, 40.01518777549764], [116.34484787156364, 40.01419310235097], [116.34528093049272, 40.01419310235097]]]}}, {"type": "Feature", "id": "BLDG-0027", "properties": {"id": "BLDG-0027", "layer": "BUILDING_FOOTPRINT", "source_type": "agent_generated_design", "confidence": "medium", "geometry_role": "design_proposal", "building_type": "ai_r_and_d", "action": "retain_or_renovate", "area_sqm_declared": 4718.273}, "geometry": {"type": "Polygon", "coordinates": [[[116.3469164774794, 40.012564007786274], [116.3469164774794, 40.0138522303421], [116.34653014917319, 40.0138522303421], [116.34653014917319, 40.012564007786274], [116.3469164774794, 40.012564007786274]]]}}, {"type": "Feature", "id": "BLDG-0028", "properties": {"id": "BLDG-0028", "layer": "BUILDING_FOOTPRINT", "source_type": "agent_generated_design", "confidence": "medium", "geometry_role": "design_proposal", "building_type": "ai_r_and_d", "action": "retain_or_renovate", "area_sqm_declared": 1685.22}, "geometry": {"type": "Polygon", "coordinates": [[[116.34661124036616, 40.022295417710865], [116.34661124036616, 40.02274820536199], [116.34621860919908, 40.02274820536199], [116.34621860919908, 40.022295417710865], [116.34661124036616, 40.022295417710865]]]}}, {"type": "Feature", "id": "BLDG-0029", "properties": {"id": "BLDG-0029", "layer": "BUILDING_FOOTPRINT", "source_type": "agent_generated_design", "confidence": "medium", "geometry_role": "design_proposal", "building_type": "ai_r_and_d", "action": "retain_or_renovate", "area_sqm_declared": 2686.9}, "geometry": {"type": "Polygon", "coordinates": [[[116.34403848033052, 40.02275803528219], [116.34403848033052, 40.02316557666651], [116.34334296769289, 40.02316557666651], [116.34334296769289, 40.02275803528219], [116.34403848033052, 40.02275803528219]]]}}, {"type": "Feature", "id": "BLDG-0030", "properties": {"id": "BLDG-0030", "layer": "BUILDING_FOOTPRINT", "source_type": "agent_generated_design", "confidence": "medium", "geometry_role": "design_proposal", "building_type": "residential", "action": "retain_or_renovate", "area_sqm_declared": 1319.766}, "geometry": {"type": "Polygon", "coordinates": [[[116.3511411288675, 39.94172393172335], [116.3511411288675, 39.94213324796967], [116.35080138090451, 39.94213324796967], [116.35080138090451, 39.94172393172335], [116.3511411288675, 39.94172393172335]]]}}, {"type": "Feature", "id": "BLDG-0031", "properties": {"id": "BLDG-0031", "layer": "BUILDING_FOOTPRINT", "source_type": "agent_generated_design", "confidence": "medium", "geometry_role": "design_proposal", "building_type": "residential", "action": "retain_or_renovate", "area_sqm_declared": 1380.646}, "geometry": {"type": "Polygon", "coordinates": [[[116.35024816422357, 39.94145033437803], [116.35024816422357, 39.941950574917556], [116.3499573466104, 39.941950574917556], [116.3499573466104, 39.94145033437803], [116.35024816422357, 39.94145033437803]]]}}, {"type": "Feature", "id": "BLDG-0032", "properties": {"id": "BLDG-0032", "layer": "BUILDING_FOOTPRINT", "source_type": "agent_generated_design", "confidence": "medium", "geometry_role": "design_proposal", "building_type": "mixed_use", "action": "retain_or_renovate", "area_sqm_declared": 1877.37}, "geometry": {"type": "Polygon", "coordinates": [[[116.35022442545598, 39.94840046684632], [116.35022442545598, 39.94890987083703], [116.34983605306839, 39.94890987083703], [116.34983605306839, 39.94840046684632], [116.35022442545598, 39.94840046684632]]]}}, {"type": "Feature", "id": "BLDG-0033", "properties": {"id": "BLDG-0033", "layer": "BUILDING_FOOTPRINT", "source_type": "agent_generated_design", "confidence": "medium", "geometry_role": "design_proposal", "building_type": "residential", "action": "retain_or_renovate", "area_sqm_declared": 7229.543}, "geometry": {"type": "Polygon", "coordinates": [[[116.35146029647328, 39.95431711717481], [116.35146029647328, 39.95621520922835], [116.35105887938721, 39.95621520922835], [116.35105887938721, 39.95431711717481], [116.35146029647328, 39.95431711717481]]]}}, {"type": "Feature", "id": "BLDG-0034", "properties": {"id": "BLDG-0034", "layer": "BUILDING_FOOTPRINT", "source_type": "agent_generated_design", "confidence": "medium", "geometry_role": "design_proposal", "building_type": "residential", "action": "retain_or_renovate", "area_sqm_declared": 9528.01}, "geometry": {"type": "Polygon", "coordinates": [[[116.35028553919811, 39.95611301099407], [116.35028553919811, 39.95812825057337], [116.34978724107471, 39.95812825057337], [116.34978724107471, 39.95611301099407], [116.35028553919811, 39.95611301099407]]]}}, {"type": "Feature", "id": "BLDG-0035", "properties": {"id": "BLDG-0035", "layer": "BUILDING_FOOTPRINT", "source_type": "agent_generated_design", "confidence": "medium", "geometry_role": "design_proposal", "building_type": "residential", "action": "retain_or_renovate", "area_sqm_declared": 6509.547}, "geometry": {"type": "Polygon", "coordinates": [[[116.3507184273844, 39.952455061995195], [116.3507184273844, 39.95437156002089], [116.35036046863637, 39.95437156002089], [116.35036046863637, 39.952455061995195], [116.3507184273844, 39.952455061995195]]]}}, {"type": "Feature", "id": "BLDG-0036", "properties": {"id": "BLDG-0036", "layer": "BUILDING_FOOTPRINT", "source_type": "agent_generated_design", "confidence": "medium", "geometry_role": "design_proposal", "building_type": "residential", "action": "retain_or_renovate", "area_sqm_declared": 5930.056}, "geometry": {"type": "Polygon", "coordinates": [[[116.35102107228633, 39.9759830282953], [116.35102107228633, 39.9775678141219], [116.35062659231468, 39.9775678141219], [116.35062659231468, 39.9759830282953], [116.35102107228633, 39.9759830282953]]]}}, {"type": "Feature", "id": "BLDG-0037", "properties": {"id": "BLDG-0037", "layer": "BUILDING_FOOTPRINT", "source_type": "agent_generated_design", "confidence": "medium", "geometry_role": "design_proposal", "building_type": "cultural", "action": "retain_or_renovate", "area_sqm_declared": 5237.873}, "geometry": {"type": "Polygon", "coordinates": [[[116.35048286159112, 39.9842822867517], [116.35048286159112, 39.98536843838932], [116.34997440778405, 39.98536843838932], [116.34997440778405, 39.9842822867517], [116.35048286159112, 39.9842822867517]]]}}, {"type": "Feature", "id": "BLDG-0038", "properties": {"id": "BLDG-0038", "layer": "BUILDING_FOOTPRINT", "source_type": "agent_generated_design", "confidence": "medium", "geometry_role": "design_proposal", "building_type": "cultural", "action": "retain_or_renovate", "area_sqm_declared": 2806.048}, "geometry": {"type": "Polygon", "coordinates": [[[116.3511104680992, 39.986421405023265], [116.3511104680992, 39.98714702734124], [116.35070272765097, 39.98714702734124], [116.35070272765097, 39.986421405023265], [116.3511104680992, 39.986421405023265]]]}}, {"type": "Feature", "id": "BLDG-0039", "properties": {"id": "BLDG-0039", "layer": "BUILDING_FOOTPRINT", "source_type": "agent_generated_design", "confidence": "medium", "geometry_role": "design_proposal", "building_type": "cultural", "action": "retain_or_renovate", "area_sqm_declared": 2842.139}, "geometry": {"type": "Polygon", "coordinates": [[[116.35105372130846, 40.00344244301481], [116.35105372130846, 40.00455584643564], [116.35078450591678, 40.00455584643564], [116.35078450591678, 40.00344244301481], [116.35105372130846, 40.00344244301481]]]}}, {"type": "Feature", "id": "BLDG-0040", "properties": {"id": "BLDG-0040", "layer": "BUILDING_FOOTPRINT", "source_type": "agent_generated_design", "confidence": "medium", "geometry_role": "design_proposal", "building_type": "cultural", "action": "retain_or_renovate", "area_sqm_declared": 4948.288}, "geometry": {"type": "Polygon", "coordinates": [[[116.3514385882018, 39.998774003968975], [116.3514385882018, 39.999914882454235], [116.35098119092694, 39.999914882454235], [116.35098119092694, 39.998774003968975], [116.3514385882018, 39.998774003968975]]]}}, {"type": "Feature", "id": "BLDG-0041", "properties": {"id": "BLDG-0041", "layer": "BUILDING_FOOTPRINT", "source_type": "agent_generated_design", "confidence": "medium", "geometry_role": "design_proposal", "building_type": "cultural", "action": "retain_or_renovate", "area_sqm_declared": 3708.79}, "geometry": {"type": "Polygon", "coordinates": [[[116.35087623505167, 40.00112844798122], [116.35087623505167, 40.002400012689954], [116.35056863464179, 40.002400012689954], [116.35056863464179, 40.00112844798122], [116.35087623505167, 40.00112844798122]]]}}, {"type": "Feature", "id": "BLDG-0042", "properties": {"id": "BLDG-0042", "layer": "BUILDING_FOOTPRINT", "source_type": "agent_generated_design", "confidence": "medium", "geometry_role": "design_proposal", "building_type": "ai_r_and_d", "action": "retain_or_renovate", "area_sqm_declared": 3620.613}, "geometry": {"type": "Polygon", "coordinates": [[[116.35184271835129, 40.01211586578959], [116.35184271835129, 40.012886847732325], [116.35134738416068, 40.012886847732325], [116.35134738416068, 40.01211586578959], [116.35184271835129, 40.01211586578959]]]}}, {"type": "Feature", "id": "BLDG-0043", "properties": {"id": "BLDG-0043", "layer": "BUILDING_FOOTPRINT", "source_type": "agent_generated_design", "confidence": "medium", "geometry_role": "design_proposal", "building_type": "ai_r_and_d", "action": "retain_or_renovate", "area_sqm_declared": 3796.432}, "geometry": {"type": "Polygon", "coordinates": [[[116.35202971374072, 40.01566359155117], [116.35202971374072, 40.01643693242051], [116.35151188352579, 40.01643693242051], [116.35151188352579, 40.01566359155117], [116.35202971374072, 40.01566359155117]]]}}, {"type": "Feature", "id": "BLDG-0044", "properties": {"id": "BLDG-0044", "layer": "BUILDING_FOOTPRINT", "source_type": "agent_generated_design", "confidence": "medium", "geometry_role": "design_proposal", "building_type": "ai_r_and_d", "action": "retain_or_renovate", "area_sqm_declared": 2489.893}, "geometry": {"type": "Polygon", "coordinates": [[[116.35134094194119, 40.02462248463478], [116.35134094194119, 40.02526602810395], [116.35093277185949, 40.02526602810395], [116.35093277185949, 40.02462248463478], [116.35134094194119, 40.02462248463478]]]}}, {"type": "Feature", "id": "BLDG-0045", "properties": {"id": "BLDG-0045", "layer": "BUILDING_FOOTPRINT", "source_type": "agent_generated_design", "confidence": "medium", "geometry_role": "design_proposal", "building_type": "ai_r_and_d", "action": "retain_or_renovate", "area_sqm_declared": 2216.707}, "geometry": {"type": "Polygon", "coordinates": [[[116.35209949490707, 40.021455646422304], [116.35209949490707, 40.021989373626745], [116.35166136066607, 40.021989373626745], [116.35166136066607, 40.021455646422304], [116.35209949490707, 40.021455646422304]]]}}, {"type": "Feature", "id": "BLDG-0046", "properties": {"id": "BLDG-0046", "layer": "BUILDING_FOOTPRINT", "source_type": "agent_generated_design", "confidence": "medium", "geometry_role": "design_proposal", "building_type": "residential", "action": "retain_or_renovate", "area_sqm_declared": 1832.934}, "geometry": {"type": "Polygon", "coordinates": [[[116.35524622445409, 39.94298544952498], [116.35524622445409, 39.94339115486714], [116.35477016263222, 39.94339115486714], [116.35477016263222, 39.94298544952498], [116.35524622445409, 39.94298544952498]]]}}, {"type": "Feature", "id": "BLDG-0047", "properties": {"id": "BLDG-0047", "layer": "BUILDING_FOOTPRINT", "source_type": "agent_generated_design", "confidence": "medium", "geometry_role": "design_proposal", "building_type": "residential", "action": "retain_or_renovate", "area_sqm_declared": 3697.291}, "geometry": {"type": "Polygon", "coordinates": [[[116.35491826169523, 39.94671531661358], [116.35491826169523, 39.94738170769112], [116.35433359857176, 39.94738170769112], [116.35433359857176, 39.94671531661358], [116.35491826169523, 39.94671531661358]]]}}, {"type": "Feature", "id": "BLDG-0048", "properties": {"id": "BLDG-0048", "layer": "BUILDING_FOOTPRINT", "source_type": "agent_generated_design", "confidence": "medium", "geometry_role": "design_proposal", "building_type": "residential", "action": "retain_or_renovate", "area_sqm_declared": 7746.973}, "geometry": {"type": "Polygon", "coordinates": [[[116.35299376786543, 39.95735967626948], [116.35299376786543, 39.95952432061197], [116.35261657130158, 39.95952432061197], [116.35261657130158, 39.95735967626948], [116.35299376786543, 39.95735967626948]]]}}, {"type": "Feature", "id": "BLDG-0049", "properties": {"id": "BLDG-0049", "layer": "BUILDING_FOOTPRINT", "source_type": "agent_generated_design", "confidence": "medium", "geometry_role": "design_proposal", "building_type": "residential", "action": "retain_or_renovate", "area_sqm_declared": 5214.386}, "geometry": {"type": "Polygon", "coordinates": [[[116.35421634206287, 39.9719353345975], [116.35421634206287, 39.973204356285784], [116.35378318557474, 39.973204356285784], [116.35378318557474, 39.9719353345975], [116.35421634206287, 39.9719353345975]]]}}, {"type": "Feature", "id": "BLDG-0050", "properties": {"id": "BLDG-0050", "layer": "BUILDING_FOOTPRINT", "source_type": "agent_generated_design", "confidence": "medium", "geometry_role": "design_proposal", "building_type": "ai_r_and_d", "action": "retain_or_renovate", "area_sqm_declared": 1750.11}, "geometry": {"type": "Polygon", "coordinates": [[[116.35273496447171, 39.98952650010277], [116.35273496447171, 39.99044473923941], [116.3525339954732, 39.99044473923941], [116.3525339954732, 39.98952650010277], [116.35273496447171, 39.98952650010277]]]}}, {"type": "Feature", "id": "BLDG-0051", "properties": {"id": "BLDG-0051", "layer": "BUILDING_FOOTPRINT", "source_type": "agent_generated_design", "confidence": "medium", "geometry_role": "design_proposal", "building_type": "ai_r_and_d", "action": "retain_or_renovate", "area_sqm_declared": 1828.399}, "geometry": {"type": "Polygon", "coordinates": [[[116.35337588889443, 39.98595956767607], [116.35362323458592, 39.98595956767607], [116.35362775539231, 39.985903057596175], [116.35362775539231, 39.985193653052896], [116.35337588889443, 39.985193653052896], [116.35337588889443, 39.98595956767607]]]}}, {"type": "Feature", "id": "BLDG-0052", "properties": {"id": "BLDG-0052", "layer": "BUILDING_FOOTPRINT", "source_type": "agent_generated_design", "confidence": "medium", "geometry_role": "design_proposal", "building_type": "ai_r_and_d", "action": "retain_or_renovate", "area_sqm_declared": 1964.284}, "geometry": {"type": "Polygon", "coordinates": [[[116.35301015131265, 39.991239621897314], [116.35301015131265, 39.99220512938145], [116.35279562568289, 39.99220512938145], [116.35279562568289, 39.991239621897314], [116.35301015131265, 39.991239621897314]]]}}, {"type": "Feature", "id": "BLDG-0053", "properties": {"id": "BLDG-0053", "layer": "BUILDING_FOOTPRINT", "source_type": "agent_generated_design", "confidence": "medium", "geometry_role": "design_proposal", "building_type": "ai_r_and_d", "action": "retain_or_renovate", "area_sqm_declared": 3834.822}, "geometry": {"type": "Polygon", "coordinates": [[[116.35312275335424, 39.99713776564339], [116.35312275335424, 39.99855312475914], [116.35283702894155, 39.99855312475914], [116.35283702894155, 39.99713776564339], [116.35312275335424, 39.99713776564339]]]}}, {"type": "Feature", "id": "BLDG-0054", "properties": {"id": "BLDG-0054", "layer": "BUILDING_FOOTPRINT", "source_type": "agent_generated_design", "confidence": "medium", "geometry_role": "design_proposal", "building_type": "ai_r_and_d", "action": "retain_or_renovate", "area_sqm_declared": 1841.284}, "geometry": {"type": "Polygon", "coordinates": [[[116.35361570250214, 39.995761570664094], [116.35352374914474, 39.994083421891524], [116.3534540232726, 39.994083421891524], [116.3534540232726, 39.995761570664094], [116.35361570250214, 39.995761570664094]]]}}, {"type": "Feature", "id": "BLDG-0055", "properties": {"id": "BLDG-0055", "layer": "BUILDING_FOOTPRINT", "source_type": "agent_generated_design", "confidence": "medium", "geometry_role": "design_proposal", "building_type": "ai_r_and_d", "action": "retain_or_renovate", "area_sqm_declared": 3061.163}, "geometry": {"type": "Polygon", "coordinates": [[[116.35379180211571, 40.00090837245068], [116.35379180211571, 40.00188749739522], [116.3534620865618, 40.00188749739522], [116.3534620865618, 40.00090837245068], [116.35379180211571, 40.00090837245068]]]}}, {"type": "Feature", "id": "BLDG-0056", "properties": {"id": "BLDG-0056", "layer": "BUILDING_FOOTPRINT", "source_type": "agent_generated_design", "confidence": "medium", "geometry_role": "design_proposal", "building_type": "ai_r_and_d", "action": "retain_or_renovate", "area_sqm_declared": 5054.444}, "geometry": {"type": "Polygon", "coordinates": [[[116.35413420734193, 40.012418900907235], [116.35413420734193, 40.01339799927631], [116.35358969184759, 40.01339799927631], [116.35358969184759, 40.012418900907235], [116.35413420734193, 40.012418900907235]]]}}, {"type": "Feature", "id": "BLDG-0057", "properties": {"id": "BLDG-0057", "layer": "BUILDING_FOOTPRINT", "source_type": "agent_generated_design", "confidence": "medium", "geometry_role": "design_proposal", "building_type": "ai_r_and_d", "action": "retain_or_renovate", "area_sqm_declared": 5462.178}, "geometry": {"type": "Polygon", "coordinates": [[[116.35293053287533, 40.014409755774196], [116.35293053287533, 40.0157954691814], [116.3525147474705, 40.0157954691814], [116.3525147474705, 40.014409755774196], [116.35293053287533, 40.014409755774196]]]}}, {"type": "Feature", "id": "BLDG-0058", "properties": {"id": "BLDG-0058", "layer": "BUILDING_FOOTPRINT", "source_type": "agent_generated_design", "confidence": "medium", "geometry_role": "design_proposal", "building_type": "ai_r_and_d", "action": "retain_or_renovate", "area_sqm_declared": 1690.22}, "geometry": {"type": "Polygon", "coordinates": [[[116.35432111263289, 40.02372997093045], [116.35432111263289, 40.02424865990763], [116.35397734196174, 40.02424865990763], [116.35397734196174, 40.02372997093045], [116.35432111263289, 40.02372997093045]]]}}]}
