{
  "type": "FeatureCollection",
  "name": "land_use_topology_partition",
  "features": [
    {
      "type": "Feature",
      "id": "LU-001",
      "properties": {
        "id": "LU-001",
        "layer": "LAND_USE",
        "source_type": "agent_generated_design",
        "confidence": "medium",
        "geometry_role": "design_proposal",
        "land_use_code": "0802",
        "name_zh": "AI研发创新用地",
        "area_sqm_declared": 2674562.492,
        "area_sqm_actual": 2674562.492
      },
      "geometry": {
        "type": "Polygon",
        "coordinates": [
          [
            [
              116.3407,
              39.939
            ],
            [
              116.3397,
              39.975
            ],
            [
              116.3417,
              40.006
            ],
            [
              116.3427,
              40.0265
            ],
            [
              116.344068,
              40.0265
            ],
            [
              116.344068,
              39.939
            ],
            [
              116.3407,
              39.939
            ]
          ]
        ]
      }
    },
    {
      "type": "Feature",
      "id": "LU-002",
      "properties": {
        "id": "LU-002",
        "layer": "LAND_USE",
        "source_type": "agent_generated_design",
        "confidence": "medium",
        "geometry_role": "design_proposal",
        "land_use_code": "1401",
        "name_zh": "公园绿地与开敞空间",
        "area_sqm_declared": 2589339.239,
        "area_sqm_actual": 2589339.239
      },
      "geometry": {
        "type": "Polygon",
        "coordinates": [
          [
            [
              116.344068,
              39.939
            ],
            [
              116.344068,
              40.0265
            ],
            [
              116.347188,
              40.0265
            ],
            [
              116.347188,
              39.939
            ],
            [
              116.344068,
              39.939
            ]
          ]
        ]
      }
    },
    {
      "type": "Feature",
      "id": "LU-003",
      "properties": {
        "id": "LU-003",
        "layer": "LAND_USE",
        "source_type": "agent_generated_design",
        "confidence": "medium",
        "geometry_role": "design_proposal",
        "land_use_code": "05",
        "name_zh": "产业服务与商业服务用地",
        "area_sqm_declared": 3366138.181,
        "area_sqm_actual": 3366138.181
      },
      "geometry": {
        "type": "Polygon",
        "coordinates": [
          [
            [
              116.347188,
              39.939
            ],
            [
              116.347188,
              40.0265
            ],
            [
              116.351244,
              40.0265
            ],
            [
              116.351244,
              39.939
            ],
            [
              116.347188,
              39.939
            ]
          ]
        ]
      }
    },
    {
      "type": "Feature",
      "id": "LU-004",
      "properties": {
        "id": "LU-004",
        "layer": "LAND_USE",
        "source_type": "agent_generated_design",
        "confidence": "medium",
        "geometry_role": "design_proposal",
        "land_use_code": "0702",
        "name_zh": "社区服务与配套用地",
        "area_sqm_declared": 2782792.823,
        "area_sqm_actual": 2782792.823
      },
      "geometry": {
        "type": "Polygon",
        "coordinates": [
          [
            [
              116.3553,
              40.0265
            ],
            [
              116.3533,
              39.99
            ],
            [
              116.3553,
              39.965
            ],
            [
              116.3553,
              39.939
            ],
            [
              116.351244,
              39.939
            ],
            [
              116.351244,
              40.0265
            ],
            [
              116.3553,
              40.0265
            ]
          ]
        ]
      }
    },
    {
      "type": "Feature",
      "id": "LU-005",
      "properties": {
        "id": "LU-005",
        "layer": "LAND_USE",
        "source_type": "agent_generated_design",
        "confidence": "high",
        "geometry_role": "design_proposal",
        "land_use_code": "0803",
        "name_zh": "AI 朝圣地标与文化设施用地 (LM-01 智能体贡献荣誉墙邻接)",
        "area_sqm_declared": 56960.567,
        "design_note_zh": "agent.4 深做 · 大钟寺片区 · 沿开发者散步道串联三处朝圣地标之一",
        "area_sqm_actual": 56960.567
      },
      "geometry": {
        "type": "Polygon",
        "coordinates": [
          [
            [
              116.332,
              39.918
            ],
            [
              116.334,
              39.918
            ],
            [
              116.334,
              39.921
            ],
            [
              116.332,
              39.921
            ],
            [
              116.332,
              39.918
            ]
          ]
        ]
      }
    },
    {
      "type": "Feature",
      "id": "LU-007",
      "properties": {
        "id": "LU-007",
        "layer": "LAND_USE",
        "source_type": "agent_generated_design",
        "confidence": "high",
        "geometry_role": "design_proposal",
        "land_use_code": "0803",
        "name_zh": "AI 公共空间组件区 (LM-02 开源成果展示廊邻接)",
        "design_note_zh": "agent.4 深做 · 北京 AI 原点社区 · 近校缝合带核心节点",
        "area_sqm_declared": 28448.899,
        "area_sqm_actual": 28448.899
      },
      "geometry": {
        "type": "Polygon",
        "coordinates": [
          [
            [
              116.338,
              39.995
            ],
            [
              116.3395,
              39.995
            ],
            [
              116.3395,
              39.997
            ],
            [
              116.338,
              39.997
            ],
            [
              116.338,
              39.995
            ]
          ]
        ]
      }
    }
  ]
}