{
  "type": "FeatureCollection",
  "name": "green_space_yachiyo_moon_rail",
  "features": [
    {
      "type": "Feature",
      "id": "GREEN-001",
      "properties": {
        "id": "GREEN-001",
        "layer": "GREEN_SPACE",
        "land_use_code": "1401",
        "name_zh": "京张遗址公园月光轨道绿廊（概念）",
        "geometry_role": "design_proposal",
        "source_type": "agent_generated_design",
        "usage_note": "概念绿地，用于蓝绿网络与公共空间结构表达；非绿线、非控规结论。",
        "confidence": "medium"
      },
      "geometry": {
        "type": "Polygon",
        "coordinates": [
          [
            [
              116.3433,
              40.02
            ],
            [
              116.3467,
              40.02
            ],
            [
              116.3467,
              39.955
            ],
            [
              116.3433,
              39.955
            ],
            [
              116.3433,
              40.02
            ]
          ]
        ]
      }
    },
    {
      "type": "Feature",
      "id": "GREEN-002",
      "properties": {
        "id": "GREEN-002",
        "layer": "GREEN_SPACE",
        "land_use_code": "1401",
        "name_zh": "清河滨水绿带（众智园段概念）",
        "geometry_role": "design_proposal",
        "source_type": "agent_generated_design",
        "usage_note": "概念绿地，用于蓝绿网络与公共空间结构表达；非绿线、非控规结论。",
        "confidence": "medium"
      },
      "geometry": {
        "type": "Polygon",
        "coordinates": [
          [
            [
              116.3543,
              40.025600000000004
            ],
            [
              116.34270000000001,
              40.025600000000004
            ],
            [
              116.34270000000001,
              40.0265
            ],
            [
              116.3543,
              40.0265
            ],
            [
              116.3543,
              40.025600000000004
            ]
          ]
        ]
      }
    },
    {
      "type": "Feature",
      "id": "GREEN-003",
      "properties": {
        "id": "GREEN-003",
        "layer": "GREEN_SPACE",
        "land_use_code": "1401",
        "name_zh": "小月河滨水绿带（场景赋能翼概念）",
        "geometry_role": "design_proposal",
        "source_type": "agent_generated_design",
        "usage_note": "概念绿地，用于蓝绿网络与公共空间结构表达；非绿线、非控规结论。",
        "confidence": "medium"
      },
      "geometry": {
        "type": "Polygon",
        "coordinates": [
          [
            [
              116.3418,
              39.99
            ],
            [
              116.3418,
              39.952
            ],
            [
              116.34033888888888,
              39.952
            ],
            [
              116.3402,
              39.957
            ],
            [
              116.3402,
              39.98275
            ],
            [
              116.34066774193548,
              39.99
            ],
            [
              116.3418,
              39.99
            ]
          ]
        ]
      }
    }
  ]
}
