{
  "type": "FeatureCollection",
  "name": "green_space_enriched",
  "features": [
    {
      "type": "Feature",
      "id": "GREEN-001",
      "properties": {
        "id": "GREEN-001",
        "layer": "GREEN_SPACE",
        "source_type": "agent_generated_design",
        "confidence": "medium",
        "geometry_role": "design_proposal",
        "green_type": "railway_park",
        "name_zh": "京张遗址公园主体绿地",
        "area_sqm_declared": 3300706.237
      },
      "geometry": {
        "type": "Polygon",
        "coordinates": [
          [
            [
              116.346,
              40.026
            ],
            [
              116.35,
              40.026
            ],
            [
              116.35,
              39.939
            ],
            [
              116.346,
              39.939
            ],
            [
              116.346,
              40.026
            ]
          ]
        ]
      }
    },
    {
      "type": "Feature",
      "id": "GREEN-002",
      "properties": {
        "id": "GREEN-002",
        "layer": "GREEN_SPACE",
        "source_type": "agent_generated_design",
        "confidence": "medium",
        "geometry_role": "design_proposal",
        "green_type": "ecological",
        "name_zh": "清河低碳创新廊",
        "area_sqm_declared": 142194.831
      },
      "geometry": {
        "type": "Polygon",
        "coordinates": [
          [
            [
              116.3505,
              40.0175
            ],
            [
              116.3535,
              40.0175
            ],
            [
              116.3535,
              40.0225
            ],
            [
              116.3505,
              40.0225
            ],
            [
              116.3505,
              40.0175
            ]
          ]
        ]
      }
    },
    {
      "type": "Feature",
      "id": "GREEN-003",
      "properties": {
        "id": "GREEN-003",
        "layer": "GREEN_SPACE",
        "source_type": "agent_generated_design",
        "confidence": "medium",
        "geometry_role": "design_proposal",
        "green_type": "park",
        "name_zh": "众智园花园广场",
        "area_sqm_declared": 56879.667
      },
      "geometry": {
        "type": "Polygon",
        "coordinates": [
          [
            [
              116.344,
              40.0165
            ],
            [
              116.346,
              40.0165
            ],
            [
              116.346,
              40.0195
            ],
            [
              116.344,
              40.0195
            ],
            [
              116.344,
              40.0165
            ]
          ]
        ]
      }
    },
    {
      "type": "Feature",
      "id": "GREEN-004",
      "properties": {
        "id": "GREEN-004",
        "layer": "GREEN_SPACE",
        "source_type": "agent_generated_design",
        "confidence": "medium",
        "geometry_role": "design_proposal",
        "green_type": "pocket_park",
        "name_zh": "原点社区口袋公园",
        "area_sqm_declared": 37935.099
      },
      "geometry": {
        "type": "Polygon",
        "coordinates": [
          [
            [
              116.343,
              39.989
            ],
            [
              116.345,
              39.989
            ],
            [
              116.345,
              39.991
            ],
            [
              116.343,
              39.991
            ],
            [
              116.343,
              39.989
            ]
          ]
        ]
      }
    },
    {
      "type": "Feature",
      "id": "GREEN-005",
      "properties": {
        "id": "GREEN-005",
        "layer": "GREEN_SPACE",
        "source_type": "agent_generated_design",
        "confidence": "medium",
        "geometry_role": "design_proposal",
        "green_type": "park",
        "name_zh": "近校慢行绿廊",
        "area_sqm_declared": 37937.214
      },
      "geometry": {
        "type": "Polygon",
        "coordinates": [
          [
            [
              116.351,
              39.985
            ],
            [
              116.353,
              39.985
            ],
            [
              116.353,
              39.987
            ],
            [
              116.351,
              39.987
            ],
            [
              116.351,
              39.985
            ]
          ]
        ]
      }
    },
    {
      "type": "Feature",
      "id": "GREEN-006",
      "properties": {
        "id": "GREEN-006",
        "layer": "GREEN_SPACE",
        "source_type": "agent_generated_design",
        "confidence": "medium",
        "geometry_role": "design_proposal",
        "green_type": "ecological",
        "name_zh": "大钟寺复合绿地",
        "area_sqm_declared": 85405.452
      },
      "geometry": {
        "type": "Polygon",
        "coordinates": [
          [
            [
              116.3505,
              39.9465
            ],
            [
              116.3535,
              39.9465
            ],
            [
              116.3535,
              39.9495
            ],
            [
              116.3505,
              39.9495
            ],
            [
              116.3505,
              39.9465
            ]
          ]
        ]
      }
    },
    {
      "type": "Feature",
      "id": "GREEN-007",
      "properties": {
        "id": "GREEN-007",
        "layer": "GREEN_SPACE",
        "source_type": "agent_generated_design",
        "confidence": "medium",
        "geometry_role": "design_proposal",
        "green_type": "pocket_park",
        "name_zh": "大钟寺站前广场绿地",
        "area_sqm_declared": 37959.142
      },
      "geometry": {
        "type": "Polygon",
        "coordinates": [
          [
            [
              116.343,
              39.945
            ],
            [
              116.345,
              39.945
            ],
            [
              116.345,
              39.947
            ],
            [
              116.343,
              39.947
            ],
            [
              116.343,
              39.945
            ]
          ]
        ]
      }
    },
    {
      "type": "Feature",
      "id": "GREEN-008",
      "properties": {
        "id": "GREEN-008",
        "layer": "GREEN_SPACE",
        "source_type": "agent_generated_design",
        "confidence": "medium",
        "geometry_role": "design_proposal",
        "green_type": "linear_park",
        "name_zh": "小月河场景赋能绿廊",
        "area_sqm_declared": 75891.936
      },
      "geometry": {
        "type": "Polygon",
        "coordinates": [
          [
            [
              116.35,
              39.968
            ],
            [
              116.352,
              39.968
            ],
            [
              116.352,
              39.972
            ],
            [
              116.35,
              39.972
            ],
            [
              116.35,
              39.968
            ]
          ]
        ]
      }
    }
  ]
}
