{
  "type": "FeatureCollection",
  "name": "curiosity_yards",
  "features": [
    {
      "type": "Feature",
      "id": "BLDG-001",
      "properties": {
        "id": "BLDG-001",
        "layer": "BUILDING_FOOTPRINT",
        "source_type": "agent_generated_design",
        "confidence": "medium",
        "geometry_role": "design_proposal",
        "name_zh": "众智问造院",
        "name_en": "Zhongzhiyuan Make-and-Test Yard",
        "building_type": "community_service",
        "renewal_action": "adaptive_reuse_concept",
        "usage_note": "Conceptual footprint; existing buildings, ownership and controls require official survey.",
        "area_sqm_declared": 71179.283
      },
      "geometry": {
        "type": "Polygon",
        "coordinates": [
          [
            [
              116.342196,
              40.00725
            ],
            [
              116.342196,
              40.0120625
            ],
            [
              116.343756,
              40.0120625
            ],
            [
              116.343756,
              40.00725
            ],
            [
              116.342196,
              40.00725
            ]
          ]
        ]
      }
    },
    {
      "type": "Feature",
      "id": "BLDG-002",
      "properties": {
        "id": "BLDG-002",
        "layer": "BUILDING_FOOTPRINT",
        "source_type": "agent_generated_design",
        "confidence": "medium",
        "geometry_role": "design_proposal",
        "name_zh": "原点共学问院",
        "name_en": "AI Origin Co-learning Yard",
        "building_type": "community_service",
        "renewal_action": "adaptive_reuse_concept",
        "usage_note": "Conceptual footprint; existing buildings, ownership and controls require official survey.",
        "area_sqm_declared": 71203.426
      },
      "geometry": {
        "type": "Polygon",
        "coordinates": [
          [
            [
              116.34828,
              39.983624999999996
            ],
            [
              116.34828,
              39.988437499999996
            ],
            [
              116.34984,
              39.988437499999996
            ],
            [
              116.34984,
              39.983624999999996
            ],
            [
              116.34828,
              39.983624999999996
            ]
          ]
        ]
      }
    },
    {
      "type": "Feature",
      "id": "BLDG-003",
      "properties": {
        "id": "BLDG-003",
        "layer": "BUILDING_FOOTPRINT",
        "source_type": "agent_generated_design",
        "confidence": "medium",
        "geometry_role": "design_proposal",
        "name_zh": "大钟寺城市问市",
        "name_en": "Dazhongsi Public Question Market",
        "building_type": "community_service",
        "renewal_action": "adaptive_reuse_concept",
        "usage_note": "Conceptual footprint; existing buildings, ownership and controls require official survey.",
        "area_sqm_declared": 71234.018
      },
      "geometry": {
        "type": "Polygon",
        "coordinates": [
          [
            [
              116.3436,
              39.953875
            ],
            [
              116.3436,
              39.958687499999996
            ],
            [
              116.34515999999999,
              39.958687499999996
            ],
            [
              116.34515999999999,
              39.953875
            ],
            [
              116.3436,
              39.953875
            ]
          ]
        ]
      }
    }
  ]
}
