{
  "type": "FeatureCollection",
  "name": "twelve_question_stops",
  "features": [
    {
      "type": "Feature",
      "id": "PUBLIC-001",
      "properties": {
        "id": "PUBLIC-001",
        "layer": "PUBLIC_SPACE",
        "source_type": "agent_generated_design",
        "confidence": "medium",
        "geometry_role": "design_proposal",
        "name_zh": "问号站01·为什么能走到这里",
        "name_en": "Question Stop 01: Why can I reach here?",
        "station_number": 1,
        "design_intent": "child_and_caregiver_observation_review_and_human_fallback",
        "area_sqm_declared": 14572.697
      },
      "geometry": {
        "type": "Polygon",
        "coordinates": [
          [
            [
              116.34625199999999,
              39.945125
            ],
            [
              116.34625199999999,
              39.9473125
            ],
            [
              116.346954,
              39.9473125
            ],
            [
              116.346954,
              39.945125
            ],
            [
              116.34625199999999,
              39.945125
            ]
          ]
        ]
      }
    },
    {
      "type": "Feature",
      "id": "PUBLIC-002",
      "properties": {
        "id": "PUBLIC-002",
        "layer": "PUBLIC_SPACE",
        "source_type": "agent_generated_design",
        "confidence": "medium",
        "geometry_role": "design_proposal",
        "name_zh": "问号站02·这棵树今天好吗",
        "name_en": "Question Stop 02: How is this tree today?",
        "station_number": 2,
        "design_intent": "child_and_caregiver_observation_review_and_human_fallback",
        "area_sqm_declared": 14571.315
      },
      "geometry": {
        "type": "Polygon",
        "coordinates": [
          [
            [
              116.347968,
              39.9516875
            ],
            [
              116.347968,
              39.953875
            ],
            [
              116.34867,
              39.953875
            ],
            [
              116.34867,
              39.9516875
            ],
            [
              116.347968,
              39.9516875
            ]
          ]
        ]
      }
    },
    {
      "type": "Feature",
      "id": "PUBLIC-003",
      "properties": {
        "id": "PUBLIC-003",
        "layer": "PUBLIC_SPACE",
        "source_type": "agent_generated_design",
        "confidence": "medium",
        "geometry_role": "design_proposal",
        "name_zh": "问号站03·机器人何时该停",
        "name_en": "Question Stop 03: When should a robot stop?",
        "station_number": 3,
        "design_intent": "child_and_caregiver_observation_review_and_human_fallback",
        "area_sqm_declared": 14569.945
      },
      "geometry": {
        "type": "Polygon",
        "coordinates": [
          [
            [
              116.34625199999999,
              39.95825
            ],
            [
              116.34625199999999,
              39.9604375
            ],
            [
              116.346954,
              39.9604375
            ],
            [
              116.346954,
              39.95825
            ],
            [
              116.34625199999999,
              39.95825
            ]
          ]
        ]
      }
    },
    {
      "type": "Feature",
      "id": "PUBLIC-004",
      "properties": {
        "id": "PUBLIC-004",
        "layer": "PUBLIC_SPACE",
        "source_type": "agent_generated_design",
        "confidence": "medium",
        "geometry_role": "design_proposal",
        "name_zh": "问号站04·谁能看见这条数据",
        "name_en": "Question Stop 04: Who can see this data?",
        "station_number": 4,
        "design_intent": "child_and_caregiver_observation_review_and_human_fallback",
        "area_sqm_declared": 14568.562
      },
      "geometry": {
        "type": "Polygon",
        "coordinates": [
          [
            [
              116.347968,
              39.9648125
            ],
            [
              116.347968,
              39.967
            ],
            [
              116.34867,
              39.967
            ],
            [
              116.34867,
              39.9648125
            ],
            [
              116.347968,
              39.9648125
            ]
          ]
        ]
      }
    },
    {
      "type": "Feature",
      "id": "PUBLIC-005",
      "properties": {
        "id": "PUBLIC-005",
        "layer": "PUBLIC_SPACE",
        "source_type": "agent_generated_design",
        "confidence": "medium",
        "geometry_role": "design_proposal",
        "name_zh": "问号站05·历史怎样被讲述",
        "name_en": "Question Stop 05: How should history be told?",
        "station_number": 5,
        "design_intent": "child_and_caregiver_observation_review_and_human_fallback",
        "area_sqm_declared": 14567.191
      },
      "geometry": {
        "type": "Polygon",
        "coordinates": [
          [
            [
              116.34625199999999,
              39.971375
            ],
            [
              116.34625199999999,
              39.9735625
            ],
            [
              116.346954,
              39.9735625
            ],
            [
              116.346954,
              39.971375
            ],
            [
              116.34625199999999,
              39.971375
            ]
          ]
        ]
      }
    },
    {
      "type": "Feature",
      "id": "PUBLIC-006",
      "properties": {
        "id": "PUBLIC-006",
        "layer": "PUBLIC_SPACE",
        "source_type": "agent_generated_design",
        "confidence": "medium",
        "geometry_role": "design_proposal",
        "name_zh": "问号站06·AI为什么这样回答",
        "name_en": "Question Stop 06: Why did AI answer this way?",
        "station_number": 6,
        "design_intent": "child_and_caregiver_observation_review_and_human_fallback",
        "area_sqm_declared": 14565.809
      },
      "geometry": {
        "type": "Polygon",
        "coordinates": [
          [
            [
              116.347968,
              39.977937499999996
            ],
            [
              116.347968,
              39.980125
            ],
            [
              116.34867,
              39.980125
            ],
            [
              116.34867,
              39.977937499999996
            ],
            [
              116.347968,
              39.977937499999996
            ]
          ]
        ]
      }
    },
    {
      "type": "Feature",
      "id": "PUBLIC-007",
      "properties": {
        "id": "PUBLIC-007",
        "layer": "PUBLIC_SPACE",
        "source_type": "agent_generated_design",
        "confidence": "medium",
        "geometry_role": "design_proposal",
        "name_zh": "问号站07·不会用手机怎么办",
        "name_en": "Question Stop 07: What if I cannot use a phone?",
        "station_number": 7,
        "design_intent": "child_and_caregiver_observation_review_and_human_fallback",
        "area_sqm_declared": 14564.437
      },
      "geometry": {
        "type": "Polygon",
        "coordinates": [
          [
            [
              116.34625199999999,
              39.9845
            ],
            [
              116.34625199999999,
              39.9866875
            ],
            [
              116.346954,
              39.9866875
            ],
            [
              116.346954,
              39.9845
            ],
            [
              116.34625199999999,
              39.9845
            ]
          ]
        ]
      }
    },
    {
      "type": "Feature",
      "id": "PUBLIC-008",
      "properties": {
        "id": "PUBLIC-008",
        "layer": "PUBLIC_SPACE",
        "source_type": "agent_generated_design",
        "confidence": "medium",
        "geometry_role": "design_proposal",
        "name_zh": "问号站08·谁来修复错误",
        "name_en": "Question Stop 08: Who fixes an error?",
        "station_number": 8,
        "design_intent": "child_and_caregiver_observation_review_and_human_fallback",
        "area_sqm_declared": 14563.054
      },
      "geometry": {
        "type": "Polygon",
        "coordinates": [
          [
            [
              116.347968,
              39.9910625
            ],
            [
              116.347968,
              39.993249999999996
            ],
            [
              116.34867,
              39.993249999999996
            ],
            [
              116.34867,
              39.9910625
            ],
            [
              116.347968,
              39.9910625
            ]
          ]
        ]
      }
    },
    {
      "type": "Feature",
      "id": "PUBLIC-009",
      "properties": {
        "id": "PUBLIC-009",
        "layer": "PUBLIC_SPACE",
        "source_type": "agent_generated_design",
        "confidence": "medium",
        "geometry_role": "design_proposal",
        "name_zh": "问号站09·夜晚如何更安心",
        "name_en": "Question Stop 09: How can night feel safer?",
        "station_number": 9,
        "design_intent": "child_and_caregiver_observation_review_and_human_fallback",
        "area_sqm_declared": 14561.683
      },
      "geometry": {
        "type": "Polygon",
        "coordinates": [
          [
            [
              116.34625199999999,
              39.997625
            ],
            [
              116.34625199999999,
              39.9998125
            ],
            [
              116.346954,
              39.9998125
            ],
            [
              116.346954,
              39.997625
            ],
            [
              116.34625199999999,
              39.997625
            ]
          ]
        ]
      }
    },
    {
      "type": "Feature",
      "id": "PUBLIC-010",
      "properties": {
        "id": "PUBLIC-010",
        "layer": "PUBLIC_SPACE",
        "source_type": "agent_generated_design",
        "confidence": "medium",
        "geometry_role": "design_proposal",
        "name_zh": "问号站10·下雨后水去哪里",
        "name_en": "Question Stop 10: Where does rainwater go?",
        "station_number": 10,
        "design_intent": "child_and_caregiver_observation_review_and_human_fallback",
        "area_sqm_declared": 14560.299
      },
      "geometry": {
        "type": "Polygon",
        "coordinates": [
          [
            [
              116.347968,
              40.0041875
            ],
            [
              116.347968,
              40.006375
            ],
            [
              116.34867,
              40.006375
            ],
            [
              116.34867,
              40.0041875
            ],
            [
              116.347968,
              40.0041875
            ]
          ]
        ]
      }
    },
    {
      "type": "Feature",
      "id": "PUBLIC-011",
      "properties": {
        "id": "PUBLIC-011",
        "layer": "PUBLIC_SPACE",
        "source_type": "agent_generated_design",
        "confidence": "medium",
        "geometry_role": "design_proposal",
        "name_zh": "问号站11·城市能听见孩子吗",
        "name_en": "Question Stop 11: Can the city hear children?",
        "station_number": 11,
        "design_intent": "child_and_caregiver_observation_review_and_human_fallback",
        "area_sqm_declared": 14558.927
      },
      "geometry": {
        "type": "Polygon",
        "coordinates": [
          [
            [
              116.34625199999999,
              40.01075
            ],
            [
              116.34625199999999,
              40.0129375
            ],
            [
              116.346954,
              40.0129375
            ],
            [
              116.346954,
              40.01075
            ],
            [
              116.34625199999999,
              40.01075
            ]
          ]
        ]
      }
    },
    {
      "type": "Feature",
      "id": "PUBLIC-012",
      "properties": {
        "id": "PUBLIC-012",
        "layer": "PUBLIC_SPACE",
        "source_type": "agent_generated_design",
        "confidence": "medium",
        "geometry_role": "design_proposal",
        "name_zh": "问号站12·一次试验如何退出",
        "name_en": "Question Stop 12: How does a pilot stop?",
        "station_number": 12,
        "design_intent": "child_and_caregiver_observation_review_and_human_fallback",
        "area_sqm_declared": 14557.543
      },
      "geometry": {
        "type": "Polygon",
        "coordinates": [
          [
            [
              116.347968,
              40.017312499999996
            ],
            [
              116.347968,
              40.0195
            ],
            [
              116.34867,
              40.0195
            ],
            [
              116.34867,
              40.017312499999996
            ],
            [
              116.347968,
              40.017312499999996
            ]
          ]
        ]
      }
    }
  ]
}
