{
 "features": [
  {
   "geometry": {
    "coordinates": [
     [
      [
       116.3432,
       40.009
      ],
      [
       116.3432,
       40.012
      ],
      [
       116.3453,
       40.012
      ],
      [
       116.3453,
       40.009
      ],
      [
       116.3432,
       40.009
      ]
     ]
    ],
    "type": "Polygon"
   },
   "id": "BLD-ZZY-001",
   "properties": {
    "area_sqm_calculated": 59730.122,
    "area_sqm_declared": null,
    "boundary_precision": "provisional_rough",
    "building_type": "ai_r_and_d",
    "building_type_label_zh": "AI研发",
    "concept_stage": "概念组团研究方向（供专业团队深化）",
    "confidence": "low",
    "derived_from_source_ids": [
     "DATA-SRC-OFFICIAL-ANNOUNCEMENT-20260509"
    ],
    "geometry_role": "design_proposal",
    "id": "BLD-ZZY-001",
    "layer": "BUILDING_FOOTPRINT",
    "name_zh": "造解站研发组团（概念）",
    "note_zh": "众智园造解站：问题→可验证解法的研发组团概念",
    "official_boundary": false,
    "source_id": "DATA-SRC-PROVISIONAL-BOUNDARIES-20260605",
    "source_type": "agent_generated_design",
    "status_zh": "概念示意；不代表现状建筑基底、拆改留结论或工程可行性"
   },
   "type": "Feature"
  },
  {
   "geometry": {
    "coordinates": [
     [
      [
       116.3482,
       40.017
      ],
      [
       116.3482,
       40.0195
      ],
      [
       116.3503,
       40.0195
      ],
      [
       116.3503,
       40.017
      ],
      [
       116.3482,
       40.017
      ]
     ]
    ],
    "type": "Polygon"
   },
   "id": "BLD-ZZY-002",
   "properties": {
    "area_sqm_calculated": 49769.479,
    "area_sqm_declared": null,
    "boundary_precision": "provisional_rough",
    "building_type": "lab",
    "building_type_label_zh": "实验室",
    "concept_stage": "概念组团研究方向（供专业团队深化）",
    "confidence": "low",
    "derived_from_source_ids": [
     "DATA-SRC-OFFICIAL-ANNOUNCEMENT-20260509"
    ],
    "geometry_role": "design_proposal",
    "id": "BLD-ZZY-002",
    "layer": "BUILDING_FOOTPRINT",
    "name_zh": "模型体检场/机器人低风险试验场（概念）",
    "note_zh": "众智园：模型偏差/稳健性/失败边界测试与机器人低风险试验空间概念",
    "official_boundary": false,
    "source_id": "DATA-SRC-PROVISIONAL-BOUNDARIES-20260605",
    "source_type": "agent_generated_design",
    "status_zh": "概念示意；不代表现状建筑基底、拆改留结论或工程可行性"
   },
   "type": "Feature"
  },
  {
   "geometry": {
    "coordinates": [
     [
      [
       116.3507,
       40.0095
      ],
      [
       116.3507,
       40.012
      ],
      [
       116.3528,
       40.012
      ],
      [
       116.3528,
       40.0095
      ],
      [
       116.3507,
       40.0095
      ]
     ]
    ],
    "type": "Polygon"
   },
   "id": "BLD-ZZY-003",
   "properties": {
    "area_sqm_calculated": 49774.835,
    "area_sqm_declared": null,
    "boundary_precision": "provisional_rough",
    "building_type": "cultural",
    "building_type_label_zh": "文化展示",
    "concept_stage": "概念组团研究方向（供专业团队深化）",
    "confidence": "low",
    "derived_from_source_ids": [
     "DATA-SRC-OFFICIAL-ANNOUNCEMENT-20260509"
    ],
    "geometry_role": "design_proposal",
    "id": "BLD-ZZY-003",
    "layer": "BUILDING_FOOTPRINT",
    "name_zh": "成果演示与失败复盘空间（概念）",
    "note_zh": "众智园：成果演示、失败复盘与公共验证接口概念",
    "official_boundary": false,
    "source_id": "DATA-SRC-PROVISIONAL-BOUNDARIES-20260605",
    "source_type": "agent_generated_design",
    "status_zh": "概念示意；不代表现状建筑基底、拆改留结论或工程可行性"
   },
   "type": "Feature"
  },
  {
   "geometry": {
    "coordinates": [
     [
      [
       116.351,
       40.014
      ],
      [
       116.351,
       40.0165
      ],
      [
       116.353,
       40.0165
      ],
      [
       116.353,
       40.014
      ],
      [
       116.351,
       40.014
      ]
     ]
    ],
    "type": "Polygon"
   },
   "id": "BLD-ZZY-004",
   "properties": {
    "area_sqm_calculated": 47401.525,
    "area_sqm_declared": null,
    "boundary_precision": "provisional_rough",
    "building_type": "incubator",
    "building_type_label_zh": "孵化器/加速器",
    "concept_stage": "概念组团研究方向（供专业团队深化）",
    "confidence": "low",
    "derived_from_source_ids": [
     "DATA-SRC-OFFICIAL-ANNOUNCEMENT-20260509"
    ],
    "geometry_role": "design_proposal",
    "id": "BLD-ZZY-004",
    "layer": "BUILDING_FOOTPRINT",
    "name_zh": "算力与开源工具链共享楼（概念）",
    "note_zh": "众智园：算力预约、开源工具链与开发者公共工作台概念",
    "official_boundary": false,
    "source_id": "DATA-SRC-PROVISIONAL-BOUNDARIES-20260605",
    "source_type": "agent_generated_design",
    "status_zh": "概念示意；不代表现状建筑基底、拆改留结论或工程可行性"
   },
   "type": "Feature"
  },
  {
   "geometry": {
    "coordinates": [
     [
      [
       116.349,
       39.987
      ],
      [
       116.349,
       39.9895
      ],
      [
       116.3515,
       39.9895
      ],
      [
       116.3515,
       39.987
      ],
      [
       116.349,
       39.987
      ]
     ]
    ],
    "type": "Polygon"
   },
   "id": "BLD-ORIGIN-001",
   "properties": {
    "area_sqm_calculated": 59275.0,
    "area_sqm_declared": null,
    "boundary_precision": "provisional_rough",
    "building_type": "cultural",
    "building_type_label_zh": "文化展示",
    "concept_stage": "概念组团研究方向（供专业团队深化）",
    "confidence": "low",
    "derived_from_source_ids": [
     "DATA-SRC-OFFICIAL-ANNOUNCEMENT-20260509"
    ],
    "geometry_role": "design_proposal",
    "id": "BLD-ORIGIN-001",
    "layer": "BUILDING_FOOTPRINT",
    "name_zh": "会车总台建筑群（概念，L01 载体）",
    "note_zh": "AI 原点社区公共核心：场景申请、公开评审、国际交流、年度大会共同入口概念",
    "official_boundary": false,
    "source_id": "DATA-SRC-PROVISIONAL-BOUNDARIES-20260605",
    "source_type": "agent_generated_design",
    "status_zh": "概念示意；不代表现状建筑基底、拆改留结论或工程可行性"
   },
   "type": "Feature"
  },
  {
   "geometry": {
    "coordinates": [
     [
      [
       116.3492,
       39.9845
      ],
      [
       116.3492,
       39.9865
      ],
      [
       116.351,
       39.9865
      ],
      [
       116.351,
       39.9845
      ],
      [
       116.3492,
       39.9845
      ]
     ]
    ],
    "type": "Polygon"
   },
   "id": "BLD-ORIGIN-002",
   "properties": {
    "area_sqm_calculated": 34143.754,
    "area_sqm_declared": null,
    "boundary_precision": "provisional_rough",
    "building_type": "education",
    "building_type_label_zh": "教育科研配套",
    "concept_stage": "概念组团研究方向（供专业团队深化）",
    "confidence": "low",
    "derived_from_source_ids": [
     "DATA-SRC-OFFICIAL-ANNOUNCEMENT-20260509"
    ],
    "geometry_role": "design_proposal",
    "id": "BLD-ORIGIN-002",
    "layer": "BUILDING_FOOTPRINT",
    "name_zh": "AI 夜校/国际开发者客厅（概念）",
    "note_zh": "AI 原点社区：公共学习、青年活动与国际开发者交流空间概念",
    "official_boundary": false,
    "source_id": "DATA-SRC-PROVISIONAL-BOUNDARIES-20260605",
    "source_type": "agent_generated_design",
    "status_zh": "概念示意；不代表现状建筑基底、拆改留结论或工程可行性"
   },
   "type": "Feature"
  },
  {
   "geometry": {
    "coordinates": [
     [
      [
       116.3482,
       39.9905
      ],
      [
       116.3482,
       39.9925
      ],
      [
       116.35,
       39.9925
      ],
      [
       116.35,
       39.9905
      ],
      [
       116.3482,
       39.9905
      ]
     ]
    ],
    "type": "Polygon"
   },
   "id": "BLD-ORIGIN-003",
   "properties": {
    "area_sqm_calculated": 34140.81,
    "area_sqm_declared": null,
    "boundary_precision": "provisional_rough",
    "building_type": "community_service",
    "building_type_label_zh": "社区服务",
    "concept_stage": "概念组团研究方向（供专业团队深化）",
    "confidence": "low",
    "derived_from_source_ids": [
     "DATA-SRC-OFFICIAL-ANNOUNCEMENT-20260509"
    ],
    "geometry_role": "design_proposal",
    "id": "BLD-ORIGIN-003",
    "layer": "BUILDING_FOOTPRINT",
    "name_zh": "社区议题工作坊/可负担共享服务（概念）",
    "note_zh": "AI 原点社区：居民议题、人机协商与可负担共享服务概念",
    "official_boundary": false,
    "source_id": "DATA-SRC-PROVISIONAL-BOUNDARIES-20260605",
    "source_type": "agent_generated_design",
    "status_zh": "概念示意；不代表现状建筑基底、拆改留结论或工程可行性"
   },
   "type": "Feature"
  },
  {
   "geometry": {
    "coordinates": [
     [
      [
       116.3485,
       39.972
      ],
      [
       116.3485,
       39.976
      ],
      [
       116.3525,
       39.976
      ],
      [
       116.3525,
       39.972
      ],
      [
       116.3485,
       39.972
      ]
     ]
    ],
    "type": "Polygon"
   },
   "id": "BLD-GAOXIAO-001",
   "properties": {
    "area_sqm_calculated": 151775.147,
    "area_sqm_declared": null,
    "boundary_precision": "provisional_rough",
    "building_type": "education",
    "building_type_label_zh": "教育科研配套",
    "concept_stage": "概念组团研究方向（供专业团队深化）",
    "confidence": "low",
    "derived_from_source_ids": [
     "DATA-SRC-OFFICIAL-ANNOUNCEMENT-20260509"
    ],
    "geometry_role": "design_proposal",
    "id": "BLD-GAOXIAO-001",
    "layer": "BUILDING_FOOTPRINT",
    "name_zh": "高校带教育科研集群（概念组团）",
    "note_zh": "北航/北邮高校带沿线教育科研空间概念组团（不代表任何具体校园建筑）",
    "official_boundary": false,
    "source_id": "DATA-SRC-PROVISIONAL-BOUNDARIES-20260605",
    "source_type": "agent_generated_design",
    "status_zh": "概念示意；不代表现状建筑基底、拆改留结论或工程可行性"
   },
   "type": "Feature"
  },
  {
   "geometry": {
    "coordinates": [
     [
      [
       116.343,
       39.945
      ],
      [
       116.343,
       39.948
      ],
      [
       116.3465,
       39.948
      ],
      [
       116.3465,
       39.945
      ],
      [
       116.343,
       39.945
      ]
     ]
    ],
    "type": "Polygon"
   },
   "id": "BLD-DZS-001",
   "properties": {
    "area_sqm_calculated": 99642.014,
    "area_sqm_declared": null,
    "boundary_precision": "provisional_rough",
    "building_type": "retail",
    "building_type_label_zh": "商业服务",
    "concept_stage": "概念组团研究方向（供专业团队深化）",
    "confidence": "low",
    "derived_from_source_ids": [
     "DATA-SRC-OFFICIAL-ANNOUNCEMENT-20260509"
    ],
    "geometry_role": "design_proposal",
    "id": "BLD-DZS-001",
    "layer": "BUILDING_FOOTPRINT",
    "name_zh": "智能原生街廊（概念）",
    "note_zh": "大钟寺试行站：智能原生商务/零售/文化体验街廊概念",
    "official_boundary": false,
    "source_id": "DATA-SRC-PROVISIONAL-BOUNDARIES-20260605",
    "source_type": "agent_generated_design",
    "status_zh": "概念示意；不代表现状建筑基底、拆改留结论或工程可行性"
   },
   "type": "Feature"
  },
  {
   "geometry": {
    "coordinates": [
     [
      [
       116.3485,
       39.9448
      ],
      [
       116.3485,
       39.9475
      ],
      [
       116.351,
       39.9475
      ],
      [
       116.351,
       39.9448
      ],
      [
       116.3485,
       39.9448
      ]
     ]
    ],
    "type": "Polygon"
   },
   "id": "BLD-DZS-002",
   "properties": {
    "area_sqm_calculated": 64055.828,
    "area_sqm_declared": null,
    "boundary_precision": "provisional_rough",
    "building_type": "mixed_use",
    "building_type_label_zh": "混合功能",
    "concept_stage": "概念组团研究方向（供专业团队深化）",
    "confidence": "low",
    "derived_from_source_ids": [
     "DATA-SRC-OFFICIAL-ANNOUNCEMENT-20260509"
    ],
    "geometry_role": "design_proposal",
    "id": "BLD-DZS-002",
    "layer": "BUILDING_FOOTPRINT",
    "name_zh": "场景验证大厅（概念）",
    "note_zh": "大钟寺：产业验证、公众可见产品试行与可退出体验门店概念",
    "official_boundary": false,
    "source_id": "DATA-SRC-PROVISIONAL-BOUNDARIES-20260605",
    "source_type": "agent_generated_design",
    "status_zh": "概念示意；不代表现状建筑基底、拆改留结论或工程可行性"
   },
   "type": "Feature"
  },
  {
   "geometry": {
    "coordinates": [
     [
      [
       116.3515,
       39.9448
      ],
      [
       116.3515,
       39.947
      ],
      [
       116.3535,
       39.947
      ],
      [
       116.3535,
       39.9448
      ],
      [
       116.3515,
       39.9448
      ]
     ]
    ],
    "type": "Polygon"
   },
   "id": "BLD-DZS-003",
   "properties": {
    "area_sqm_calculated": 41755.033,
    "area_sqm_declared": null,
    "boundary_precision": "provisional_rough",
    "building_type": "office",
    "building_type_label_zh": "办公",
    "concept_stage": "概念组团研究方向（供专业团队深化）",
    "confidence": "low",
    "derived_from_source_ids": [
     "DATA-SRC-OFFICIAL-ANNOUNCEMENT-20260509"
    ],
    "geometry_role": "design_proposal",
    "id": "BLD-DZS-003",
    "layer": "BUILDING_FOOTPRINT",
    "name_zh": "企业联合测试空间（概念）",
    "note_zh": "大钟寺：企业联合测试、专业服务与公共结果展示面概念",
    "official_boundary": false,
    "source_id": "DATA-SRC-PROVISIONAL-BOUNDARIES-20260605",
    "source_type": "agent_generated_design",
    "status_zh": "概念示意；不代表现状建筑基底、拆改留结论或工程可行性"
   },
   "type": "Feature"
  },
  {
   "geometry": {
    "coordinates": [
     [
      [
       116.3405,
       39.957
      ],
      [
       116.3405,
       39.96
      ],
      [
       116.3428,
       39.96
      ],
      [
       116.3428,
       39.957
      ],
      [
       116.3405,
       39.957
      ]
     ]
    ],
    "type": "Polygon"
   },
   "id": "BLD-HOUSING-001",
   "properties": {
    "area_sqm_calculated": 65467.778,
    "area_sqm_declared": null,
    "boundary_precision": "provisional_rough",
    "building_type": "talent_apartment",
    "building_type_label_zh": "人才公寓",
    "concept_stage": "概念组团研究方向（供专业团队深化）",
    "confidence": "low",
    "derived_from_source_ids": [
     "DATA-SRC-OFFICIAL-ANNOUNCEMENT-20260509"
    ],
    "geometry_role": "design_proposal",
    "id": "BLD-HOUSING-001",
    "layer": "BUILDING_FOOTPRINT",
    "name_zh": "人才公寓组团（概念）",
    "note_zh": "西侧生活翼：青年人才可负担居住概念组团（示意，非现状）",
    "official_boundary": false,
    "source_id": "DATA-SRC-PROVISIONAL-BOUNDARIES-20260605",
    "source_type": "agent_generated_design",
    "status_zh": "概念示意；不代表现状建筑基底、拆改留结论或工程可行性"
   },
   "type": "Feature"
  },
  {
   "geometry": {
    "coordinates": [
     [
      [
       116.34056111111111,
       39.944
      ],
      [
       116.3415,
       39.944
      ],
      [
       116.3415,
       39.942
      ],
      [
       116.34061666666666,
       39.942
      ],
      [
       116.34056111111111,
       39.944
      ]
     ]
    ],
    "type": "Polygon"
   },
   "id": "BLD-SVC-001",
   "properties": {
    "area_sqm_calculated": 17293.25,
    "area_sqm_declared": null,
    "boundary_precision": "provisional_rough",
    "building_type": "community_service",
    "building_type_label_zh": "社区服务",
    "concept_stage": "概念组团研究方向（供专业团队深化）",
    "confidence": "low",
    "derived_from_source_ids": [
     "DATA-SRC-OFFICIAL-ANNOUNCEMENT-20260509"
    ],
    "geometry_role": "design_proposal",
    "id": "BLD-SVC-001",
    "layer": "BUILDING_FOOTPRINT",
    "name_zh": "社区服务中心（概念）",
    "note_zh": "西侧生活翼：社区服务与人工窗口概念",
    "official_boundary": false,
    "source_id": "DATA-SRC-PROVISIONAL-BOUNDARIES-20260605",
    "source_type": "agent_generated_design",
    "status_zh": "概念示意；不代表现状建筑基底、拆改留结论或工程可行性"
   },
   "type": "Feature"
  }
 ],
 "metadata": {
  "area_check_crs": "EPSG:4548",
  "crs": {
   "properties": {
    "name": "EPSG:4326"
   },
   "type": "name"
  },
  "derived_from": "brief/site-package/geometry/provisional_boundaries.geojson",
  "features_summary": "概念建筑组团（13 个 feature，非现状数据）",
  "generated_at": "2026-08-08T19:36:57+00:00",
  "generated_by": "tools/meet_yard/generate_geometry.py",
  "official_boundary_available": false,
  "provisional_disclosure": "全部边界为 provisional constraint，不得作为官方红线、审批依据或精确面积评分依据；设计内容均为概念建议。"
 },
 "name": "meet_yard_buildings",
 "type": "FeatureCollection"
}