{
 "type": "FeatureCollection",
 "features": [
  {
   "type": "Feature",
   "id": "GREEN-001",
   "properties": {
    "layer": "GREEN_SPACE",
    "source_type": "agent_generated_design",
    "confidence": "medium",
    "geometry_role": "design_proposal",
    "land_use_code": "1401",
    "name_zh": "遗址公园·南端起坡绿地",
    "band_id": "S1",
    "green_type": "park_spine",
    "usage_note": "AI 智能体生成的概念设计建议，供专业团队深化研究，不构成法定规划或实施结论。",
    "id": "GREEN-001",
    "area_sqm_declared": 111902.265
   },
   "geometry": {
    "type": "Polygon",
    "coordinates": [
     [
      [
       116.3488148888889,
       39.944
      ],
      [
       116.3488148888889,
       39.939
      ],
      [
       116.34645666666667,
       39.939
      ],
      [
       116.34645666666667,
       39.944
      ],
      [
       116.3488148888889,
       39.944
      ]
     ]
    ]
   }
  },
  {
   "type": "Feature",
   "id": "GREEN-002",
   "properties": {
    "layer": "GREEN_SPACE",
    "source_type": "agent_generated_design",
    "confidence": "medium",
    "geometry_role": "design_proposal",
    "land_use_code": "1401",
    "name_zh": "遗址公园·联络段线性绿地",
    "band_id": "S3",
    "green_type": "park_spine",
    "usage_note": "AI 智能体生成的概念设计建议，供专业团队深化研究，不构成法定规划或实施结论。",
    "id": "GREEN-002",
    "area_sqm_declared": 204922.297
   },
   "geometry": {
    "type": "Polygon",
    "coordinates": [
     [
      [
       116.34588633333333,
       39.94984
      ],
      [
       116.34588633333333,
       39.96
      ],
      [
       116.348012,
       39.96
      ],
      [
       116.348012,
       39.94984
      ],
      [
       116.34588633333333,
       39.94984
      ]
     ]
    ]
   }
  },
  {
   "type": "Feature",
   "id": "GREEN-003",
   "properties": {
    "layer": "GREEN_SPACE",
    "source_type": "agent_generated_design",
    "confidence": "medium",
    "geometry_role": "design_proposal",
    "land_use_code": "1401",
    "name_zh": "遗址公园·知识段线性绿地",
    "band_id": "S4",
    "green_type": "park_spine",
    "usage_note": "AI 智能体生成的概念设计建议，供专业团队深化研究，不构成法定规划或实施结论。",
    "id": "GREEN-003",
    "area_sqm_declared": 310789.022
   },
   "geometry": {
    "type": "Polygon",
    "coordinates": [
     [
      [
       116.34500399999999,
       39.96
      ],
      [
       116.34500399999999,
       39.975
      ],
      [
       116.347188,
       39.975
      ],
      [
       116.347188,
       39.96
      ],
      [
       116.34500399999999,
       39.96
      ]
     ]
    ]
   }
  },
  {
   "type": "Feature",
   "id": "GREEN-004",
   "properties": {
    "layer": "GREEN_SPACE",
    "source_type": "agent_generated_design",
    "confidence": "medium",
    "geometry_role": "design_proposal",
    "land_use_code": "1401",
    "name_zh": "遗址公园·换乘段绿地",
    "band_id": "S5",
    "green_type": "park_spine",
    "usage_note": "AI 智能体生成的概念设计建议，供专业团队深化研究，不构成法定规划或实施结论。",
    "id": "GREEN-004",
    "area_sqm_declared": 167054.032
   },
   "geometry": {
    "type": "Polygon",
    "coordinates": [
     [
      [
       116.345028,
       39.975
      ],
      [
       116.345028,
       39.9835
      ],
      [
       116.3471,
       39.9835
      ],
      [
       116.3471,
       39.975
      ],
      [
       116.345028,
       39.975
      ]
     ]
    ]
   }
  },
  {
   "type": "Feature",
   "id": "GREEN-005",
   "properties": {
    "layer": "GREEN_SPACE",
    "source_type": "agent_generated_design",
    "confidence": "medium",
    "geometry_role": "design_proposal",
    "land_use_code": "1401",
    "name_zh": "遗址公园·创新联络段绿地",
    "band_id": "S7",
    "green_type": "park_spine",
    "usage_note": "AI 智能体生成的概念设计建议，供专业团队深化研究，不构成法定规划或实施结论。",
    "id": "GREEN-005",
    "area_sqm_declared": 248400.162
   },
   "geometry": {
    "type": "Polygon",
    "coordinates": [
     [
      [
       116.34517046221829,
       39.9935
      ],
      [
       116.34517046221829,
       40.0075
      ],
      [
       116.34704161201944,
       40.0075
      ],
      [
       116.34704161201944,
       39.9935
      ],
      [
       116.34517046221829,
       39.9935
      ]
     ]
    ]
   }
  },
  {
   "type": "Feature",
   "id": "GREEN-006",
   "properties": {
    "layer": "GREEN_SPACE",
    "source_type": "agent_generated_design",
    "confidence": "medium",
    "geometry_role": "design_proposal",
    "land_use_code": "1401",
    "name_zh": "遗址公园·攀升段绿地",
    "band_id": "S8",
    "green_type": "park_spine",
    "usage_note": "AI 智能体生成的概念设计建议，供专业团队深化研究，不构成法定规划或实施结论。",
    "id": "GREEN-006",
    "area_sqm_declared": 378809.131
   },
   "geometry": {
    "type": "Polygon",
    "coordinates": [
     [
      [
       116.34771292081524,
       40.0075
      ],
      [
       116.34771292081524,
       40.026
      ],
      [
       116.34987282993653,
       40.026
      ],
      [
       116.34987282993653,
       40.0075
      ],
      [
       116.34771292081524,
       40.0075
      ]
     ]
    ]
   }
  },
  {
   "type": "Feature",
   "id": "GREEN-007",
   "properties": {
    "layer": "GREEN_SPACE",
    "source_type": "agent_generated_design",
    "confidence": "medium",
    "geometry_role": "design_proposal",
    "land_use_code": "1402",
    "name_zh": "北五环沿线防护绿地（西）",
    "band_id": "S9",
    "green_type": "protective",
    "usage_note": "AI 智能体生成的概念设计建议，供专业团队深化研究，不构成法定规划或实施结论。",
    "id": "GREEN-007",
    "area_sqm_declared": 25071.684
   },
   "geometry": {
    "type": "Polygon",
    "coordinates": [
     [
      [
       116.34267560975609,
       40.026
      ],
      [
       116.3427,
       40.0265
      ],
      [
       116.34797785365853,
       40.0265
      ],
      [
       116.34797785365853,
       40.026
      ],
      [
       116.34267560975609,
       40.026
      ]
     ]
    ]
   }
  },
  {
   "type": "Feature",
   "id": "GREEN-008",
   "properties": {
    "layer": "GREEN_SPACE",
    "source_type": "agent_generated_design",
    "confidence": "medium",
    "geometry_role": "design_proposal",
    "land_use_code": "1401",
    "name_zh": "遗址公园·北端门户绿地",
    "band_id": "S9",
    "green_type": "park_spine",
    "usage_note": "AI 智能体生成的概念设计建议，供专业团队深化研究，不构成法定规划或实施结论。",
    "id": "GREEN-008",
    "area_sqm_declared": 10769.774
   },
   "geometry": {
    "type": "Polygon",
    "coordinates": [
     [
      [
       116.34797785365853,
       40.026
      ],
      [
       116.34797785365853,
       40.0265
      ],
      [
       116.35025024390244,
       40.0265
      ],
      [
       116.35025024390244,
       40.026
      ],
      [
       116.34797785365853,
       40.026
      ]
     ]
    ]
   }
  },
  {
   "type": "Feature",
   "id": "GREEN-009",
   "properties": {
    "layer": "GREEN_SPACE",
    "source_type": "agent_generated_design",
    "confidence": "medium",
    "geometry_role": "design_proposal",
    "land_use_code": "1402",
    "name_zh": "北五环沿线防护绿地（东）",
    "band_id": "S9",
    "green_type": "protective",
    "usage_note": "AI 智能体生成的概念设计建议，供专业团队深化研究，不构成法定规划或实施结论。",
    "id": "GREEN-009",
    "area_sqm_declared": 23867.902
   },
   "geometry": {
    "type": "Polygon",
    "coordinates": [
     [
      [
       116.35025024390244,
       40.026
      ],
      [
       116.35025024390244,
       40.0265
      ],
      [
       116.3553,
       40.0265
      ],
      [
       116.35527260273973,
       40.026
      ],
      [
       116.35025024390244,
       40.026
      ]
     ]
    ]
   }
  }
 ]
}
