{
    "type":  "FeatureCollection",
    "name":  "green_blue.geojson",
    "features":  [
                     {
                         "type":  "Feature",
                         "properties":  {
                                            "area_sqm":  null,
                                            "source_ids":  [
                                                               "NEWS-JZ-PARK-2026",
                                                               "OSM-BASELINE"
                                                           ],
                                            "id":  "GB-001",
                                            "kind":  "parkline",
                                            "geometry_role":  "provisional_constraint",
                                            "name_zh":  "京张铁路遗址公园绿廊（9km）",
                                            "official_boundary":  false,
                                            "status":  "context_or_concept",
                                            "layer":  "GREEN_BLUE"
                                        },
                         "geometry":  {
                                          "type":  "LineString",
                                          "coordinates":  [
                                                              [
                                                                  116.353,
                                                                  39.9415
                                                              ],
                                                              [
                                                                  116.347,
                                                                  39.953
                                                              ],
                                                              [
                                                                  116.3442,
                                                                  39.9662
                                                              ],
                                                              [
                                                                  116.3486,
                                                                  39.9758
                                                              ],
                                                              [
                                                                  116.343,
                                                                  39.9845
                                                              ],
                                                              [
                                                                  116.3395,
                                                                  39.9922
                                                              ],
                                                              [
                                                                  116.341,
                                                                  39.9985
                                                              ],
                                                              [
                                                                  116.3515,
                                                                  40.0075
                                                              ],
                                                              [
                                                                  116.3555,
                                                                  40.015
                                                              ],
                                                              [
                                                                  116.3515,
                                                                  40.021
                                                              ]
                                                          ]
                                      }
                     },
                     {
                         "type":  "Feature",
                         "properties":  {
                                            "area_sqm":  null,
                                            "source_ids":  [
                                                               "NEWS-JZ-PARK-2026",
                                                               "OSM-BASELINE"
                                                           ],
                                            "id":  "GB-002",
                                            "kind":  "river",
                                            "geometry_role":  "provisional_constraint",
                                            "name_zh":  "小月河",
                                            "official_boundary":  false,
                                            "status":  "context_or_concept",
                                            "layer":  "GREEN_BLUE"
                                        },
                         "geometry":  {
                                          "type":  "LineString",
                                          "coordinates":  [
                                                              [
                                                                  116.345,
                                                                  39.995
                                                              ],
                                                              [
                                                                  116.35,
                                                                  40.005
                                                              ],
                                                              [
                                                                  116.353,
                                                                  40.015
                                                              ],
                                                              [
                                                                  116.355,
                                                                  40.022
                                                              ]
                                                          ]
                                      }
                     },
                     {
                         "type":  "Feature",
                         "properties":  {
                                            "area_sqm":  null,
                                            "source_ids":  [
                                                               "NEWS-JZ-PARK-2026",
                                                               "OSM-BASELINE"
                                                           ],
                                            "id":  "GB-003",
                                            "kind":  "river",
                                            "geometry_role":  "provisional_constraint",
                                            "name_zh":  "清河滨水绿廊",
                                            "official_boundary":  false,
                                            "status":  "context_or_concept",
                                            "layer":  "GREEN_BLUE"
                                        },
                         "geometry":  {
                                          "type":  "LineString",
                                          "coordinates":  [
                                                              [
                                                                  116.29,
                                                                  40.0215
                                                              ],
                                                              [
                                                                  116.38,
                                                                  40.0215
                                                              ]
                                                          ]
                                      }
                     },
                     {
                         "type":  "Feature",
                         "properties":  {
                                            "area_sqm":  1479083,
                                            "source_ids":  [
                                                               "NEWS-JZ-PARK-2026",
                                                               "OSM-BASELINE"
                                                           ],
                                            "id":  "GB-004",
                                            "kind":  "park",
                                            "geometry_role":  "provisional_constraint",
                                            "name_zh":  "东升八家郊野公园（概念范围）",
                                            "official_boundary":  false,
                                            "status":  "context_or_concept",
                                            "layer":  "GREEN_BLUE"
                                        },
                         "geometry":  {
                                          "type":  "Polygon",
                                          "coordinates":  [
                                                              [
                                                                  [
                                                                      116.34349999999999,
                                                                      40.002
                                                                  ],
                                                                  [
                                                                      116.3565,
                                                                      40.002
                                                                  ],
                                                                  [
                                                                      116.3565,
                                                                      40.014
                                                                  ],
                                                                  [
                                                                      116.34349999999999,
                                                                      40.014
                                                                  ],
                                                                  [
                                                                      116.34349999999999,
                                                                      40.002
                                                                  ]
                                                              ]
                                                          ]
                                      }
                     },
                     {
                         "type":  "Feature",
                         "properties":  {
                                            "area_sqm":  682515,
                                            "source_ids":  [
                                                               "NEWS-JZ-PARK-2026",
                                                               "OSM-BASELINE"
                                                           ],
                                            "id":  "GB-005",
                                            "kind":  "greenwedge",
                                            "geometry_role":  "provisional_constraint",
                                            "name_zh":  "北端生态绿楔（概念）",
                                            "official_boundary":  false,
                                            "status":  "context_or_concept",
                                            "layer":  "GREEN_BLUE"
                                        },
                         "geometry":  {
                                          "type":  "Polygon",
                                          "coordinates":  [
                                                              [
                                                                  [
                                                                      116.336,
                                                                      40.016
                                                                  ],
                                                                  [
                                                                      116.358,
                                                                      40.0185
                                                                  ],
                                                                  [
                                                                      116.352,
                                                                      40.021
                                                                  ],
                                                                  [
                                                                      116.334,
                                                                      40.02
                                                                  ],
                                                                  [
                                                                      116.336,
                                                                      40.016
                                                                  ]
                                                              ]
                                                          ]
                                      }
                     },
                     {
                         "type":  "Feature",
                         "properties":  {
                                            "area_sqm":  301245,
                                            "source_ids":  [
                                                               "NEWS-JZ-PARK-2026",
                                                               "OSM-BASELINE"
                                                           ],
                                            "id":  "GB-006",
                                            "kind":  "greenwedge",
                                            "geometry_role":  "provisional_constraint",
                                            "name_zh":  "大钟寺南绿楔（概念）",
                                            "official_boundary":  false,
                                            "status":  "context_or_concept",
                                            "layer":  "GREEN_BLUE"
                                        },
                         "geometry":  {
                                          "type":  "Polygon",
                                          "coordinates":  [
                                                              [
                                                                  [
                                                                      116.337,
                                                                      39.962
                                                                  ],
                                                                  [
                                                                      116.35,
                                                                      39.962
                                                                  ],
                                                                  [
                                                                      116.348,
                                                                      39.959
                                                                  ],
                                                                  [
                                                                      116.338,
                                                                      39.9595
                                                                  ],
                                                                  [
                                                                      116.337,
                                                                      39.962
                                                                  ]
                                                              ]
                                                          ]
                                      }
                     }
                 ]
}