{
  "type": "FeatureCollection",
  "name": "turn_taking_capacity_test_blocks",
  "features": [
    {
      "type": "Feature",
      "id": "BLDG-001",
      "properties": {
        "id": "BLDG-001",
        "layer": "BUILDING_FOOTPRINT",
        "source_type": "agent_generated_design",
        "confidence": "medium",
        "geometry_role": "design_proposal",
        "building_type": "lab",
        "name_zh": "让行验证实验室容量测试块",
        "name_en": "Yield-validation lab capacity test block",
        "key_area_index": 1,
        "intervention_status": "capacity_test_only",
        "demolition_decision": false,
        "control_status": "pending_official_controls",
        "area_sqm_declared": 76399.918
      },
      "geometry": {
        "type": "Polygon",
        "coordinates": [
          [
            [
              116.34432,
              40.01564
            ],
            [
              116.3463,
              40.01564
            ],
            [
              116.3463,
              40.01157
            ],
            [
              116.34432,
              40.01157
            ],
            [
              116.34432,
              40.01564
            ]
          ]
        ]
      }
    },
    {
      "type": "Feature",
      "id": "BLDG-002",
      "properties": {
        "id": "BLDG-002",
        "layer": "BUILDING_FOOTPRINT",
        "source_type": "agent_generated_design",
        "confidence": "medium",
        "geometry_role": "design_proposal",
        "building_type": "incubator",
        "name_zh": "开放转化加速器容量测试块",
        "name_en": "Open transfer accelerator capacity test block",
        "key_area_index": 1,
        "intervention_status": "capacity_test_only",
        "demolition_decision": false,
        "control_status": "pending_official_controls",
        "area_sqm_declared": 76393.137
      },
      "geometry": {
        "type": "Polygon",
        "coordinates": [
          [
            [
              116.34729,
              40.021745
            ],
            [
              116.34927,
              40.021745
            ],
            [
              116.34927,
              40.017675
            ],
            [
              116.34729,
              40.017675
            ],
            [
              116.34729,
              40.021745
            ]
          ]
        ]
      }
    },
    {
      "type": "Feature",
      "id": "BLDG-003",
      "properties": {
        "id": "BLDG-003",
        "layer": "BUILDING_FOOTPRINT",
        "source_type": "agent_generated_design",
        "confidence": "medium",
        "geometry_role": "design_proposal",
        "building_type": "community_service",
        "name_zh": "人工接管与公共服务厅容量测试块",
        "name_en": "Human takeover and civic service hall capacity test block",
        "key_area_index": 1,
        "intervention_status": "capacity_test_only",
        "demolition_decision": false,
        "control_status": "pending_official_controls",
        "area_sqm_declared": 76399.812
      },
      "geometry": {
        "type": "Polygon",
        "coordinates": [
          [
            [
              116.35026,
              40.01564
            ],
            [
              116.35224,
              40.01564
            ],
            [
              116.35224,
              40.01157
            ],
            [
              116.35026,
              40.01157
            ],
            [
              116.35026,
              40.01564
            ]
          ]
        ]
      }
    },
    {
      "type": "Feature",
      "id": "BLDG-004",
      "properties": {
        "id": "BLDG-004",
        "layer": "BUILDING_FOOTPRINT",
        "source_type": "agent_generated_design",
        "confidence": "medium",
        "geometry_role": "design_proposal",
        "building_type": "lab",
        "name_zh": "让行验证实验室容量测试块",
        "name_en": "Yield-validation lab capacity test block",
        "key_area_index": 2,
        "intervention_status": "capacity_test_only",
        "demolition_decision": false,
        "control_status": "pending_official_controls",
        "area_sqm_declared": 41313.225
      },
      "geometry": {
        "type": "Polygon",
        "coordinates": [
          [
            [
              116.34332,
              39.9879
            ],
            [
              116.3453,
              39.9879
            ],
            [
              116.3453,
              39.9857
            ],
            [
              116.34332,
              39.9857
            ],
            [
              116.34332,
              39.9879
            ]
          ]
        ]
      }
    },
    {
      "type": "Feature",
      "id": "BLDG-005",
      "properties": {
        "id": "BLDG-005",
        "layer": "BUILDING_FOOTPRINT",
        "source_type": "agent_generated_design",
        "confidence": "medium",
        "geometry_role": "design_proposal",
        "building_type": "incubator",
        "name_zh": "开放转化加速器容量测试块",
        "name_en": "Open transfer accelerator capacity test block",
        "key_area_index": 2,
        "intervention_status": "capacity_test_only",
        "demolition_decision": false,
        "control_status": "pending_official_controls",
        "area_sqm_declared": 41311.231
      },
      "geometry": {
        "type": "Polygon",
        "coordinates": [
          [
            [
              116.34629,
              39.9912
            ],
            [
              116.34827,
              39.9912
            ],
            [
              116.34827,
              39.989
            ],
            [
              116.34629,
              39.989
            ],
            [
              116.34629,
              39.9912
            ]
          ]
        ]
      }
    },
    {
      "type": "Feature",
      "id": "BLDG-006",
      "properties": {
        "id": "BLDG-006",
        "layer": "BUILDING_FOOTPRINT",
        "source_type": "agent_generated_design",
        "confidence": "medium",
        "geometry_role": "design_proposal",
        "building_type": "community_service",
        "name_zh": "人工接管与公共服务厅容量测试块",
        "name_en": "Human takeover and civic service hall capacity test block",
        "key_area_index": 2,
        "intervention_status": "capacity_test_only",
        "demolition_decision": false,
        "control_status": "pending_official_controls",
        "area_sqm_declared": 41313.167
      },
      "geometry": {
        "type": "Polygon",
        "coordinates": [
          [
            [
              116.34926,
              39.9879
            ],
            [
              116.35124,
              39.9879
            ],
            [
              116.35124,
              39.9857
            ],
            [
              116.34926,
              39.9857
            ],
            [
              116.34926,
              39.9879
            ]
          ]
        ]
      }
    },
    {
      "type": "Feature",
      "id": "BLDG-007",
      "properties": {
        "id": "BLDG-007",
        "layer": "BUILDING_FOOTPRINT",
        "source_type": "agent_generated_design",
        "confidence": "medium",
        "geometry_role": "design_proposal",
        "building_type": "lab",
        "name_zh": "让行验证实验室容量测试块",
        "name_en": "Yield-validation lab capacity test block",
        "key_area_index": 3,
        "intervention_status": "capacity_test_only",
        "demolition_decision": false,
        "control_status": "pending_official_controls",
        "area_sqm_declared": 28530.42
      },
      "geometry": {
        "type": "Polygon",
        "coordinates": [
          [
            [
              116.34356,
              39.9465696
            ],
            [
              116.3459,
              39.9465696
            ],
            [
              116.3459,
              39.9452848
            ],
            [
              116.34356,
              39.9452848
            ],
            [
              116.34356,
              39.9465696
            ]
          ]
        ]
      }
    },
    {
      "type": "Feature",
      "id": "BLDG-008",
      "properties": {
        "id": "BLDG-008",
        "layer": "BUILDING_FOOTPRINT",
        "source_type": "agent_generated_design",
        "confidence": "medium",
        "geometry_role": "design_proposal",
        "building_type": "incubator",
        "name_zh": "开放转化加速器容量测试块",
        "name_en": "Open transfer accelerator capacity test block",
        "key_area_index": 3,
        "intervention_status": "capacity_test_only",
        "demolition_decision": false,
        "control_status": "pending_official_controls",
        "area_sqm_declared": 28529.605
      },
      "geometry": {
        "type": "Polygon",
        "coordinates": [
          [
            [
              116.34707,
              39.9484968
            ],
            [
              116.34941,
              39.9484968
            ],
            [
              116.34941,
              39.947212
            ],
            [
              116.34707,
              39.947212
            ],
            [
              116.34707,
              39.9484968
            ]
          ]
        ]
      }
    },
    {
      "type": "Feature",
      "id": "BLDG-009",
      "properties": {
        "id": "BLDG-009",
        "layer": "BUILDING_FOOTPRINT",
        "source_type": "agent_generated_design",
        "confidence": "medium",
        "geometry_role": "design_proposal",
        "building_type": "community_service",
        "name_zh": "人工接管与公共服务厅容量测试块",
        "name_en": "Human takeover and civic service hall capacity test block",
        "key_area_index": 3,
        "intervention_status": "capacity_test_only",
        "demolition_decision": false,
        "control_status": "pending_official_controls",
        "area_sqm_declared": 28530.373
      },
      "geometry": {
        "type": "Polygon",
        "coordinates": [
          [
            [
              116.35058,
              39.9465696
            ],
            [
              116.35292,
              39.9465696
            ],
            [
              116.35292,
              39.9452848
            ],
            [
              116.35058,
              39.9452848
            ],
            [
              116.35058,
              39.9465696
            ]
          ]
        ]
      }
    }
  ]
}
