{
  "type": "FeatureCollection",
  "name": "turn_taking_public_spaces",
  "features": [
    {
      "type": "Feature",
      "id": "PUBLIC-TURN-001",
      "properties": {
        "id": "PUBLIC-TURN-001",
        "layer": "PUBLIC_SPACE",
        "source_type": "agent_generated_design",
        "confidence": "medium",
        "geometry_role": "design_proposal",
        "name_zh": "第1让行公庭",
        "name_en": "Yield Court 1",
        "public_space_type": "yield_court",
        "human_priority": true,
        "pause_authority": "on_site_steward",
        "area_sqm_declared": 8873.11
      },
      "geometry": {
        "type": "Polygon",
        "coordinates": [
          [
            [
              116.34757537,
              39.94874648
            ],
            [
              116.34756751,
              39.94869348
            ],
            [
              116.34755449,
              39.9486415
            ],
            [
              116.34753644,
              39.94859105
            ],
            [
              116.34751353,
              39.94854262
            ],
            [
              116.34748598,
              39.94849666
            ],
            [
              116.34745406,
              39.94845362
            ],
            [
              116.34741808,
              39.94841392
            ],
            [
              116.34737838,
              39.94837794
            ],
            [
              116.34733534,
              39.94834602
            ],
            [
              116.34728938,
              39.94831847
            ],
            [
              116.34724095,
              39.94829556
            ],
            [
              116.3471905,
              39.94827751
            ],
            [
              116.34713852,
              39.94826449
            ],
            [
              116.34708552,
              39.94825663
            ],
            [
              116.347032,
              39.948254
            ],
            [
              116.34697848,
              39.94825663
            ],
            [
              116.34692548,
              39.94826449
            ],
            [
              116.3468735,
              39.94827751
            ],
            [
              116.34682305,
              39.94829556
            ],
            [
              116.34677462,
              39.94831847
            ],
            [
              116.34672866,
              39.94834602
            ],
            [
              116.34668562,
              39.94837794
            ],
            [
              116.34664592,
              39.94841392
            ],
            [
              116.34660994,
              39.94845362
            ],
            [
              116.34657802,
              39.94849666
            ],
            [
              116.34655047,
              39.94854262
            ],
            [
              116.34652756,
              39.94859105
            ],
            [
              116.34650951,
              39.9486415
            ],
            [
              116.34649649,
              39.94869348
            ],
            [
              116.34648863,
              39.94874648
            ],
            [
              116.346486,
              39.9488
            ],
            [
              116.34648863,
              39.94885352
            ],
            [
              116.34649649,
              39.94890652
            ],
            [
              116.34650951,
              39.9489585
            ],
            [
              116.34652756,
              39.94900895
            ],
            [
              116.34655047,
              39.94905738
            ],
            [
              116.34657802,
              39.94910334
            ],
            [
              116.34660994,
              39.94914638
            ],
            [
              116.34664592,
              39.94918608
            ],
            [
              116.34668562,
              39.94922206
            ],
            [
              116.34672866,
              39.94925398
            ],
            [
              116.34677462,
              39.94928153
            ],
            [
              116.34682305,
              39.94930444
            ],
            [
              116.3468735,
              39.94932249
            ],
            [
              116.34692548,
              39.94933551
            ],
            [
              116.34697848,
              39.94934337
            ],
            [
              116.347032,
              39.949346
            ],
            [
              116.34708552,
              39.94934337
            ],
            [
              116.34713852,
              39.94933551
            ],
            [
              116.3471905,
              39.94932249
            ],
            [
              116.34724095,
              39.94930444
            ],
            [
              116.34728938,
              39.94928153
            ],
            [
              116.34733534,
              39.94925398
            ],
            [
              116.34737838,
              39.94922206
            ],
            [
              116.34741808,
              39.94918608
            ],
            [
              116.34745406,
              39.94914638
            ],
            [
              116.34748598,
              39.94910334
            ],
            [
              116.34751353,
              39.94905738
            ],
            [
              116.34753644,
              39.94900895
            ],
            [
              116.34755449,
              39.9489585
            ],
            [
              116.34756751,
              39.94890652
            ],
            [
              116.34757537,
              39.94885352
            ],
            [
              116.347578,
              39.9488
            ],
            [
              116.34757537,
              39.94874648
            ]
          ]
        ]
      }
    },
    {
      "type": "Feature",
      "id": "PUBLIC-TURN-002",
      "properties": {
        "id": "PUBLIC-TURN-002",
        "layer": "PUBLIC_SPACE",
        "source_type": "agent_generated_design",
        "confidence": "medium",
        "geometry_role": "design_proposal",
        "name_zh": "第2让行公庭",
        "name_en": "Yield Court 2",
        "public_space_type": "yield_court",
        "human_priority": true,
        "pause_authority": "on_site_steward",
        "area_sqm_declared": 8871.593
      },
      "geometry": {
        "type": "Polygon",
        "coordinates": [
          [
            [
              116.34757537,
              39.96062898
            ],
            [
              116.34756751,
              39.96057598
            ],
            [
              116.34755449,
              39.960524
            ],
            [
              116.34753644,
              39.96047355
            ],
            [
              116.34751353,
              39.96042512
            ],
            [
              116.34748598,
              39.96037916
            ],
            [
              116.34745406,
              39.96033612
            ],
            [
              116.34741808,
              39.96029642
            ],
            [
              116.34737838,
              39.96026044
            ],
            [
              116.34733534,
              39.96022852
            ],
            [
              116.34728938,
              39.96020097
            ],
            [
              116.34724095,
              39.96017806
            ],
            [
              116.3471905,
              39.96016001
            ],
            [
              116.34713852,
              39.96014699
            ],
            [
              116.34708552,
              39.96013913
            ],
            [
              116.347032,
              39.9601365
            ],
            [
              116.34697848,
              39.96013913
            ],
            [
              116.34692548,
              39.96014699
            ],
            [
              116.3468735,
              39.96016001
            ],
            [
              116.34682305,
              39.96017806
            ],
            [
              116.34677462,
              39.96020097
            ],
            [
              116.34672866,
              39.96022852
            ],
            [
              116.34668562,
              39.96026044
            ],
            [
              116.34664592,
              39.96029642
            ],
            [
              116.34660994,
              39.96033612
            ],
            [
              116.34657802,
              39.96037916
            ],
            [
              116.34655047,
              39.96042512
            ],
            [
              116.34652756,
              39.96047355
            ],
            [
              116.34650951,
              39.960524
            ],
            [
              116.34649649,
              39.96057598
            ],
            [
              116.34648863,
              39.96062898
            ],
            [
              116.346486,
              39.9606825
            ],
            [
              116.34648863,
              39.96073602
            ],
            [
              116.34649649,
              39.96078902
            ],
            [
              116.34650951,
              39.960841
            ],
            [
              116.34652756,
              39.96089145
            ],
            [
              116.34655047,
              39.96093988
            ],
            [
              116.34657802,
              39.96098584
            ],
            [
              116.34660994,
              39.96102888
            ],
            [
              116.34664592,
              39.96106858
            ],
            [
              116.34668562,
              39.96110456
            ],
            [
              116.34672866,
              39.96113648
            ],
            [
              116.34677462,
              39.96116403
            ],
            [
              116.34682305,
              39.96118694
            ],
            [
              116.3468735,
              39.96120499
            ],
            [
              116.34692548,
              39.96121801
            ],
            [
              116.34697848,
              39.96122587
            ],
            [
              116.347032,
              39.9612285
            ],
            [
              116.34708552,
              39.96122587
            ],
            [
              116.34713852,
              39.96121801
            ],
            [
              116.3471905,
              39.96120499
            ],
            [
              116.34724095,
              39.96118694
            ],
            [
              116.34728938,
              39.96116403
            ],
            [
              116.34733534,
              39.96113648
            ],
            [
              116.34737838,
              39.96110456
            ],
            [
              116.34741808,
              39.96106858
            ],
            [
              116.34745406,
              39.96102888
            ],
            [
              116.34748598,
              39.96098584
            ],
            [
              116.34751353,
              39.96093988
            ],
            [
              116.34753644,
              39.96089145
            ],
            [
              116.34755449,
              39.960841
            ],
            [
              116.34756751,
              39.96078902
            ],
            [
              116.34757537,
              39.96073602
            ],
            [
              116.347578,
              39.9606825
            ],
            [
              116.34757537,
              39.96062898
            ]
          ]
        ]
      }
    },
    {
      "type": "Feature",
      "id": "PUBLIC-TURN-003",
      "properties": {
        "id": "PUBLIC-TURN-003",
        "layer": "PUBLIC_SPACE",
        "source_type": "agent_generated_design",
        "confidence": "medium",
        "geometry_role": "design_proposal",
        "name_zh": "第3让行公庭",
        "name_en": "Yield Court 3",
        "public_space_type": "yield_court",
        "human_priority": true,
        "pause_authority": "on_site_steward",
        "area_sqm_declared": 8869.967
      },
      "geometry": {
        "type": "Polygon",
        "coordinates": [
          [
            [
              116.34757537,
              39.97336023
            ],
            [
              116.34756751,
              39.97330723
            ],
            [
              116.34755449,
              39.97325525
            ],
            [
              116.34753644,
              39.9732048
            ],
            [
              116.34751353,
              39.97315637
            ],
            [
              116.34748598,
              39.97311041
            ],
            [
              116.34745406,
              39.97306737
            ],
            [
              116.34741808,
              39.97302767
            ],
            [
              116.34737838,
              39.97299169
            ],
            [
              116.34733534,
              39.97295977
            ],
            [
              116.34728938,
              39.97293222
            ],
            [
              116.34724095,
              39.97290931
            ],
            [
              116.3471905,
              39.97289126
            ],
            [
              116.34713852,
              39.97287824
            ],
            [
              116.34708552,
              39.97287038
            ],
            [
              116.347032,
              39.97286775
            ],
            [
              116.34697848,
              39.97287038
            ],
            [
              116.34692548,
              39.97287824
            ],
            [
              116.3468735,
              39.97289126
            ],
            [
              116.34682305,
              39.97290931
            ],
            [
              116.34677462,
              39.97293222
            ],
            [
              116.34672866,
              39.97295977
            ],
            [
              116.34668562,
              39.97299169
            ],
            [
              116.34664592,
              39.97302767
            ],
            [
              116.34660994,
              39.97306737
            ],
            [
              116.34657802,
              39.97311041
            ],
            [
              116.34655047,
              39.97315637
            ],
            [
              116.34652756,
              39.9732048
            ],
            [
              116.34650951,
              39.97325525
            ],
            [
              116.34649649,
              39.97330723
            ],
            [
              116.34648863,
              39.97336023
            ],
            [
              116.346486,
              39.97341375
            ],
            [
              116.34648863,
              39.97346727
            ],
            [
              116.34649649,
              39.97352027
            ],
            [
              116.34650951,
              39.97357225
            ],
            [
              116.34652756,
              39.9736227
            ],
            [
              116.34655047,
              39.97367113
            ],
            [
              116.34657802,
              39.97371709
            ],
            [
              116.34660994,
              39.97376013
            ],
            [
              116.34664592,
              39.97379983
            ],
            [
              116.34668562,
              39.97383581
            ],
            [
              116.34672866,
              39.97386773
            ],
            [
              116.34677462,
              39.97389528
            ],
            [
              116.34682305,
              39.97391819
            ],
            [
              116.3468735,
              39.97393624
            ],
            [
              116.34692548,
              39.97394926
            ],
            [
              116.34697848,
              39.97395712
            ],
            [
              116.347032,
              39.97395975
            ],
            [
              116.34708552,
              39.97395712
            ],
            [
              116.34713852,
              39.97394926
            ],
            [
              116.3471905,
              39.97393624
            ],
            [
              116.34724095,
              39.97391819
            ],
            [
              116.34728938,
              39.97389528
            ],
            [
              116.34733534,
              39.97386773
            ],
            [
              116.34737838,
              39.97383581
            ],
            [
              116.34741808,
              39.97379983
            ],
            [
              116.34745406,
              39.97376013
            ],
            [
              116.34748598,
              39.97371709
            ],
            [
              116.34751353,
              39.97367113
            ],
            [
              116.34753644,
              39.9736227
            ],
            [
              116.34755449,
              39.97357225
            ],
            [
              116.34756751,
              39.97352027
            ],
            [
              116.34757537,
              39.97346727
            ],
            [
              116.347578,
              39.97341375
            ],
            [
              116.34757537,
              39.97336023
            ]
          ]
        ]
      }
    },
    {
      "type": "Feature",
      "id": "PUBLIC-TURN-004",
      "properties": {
        "id": "PUBLIC-TURN-004",
        "layer": "PUBLIC_SPACE",
        "source_type": "agent_generated_design",
        "confidence": "medium",
        "geometry_role": "design_proposal",
        "name_zh": "第4让行公庭",
        "name_en": "Yield Court 4",
        "public_space_type": "yield_court",
        "human_priority": true,
        "pause_authority": "on_site_steward",
        "area_sqm_declared": 8868.232
      },
      "geometry": {
        "type": "Polygon",
        "coordinates": [
          [
            [
              116.34757537,
              39.98694023
            ],
            [
              116.34756751,
              39.98688723
            ],
            [
              116.34755449,
              39.98683525
            ],
            [
              116.34753644,
              39.9867848
            ],
            [
              116.34751353,
              39.98673637
            ],
            [
              116.34748598,
              39.98669041
            ],
            [
              116.34745406,
              39.98664737
            ],
            [
              116.34741808,
              39.98660767
            ],
            [
              116.34737838,
              39.98657169
            ],
            [
              116.34733534,
              39.98653977
            ],
            [
              116.34728938,
              39.98651222
            ],
            [
              116.34724095,
              39.98648931
            ],
            [
              116.3471905,
              39.98647126
            ],
            [
              116.34713852,
              39.98645824
            ],
            [
              116.34708552,
              39.98645038
            ],
            [
              116.347032,
              39.98644775
            ],
            [
              116.34697848,
              39.98645038
            ],
            [
              116.34692548,
              39.98645824
            ],
            [
              116.3468735,
              39.98647126
            ],
            [
              116.34682305,
              39.98648931
            ],
            [
              116.34677462,
              39.98651222
            ],
            [
              116.34672866,
              39.98653977
            ],
            [
              116.34668562,
              39.98657169
            ],
            [
              116.34664592,
              39.98660767
            ],
            [
              116.34660994,
              39.98664737
            ],
            [
              116.34657802,
              39.98669041
            ],
            [
              116.34655047,
              39.98673637
            ],
            [
              116.34652756,
              39.9867848
            ],
            [
              116.34650951,
              39.98683525
            ],
            [
              116.34649649,
              39.98688723
            ],
            [
              116.34648863,
              39.98694023
            ],
            [
              116.346486,
              39.98699375
            ],
            [
              116.34648863,
              39.98704727
            ],
            [
              116.34649649,
              39.98710027
            ],
            [
              116.34650951,
              39.98715225
            ],
            [
              116.34652756,
              39.9872027
            ],
            [
              116.34655047,
              39.98725113
            ],
            [
              116.34657802,
              39.98729709
            ],
            [
              116.34660994,
              39.98734013
            ],
            [
              116.34664592,
              39.98737983
            ],
            [
              116.34668562,
              39.98741581
            ],
            [
              116.34672866,
              39.98744773
            ],
            [
              116.34677462,
              39.98747528
            ],
            [
              116.34682305,
              39.98749819
            ],
            [
              116.3468735,
              39.98751624
            ],
            [
              116.34692548,
              39.98752926
            ],
            [
              116.34697848,
              39.98753712
            ],
            [
              116.347032,
              39.98753975
            ],
            [
              116.34708552,
              39.98753712
            ],
            [
              116.34713852,
              39.98752926
            ],
            [
              116.3471905,
              39.98751624
            ],
            [
              116.34724095,
              39.98749819
            ],
            [
              116.34728938,
              39.98747528
            ],
            [
              116.34733534,
              39.98744773
            ],
            [
              116.34737838,
              39.98741581
            ],
            [
              116.34741808,
              39.98737983
            ],
            [
              116.34745406,
              39.98734013
            ],
            [
              116.34748598,
              39.98729709
            ],
            [
              116.34751353,
              39.98725113
            ],
            [
              116.34753644,
              39.9872027
            ],
            [
              116.34755449,
              39.98715225
            ],
            [
              116.34756751,
              39.98710027
            ],
            [
              116.34757537,
              39.98704727
            ],
            [
              116.347578,
              39.98699375
            ],
            [
              116.34757537,
              39.98694023
            ]
          ]
        ]
      }
    },
    {
      "type": "Feature",
      "id": "PUBLIC-TURN-005",
      "properties": {
        "id": "PUBLIC-TURN-005",
        "layer": "PUBLIC_SPACE",
        "source_type": "agent_generated_design",
        "confidence": "medium",
        "geometry_role": "design_proposal",
        "name_zh": "第5让行公庭",
        "name_en": "Yield Court 5",
        "public_space_type": "yield_court",
        "human_priority": true,
        "pause_authority": "on_site_steward",
        "area_sqm_declared": 8866.496
      },
      "geometry": {
        "type": "Polygon",
        "coordinates": [
          [
            [
              116.34757537,
              40.00052023
            ],
            [
              116.34756751,
              40.00046723
            ],
            [
              116.34755449,
              40.00041525
            ],
            [
              116.34753644,
              40.0003648
            ],
            [
              116.34751353,
              40.00031637
            ],
            [
              116.34748598,
              40.00027041
            ],
            [
              116.34745406,
              40.00022737
            ],
            [
              116.34741808,
              40.00018767
            ],
            [
              116.34737838,
              40.00015169
            ],
            [
              116.34733534,
              40.00011977
            ],
            [
              116.34728938,
              40.00009222
            ],
            [
              116.34724095,
              40.00006931
            ],
            [
              116.3471905,
              40.00005126
            ],
            [
              116.34713852,
              40.00003824
            ],
            [
              116.34708552,
              40.00003038
            ],
            [
              116.347032,
              40.00002775
            ],
            [
              116.34697848,
              40.00003038
            ],
            [
              116.34692548,
              40.00003824
            ],
            [
              116.3468735,
              40.00005126
            ],
            [
              116.34682305,
              40.00006931
            ],
            [
              116.34677462,
              40.00009222
            ],
            [
              116.34672866,
              40.00011977
            ],
            [
              116.34668562,
              40.00015169
            ],
            [
              116.34664592,
              40.00018767
            ],
            [
              116.34660994,
              40.00022737
            ],
            [
              116.34657802,
              40.00027041
            ],
            [
              116.34655047,
              40.00031637
            ],
            [
              116.34652756,
              40.0003648
            ],
            [
              116.34650951,
              40.00041525
            ],
            [
              116.34649649,
              40.00046723
            ],
            [
              116.34648863,
              40.00052023
            ],
            [
              116.346486,
              40.00057375
            ],
            [
              116.34648863,
              40.00062727
            ],
            [
              116.34649649,
              40.00068027
            ],
            [
              116.34650951,
              40.00073225
            ],
            [
              116.34652756,
              40.0007827
            ],
            [
              116.34655047,
              40.00083113
            ],
            [
              116.34657802,
              40.00087709
            ],
            [
              116.34660994,
              40.00092013
            ],
            [
              116.34664592,
              40.00095983
            ],
            [
              116.34668562,
              40.00099581
            ],
            [
              116.34672866,
              40.00102773
            ],
            [
              116.34677462,
              40.00105528
            ],
            [
              116.34682305,
              40.00107819
            ],
            [
              116.3468735,
              40.00109624
            ],
            [
              116.34692548,
              40.00110926
            ],
            [
              116.34697848,
              40.00111712
            ],
            [
              116.347032,
              40.00111975
            ],
            [
              116.34708552,
              40.00111712
            ],
            [
              116.34713852,
              40.00110926
            ],
            [
              116.3471905,
              40.00109624
            ],
            [
              116.34724095,
              40.00107819
            ],
            [
              116.34728938,
              40.00105528
            ],
            [
              116.34733534,
              40.00102773
            ],
            [
              116.34737838,
              40.00099581
            ],
            [
              116.34741808,
              40.00095983
            ],
            [
              116.34745406,
              40.00092013
            ],
            [
              116.34748598,
              40.00087709
            ],
            [
              116.34751353,
              40.00083113
            ],
            [
              116.34753644,
              40.0007827
            ],
            [
              116.34755449,
              40.00073225
            ],
            [
              116.34756751,
              40.00068027
            ],
            [
              116.34757537,
              40.00062727
            ],
            [
              116.347578,
              40.00057375
            ],
            [
              116.34757537,
              40.00052023
            ]
          ]
        ]
      }
    },
    {
      "type": "Feature",
      "id": "PUBLIC-TURN-006",
      "properties": {
        "id": "PUBLIC-TURN-006",
        "layer": "PUBLIC_SPACE",
        "source_type": "agent_generated_design",
        "confidence": "medium",
        "geometry_role": "design_proposal",
        "name_zh": "第6让行公庭",
        "name_en": "Yield Court 6",
        "public_space_type": "yield_court",
        "human_priority": true,
        "pause_authority": "on_site_steward",
        "area_sqm_declared": 8864.76
      },
      "geometry": {
        "type": "Polygon",
        "coordinates": [
          [
            [
              116.34757537,
              40.01410023
            ],
            [
              116.34756751,
              40.01404723
            ],
            [
              116.34755449,
              40.01399525
            ],
            [
              116.34753644,
              40.0139448
            ],
            [
              116.34751353,
              40.01389637
            ],
            [
              116.34748598,
              40.01385041
            ],
            [
              116.34745406,
              40.01380737
            ],
            [
              116.34741808,
              40.01376767
            ],
            [
              116.34737838,
              40.01373169
            ],
            [
              116.34733534,
              40.01369977
            ],
            [
              116.34728938,
              40.01367222
            ],
            [
              116.34724095,
              40.01364931
            ],
            [
              116.3471905,
              40.01363126
            ],
            [
              116.34713852,
              40.01361824
            ],
            [
              116.34708552,
              40.01361038
            ],
            [
              116.347032,
              40.01360775
            ],
            [
              116.34697848,
              40.01361038
            ],
            [
              116.34692548,
              40.01361824
            ],
            [
              116.3468735,
              40.01363126
            ],
            [
              116.34682305,
              40.01364931
            ],
            [
              116.34677462,
              40.01367222
            ],
            [
              116.34672866,
              40.01369977
            ],
            [
              116.34668562,
              40.01373169
            ],
            [
              116.34664592,
              40.01376767
            ],
            [
              116.34660994,
              40.01380737
            ],
            [
              116.34657802,
              40.01385041
            ],
            [
              116.34655047,
              40.01389637
            ],
            [
              116.34652756,
              40.0139448
            ],
            [
              116.34650951,
              40.01399525
            ],
            [
              116.34649649,
              40.01404723
            ],
            [
              116.34648863,
              40.01410023
            ],
            [
              116.346486,
              40.01415375
            ],
            [
              116.34648863,
              40.01420727
            ],
            [
              116.34649649,
              40.01426027
            ],
            [
              116.34650951,
              40.01431225
            ],
            [
              116.34652756,
              40.0143627
            ],
            [
              116.34655047,
              40.01441113
            ],
            [
              116.34657802,
              40.01445709
            ],
            [
              116.34660994,
              40.01450013
            ],
            [
              116.34664592,
              40.01453983
            ],
            [
              116.34668562,
              40.01457581
            ],
            [
              116.34672866,
              40.01460773
            ],
            [
              116.34677462,
              40.01463528
            ],
            [
              116.34682305,
              40.01465819
            ],
            [
              116.3468735,
              40.01467624
            ],
            [
              116.34692548,
              40.01468926
            ],
            [
              116.34697848,
              40.01469712
            ],
            [
              116.347032,
              40.01469975
            ],
            [
              116.34708552,
              40.01469712
            ],
            [
              116.34713852,
              40.01468926
            ],
            [
              116.3471905,
              40.01467624
            ],
            [
              116.34724095,
              40.01465819
            ],
            [
              116.34728938,
              40.01463528
            ],
            [
              116.34733534,
              40.01460773
            ],
            [
              116.34737838,
              40.01457581
            ],
            [
              116.34741808,
              40.01453983
            ],
            [
              116.34745406,
              40.01450013
            ],
            [
              116.34748598,
              40.01445709
            ],
            [
              116.34751353,
              40.01441113
            ],
            [
              116.34753644,
              40.0143627
            ],
            [
              116.34755449,
              40.01431225
            ],
            [
              116.34756751,
              40.01426027
            ],
            [
              116.34757537,
              40.01420727
            ],
            [
              116.347578,
              40.01415375
            ],
            [
              116.34757537,
              40.01410023
            ]
          ]
        ]
      }
    },
    {
      "type": "Feature",
      "id": "PUBLIC-LANDMARK-001",
      "properties": {
        "id": "PUBLIC-LANDMARK-001",
        "layer": "PUBLIC_SPACE",
        "source_type": "agent_generated_design",
        "confidence": "medium",
        "geometry_role": "design_proposal",
        "name_zh": "百年信号亭",
        "name_en": "Centennial Signal House",
        "public_space_type": "pilgrimage_landmark",
        "construction_status": "reversible_first",
        "area_sqm_declared": 14653.437
      },
      "geometry": {
        "type": "Polygon",
        "coordinates": [
          [
            [
              116.34918851,
              40.01661305
            ],
            [
              116.34917177,
              40.01654622
            ],
            [
              116.34914856,
              40.01648136
            ],
            [
              116.34911911,
              40.01641908
            ],
            [
              116.34908369,
              40.01635999
            ],
            [
              116.34904265,
              40.01630466
            ],
            [
              116.34899639,
              40.01625361
            ],
            [
              116.34894534,
              40.01620735
            ],
            [
              116.34889001,
              40.01616631
            ],
            [
              116.34883092,
              40.01613089
            ],
            [
              116.34876864,
              40.01610144
            ],
            [
              116.34870378,
              40.01607823
            ],
            [
              116.34863695,
              40.01606149
            ],
            [
              116.34856881,
              40.01605138
            ],
            [
              116.3485,
              40.016048
            ],
            [
              116.34843119,
              40.01605138
            ],
            [
              116.34836305,
              40.01606149
            ],
            [
              116.34829622,
              40.01607823
            ],
            [
              116.34823136,
              40.01610144
            ],
            [
              116.34816908,
              40.01613089
            ],
            [
              116.34810999,
              40.01616631
            ],
            [
              116.34805466,
              40.01620735
            ],
            [
              116.34800361,
              40.01625361
            ],
            [
              116.34795735,
              40.01630466
            ],
            [
              116.34791631,
              40.01635999
            ],
            [
              116.34788089,
              40.01641908
            ],
            [
              116.34785144,
              40.01648136
            ],
            [
              116.34782823,
              40.01654622
            ],
            [
              116.34781149,
              40.01661305
            ],
            [
              116.34780138,
              40.01668119
            ],
            [
              116.347798,
              40.01675
            ],
            [
              116.34780138,
              40.01681881
            ],
            [
              116.34781149,
              40.01688695
            ],
            [
              116.34782823,
              40.01695378
            ],
            [
              116.34785144,
              40.01701864
            ],
            [
              116.34788089,
              40.01708092
            ],
            [
              116.34791631,
              40.01714001
            ],
            [
              116.34795735,
              40.01719534
            ],
            [
              116.34800361,
              40.01724639
            ],
            [
              116.34805466,
              40.01729265
            ],
            [
              116.34810999,
              40.01733369
            ],
            [
              116.34816908,
              40.01736911
            ],
            [
              116.34823136,
              40.01739856
            ],
            [
              116.34829622,
              40.01742177
            ],
            [
              116.34836305,
              40.01743851
            ],
            [
              116.34843119,
              40.01744862
            ],
            [
              116.3485,
              40.017452
            ],
            [
              116.34856881,
              40.01744862
            ],
            [
              116.34863695,
              40.01743851
            ],
            [
              116.34870378,
              40.01742177
            ],
            [
              116.34876864,
              40.01739856
            ],
            [
              116.34883092,
              40.01736911
            ],
            [
              116.34889001,
              40.01733369
            ],
            [
              116.34894534,
              40.01729265
            ],
            [
              116.34899639,
              40.01724639
            ],
            [
              116.34904265,
              40.01719534
            ],
            [
              116.34908369,
              40.01714001
            ],
            [
              116.34911911,
              40.01708092
            ],
            [
              116.34914856,
              40.01701864
            ],
            [
              116.34917177,
              40.01695378
            ],
            [
              116.34918851,
              40.01688695
            ],
            [
              116.34919862,
              40.01681881
            ],
            [
              116.349202,
              40.01675
            ],
            [
              116.34919862,
              40.01668119
            ],
            [
              116.34918851,
              40.01661305
            ]
          ]
        ]
      }
    },
    {
      "type": "Feature",
      "id": "PUBLIC-LANDMARK-002",
      "properties": {
        "id": "PUBLIC-LANDMARK-002",
        "layer": "PUBLIC_SPACE",
        "source_type": "agent_generated_design",
        "confidence": "medium",
        "geometry_role": "design_proposal",
        "name_zh": "轮到你广场",
        "name_en": "Your Turn Square",
        "public_space_type": "pilgrimage_landmark",
        "construction_status": "reversible_first",
        "area_sqm_declared": 14659.41
      },
      "geometry": {
        "type": "Polygon",
        "coordinates": [
          [
            [
              116.34818851,
              39.98836305
            ],
            [
              116.34817177,
              39.98829622
            ],
            [
              116.34814856,
              39.98823136
            ],
            [
              116.34811911,
              39.98816908
            ],
            [
              116.34808369,
              39.98810999
            ],
            [
              116.34804265,
              39.98805466
            ],
            [
              116.34799639,
              39.98800361
            ],
            [
              116.34794534,
              39.98795735
            ],
            [
              116.34789001,
              39.98791631
            ],
            [
              116.34783092,
              39.98788089
            ],
            [
              116.34776864,
              39.98785144
            ],
            [
              116.34770378,
              39.98782823
            ],
            [
              116.34763695,
              39.98781149
            ],
            [
              116.34756881,
              39.98780138
            ],
            [
              116.3475,
              39.987798
            ],
            [
              116.34743119,
              39.98780138
            ],
            [
              116.34736305,
              39.98781149
            ],
            [
              116.34729622,
              39.98782823
            ],
            [
              116.34723136,
              39.98785144
            ],
            [
              116.34716908,
              39.98788089
            ],
            [
              116.34710999,
              39.98791631
            ],
            [
              116.34705466,
              39.98795735
            ],
            [
              116.34700361,
              39.98800361
            ],
            [
              116.34695735,
              39.98805466
            ],
            [
              116.34691631,
              39.98810999
            ],
            [
              116.34688089,
              39.98816908
            ],
            [
              116.34685144,
              39.98823136
            ],
            [
              116.34682823,
              39.98829622
            ],
            [
              116.34681149,
              39.98836305
            ],
            [
              116.34680138,
              39.98843119
            ],
            [
              116.346798,
              39.9885
            ],
            [
              116.34680138,
              39.98856881
            ],
            [
              116.34681149,
              39.98863695
            ],
            [
              116.34682823,
              39.98870378
            ],
            [
              116.34685144,
              39.98876864
            ],
            [
              116.34688089,
              39.98883092
            ],
            [
              116.34691631,
              39.98889001
            ],
            [
              116.34695735,
              39.98894534
            ],
            [
              116.34700361,
              39.98899639
            ],
            [
              116.34705466,
              39.98904265
            ],
            [
              116.34710999,
              39.98908369
            ],
            [
              116.34716908,
              39.98911911
            ],
            [
              116.34723136,
              39.98914856
            ],
            [
              116.34729622,
              39.98917177
            ],
            [
              116.34736305,
              39.98918851
            ],
            [
              116.34743119,
              39.98919862
            ],
            [
              116.3475,
              39.989202
            ],
            [
              116.34756881,
              39.98919862
            ],
            [
              116.34763695,
              39.98918851
            ],
            [
              116.34770378,
              39.98917177
            ],
            [
              116.34776864,
              39.98914856
            ],
            [
              116.34783092,
              39.98911911
            ],
            [
              116.34789001,
              39.98908369
            ],
            [
              116.34794534,
              39.98904265
            ],
            [
              116.34799639,
              39.98899639
            ],
            [
              116.34804265,
              39.98894534
            ],
            [
              116.34808369,
              39.98889001
            ],
            [
              116.34811911,
              39.98883092
            ],
            [
              116.34814856,
              39.98876864
            ],
            [
              116.34817177,
              39.98870378
            ],
            [
              116.34818851,
              39.98863695
            ],
            [
              116.34819862,
              39.98856881
            ],
            [
              116.348202,
              39.9885
            ],
            [
              116.34819862,
              39.98843119
            ],
            [
              116.34818851,
              39.98836305
            ]
          ]
        ]
      }
    },
    {
      "type": "Feature",
      "id": "PUBLIC-LANDMARK-003",
      "properties": {
        "id": "PUBLIC-LANDMARK-003",
        "layer": "PUBLIC_SPACE",
        "source_type": "agent_generated_design",
        "confidence": "medium",
        "geometry_role": "design_proposal",
        "name_zh": "开源回合台",
        "name_en": "Open Round Table",
        "public_space_type": "pilgrimage_landmark",
        "construction_status": "reversible_first",
        "area_sqm_declared": 14668.186
      },
      "geometry": {
        "type": "Polygon",
        "coordinates": [
          [
            [
              116.34918851,
              39.94678305
            ],
            [
              116.34917177,
              39.94671622
            ],
            [
              116.34914856,
              39.94665136
            ],
            [
              116.34911911,
              39.94658908
            ],
            [
              116.34908369,
              39.94652999
            ],
            [
              116.34904265,
              39.94647466
            ],
            [
              116.34899639,
              39.94642361
            ],
            [
              116.34894534,
              39.94637735
            ],
            [
              116.34889001,
              39.94633631
            ],
            [
              116.34883092,
              39.94630089
            ],
            [
              116.34876864,
              39.94627144
            ],
            [
              116.34870378,
              39.94624823
            ],
            [
              116.34863695,
              39.94623149
            ],
            [
              116.34856881,
              39.94622138
            ],
            [
              116.3485,
              39.946218
            ],
            [
              116.34843119,
              39.94622138
            ],
            [
              116.34836305,
              39.94623149
            ],
            [
              116.34829622,
              39.94624823
            ],
            [
              116.34823136,
              39.94627144
            ],
            [
              116.34816908,
              39.94630089
            ],
            [
              116.34810999,
              39.94633631
            ],
            [
              116.34805466,
              39.94637735
            ],
            [
              116.34800361,
              39.94642361
            ],
            [
              116.34795735,
              39.94647466
            ],
            [
              116.34791631,
              39.94652999
            ],
            [
              116.34788089,
              39.94658908
            ],
            [
              116.34785144,
              39.94665136
            ],
            [
              116.34782823,
              39.94671622
            ],
            [
              116.34781149,
              39.94678305
            ],
            [
              116.34780138,
              39.94685119
            ],
            [
              116.347798,
              39.94692
            ],
            [
              116.34780138,
              39.94698881
            ],
            [
              116.34781149,
              39.94705695
            ],
            [
              116.34782823,
              39.94712378
            ],
            [
              116.34785144,
              39.94718864
            ],
            [
              116.34788089,
              39.94725092
            ],
            [
              116.34791631,
              39.94731001
            ],
            [
              116.34795735,
              39.94736534
            ],
            [
              116.34800361,
              39.94741639
            ],
            [
              116.34805466,
              39.94746265
            ],
            [
              116.34810999,
              39.94750369
            ],
            [
              116.34816908,
              39.94753911
            ],
            [
              116.34823136,
              39.94756856
            ],
            [
              116.34829622,
              39.94759177
            ],
            [
              116.34836305,
              39.94760851
            ],
            [
              116.34843119,
              39.94761862
            ],
            [
              116.3485,
              39.947622
            ],
            [
              116.34856881,
              39.94761862
            ],
            [
              116.34863695,
              39.94760851
            ],
            [
              116.34870378,
              39.94759177
            ],
            [
              116.34876864,
              39.94756856
            ],
            [
              116.34883092,
              39.94753911
            ],
            [
              116.34889001,
              39.94750369
            ],
            [
              116.34894534,
              39.94746265
            ],
            [
              116.34899639,
              39.94741639
            ],
            [
              116.34904265,
              39.94736534
            ],
            [
              116.34908369,
              39.94731001
            ],
            [
              116.34911911,
              39.94725092
            ],
            [
              116.34914856,
              39.94718864
            ],
            [
              116.34917177,
              39.94712378
            ],
            [
              116.34918851,
              39.94705695
            ],
            [
              116.34919862,
              39.94698881
            ],
            [
              116.349202,
              39.94692
            ],
            [
              116.34919862,
              39.94685119
            ],
            [
              116.34918851,
              39.94678305
            ]
          ]
        ]
      }
    }
  ]
}
