{
  "type": "FeatureCollection",
  "name": "turn_taking_mobility_network",
  "features": [
    {
      "type": "Feature",
      "id": "ROAD-SPINE-001",
      "properties": {
        "id": "ROAD-SPINE-001",
        "layer": "ROAD_CENTERLINE",
        "source_type": "agent_generated_design",
        "confidence": "medium",
        "geometry_role": "design_proposal",
        "road_class": "greenway",
        "name_zh": "京张公共会话脊",
        "name_en": "Jing-Zhang civic conversation spine",
        "geometry_status": "concept_centerline_not_redline"
      },
      "geometry": {
        "type": "LineString",
        "coordinates": [
          [
            116.347032,
            39.9403125
          ],
          [
            116.347032,
            40.0251875
          ]
        ]
      }
    },
    {
      "type": "Feature",
      "id": "ROAD-YIELD-001",
      "properties": {
        "id": "ROAD-YIELD-001",
        "layer": "ROAD_CENTERLINE",
        "source_type": "agent_generated_design",
        "confidence": "medium",
        "geometry_role": "design_proposal",
        "road_class": "pedestrian",
        "name_zh": "第1让行支线",
        "name_en": "Yield branch 1",
        "geometry_status": "concept_centerline_not_redline"
      },
      "geometry": {
        "type": "LineString",
        "coordinates": [
          [
            116.34048,
            39.94775
          ],
          [
            116.35452,
            39.94775
          ]
        ]
      }
    },
    {
      "type": "Feature",
      "id": "ROAD-YIELD-002",
      "properties": {
        "id": "ROAD-YIELD-002",
        "layer": "ROAD_CENTERLINE",
        "source_type": "agent_generated_design",
        "confidence": "medium",
        "geometry_role": "design_proposal",
        "road_class": "branch",
        "name_zh": "第2让行支线",
        "name_en": "Yield branch 2",
        "geometry_status": "concept_centerline_not_redline"
      },
      "geometry": {
        "type": "LineString",
        "coordinates": [
          [
            116.34048,
            39.96
          ],
          [
            116.35452,
            39.96
          ]
        ]
      }
    },
    {
      "type": "Feature",
      "id": "ROAD-YIELD-003",
      "properties": {
        "id": "ROAD-YIELD-003",
        "layer": "ROAD_CENTERLINE",
        "source_type": "agent_generated_design",
        "confidence": "medium",
        "geometry_role": "design_proposal",
        "road_class": "pedestrian",
        "name_zh": "第3让行支线",
        "name_en": "Yield branch 3",
        "geometry_status": "concept_centerline_not_redline"
      },
      "geometry": {
        "type": "LineString",
        "coordinates": [
          [
            116.34048,
            39.973125
          ],
          [
            116.35452,
            39.973125
          ]
        ]
      }
    },
    {
      "type": "Feature",
      "id": "ROAD-YIELD-004",
      "properties": {
        "id": "ROAD-YIELD-004",
        "layer": "ROAD_CENTERLINE",
        "source_type": "agent_generated_design",
        "confidence": "medium",
        "geometry_role": "design_proposal",
        "road_class": "branch",
        "name_zh": "第4让行支线",
        "name_en": "Yield branch 4",
        "geometry_status": "concept_centerline_not_redline"
      },
      "geometry": {
        "type": "LineString",
        "coordinates": [
          [
            116.34048226,
            39.987125
          ],
          [
            116.35353,
            39.987125
          ]
        ]
      }
    },
    {
      "type": "Feature",
      "id": "ROAD-YIELD-005",
      "properties": {
        "id": "ROAD-YIELD-005",
        "layer": "ROAD_CENTERLINE",
        "source_type": "agent_generated_design",
        "confidence": "medium",
        "geometry_role": "design_proposal",
        "road_class": "pedestrian",
        "name_zh": "第5让行支线",
        "name_en": "Yield branch 5",
        "geometry_status": "concept_centerline_not_redline"
      },
      "geometry": {
        "type": "LineString",
        "coordinates": [
          [
            116.34138548,
            40.001125
          ],
          [
            116.35390959,
            40.001125
          ]
        ]
      }
    },
    {
      "type": "Feature",
      "id": "ROAD-YIELD-006",
      "properties": {
        "id": "ROAD-YIELD-006",
        "layer": "ROAD_CENTERLINE",
        "source_type": "agent_generated_design",
        "confidence": "medium",
        "geometry_role": "design_proposal",
        "road_class": "branch",
        "name_zh": "第6让行支线",
        "name_en": "Yield branch 6",
        "geometry_status": "concept_centerline_not_redline"
      },
      "geometry": {
        "type": "LineString",
        "coordinates": [
          [
            116.34214512,
            40.015125
          ],
          [
            116.35452,
            40.015125
          ]
        ]
      }
    }
  ]
}
