{
  "type": "FeatureCollection",
  "name": "public_space_scaffold",
  "features": [
    {
      "type": "Feature",
      "id": "PUBLIC-001",
      "properties": {
        "id": "PUBLIC-001",
        "layer": "PUBLIC_SPACE",
        "source_type": "agent_generated_design",
        "confidence": "medium",
        "geometry_role": "design_proposal",
        "name_zh": "公共活动界面",
        "area_sqm_declared": 836345.643
      },
      "geometry": {
        "type": "Polygon",
        "coordinates": [
          [
            [
              116.34734399999999,
              39.967
            ],
            [
              116.34734399999999,
              40.00025
            ],
            [
              116.349996,
              40.00025
            ],
            [
              116.349996,
              39.967
            ],
            [
              116.34734399999999,
              39.967
            ]
          ]
        ]
      }
    },
    {
      "type": "Feature",
      "id": "PUBLIC-AI-001",
      "properties": {
        "id": "PUBLIC-AI-001",
        "layer": "PUBLIC_SPACE",
        "source_type": "agent_generated_design",
        "confidence": "medium",
        "geometry_role": "design_proposal",
        "name_zh": "开源发布厅公共广场",
        "scenario_type": "ai_open_source_release",
        "key_area": "beijing_ai_origin_community"
      },
      "geometry": {
        "type": "Point",
        "coordinates": [
          116.3475,
          39.9885
        ]
      }
    },
    {
      "type": "Feature",
      "id": "PUBLIC-AI-002",
      "properties": {
        "id": "PUBLIC-AI-002",
        "layer": "PUBLIC_SPACE",
        "source_type": "agent_generated_design",
        "confidence": "medium",
        "geometry_role": "design_proposal",
        "name_zh": "安全治理沙盒广场",
        "scenario_type": "ai_safety_governance",
        "key_area": "zhongzhiyuan_ai_acceleration_area"
      },
      "geometry": {
        "type": "Point",
        "coordinates": [
          116.3485,
          40.0167
        ]
      }
    },
    {
      "type": "Feature",
      "id": "PUBLIC-AI-003",
      "properties": {
        "id": "PUBLIC-AI-003",
        "layer": "PUBLIC_SPACE",
        "source_type": "agent_generated_design",
        "confidence": "medium",
        "geometry_role": "design_proposal",
        "name_zh": "国际路演客厅广场",
        "scenario_type": "ai_international_roadshow",
        "key_area": "dazhongsi_ai_industry_cluster"
      },
      "geometry": {
        "type": "Point",
        "coordinates": [
          116.3485,
          39.9469
        ]
      }
    }
  ]
}
