{
  "type": "FeatureCollection",
  "name": "unknown_zero_reversible_service_envelopes",
  "features": [
    {
      "type": "Feature",
      "id": "BLDG-001",
      "properties": {
        "id": "BLDG-001",
        "layer": "BUILDING_FOOTPRINT",
        "source_type": "agent_generated_design",
        "confidence": "low",
        "geometry_role": "design_proposal",
        "building_type": "community_service",
        "name_zh": "缺口工场概念包络",
        "name_en": "Gap Workshop concept envelope",
        "retain_renovate_demolish": "renovate_reversibly"
      },
      "geometry": {
        "type": "Polygon",
        "coordinates": [
          [
            [
              116.340948,
              39.95475
            ],
            [
              116.340948,
              39.96875
            ],
            [
              116.342196,
              39.96875
            ],
            [
              116.342196,
              39.95475
            ],
            [
              116.340948,
              39.95475
            ]
          ]
        ]
      }
    },
    {
      "type": "Feature",
      "id": "BLDG-002",
      "properties": {
        "id": "BLDG-002",
        "layer": "BUILDING_FOOTPRINT",
        "source_type": "agent_generated_design",
        "confidence": "low",
        "geometry_role": "design_proposal",
        "building_type": "community_service",
        "name_zh": "还原台概念包络",
        "name_en": "Restoration Desk concept envelope",
        "retain_renovate_demolish": "renovate_reversibly"
      },
      "geometry": {
        "type": "Polygon",
        "coordinates": [
          [
            [
              116.3533,
              39.99
            ],
            [
              116.35332000000001,
              39.98975
            ],
            [
              116.352492,
              39.98975
            ],
            [
              116.352492,
              40.0055
            ],
            [
              116.353896,
              40.0055
            ],
            [
              116.353896,
              40.00087700000005
            ],
            [
              116.3533,
              39.99
            ]
          ]
        ]
      }
    }
  ]
}
