{
  "type": "FeatureCollection",
  "name": "unknown_zero_phasing",
  "features": [
    {
      "type": "Feature",
      "id": "PHASE-001",
      "properties": {
        "id": "PHASE-001",
        "layer": "PHASE",
        "source_type": "agent_generated_design",
        "confidence": "low",
        "geometry_role": "design_proposal",
        "phase": "phase_1",
        "purpose": "synthetic_and_vacant_prototype"
      },
      "geometry": {
        "type": "Polygon",
        "coordinates": [
          [
            [
              116.3407,
              39.939
            ],
            [
              116.34001199999999,
              39.96376800000027
            ],
            [
              116.34001199999999,
              39.979835999999885
            ],
            [
              116.3417,
              40.006
            ],
            [
              116.3427,
              40.0265
            ],
            [
              116.34500399999999,
              40.0265
            ],
            [
              116.34500399999999,
              39.939
            ],
            [
              116.3407,
              39.939
            ]
          ]
        ]
      }
    },
    {
      "type": "Feature",
      "id": "PHASE-002",
      "properties": {
        "id": "PHASE-002",
        "layer": "PHASE",
        "source_type": "agent_generated_design",
        "confidence": "low",
        "geometry_role": "design_proposal",
        "phase": "phase_2",
        "purpose": "professional_and_affected_user_review"
      },
      "geometry": {
        "type": "Polygon",
        "coordinates": [
          [
            [
              116.34500399999999,
              39.939
            ],
            [
              116.34500399999999,
              40.0265
            ],
            [
              116.350308,
              40.0265
            ],
            [
              116.350308,
              39.939
            ],
            [
              116.34500399999999,
              39.939
            ]
          ]
        ]
      }
    },
    {
      "type": "Feature",
      "id": "PHASE-003",
      "properties": {
        "id": "PHASE-003",
        "layer": "PHASE",
        "source_type": "agent_generated_design",
        "confidence": "low",
        "geometry_role": "design_proposal",
        "phase": "phase_3",
        "purpose": "authorized_reversible_trial_only"
      },
      "geometry": {
        "type": "Polygon",
        "coordinates": [
          [
            [
              116.350308,
              39.939
            ],
            [
              116.350308,
              40.0265
            ],
            [
              116.354988,
              40.0265
            ],
            [
              116.354988,
              40.0208060000001
            ],
            [
              116.3533,
              39.99
            ],
            [
              116.354988,
              39.968899999999934
            ],
            [
              116.354988,
              39.939
            ],
            [
              116.350308,
              39.939
            ]
          ]
        ]
      }
    }
  ]
}
