{
  "type": "FeatureCollection",
  "name": "jz64k_launch_prototype_footprints",
  "features": [
    {
      "type": "Feature",
      "id": "BLDG-001",
      "properties": {
        "id": "BLDG-001",
        "layer": "BUILDING_FOOTPRINT",
        "source_type": "agent_generated_design",
        "confidence": "medium",
        "geometry_role": "design_proposal",
        "building_type": "mixed_use",
        "name_zh": "K01可逆原型基底",
        "name_en": "K01 reversible prototype footprint",
        "retain_strategy": "renovate_or_temporary_infill_pending_survey",
        "area_sqm_declared": 3883.445
      },
      "geometry": {
        "type": "Polygon",
        "coordinates": [
          [
            [
              116.34423666666667,
              40.0094925
            ],
            [
              116.34359666666667,
              40.0094925
            ],
            [
              116.34359666666667,
              40.010132500000005
            ],
            [
              116.34423666666667,
              40.010132500000005
            ],
            [
              116.34423666666667,
              40.0094925
            ]
          ]
        ]
      }
    },
    {
      "type": "Feature",
      "id": "BLDG-002",
      "properties": {
        "id": "BLDG-002",
        "layer": "BUILDING_FOOTPRINT",
        "source_type": "agent_generated_design",
        "confidence": "medium",
        "geometry_role": "design_proposal",
        "building_type": "mixed_use",
        "name_zh": "K05可逆原型基底",
        "name_en": "K05 reversible prototype footprint",
        "retain_strategy": "renovate_or_temporary_infill_pending_survey",
        "area_sqm_declared": 3883.438
      },
      "geometry": {
        "type": "Polygon",
        "coordinates": [
          [
            [
              116.35157,
              40.0094925
            ],
            [
              116.35092999999999,
              40.0094925
            ],
            [
              116.35092999999999,
              40.010132500000005
            ],
            [
              116.35157,
              40.010132500000005
            ],
            [
              116.35157,
              40.0094925
            ]
          ]
        ]
      }
    },
    {
      "type": "Feature",
      "id": "BLDG-003",
      "properties": {
        "id": "BLDG-003",
        "layer": "BUILDING_FOOTPRINT",
        "source_type": "agent_generated_design",
        "confidence": "medium",
        "geometry_role": "design_proposal",
        "building_type": "mixed_use",
        "name_zh": "K09可逆原型基底",
        "name_en": "K09 reversible prototype footprint",
        "retain_strategy": "renovate_or_temporary_infill_pending_survey",
        "area_sqm_declared": 3883.182
      },
      "geometry": {
        "type": "Polygon",
        "coordinates": [
          [
            [
              116.34790333333333,
              40.0141175
            ],
            [
              116.34726333333333,
              40.0141175
            ],
            [
              116.34726333333333,
              40.0147575
            ],
            [
              116.34790333333333,
              40.0147575
            ],
            [
              116.34790333333333,
              40.0141175
            ]
          ]
        ]
      }
    },
    {
      "type": "Feature",
      "id": "BLDG-004",
      "properties": {
        "id": "BLDG-004",
        "layer": "BUILDING_FOOTPRINT",
        "source_type": "agent_generated_design",
        "confidence": "medium",
        "geometry_role": "design_proposal",
        "building_type": "mixed_use",
        "name_zh": "K13可逆原型基底",
        "name_en": "K13 reversible prototype footprint",
        "retain_strategy": "renovate_or_temporary_infill_pending_survey",
        "area_sqm_declared": 3882.927
      },
      "geometry": {
        "type": "Polygon",
        "coordinates": [
          [
            [
              116.34423666666667,
              40.0187425
            ],
            [
              116.34359666666667,
              40.0187425
            ],
            [
              116.34359666666667,
              40.019382500000006
            ],
            [
              116.34423666666667,
              40.019382500000006
            ],
            [
              116.34423666666667,
              40.0187425
            ]
          ]
        ]
      }
    },
    {
      "type": "Feature",
      "id": "BLDG-005",
      "properties": {
        "id": "BLDG-005",
        "layer": "BUILDING_FOOTPRINT",
        "source_type": "agent_generated_design",
        "confidence": "medium",
        "geometry_role": "design_proposal",
        "building_type": "mixed_use",
        "name_zh": "K17可逆原型基底",
        "name_en": "K17 reversible prototype footprint",
        "retain_strategy": "renovate_or_temporary_infill_pending_survey",
        "area_sqm_declared": 3882.92
      },
      "geometry": {
        "type": "Polygon",
        "coordinates": [
          [
            [
              116.35157,
              40.0187425
            ],
            [
              116.35092999999999,
              40.0187425
            ],
            [
              116.35092999999999,
              40.019382500000006
            ],
            [
              116.35157,
              40.019382500000006
            ],
            [
              116.35157,
              40.0187425
            ]
          ]
        ]
      }
    },
    {
      "type": "Feature",
      "id": "BLDG-006",
      "properties": {
        "id": "BLDG-006",
        "layer": "BUILDING_FOOTPRINT",
        "source_type": "agent_generated_design",
        "confidence": "medium",
        "geometry_role": "design_proposal",
        "building_type": "mixed_use",
        "name_zh": "K21可逆原型基底",
        "name_en": "K21 reversible prototype footprint",
        "retain_strategy": "renovate_or_temporary_infill_pending_survey",
        "area_sqm_declared": 3882.664
      },
      "geometry": {
        "type": "Polygon",
        "coordinates": [
          [
            [
              116.34790333333333,
              40.0233675
            ],
            [
              116.34726333333333,
              40.0233675
            ],
            [
              116.34726333333333,
              40.0240075
            ],
            [
              116.34790333333333,
              40.0240075
            ],
            [
              116.34790333333333,
              40.0233675
            ]
          ]
        ]
      }
    },
    {
      "type": "Feature",
      "id": "BLDG-007",
      "properties": {
        "id": "BLDG-007",
        "layer": "BUILDING_FOOTPRINT",
        "source_type": "agent_generated_design",
        "confidence": "medium",
        "geometry_role": "design_proposal",
        "building_type": "mixed_use",
        "name_zh": "K25可逆原型基底",
        "name_en": "K25 reversible prototype footprint",
        "retain_strategy": "renovate_or_temporary_infill_pending_survey",
        "area_sqm_declared": 3884.849
      },
      "geometry": {
        "type": "Polygon",
        "coordinates": [
          [
            [
              116.34323666666667,
              39.984429999999996
            ],
            [
              116.34259666666667,
              39.984429999999996
            ],
            [
              116.34259666666667,
              39.98507
            ],
            [
              116.34323666666667,
              39.98507
            ],
            [
              116.34323666666667,
              39.984429999999996
            ]
          ]
        ]
      }
    },
    {
      "type": "Feature",
      "id": "BLDG-008",
      "properties": {
        "id": "BLDG-008",
        "layer": "BUILDING_FOOTPRINT",
        "source_type": "agent_generated_design",
        "confidence": "medium",
        "geometry_role": "design_proposal",
        "building_type": "mixed_use",
        "name_zh": "K29可逆原型基底",
        "name_en": "K29 reversible prototype footprint",
        "retain_strategy": "renovate_or_temporary_infill_pending_survey",
        "area_sqm_declared": 3884.842
      },
      "geometry": {
        "type": "Polygon",
        "coordinates": [
          [
            [
              116.35056999999999,
              39.984429999999996
            ],
            [
              116.34992999999999,
              39.984429999999996
            ],
            [
              116.34992999999999,
              39.98507
            ],
            [
              116.35056999999999,
              39.98507
            ],
            [
              116.35056999999999,
              39.984429999999996
            ]
          ]
        ]
      }
    },
    {
      "type": "Feature",
      "id": "BLDG-009",
      "properties": {
        "id": "BLDG-009",
        "layer": "BUILDING_FOOTPRINT",
        "source_type": "agent_generated_design",
        "confidence": "medium",
        "geometry_role": "design_proposal",
        "building_type": "mixed_use",
        "name_zh": "K33可逆原型基底",
        "name_en": "K33 reversible prototype footprint",
        "retain_strategy": "renovate_or_temporary_infill_pending_survey",
        "area_sqm_declared": 3884.706
      },
      "geometry": {
        "type": "Polygon",
        "coordinates": [
          [
            [
              116.34690333333333,
              39.986929999999994
            ],
            [
              116.34626333333333,
              39.986929999999994
            ],
            [
              116.34626333333333,
              39.98757
            ],
            [
              116.34690333333333,
              39.98757
            ],
            [
              116.34690333333333,
              39.986929999999994
            ]
          ]
        ]
      }
    },
    {
      "type": "Feature",
      "id": "BLDG-010",
      "properties": {
        "id": "BLDG-010",
        "layer": "BUILDING_FOOTPRINT",
        "source_type": "agent_generated_design",
        "confidence": "medium",
        "geometry_role": "design_proposal",
        "building_type": "mixed_use",
        "name_zh": "K37可逆原型基底",
        "name_en": "K37 reversible prototype footprint",
        "retain_strategy": "renovate_or_temporary_infill_pending_survey",
        "area_sqm_declared": 3884.569
      },
      "geometry": {
        "type": "Polygon",
        "coordinates": [
          [
            [
              116.34323666666667,
              39.98943
            ],
            [
              116.34259666666667,
              39.98943
            ],
            [
              116.34259666666667,
              39.99007
            ],
            [
              116.34323666666667,
              39.99007
            ],
            [
              116.34323666666667,
              39.98943
            ]
          ]
        ]
      }
    },
    {
      "type": "Feature",
      "id": "BLDG-011",
      "properties": {
        "id": "BLDG-011",
        "layer": "BUILDING_FOOTPRINT",
        "source_type": "agent_generated_design",
        "confidence": "medium",
        "geometry_role": "design_proposal",
        "building_type": "mixed_use",
        "name_zh": "K49可逆原型基底",
        "name_en": "K49 reversible prototype footprint",
        "retain_strategy": "renovate_or_temporary_infill_pending_survey",
        "area_sqm_declared": 3887.088
      },
      "geometry": {
        "type": "Polygon",
        "coordinates": [
          [
            [
              116.343945,
              39.94441
            ],
            [
              116.343305,
              39.94441
            ],
            [
              116.343305,
              39.94505
            ],
            [
              116.343945,
              39.94505
            ],
            [
              116.343945,
              39.94441
            ]
          ]
        ]
      }
    },
    {
      "type": "Feature",
      "id": "BLDG-012",
      "properties": {
        "id": "BLDG-012",
        "layer": "BUILDING_FOOTPRINT",
        "source_type": "agent_generated_design",
        "confidence": "medium",
        "geometry_role": "design_proposal",
        "building_type": "mixed_use",
        "name_zh": "K57可逆原型基底",
        "name_en": "K57 reversible prototype footprint",
        "retain_strategy": "renovate_or_temporary_infill_pending_survey",
        "area_sqm_declared": 3886.924
      },
      "geometry": {
        "type": "Polygon",
        "coordinates": [
          [
            [
              116.343945,
              39.94733
            ],
            [
              116.343305,
              39.94733
            ],
            [
              116.343305,
              39.947970000000005
            ],
            [
              116.343945,
              39.947970000000005
            ],
            [
              116.343945,
              39.94733
            ]
          ]
        ]
      }
    }
  ]
}
