{
  "type": "FeatureCollection",
  "name": "buildings",
  "features": [
    {
      "type": "Feature",
      "id": "BLDG-001",
      "properties": {
        "id": "BLDG-001",
        "layer": "BUILDING_FOOTPRINT",
        "name_zh": "转译院原型建筑基底 1",
        "name_en": "Translation-yard prototype footprint 1",
        "source_type": "agent_generated_design",
        "confidence": "medium",
        "geometry_role": "design_proposal",
        "building_type": "mixed_use",
        "action": "conceptual_retain_or_adapt_first",
        "height_status": "pending_official_control_and_site_survey",
        "area_sqm_declared": 28467.929
      },
      "geometry": {
        "type": "Polygon",
        "coordinates": [
          [
            [
              116.34233883333333,
              39.9505
            ],
            [
              116.34383883333332,
              39.9505
            ],
            [
              116.34383883333332,
              39.9485
            ],
            [
              116.34233883333333,
              39.9485
            ],
            [
              116.34233883333333,
              39.9505
            ]
          ]
        ]
      }
    },
    {
      "type": "Feature",
      "id": "BLDG-002",
      "properties": {
        "id": "BLDG-002",
        "layer": "BUILDING_FOOTPRINT",
        "name_zh": "转译院原型建筑基底 2",
        "name_en": "Translation-yard prototype footprint 2",
        "source_type": "agent_generated_design",
        "confidence": "medium",
        "geometry_role": "design_proposal",
        "building_type": "ai_r_and_d",
        "action": "conceptual_retain_or_adapt_first",
        "height_status": "pending_official_control_and_site_survey",
        "area_sqm_declared": 28467.867
      },
      "geometry": {
        "type": "Polygon",
        "coordinates": [
          [
            [
              116.35157166666667,
              39.9505
            ],
            [
              116.35307166666666,
              39.9505
            ],
            [
              116.35307166666666,
              39.9485
            ],
            [
              116.35157166666667,
              39.9485
            ],
            [
              116.35157166666667,
              39.9505
            ]
          ]
        ]
      }
    },
    {
      "type": "Feature",
      "id": "BLDG-003",
      "properties": {
        "id": "BLDG-003",
        "layer": "BUILDING_FOOTPRINT",
        "name_zh": "转译院原型建筑基底 3",
        "name_en": "Translation-yard prototype footprint 3",
        "source_type": "agent_generated_design",
        "confidence": "medium",
        "geometry_role": "design_proposal",
        "building_type": "mixed_use",
        "action": "conceptual_retain_or_adapt_first",
        "height_status": "pending_official_control_and_site_survey",
        "area_sqm_declared": 28462.195
      },
      "geometry": {
        "type": "Polygon",
        "coordinates": [
          [
            [
              116.34201994444444,
              39.964499999999994
            ],
            [
              116.34351994444444,
              39.964499999999994
            ],
            [
              116.34351994444444,
              39.9625
            ],
            [
              116.34201994444444,
              39.9625
            ],
            [
              116.34201994444444,
              39.964499999999994
            ]
          ]
        ]
      }
    },
    {
      "type": "Feature",
      "id": "BLDG-004",
      "properties": {
        "id": "BLDG-004",
        "layer": "BUILDING_FOOTPRINT",
        "name_zh": "转译院原型建筑基底 4",
        "name_en": "Translation-yard prototype footprint 4",
        "source_type": "agent_generated_design",
        "confidence": "medium",
        "geometry_role": "design_proposal",
        "building_type": "ai_r_and_d",
        "action": "conceptual_retain_or_adapt_first",
        "height_status": "pending_official_control_and_site_survey",
        "area_sqm_declared": 28462.132
      },
      "geometry": {
        "type": "Polygon",
        "coordinates": [
          [
            [
              116.3514938888889,
              39.964499999999994
            ],
            [
              116.35299388888889,
              39.964499999999994
            ],
            [
              116.35299388888889,
              39.9625
            ],
            [
              116.3514938888889,
              39.9625
            ],
            [
              116.3514938888889,
              39.964499999999994
            ]
          ]
        ]
      }
    },
    {
      "type": "Feature",
      "id": "BLDG-005",
      "properties": {
        "id": "BLDG-005",
        "layer": "BUILDING_FOOTPRINT",
        "name_zh": "转译院原型建筑基底 5",
        "name_en": "Translation-yard prototype footprint 5",
        "source_type": "agent_generated_design",
        "confidence": "medium",
        "geometry_role": "design_proposal",
        "building_type": "mixed_use",
        "action": "conceptual_retain_or_adapt_first",
        "height_status": "pending_official_control_and_site_survey",
        "area_sqm_declared": 28456.459
      },
      "geometry": {
        "type": "Polygon",
        "coordinates": [
          [
            [
              116.34171025806451,
              39.9785
            ],
            [
              116.3432102580645,
              39.9785
            ],
            [
              116.3432102580645,
              39.9765
            ],
            [
              116.34171025806451,
              39.9765
            ],
            [
              116.34171025806451,
              39.9785
            ]
          ]
        ]
      }
    },
    {
      "type": "Feature",
      "id": "BLDG-006",
      "properties": {
        "id": "BLDG-006",
        "layer": "BUILDING_FOOTPRINT",
        "name_zh": "转译院原型建筑基底 6",
        "name_en": "Translation-yard prototype footprint 6",
        "source_type": "agent_generated_design",
        "confidence": "medium",
        "geometry_role": "design_proposal",
        "building_type": "ai_r_and_d",
        "action": "conceptual_retain_or_adapt_first",
        "height_status": "pending_official_control_and_site_survey",
        "area_sqm_declared": 28456.399
      },
      "geometry": {
        "type": "Polygon",
        "coordinates": [
          [
            [
              116.35066225806453,
              39.9785
            ],
            [
              116.35216225806452,
              39.9785
            ],
            [
              116.35216225806452,
              39.9765
            ],
            [
              116.35066225806453,
              39.9765
            ],
            [
              116.35066225806453,
              39.9785
            ]
          ]
        ]
      }
    },
    {
      "type": "Feature",
      "id": "BLDG-007",
      "properties": {
        "id": "BLDG-007",
        "layer": "BUILDING_FOOTPRINT",
        "name_zh": "转译院原型建筑基底 7",
        "name_en": "Translation-yard prototype footprint 7",
        "source_type": "agent_generated_design",
        "confidence": "medium",
        "geometry_role": "design_proposal",
        "building_type": "mixed_use",
        "action": "conceptual_retain_or_adapt_first",
        "height_status": "pending_official_control_and_site_survey",
        "area_sqm_declared": 28451.075
      },
      "geometry": {
        "type": "Polygon",
        "coordinates": [
          [
            [
              116.34223077728679,
              39.991625
            ],
            [
              116.34373077728678,
              39.991625
            ],
            [
              116.34373077728678,
              39.989625000000004
            ],
            [
              116.34223077728679,
              39.989625000000004
            ],
            [
              116.34223077728679,
              39.991625
            ]
          ]
        ]
      }
    },
    {
      "type": "Feature",
      "id": "BLDG-008",
      "properties": {
        "id": "BLDG-008",
        "layer": "BUILDING_FOOTPRINT",
        "name_zh": "转译院原型建筑基底 8",
        "name_en": "Translation-yard prototype footprint 8",
        "source_type": "agent_generated_design",
        "confidence": "medium",
        "geometry_role": "design_proposal",
        "building_type": "ai_r_and_d",
        "action": "conceptual_retain_or_adapt_first",
        "height_status": "pending_official_control_and_site_survey",
        "area_sqm_declared": 28451.022
      },
      "geometry": {
        "type": "Polygon",
        "coordinates": [
          [
            [
              116.3500590101635,
              39.991625
            ],
            [
              116.3515590101635,
              39.991625
            ],
            [
              116.3515590101635,
              39.989625000000004
            ],
            [
              116.3500590101635,
              39.989625000000004
            ],
            [
              116.3500590101635,
              39.991625
            ]
          ]
        ]
      }
    },
    {
      "type": "Feature",
      "id": "BLDG-009",
      "properties": {
        "id": "BLDG-009",
        "layer": "BUILDING_FOOTPRINT",
        "name_zh": "转译院原型建筑基底 9",
        "name_en": "Translation-yard prototype footprint 9",
        "source_type": "agent_generated_design",
        "confidence": "medium",
        "geometry_role": "design_proposal",
        "building_type": "mixed_use",
        "action": "conceptual_retain_or_adapt_first",
        "height_status": "pending_official_control_and_site_survey",
        "area_sqm_declared": 26009.603
      },
      "geometry": {
        "type": "Polygon",
        "coordinates": [
          [
            [
              116.34316442509943,
              40.006499999999996
            ],
            [
              116.34453599999999,
              40.006499999999996
            ],
            [
              116.34453599999999,
              40.0045
            ],
            [
              116.34316442509943,
              40.0045
            ],
            [
              116.34316442509943,
              40.006499999999996
            ]
          ]
        ]
      }
    },
    {
      "type": "Feature",
      "id": "BLDG-010",
      "properties": {
        "id": "BLDG-010",
        "layer": "BUILDING_FOOTPRINT",
        "name_zh": "转译院原型建筑基底 10",
        "name_en": "Translation-yard prototype footprint 10",
        "source_type": "agent_generated_design",
        "confidence": "medium",
        "geometry_role": "design_proposal",
        "building_type": "ai_r_and_d",
        "action": "conceptual_retain_or_adapt_first",
        "height_status": "pending_official_control_and_site_survey",
        "area_sqm_declared": 28444.917
      },
      "geometry": {
        "type": "Polygon",
        "coordinates": [
          [
            [
              116.3509030004419,
              40.006499999999996
            ],
            [
              116.3524030004419,
              40.006499999999996
            ],
            [
              116.3524030004419,
              40.0045
            ],
            [
              116.3509030004419,
              40.0045
            ],
            [
              116.3509030004419,
              40.006499999999996
            ]
          ]
        ]
      }
    },
    {
      "type": "Feature",
      "id": "BLDG-011",
      "properties": {
        "id": "BLDG-011",
        "layer": "BUILDING_FOOTPRINT",
        "name_zh": "转译院原型建筑基底 11",
        "name_en": "Translation-yard prototype footprint 11",
        "source_type": "agent_generated_design",
        "confidence": "medium",
        "geometry_role": "design_proposal",
        "building_type": "mixed_use",
        "action": "conceptual_retain_or_adapt_first",
        "height_status": "pending_official_control_and_site_survey",
        "area_sqm_declared": 15956.379
      },
      "geometry": {
        "type": "Polygon",
        "coordinates": [
          [
            [
              116.34369443835617,
              40.016999999999996
            ],
            [
              116.34453599999999,
              40.016999999999996
            ],
            [
              116.34453599999999,
              40.015
            ],
            [
              116.34369443835617,
              40.015
            ],
            [
              116.34369443835617,
              40.016999999999996
            ]
          ]
        ]
      }
    },
    {
      "type": "Feature",
      "id": "BLDG-012",
      "properties": {
        "id": "BLDG-012",
        "layer": "BUILDING_FOOTPRINT",
        "name_zh": "转译院原型建筑基底 12",
        "name_en": "Translation-yard prototype footprint 12",
        "source_type": "agent_generated_design",
        "confidence": "medium",
        "geometry_role": "design_proposal",
        "building_type": "ai_r_and_d",
        "action": "conceptual_retain_or_adapt_first",
        "height_status": "pending_official_control_and_site_survey",
        "area_sqm_declared": 28440.606
      },
      "geometry": {
        "type": "Polygon",
        "coordinates": [
          [
            [
              116.35146728700302,
              40.016999999999996
            ],
            [
              116.35296728700301,
              40.016999999999996
            ],
            [
              116.35296728700301,
              40.015
            ],
            [
              116.35146728700302,
              40.015
            ],
            [
              116.35146728700302,
              40.016999999999996
            ]
          ]
        ]
      }
    }
  ]
}
