{
  "type": "FeatureCollection",
  "crs": {
    "type": "name",
    "properties": {
      "name": "urn:ogc:def:crs:EPSG::4326"
    }
  },
  "features": [
    {
      "type": "Feature",
      "id": "PROV-KEY-001",
      "properties": {
        "layer": "KEY_AREA",
        "name_zh": "众智园AI自主创新加速区",
        "name_en": "Zhongzhiyuan AI Autonomous Innovation Acceleration Area",
        "area_id": "zhongzhiyuan_ai_acceleration_area",
        "parent_scope_id": "key_detailed_design_area",
        "area_sqm": 1921000,
        "area_sqm_calculated": 1929201.877,
        "area_ha": 192.1,
        "official_boundary": false,
        "geometry_role": "provisional_constraint",
        "boundary_precision": "provisional_rough",
        "source_type": "agent_inferred_from_public_data",
        "confidence": "medium",
        "source_id": "DATA-SRC-PROVISIONAL-BOUNDARIES-20260605",
        "note_zh": "位于京张AI带北段，以AI基础研究和自主技术为核心功能。",
        "usage_note": "仅用于 AI agent 生成、展示和临时自检；不得作为 official key-area polygon、审批依据或精确面积复算依据。",
        "id": "PROV-KEY-001",
        "official_area_sqm": 1921000,
        "area_sqm_declared": 1929201.877
      },
      "geometry": {
        "type": "Polygon",
        "coordinates": [
          [
            [
              116.343,
              40.0075
            ],
            [
              116.354,
              40.0075
            ],
            [
              116.354,
              40.026
            ],
            [
              116.343,
              40.026
            ],
            [
              116.343,
              40.0075
            ]
          ]
        ]
      }
    },
    {
      "type": "Feature",
      "id": "PROV-KEY-002",
      "properties": {
        "layer": "KEY_AREA",
        "name_zh": "北京AI原点社区",
        "name_en": "Beijing AI Origin Community",
        "area_id": "beijing_ai_origin_community",
        "parent_scope_id": "key_detailed_design_area",
        "area_sqm": 1043000,
        "area_sqm_calculated": 1043236.909,
        "area_ha": 104.3,
        "official_boundary": false,
        "geometry_role": "provisional_constraint",
        "boundary_precision": "provisional_rough",
        "source_type": "agent_inferred_from_public_data",
        "confidence": "medium",
        "source_id": "DATA-SRC-PROVISIONAL-BOUNDARIES-20260605",
        "note_zh": "位于京张AI带中段，以清华园火车站旧址为核心，聚焦全球AI人才社区。",
        "usage_note": "仅用于 AI agent 生成、展示和临时自检；不得作为 official key-area polygon、审批依据或精确面积复算依据。",
        "id": "PROV-KEY-002",
        "official_area_sqm": 1043000,
        "area_sqm_declared": 1043236.909
      },
      "geometry": {
        "type": "Polygon",
        "coordinates": [
          [
            [
              116.342,
              39.9835
            ],
            [
              116.353,
              39.9835
            ],
            [
              116.353,
              39.9935
            ],
            [
              116.342,
              39.9935
            ],
            [
              116.342,
              39.9835
            ]
          ]
        ]
      }
    },
    {
      "type": "Feature",
      "id": "PROV-KEY-003",
      "properties": {
        "layer": "KEY_AREA",
        "name_zh": "大钟寺AI产业集聚区",
        "name_en": "Dazhongsi AI Industry Cluster",
        "area_id": "dazhongsi_ai_industry_cluster",
        "parent_scope_id": "key_detailed_design_area",
        "area_sqm": 720000,
        "area_sqm_calculated": 719243.63,
        "area_ha": 72.0,
        "official_boundary": false,
        "geometry_role": "provisional_constraint",
        "boundary_precision": "provisional_rough",
        "source_type": "agent_inferred_from_public_data",
        "confidence": "medium",
        "source_id": "DATA-SRC-PROVISIONAL-BOUNDARIES-20260605",
        "note_zh": "位于京张AI带南段，聚焦AI产业转化和智能原生商业。",
        "usage_note": "仅用于 AI agent 生成、展示和临时自检；不得作为 official key-area polygon、审批依据或精确面积复算依据。",
        "id": "PROV-KEY-003",
        "official_area_sqm": 720000,
        "area_sqm_declared": 719243.63
      },
      "geometry": {
        "type": "Polygon",
        "coordinates": [
          [
            [
              116.342,
              39.944
            ],
            [
              116.3543,
              39.944
            ],
            [
              116.3543,
              39.950162
            ],
            [
              116.342,
              39.950162
            ],
            [
              116.342,
              39.944
            ]
          ]
        ]
      }
    }
  ]
}
