{
  "type": "FeatureCollection",
  "crs": {
    "type": "name",
    "properties": {
      "name": "urn:ogc:def:crs:EPSG::4326"
    }
  },
  "features": [
    {
      "type": "Feature",
      "id": "PS-001",
      "properties": {
        "id": "PS-001",
        "layer": "PUBLIC_SPACE",
        "space_type": "plaza",
        "name_zh": "五道口青年广场",
        "name_en": "Wudaokou Youth Plaza",
        "source_type": "agent_generated_design",
        "confidence": "medium",
        "geometry_role": "design_proposal",
        "area_sqm_declared": 44102.718
      },
      "geometry": {
        "type": "Polygon",
        "coordinates": [
          [
            [
              116.34750000000001,
              39.9834
            ],
            [
              116.348,
              39.9834
            ],
            [
              116.349,
              39.9834
            ],
            [
              116.349,
              39.9865
            ],
            [
              116.348,
              39.9865
            ],
            [
              116.34750000000001,
              39.9865
            ],
            [
              116.34750000000001,
              39.9834
            ]
          ]
        ]
      }
    },
    {
      "type": "Feature",
      "id": "PS-002",
      "properties": {
        "id": "PS-002",
        "layer": "PUBLIC_SPACE",
        "space_type": "plaza",
        "name_zh": "大钟寺AI广场",
        "name_en": "Dazhongsi AI Plaza",
        "source_type": "agent_generated_design",
        "confidence": "medium",
        "geometry_role": "design_proposal",
        "area_sqm_declared": 102962.687
      },
      "geometry": {
        "type": "Polygon",
        "coordinates": [
          [
            [
              116.3455,
              39.9454
            ],
            [
              116.34700000000001,
              39.9454
            ],
            [
              116.34750000000001,
              39.9454
            ],
            [
              116.348,
              39.9454
            ],
            [
              116.349,
              39.9454
            ],
            [
              116.349,
              39.9485
            ],
            [
              116.348,
              39.9485
            ],
            [
              116.34750000000001,
              39.9485
            ],
            [
              116.34700000000001,
              39.9485
            ],
            [
              116.3455,
              39.9485
            ],
            [
              116.3455,
              39.9454
            ]
          ]
        ]
      }
    },
    {
      "type": "Feature",
      "id": "PS-003",
      "properties": {
        "id": "PS-003",
        "layer": "PUBLIC_SPACE",
        "space_type": "plaza",
        "name_zh": "众智园创新广场",
        "name_en": "Zhongzhiyuan Innovation Plaza",
        "source_type": "agent_generated_design",
        "confidence": "medium",
        "geometry_role": "design_proposal",
        "area_sqm_declared": 88167.249
      },
      "geometry": {
        "type": "Polygon",
        "coordinates": [
          [
            [
              116.349,
              40.0134
            ],
            [
              116.352,
              40.0134
            ],
            [
              116.352,
              40.0165
            ],
            [
              116.349,
              40.0165
            ],
            [
              116.349,
              40.0134
            ]
          ]
        ]
      }
    }
  ]
}
