{
  "type": "FeatureCollection",
  "name": "public_space_design",
  "features": [
    {
      "type": "Feature",
      "id": "PUBLIC-001",
      "properties": {
        "id": "PUBLIC-001",
        "layer": "PUBLIC_SPACE",
        "source_type": "agent_generated_design",
        "confidence": "medium",
        "geometry_role": "design_proposal",
        "name_zh": "京张遗址公园公共活动区",
        "area_sqm_declared": 1423077.545
      },
      "geometry": {
        "type": "Polygon",
        "coordinates": [
          [
            [
              116.3445,
              39.95
            ],
            [
              116.3445,
              39.98
            ],
            [
              116.3495,
              39.98
            ],
            [
              116.3495,
              39.95
            ],
            [
              116.3445,
              39.95
            ]
          ]
        ]
      }
    },
    {
      "type": "Feature",
      "id": "PUBLIC-002",
      "properties": {
        "id": "PUBLIC-002",
        "layer": "PUBLIC_SPACE",
        "source_type": "agent_generated_design",
        "confidence": "medium",
        "geometry_role": "design_proposal",
        "name_zh": "AI场景展示广场",
        "area_sqm_declared": 303489.394
      },
      "geometry": {
        "type": "Polygon",
        "coordinates": [
          [
            [
              116.344,
              39.984
            ],
            [
              116.344,
              39.992
            ],
            [
              116.348,
              39.992
            ],
            [
              116.348,
              39.984
            ],
            [
              116.344,
              39.984
            ]
          ]
        ]
      }
    }
  ]
}