{
  "type": "FeatureCollection",
  "name": "agent_station_phasing",
  "features": [
    {
      "type": "Feature",
      "id": "PHASE-001",
      "properties": {
        "id": "PHASE-001",
        "layer": "PHASE",
        "source_type": "agent_generated_design",
        "confidence": "medium",
        "geometry_role": "design_proposal",
        "name_zh": "一期：协议—导视—可退出试点",
        "phase": "near_term_pilot",
        "area_sqm_declared": 3282595.059
      },
      "geometry": {
        "type": "Polygon",
        "coordinates": [
          [
            [
              116.3417,
              40.006
            ],
            [
              116.3422732,
              40.01775
            ],
            [
              116.34828,
              40.01775
            ],
            [
              116.34828,
              39.969625
            ],
            [
              116.34048,
              39.969625
            ],
            [
              116.34048,
              39.98709
            ],
            [
              116.3417,
              40.006
            ]
          ]
        ]
      }
    },
    {
      "type": "Feature",
      "id": "PHASE-002",
      "properties": {
        "id": "PHASE-002",
        "layer": "PHASE",
        "source_type": "agent_generated_design",
        "confidence": "medium",
        "geometry_role": "design_proposal",
        "name_zh": "二期：三站换乘与公共体验完善",
        "phase": "mid_term_transfer",
        "area_sqm_declared": 3737256.424
      },
      "geometry": {
        "type": "Polygon",
        "coordinates": [
          [
            [
              116.3533,
              39.99
            ],
            [
              116.35452,
              39.97475
            ],
            [
              116.35452,
              39.952125
            ],
            [
              116.34516,
              39.952125
            ],
            [
              116.34516,
              39.995875
            ],
            [
              116.3536219,
              39.995875
            ],
            [
              116.3533,
              39.99
            ]
          ]
        ]
      }
    }
  ]
}
