{
 "type": "FeatureCollection",
 "generated_at": "2026-08-08T16:51:47",
 "generator": "build_geometry.py (deterministic, provisional boundary)",
 "features": [
  {
   "type": "Feature",
   "id": "SITE-001",
   "properties": {
    "id": "SITE-001",
    "layer": "SITE_BOUNDARY",
    "source_type": "agent_inferred_from_public_data",
    "confidence": "medium",
    "geometry_role": "provisional_constraint",
    "official_boundary": false,
    "boundary_precision": "provisional_rough",
    "source_id": "DATA-SRC-PROVISIONAL-BOUNDARIES-20260605",
    "usage_note": "Provisional rough boundary from repo site package. Not an official redline; all areas are work values and must be recalculated when official polygons arrive."
   },
   "geometry": {
    "type": "Polygon",
    "coordinates": [
     [
      [
       116.34070016834774,
       39.93899958107972
      ],
      [
       116.3552998161558,
       39.93900015740867
      ],
      [
       116.35529956845184,
       39.96500044781687
      ],
      [
       116.35330027373342,
       39.99000039142163
      ],
      [
       116.35529965923642,
       40.026499577852704
      ],
      [
       116.3427003790953,
       40.026500368522456
      ],
      [
       116.34170032144338,
       40.006000325576665
      ],
      [
       116.33970037137372,
       39.97499999860375
      ],
      [
       116.34069947749994,
       39.93900034710492
      ],
      [
       116.34070016834774,
       39.93899958107972
      ]
     ]
    ]
   }
  }
 ]
}