{
  "type": "FeatureCollection",
  "name": "phasing_scaffold",
  "features": [
    {
      "type": "Feature",
      "id": "PHASE-NEAR",
      "properties": {
        "id": "PHASE-NEAR",
        "layer": "PHASE",
        "land_use_code": "1207",
        "description": "Near-term (2026-2027): Slow-travel gap closure, Qinghe interface pilot, Dazhongsi station connectivity",
        "geometry_role": "design_proposal",
        "source_type": "agent_inferred_from_public_data",
        "confidence": "low",
        "official_boundary": false,
        "boundary_precision": "provisional_rough",
        "usage_note": "Conceptual design proposal. Not for official redline or statutory use.",
        "area_sqm_declared": 455181.4,
        "area_sqm_calculated": 455181.4
      },
      "geometry": {
        "type": "Polygon",
        "coordinates": [
          [
            [
              116.345,
              39.992
            ],
            [
              116.351,
              39.992
            ],
            [
              116.351,
              40.0
            ],
            [
              116.345,
              40.0
            ],
            [
              116.345,
              39.992
            ]
          ]
        ]
      }
    },
    {
      "type": "Feature",
      "id": "PHASE-MID",
      "properties": {
        "id": "PHASE-MID",
        "layer": "PHASE",
        "land_use_code": "1207",
        "description": "Mid-term (2028-2030): Tech transfer street, Heritage walls L01+L02, edge computing nodes",
        "geometry_role": "design_proposal",
        "source_type": "agent_inferred_from_public_data",
        "confidence": "low",
        "official_boundary": false,
        "boundary_precision": "provisional_rough",
        "usage_note": "Conceptual design proposal. Not for official redline or statutory use.",
        "area_sqm_declared": 796682.2,
        "area_sqm_calculated": 796682.2
      },
      "geometry": {
        "type": "Polygon",
        "coordinates": [
          [
            [
              116.3445,
              39.98
            ],
            [
              116.3515,
              39.98
            ],
            [
              116.3515,
              39.992
            ],
            [
              116.3445,
              39.992
            ],
            [
              116.3445,
              39.98
            ]
          ]
        ]
      }
    },
    {
      "type": "Feature",
      "id": "PHASE-LONG",
      "properties": {
        "id": "PHASE-LONG",
        "layer": "PHASE",
        "land_use_code": "1207",
        "description": "Long-term (2030+): Future Developers Plaza, annual event system, operations foundation",
        "geometry_role": "design_proposal",
        "source_type": "agent_inferred_from_public_data",
        "confidence": "low",
        "official_boundary": false,
        "boundary_precision": "provisional_rough",
        "usage_note": "Conceptual design proposal. Not for official redline or statutory use.",
        "area_sqm_declared": 1328109.8,
        "area_sqm_calculated": 1328109.8
      },
      "geometry": {
        "type": "Polygon",
        "coordinates": [
          [
            [
              116.3445,
              39.96
            ],
            [
              116.3515,
              39.96
            ],
            [
              116.3515,
              39.98
            ],
            [
              116.3445,
              39.98
            ],
            [
              116.3445,
              39.96
            ]
          ]
        ]
      }
    }
  ]
}