{
  "type": "FeatureCollection",
  "name": "jingzhang_ai_commons_mobility_network",
  "features": [
    {
      "type": "Feature",
      "id": "ROAD-001",
      "properties": {
        "id": "ROAD-001",
        "layer": "ROAD_CENTERLINE",
        "source_type": "agent_generated_design",
        "confidence": "medium",
        "geometry_role": "design_proposal",
        "road_class": "greenway",
        "name_zh": "京张记忆步行主脊"
      },
      "geometry": {
        "type": "LineString",
        "coordinates": [
          [
            116.346,
            39.941
          ],
          [
            116.3464,
            39.955
          ],
          [
            116.3459,
            39.973
          ],
          [
            116.3465,
            39.99
          ],
          [
            116.346,
            40.008
          ],
          [
            116.3463,
            40.024
          ]
        ]
      }
    },
    {
      "type": "Feature",
      "id": "ROAD-002",
      "properties": {
        "id": "ROAD-002",
        "layer": "ROAD_CENTERLINE",
        "source_type": "agent_generated_design",
        "confidence": "medium",
        "geometry_role": "design_proposal",
        "road_class": "cycleway",
        "name_zh": "AI共同体骑行副脊"
      },
      "geometry": {
        "type": "LineString",
        "coordinates": [
          [
            116.3482,
            39.9415
          ],
          [
            116.3484,
            40.0238
          ]
        ]
      }
    },
    {
      "type": "Feature",
      "id": "ROAD-003",
      "properties": {
        "id": "ROAD-003",
        "layer": "ROAD_CENTERLINE",
        "source_type": "agent_generated_design",
        "confidence": "medium",
        "geometry_role": "design_proposal",
        "road_class": "pedestrian",
        "name_zh": "众智园知识缝合线"
      },
      "geometry": {
        "type": "LineString",
        "coordinates": [
          [
            116.343,
            40.016
          ],
          [
            116.3537,
            40.016
          ]
        ]
      }
    },
    {
      "type": "Feature",
      "id": "ROAD-004",
      "properties": {
        "id": "ROAD-004",
        "layer": "ROAD_CENTERLINE",
        "source_type": "agent_generated_design",
        "confidence": "medium",
        "geometry_role": "design_proposal",
        "road_class": "pedestrian",
        "name_zh": "原点社区近校缝合线"
      },
      "geometry": {
        "type": "LineString",
        "coordinates": [
          [
            116.3423,
            39.9885
          ],
          [
            116.3534,
            39.9885
          ]
        ]
      }
    },
    {
      "type": "Feature",
      "id": "ROAD-005",
      "properties": {
        "id": "ROAD-005",
        "layer": "ROAD_CENTERLINE",
        "source_type": "agent_generated_design",
        "confidence": "medium",
        "geometry_role": "design_proposal",
        "road_class": "pedestrian",
        "name_zh": "大钟寺四象限缝合线"
      },
      "geometry": {
        "type": "LineString",
        "coordinates": [
          [
            116.3418,
            39.947
          ],
          [
            116.3545,
            39.947
          ]
        ]
      }
    },
    {
      "type": "Feature",
      "id": "ROAD-006",
      "properties": {
        "id": "ROAD-006",
        "layer": "ROAD_CENTERLINE",
        "source_type": "agent_generated_design",
        "confidence": "medium",
        "geometry_role": "design_proposal",
        "road_class": "transit_connection",
        "name_zh": "大钟寺站概念接驳线"
      },
      "geometry": {
        "type": "LineString",
        "coordinates": [
          [
            116.3508,
            39.945
          ],
          [
            116.3538,
            39.9488
          ]
        ]
      }
    }
  ]
}
