{"type": "FeatureCollection", "name": "public_space_and_nodes", "features": [{"type": "Feature", "id": "PS-001", "properties": {"id": "PS-001", "layer": "PUBLIC_SPACE", "source_type": "agent_generated_design", "confidence": "medium", "geometry_role": "design_proposal", "name_zh": "人字原点碑广场", "public_space_type": "1403", "node_role": "landmark", "scenario_ref": "SC-02", "area_sqm_declared": 13720.0, "design_note_zh": "「人」字交汇点的原点碑与荣誉墙起点，人机共创的象征性场所"}, "geometry": {"type": "Polygon", "coordinates": [[[116.34617747400485, 39.98805138110904], [116.34616905965107, 39.98893393277172], [116.34780815066934, 39.98894316755597], [116.3478165439328, 39.988060615606265], [116.34617747400485, 39.98805138110904]]]}}, {"type": "Feature", "id": "PS-002", "properties": {"id": "PS-002", "layer": "PUBLIC_SPACE", "source_type": "agent_generated_design", "confidence": "medium", "geometry_role": "design_proposal", "name_zh": "开源贡献长廊", "public_space_type": "1403", "node_role": "landmark", "scenario_ref": "SC-03", "area_sqm_declared": 13720.0, "design_note_zh": "沿绿脊的 Commit 长廊，展示智能体与开发者的开源贡献"}, "geometry": {"type": "Polygon", "coordinates": [[[116.34679430804444, 40.00005207016196], [116.3467858980578, 40.00093462010037], [116.34842527618778, 40.000943848444216], [116.34843366507144, 40.000061298219016], [116.34679430804444, 40.00005207016196]]]}}, {"type": "Feature", "id": "PS-003", "properties": {"id": "PS-003", "layer": "PUBLIC_SPACE", "source_type": "agent_generated_design", "confidence": "medium", "geometry_role": "design_proposal", "name_zh": "大钟寺智鸣广场", "public_space_type": "1403", "node_role": "landmark", "scenario_ref": "SC-08", "area_sqm_declared": 13720.0, "design_note_zh": "古钟文化与 AI 信号艺术交汇的智能原生广场"}, "geometry": {"type": "Polygon", "coordinates": [[[116.34263027200674, 39.94644574677846], [116.34262182445353, 39.94732830416801], [116.34425992094651, 39.94733758114757], [116.34426834745328, 39.94645502346962], [116.34263027200674, 39.94644574677846]]]}}, {"type": "Feature", "id": "PS-004", "properties": {"id": "PS-004", "layer": "PUBLIC_SPACE", "source_type": "agent_generated_design", "confidence": "medium", "geometry_role": "design_proposal", "name_zh": "清华园时空站台", "public_space_type": "1403", "node_role": "landmark", "scenario_ref": "SC-01", "area_sqm_declared": 13720.0, "design_note_zh": "清华园站遗址上的时空站台，1909 与 2026 双时刻并置"}, "geometry": {"type": "Polygon", "coordinates": [[[116.3476923617515, 40.01655514991271], [116.34768395842087, 40.0174376974883], [116.3493237316786, 40.017446916263104], [116.34933211388883, 40.016564368401056], [116.3476923617515, 40.01655514991271]]]}}, {"type": "Feature", "id": "PS-005", "properties": {"id": "PS-005", "layer": "PUBLIC_SPACE", "source_type": "agent_generated_design", "confidence": "medium", "geometry_role": "design_proposal", "name_zh": "小月河场景实验段", "public_space_type": "1403", "node_role": "scenario", "scenario_ref": "SC-05", "area_sqm_declared": 6688.166, "design_note_zh": "小月河沿线 AI 场景开放测试段（低速机器人、智能照明、环境感知）"}, "geometry": {"type": "Polygon", "coordinates": [[[116.35404771181118, 39.9663916077626], [116.35404177849006, 39.96702200516856], [116.35513781071046, 39.96702810761383], [116.35518820541292, 39.96639795745676], [116.35404771181118, 39.9663916077626]]]}}, {"type": "Feature", "id": "PS-006", "properties": {"id": "PS-006", "layer": "PUBLIC_SPACE", "source_type": "agent_generated_design", "confidence": "medium", "geometry_role": "design_proposal", "name_zh": "众智园算力广场", "public_space_type": "1403", "node_role": "scenario", "scenario_ref": "SC-07", "area_sqm_declared": 7000.0, "design_note_zh": "开源算力与评测服务的公共节点，『算力即公共设施』概念"}, "geometry": {"type": "Polygon", "coordinates": [[[116.34541614316237, 40.01666839980635], [116.34541011985284, 40.01729879064702], [116.34658138348294, 40.01730540081591], [116.34658739601677, 40.01667500982851], [116.34541614316237, 40.01666839980635]]]}}], "metadata": {"coordinate_reference_system": "EPSG:4326", "area_calculation_crs": "EPSG:4548", "design_concept": "人字形·智轨（Λ·RAIL）：一撇为百年京张文化轴，一捺为AI场景生长轴，交汇成『人』", "boundary_status": "provisional", "generated_by": "build_tools/gen_geometry.py"}}