{
  "type": "FeatureCollection",
  "name": "phasing_design",
  "features": [
    {
      "type": "Feature",
      "id": "PHASE-001",
      "properties": {
        "id": "PHASE-001",
        "layer": "PHASE",
        "phase": "phase_1",
        "name_zh": "一期：原点社区活力更新",
        "source_type": "agent_generated_design",
        "confidence": "medium",
        "geometry_role": "design_proposal",
        "area_sqm_declared": 1357029.436
      },
      "geometry": {
        "type": "Polygon",
        "coordinates": [
          [
            [
              116.3399748,
              39.9792614
            ],
            [
              116.3400678,
              39.9807029
            ],
            [
              116.3401608,
              39.9821444
            ],
            [
              116.3402538,
              39.9835859
            ],
            [
              116.3403467,
              39.9850274
            ],
            [
              116.3404397,
              39.9864689
            ],
            [
              116.3405327,
              39.9879104
            ],
            [
              116.3406257,
              39.9893519
            ],
            [
              116.3407187,
              39.9907934
            ],
            [
              116.3408117,
              39.9922349
            ],
            [
              116.3409047,
              39.9936764
            ],
            [
              116.3409977,
              39.9951179
            ],
            [
              116.3410908,
              39.9965594
            ],
            [
              116.3411838,
              39.9980009
            ],
            [
              116.3412768,
              39.9994424
            ],
            [
              116.3413303,
              40.0002714
            ],
            [
              116.3413698,
              40.0008839
            ],
            [
              116.3414628,
              40.0023255
            ],
            [
              116.3415559,
              40.003767
            ],
            [
              116.3416489,
              40.0052085
            ],
            [
              116.3417,
              40.006
            ],
            [
              116.3417317,
              40.0066499
            ],
            [
              116.341802,
              40.0080913
            ],
            [
              116.3431289,
              40.0080988
            ],
            [
              116.3450027,
              40.0081094
            ],
            [
              116.3468765,
              40.00812
            ],
            [
              116.3468902,
              40.0066791
            ],
            [
              116.3469039,
              40.0052382
            ],
            [
              116.3469177,
              40.0037973
            ],
            [
              116.3469314,
              40.0023564
            ],
            [
              116.3469451,
              40.0009155
            ],
            [
              116.3469589,
              39.9994746
            ],
            [
              116.3469726,
              39.9980337
            ],
            [
              116.3450991,
              39.9980231
            ],
            [
              116.3451129,
              39.9965822
            ],
            [
              116.3469863,
              39.9965928
            ],
            [
              116.347,
              39.9951519
            ],
            [
              116.3451266,
              39.9951413
            ],
            [
              116.3451404,
              39.9937004
            ],
            [
              116.3451541,
              39.9922595
            ],
            [
              116.3432808,
              39.9922489
            ],
            [
              116.3432946,
              39.990808
            ],
            [
              116.3451679,
              39.9908186
            ],
            [
              116.3451817,
              39.9893777
            ],
            [
              116.3451954,
              39.9879368
            ],
            [
              116.3452092,
              39.9864959
            ],
            [
              116.3452229,
              39.985055
            ],
            [
              116.3452367,
              39.9836141
            ],
            [
              116.3452504,
              39.9821732
            ],
            [
              116.3433774,
              39.9821626
            ],
            [
              116.3415043,
              39.982152
            ],
            [
              116.3415182,
              39.9807111
            ],
            [
              116.3433912,
              39.9807217
            ],
            [
              116.3452642,
              39.9807323
            ],
            [
              116.3452779,
              39.9792914
            ],
            [
              116.343405,
              39.9792808
            ],
            [
              116.3434188,
              39.9778399
            ],
            [
              116.3415458,
              39.9778293
            ],
            [
              116.3415596,
              39.9763884
            ],
            [
              116.3397889,
              39.9763783
            ],
            [
              116.3398819,
              39.9778198
            ],
            [
              116.3399748,
              39.9792614
            ]
          ]
        ]
      }
    },
    {
      "type": "Feature",
      "id": "PHASE-002",
      "properties": {
        "id": "PHASE-002",
        "layer": "PHASE",
        "phase": "phase_1",
        "name_zh": "一期：原点社区活力更新",
        "source_type": "agent_generated_design",
        "confidence": "medium",
        "geometry_role": "design_proposal",
        "area_sqm_declared": 1349805.245
      },
      "geometry": {
        "type": "Polygon",
        "coordinates": [
          [
            [
              116.3490239,
              39.9793125
            ],
            [
              116.3490102,
              39.9807534
            ],
            [
              116.3489966,
              39.9821943
            ],
            [
              116.3489829,
              39.9836352
            ],
            [
              116.3471098,
              39.9836247
            ],
            [
              116.3470961,
              39.9850656
            ],
            [
              116.3489692,
              39.9850761
            ],
            [
              116.3489555,
              39.986517
            ],
            [
              116.3489419,
              39.9879579
            ],
            [
              116.3489282,
              39.9893988
            ],
            [
              116.3489145,
              39.9908397
            ],
            [
              116.3489008,
              39.9922806
            ],
            [
              116.3507742,
              39.9922912
            ],
            [
              116.3507605,
              39.9937321
            ],
            [
              116.3507469,
              39.995173
            ],
            [
              116.3488734,
              39.9951624
            ],
            [
              116.3488598,
              39.9966033
            ],
            [
              116.3488461,
              39.9980442
            ],
            [
              116.3507196,
              39.9980548
            ],
            [
              116.3507059,
              39.9994957
            ],
            [
              116.3488324,
              39.9994851
            ],
            [
              116.3488187,
              40.000926
            ],
            [
              116.348805,
              40.0023669
            ],
            [
              116.3487913,
              40.0038078
            ],
            [
              116.350665,
              40.0038184
            ],
            [
              116.3506513,
              40.0052592
            ],
            [
              116.3487776,
              40.0052487
            ],
            [
              116.3487639,
              40.0066896
            ],
            [
              116.3487502,
              40.0081305
            ],
            [
              116.350624,
              40.008141
            ],
            [
              116.3524978,
              40.0081515
            ],
            [
              116.3542949,
              40.0081616
            ],
            [
              116.3542159,
              40.0067201
            ],
            [
              116.354137,
              40.0052787
            ],
            [
              116.354058,
              40.0038373
            ],
            [
              116.353979,
              40.0023959
            ],
            [
              116.3539,
              40.0009545
            ],
            [
              116.3538211,
              39.9995131
            ],
            [
              116.3537421,
              39.9980716
            ],
            [
              116.3536632,
              39.9966302
            ],
            [
              116.3535842,
              39.9951888
            ],
            [
              116.3535053,
              39.9937474
            ],
            [
              116.3534263,
              39.992306
            ],
            [
              116.3533474,
              39.9908646
            ],
            [
              116.3533,
              39.99
            ],
            [
              116.3533461,
              39.9894236
            ],
            [
              116.3534614,
              39.9879832
            ],
            [
              116.3535767,
              39.9865429
            ],
            [
              116.3536919,
              39.9851026
            ],
            [
              116.3538072,
              39.9836622
            ],
            [
              116.3539224,
              39.9822219
            ],
            [
              116.3540377,
              39.9807816
            ],
            [
              116.3541529,
              39.9793412
            ],
            [
              116.3542681,
              39.9779009
            ],
            [
              116.3543834,
              39.9764605
            ],
            [
              116.3527971,
              39.9764517
            ],
            [
              116.3509242,
              39.9764412
            ],
            [
              116.3509105,
              39.9778821
            ],
            [
              116.3508969,
              39.979323
            ],
            [
              116.3490239,
              39.9793125
            ]
          ]
        ]
      }
    },
    {
      "type": "Feature",
      "id": "PHASE-003",
      "properties": {
        "id": "PHASE-003",
        "layer": "PHASE",
        "phase": "phase_2",
        "name_zh": "二期：众智园自主创新",
        "source_type": "agent_generated_design",
        "confidence": "medium",
        "geometry_role": "design_proposal",
        "area_sqm_declared": 2108252.248
      },
      "geometry": {
        "type": "Polygon",
        "coordinates": [
          [
            [
              116.3420129,
              40.0124154
            ],
            [
              116.3420832,
              40.0138568
            ],
            [
              116.3421535,
              40.0152981
            ],
            [
              116.3422238,
              40.0167395
            ],
            [
              116.3422941,
              40.0181809
            ],
            [
              116.3423644,
              40.0196222
            ],
            [
              116.3424348,
              40.0210636
            ],
            [
              116.3425051,
              40.022505
            ],
            [
              116.3425754,
              40.0239463
            ],
            [
              116.3426457,
              40.0253877
            ],
            [
              116.3427,
              40.0265
            ],
            [
              116.3429525,
              40.0265
            ],
            [
              116.3448269,
              40.0265001
            ],
            [
              116.3467012,
              40.0265001
            ],
            [
              116.3485756,
              40.0265002
            ],
            [
              116.35045,
              40.0265002
            ],
            [
              116.3523243,
              40.0265001
            ],
            [
              116.3541987,
              40.0265001
            ],
            [
              116.3553,
              40.0265
            ],
            [
              116.3552429,
              40.0254585
            ],
            [
              116.3551639,
              40.0240171
            ],
            [
              116.3550849,
              40.0225757
            ],
            [
              116.3550059,
              40.0211343
            ],
            [
              116.3549269,
              40.0196929
            ],
            [
              116.3548479,
              40.0182514
            ],
            [
              116.3547689,
              40.01681
            ],
            [
              116.3546899,
              40.0153686
            ],
            [
              116.3546109,
              40.0139272
            ],
            [
              116.3545319,
              40.0124858
            ],
            [
              116.3544529,
              40.0110444
            ],
            [
              116.3543739,
              40.009603
            ],
            [
              116.3543603,
              40.0093552
            ],
            [
              116.3542949,
              40.0081616
            ],
            [
              116.3524978,
              40.0081515
            ],
            [
              116.350624,
              40.008141
            ],
            [
              116.3487502,
              40.0081305
            ],
            [
              116.3487366,
              40.0095714
            ],
            [
              116.3487229,
              40.0110123
            ],
            [
              116.3487092,
              40.0124532
            ],
            [
              116.3468353,
              40.0124427
            ],
            [
              116.346849,
              40.0110018
            ],
            [
              116.3468627,
              40.0095609
            ],
            [
              116.3468765,
              40.00812
            ],
            [
              116.3450027,
              40.0081094
            ],
            [
              116.3431289,
              40.0080988
            ],
            [
              116.341802,
              40.0080913
            ],
            [
              116.3418723,
              40.0095326
            ],
            [
              116.3419426,
              40.010974
            ],
            [
              116.3420129,
              40.0124154
            ]
          ]
        ]
      }
    },
    {
      "type": "Feature",
      "id": "PHASE-004",
      "properties": {
        "id": "PHASE-004",
        "layer": "PHASE",
        "phase": "phase_3",
        "name_zh": "三期：大钟寺产业集聚",
        "source_type": "agent_generated_design",
        "confidence": "medium",
        "geometry_role": "design_proposal",
        "area_sqm_declared": 6597738.457
      },
      "geometry": {
        "type": "Polygon",
        "coordinates": [
          [
            [
              116.3404623,
              39.9475625
            ],
            [
              116.3404223,
              39.9490032
            ],
            [
              116.3403823,
              39.950444
            ],
            [
              116.3403422,
              39.9518848
            ],
            [
              116.3403022,
              39.9533255
            ],
            [
              116.3402622,
              39.9547663
            ],
            [
              116.3402222,
              39.956207
            ],
            [
              116.3401822,
              39.9576478
            ],
            [
              116.3401421,
              39.9590885
            ],
            [
              116.3401021,
              39.9605293
            ],
            [
              116.3400621,
              39.9619701
            ],
            [
              116.3400221,
              39.9634108
            ],
            [
              116.339982,
              39.9648516
            ],
            [
              116.339942,
              39.9662923
            ],
            [
              116.339902,
              39.9677331
            ],
            [
              116.3398619,
              39.9691738
            ],
            [
              116.3398219,
              39.9706146
            ],
            [
              116.3397818,
              39.9720553
            ],
            [
              116.3397418,
              39.9734961
            ],
            [
              116.3397018,
              39.9749369
            ],
            [
              116.3397,
              39.975
            ],
            [
              116.3397889,
              39.9763783
            ],
            [
              116.3415596,
              39.9763884
            ],
            [
              116.3415458,
              39.9778293
            ],
            [
              116.3434188,
              39.9778399
            ],
            [
              116.343405,
              39.9792808
            ],
            [
              116.3452779,
              39.9792914
            ],
            [
              116.3452642,
              39.9807323
            ],
            [
              116.3433912,
              39.9807217
            ],
            [
              116.3415182,
              39.9807111
            ],
            [
              116.3415043,
              39.982152
            ],
            [
              116.3433774,
              39.9821626
            ],
            [
              116.3452504,
              39.9821732
            ],
            [
              116.3452367,
              39.9836141
            ],
            [
              116.3452229,
              39.985055
            ],
            [
              116.3452092,
              39.9864959
            ],
            [
              116.3451954,
              39.9879368
            ],
            [
              116.3451817,
              39.9893777
            ],
            [
              116.3451679,
              39.9908186
            ],
            [
              116.3432946,
              39.990808
            ],
            [
              116.3432808,
              39.9922489
            ],
            [
              116.3451541,
              39.9922595
            ],
            [
              116.3451404,
              39.9937004
            ],
            [
              116.3451266,
              39.9951413
            ],
            [
              116.347,
              39.9951519
            ],
            [
              116.3469863,
              39.9965928
            ],
            [
              116.3451129,
              39.9965822
            ],
            [
              116.3450991,
              39.9980231
            ],
            [
              116.3469726,
              39.9980337
            ],
            [
              116.3469589,
              39.9994746
            ],
            [
              116.3469451,
              40.0009155
            ],
            [
              116.3469314,
              40.0023564
            ],
            [
              116.3469177,
              40.0037973
            ],
            [
              116.3469039,
              40.0052382
            ],
            [
              116.3468902,
              40.0066791
            ],
            [
              116.3468765,
              40.00812
            ],
            [
              116.3468627,
              40.0095609
            ],
            [
              116.346849,
              40.0110018
            ],
            [
              116.3468353,
              40.0124427
            ],
            [
              116.3487092,
              40.0124532
            ],
            [
              116.3487229,
              40.0110123
            ],
            [
              116.3487366,
              40.0095714
            ],
            [
              116.3487502,
              40.0081305
            ],
            [
              116.3487639,
              40.0066896
            ],
            [
              116.3487776,
              40.0052487
            ],
            [
              116.3506513,
              40.0052592
            ],
            [
              116.350665,
              40.0038184
            ],
            [
              116.3487913,
              40.0038078
            ],
            [
              116.348805,
              40.0023669
            ],
            [
              116.3488187,
              40.000926
            ],
            [
              116.3488324,
              39.9994851
            ],
            [
              116.3507059,
              39.9994957
            ],
            [
              116.3507196,
              39.9980548
            ],
            [
              116.3488461,
              39.9980442
            ],
            [
              116.3488598,
              39.9966033
            ],
            [
              116.3488734,
              39.9951624
            ],
            [
              116.3507469,
              39.995173
            ],
            [
              116.3507605,
              39.9937321
            ],
            [
              116.3507742,
              39.9922912
            ],
            [
              116.3489008,
              39.9922806
            ],
            [
              116.3489145,
              39.9908397
            ],
            [
              116.3489282,
              39.9893988
            ],
            [
              116.3489419,
              39.9879579
            ],
            [
              116.3489555,
              39.986517
            ],
            [
              116.3489692,
              39.9850761
            ],
            [
              116.3470961,
              39.9850656
            ],
            [
              116.3471098,
              39.9836247
            ],
            [
              116.3489829,
              39.9836352
            ],
            [
              116.3489966,
              39.9821943
            ],
            [
              116.3490102,
              39.9807534
            ],
            [
              116.3490239,
              39.9793125
            ],
            [
              116.3508969,
              39.979323
            ],
            [
              116.3509105,
              39.9778821
            ],
            [
              116.3509242,
              39.9764412
            ],
            [
              116.3527971,
              39.9764517
            ],
            [
              116.3543834,
              39.9764605
            ],
            [
              116.3544986,
              39.9750202
            ],
            [
              116.3546138,
              39.9735799
            ],
            [
              116.3547082,
              39.9723997
            ],
            [
              116.354729,
              39.9721395
            ],
            [
              116.3548442,
              39.9706992
            ],
            [
              116.3549594,
              39.9692588
            ],
            [
              116.3550746,
              39.9678185
            ],
            [
              116.3551898,
              39.9663781
            ],
            [
              116.3553,
              39.965
            ],
            [
              116.3553,
              39.9649378
            ],
            [
              116.3553,
              39.9634968
            ],
            [
              116.3553,
              39.9620558
            ],
            [
              116.3553,
              39.9606148
            ],
            [
              116.3553,
              39.9591738
            ],
            [
              116.3553,
              39.9577329
            ],
            [
              116.3553,
              39.9562919
            ],
            [
              116.3553,
              39.9548509
            ],
            [
              116.3553,
              39.9534099
            ],
            [
              116.3553,
              39.9519689
            ],
            [
              116.3553,
              39.9505279
            ],
            [
              116.3553,
              39.9490869
            ],
            [
              116.3553,
              39.9476459
            ],
            [
              116.3553,
              39.9462049
            ],
            [
              116.3553,
              39.944764
            ],
            [
              116.3553,
              39.943323
            ],
            [
              116.3553,
              39.941882
            ],
            [
              116.3553,
              39.940441
            ],
            [
              116.3553,
              39.939
            ],
            [
              116.355022,
              39.939
            ],
            [
              116.35315,
              39.9390001
            ],
            [
              116.3512781,
              39.9390002
            ],
            [
              116.3494061,
              39.9390002
            ],
            [
              116.3475341,
              39.9390002
            ],
            [
              116.3456621,
              39.9390002
            ],
            [
              116.3437901,
              39.9390002
            ],
            [
              116.3419181,
              39.9390001
            ],
            [
              116.3407,
              39.939
            ],
            [
              116.3406623,
              39.9403587
            ],
            [
              116.3406223,
              39.9417994
            ],
            [
              116.3405823,
              39.9432402
            ],
            [
              116.3405423,
              39.944681
            ],
            [
              116.3405023,
              39.9461217
            ],
            [
              116.3404623,
              39.9475625
            ]
          ]
        ]
      }
    }
  ]
}