{
  "type": "FeatureCollection",
  "name": "jingzhang_commons_phasing",
  "features": [
    {
      "type": "Feature",
      "id": "PHASE-001",
      "properties": {
        "id": "PHASE-001",
        "layer": "PHASE",
        "source_type": "agent_generated_design",
        "confidence": "medium",
        "geometry_role": "design_proposal",
        "phase": "phase_1",
        "name_zh": "先行：轻量公共空间与开放运营",
        "implementation_status": "概念分期；依赖官方控规、权属、交通、市政和许可确认",
        "area_sqm_declared": 4106946.996
      },
      "geometry": {
        "type": "Polygon",
        "coordinates": [
          [
            [
              116.3407,
              39.939
            ],
            [
              116.33989791666666,
              39.967875
            ],
            [
              116.35507,
              39.967875
            ],
            [
              116.3553,
              39.965
            ],
            [
              116.3553,
              39.939
            ],
            [
              116.3407,
              39.939
            ]
          ]
        ]
      }
    },
    {
      "type": "Feature",
      "id": "PHASE-002",
      "properties": {
        "id": "PHASE-002",
        "layer": "PHASE",
        "source_type": "agent_generated_design",
        "confidence": "medium",
        "geometry_role": "design_proposal",
        "phase": "phase_2",
        "name_zh": "深化：重点片区更新与场景验证",
        "implementation_status": "概念分期；依赖官方控规、权属、交通、市政和许可确认",
        "area_sqm_declared": 4187393.029
      },
      "geometry": {
        "type": "Polygon",
        "coordinates": [
          [
            [
              116.3533,
              39.99
            ],
            [
              116.35507,
              39.967875
            ],
            [
              116.33989791666666,
              39.967875
            ],
            [
              116.3397,
              39.975
            ],
            [
              116.34132903225806,
              40.00025
            ],
            [
              116.35386164383561,
              40.00025
            ],
            [
              116.3533,
              39.99
            ]
          ]
        ]
      }
    },
    {
      "type": "Feature",
      "id": "PHASE-003",
      "properties": {
        "id": "PHASE-003",
        "layer": "PHASE",
        "source_type": "agent_generated_design",
        "confidence": "medium",
        "geometry_role": "design_proposal",
        "phase": "phase_3",
        "name_zh": "长期：生态网络与全球活动资产",
        "implementation_status": "概念分期；依赖官方控规、权属、交通、市政和许可确认",
        "area_sqm_declared": 3118508.402
      },
      "geometry": {
        "type": "Polygon",
        "coordinates": [
          [
            [
              116.35386164383561,
              40.00025
            ],
            [
              116.34132903225806,
              40.00025
            ],
            [
              116.3417,
              40.006
            ],
            [
              116.3427,
              40.0265
            ],
            [
              116.3553,
              40.0265
            ],
            [
              116.35386164383561,
              40.00025
            ]
          ]
        ]
      }
    }
  ]
}
