{
  "type": "FeatureCollection",
  "name": "next_run_concept_building_footprints",
  "features": [
    {
      "type": "Feature",
      "id": "BLDG-001",
      "properties": {
        "id": "BLDG-001",
        "layer": "BUILDING_FOOTPRINT",
        "source_type": "agent_generated_design",
        "confidence": "medium",
        "geometry_role": "design_proposal",
        "building_type": "ai_r_and_d",
        "name_zh": "众智园技能验证工场",
        "name_en": "Zhongzhiyuan Skills Proving Works",
        "intervention": "reversible_ground_floor_retrofit",
        "status": "conceptual_footprint_not_existing_building",
        "permit_gate": "ownership_structure_fire_accessibility_professional_review"
      },
      "geometry": {
        "type": "Polygon",
        "coordinates": [
          [
            [
              116.35202,
              40.01157
            ],
            [
              116.35202,
              40.01897
            ],
            [
              116.34498,
              40.01897
            ],
            [
              116.34498,
              40.01157
            ],
            [
              116.35202,
              40.01157
            ]
          ]
        ]
      }
    },
    {
      "type": "Feature",
      "id": "BLDG-002",
      "properties": {
        "id": "BLDG-002",
        "layer": "BUILDING_FOOTPRINT",
        "source_type": "agent_generated_design",
        "confidence": "medium",
        "geometry_role": "design_proposal",
        "building_type": "mixed_use",
        "name_zh": "AI原点开放学习枢纽",
        "name_en": "AI Origin Open Learning Junction",
        "intervention": "reversible_ground_floor_retrofit",
        "status": "conceptual_footprint_not_existing_building",
        "permit_gate": "ownership_structure_fire_accessibility_professional_review"
      },
      "geometry": {
        "type": "Polygon",
        "coordinates": [
          [
            [
              116.35101999999999,
              39.9857
            ],
            [
              116.35101999999999,
              39.9897
            ],
            [
              116.34398,
              39.9897
            ],
            [
              116.34398,
              39.9857
            ],
            [
              116.35101999999999,
              39.9857
            ]
          ]
        ]
      }
    },
    {
      "type": "Feature",
      "id": "BLDG-003",
      "properties": {
        "id": "BLDG-003",
        "layer": "BUILDING_FOOTPRINT",
        "source_type": "agent_generated_design",
        "confidence": "medium",
        "geometry_role": "design_proposal",
        "building_type": "mixed_use",
        "name_zh": "大钟寺带薪实践市场",
        "name_en": "Dazhongsi Paid Practice Market",
        "intervention": "reversible_ground_floor_retrofit",
        "status": "conceptual_footprint_not_existing_building",
        "permit_gate": "ownership_structure_fire_accessibility_professional_review"
      },
      "geometry": {
        "type": "Polygon",
        "coordinates": [
          [
            [
              116.35266,
              39.9452848
            ],
            [
              116.35266,
              39.9476208
            ],
            [
              116.34434,
              39.9476208
            ],
            [
              116.34434,
              39.9452848
            ],
            [
              116.35266,
              39.9452848
            ]
          ]
        ]
      }
    }
  ],
  "note_zh": "建筑基底为概念原型位置，不表示现状建筑、权属、拆改留结论或获批工程。",
  "note_en": "Footprints are conceptual prototypes, not existing-building, ownership, retain/renovate/demolish or approved-project claims."
}
