{
  "type": "FeatureCollection",
  "name": "next_run_continuous_green_learning_spine",
  "features": [
    {
      "type": "Feature",
      "id": "GREEN-001",
      "properties": {
        "id": "GREEN-001",
        "layer": "GREEN_SPACE",
        "source_type": "agent_generated_design",
        "confidence": "medium",
        "geometry_role": "design_proposal",
        "land_use_code": "1401",
        "name_zh": "连续绿色学习主脊",
        "name_en": "Continuous green learning spine",
        "existing_condition": "unknown_requires_site_survey",
        "design_intent": "shade_rest_outdoor_learning_and_non_ai_route"
      },
      "geometry": {
        "type": "Polygon",
        "coordinates": [
          [
            [
              116.34604999999999,
              39.9415
            ],
            [
              116.34604999999999,
              40.024
            ],
            [
              116.34895,
              40.024
            ],
            [
              116.34895,
              39.9415
            ],
            [
              116.34604999999999,
              39.9415
            ]
          ]
        ]
      }
    }
  ]
}
