{
  "type": "FeatureCollection",
  "name": "next_run_public_learning_and_practice_yards",
  "features": [
    {
      "type": "Feature",
      "id": "PUBLIC-001",
      "properties": {
        "id": "PUBLIC-001",
        "layer": "PUBLIC_SPACE",
        "source_type": "agent_generated_design",
        "confidence": "medium",
        "geometry_role": "design_proposal",
        "name_zh": "众智园技能验证工场",
        "name_en": "Zhongzhiyuan Skills Proving Works",
        "public_baseline": "free_passage_rest_water_static_information_human_help",
        "ai_layer": "optional_and_removable"
      },
      "geometry": {
        "type": "Polygon",
        "coordinates": [
          [
            [
              116.35312,
              40.02008
            ],
            [
              116.35312,
              40.02452
            ],
            [
              116.34388,
              40.02452
            ],
            [
              116.34388,
              40.02008
            ],
            [
              116.35312,
              40.02008
            ]
          ]
        ]
      }
    },
    {
      "type": "Feature",
      "id": "PUBLIC-002",
      "properties": {
        "id": "PUBLIC-002",
        "layer": "PUBLIC_SPACE",
        "source_type": "agent_generated_design",
        "confidence": "medium",
        "geometry_role": "design_proposal",
        "name_zh": "AI原点开放学习枢纽",
        "name_en": "AI Origin Open Learning Junction",
        "public_baseline": "free_passage_rest_water_static_information_human_help",
        "ai_layer": "optional_and_removable"
      },
      "geometry": {
        "type": "Polygon",
        "coordinates": [
          [
            [
              116.35212,
              39.9903
            ],
            [
              116.35212,
              39.9927
            ],
            [
              116.34288,
              39.9927
            ],
            [
              116.34288,
              39.9903
            ],
            [
              116.35212,
              39.9903
            ]
          ]
        ]
      }
    },
    {
      "type": "Feature",
      "id": "PUBLIC-003",
      "properties": {
        "id": "PUBLIC-003",
        "layer": "PUBLIC_SPACE",
        "source_type": "agent_generated_design",
        "confidence": "medium",
        "geometry_role": "design_proposal",
        "name_zh": "大钟寺带薪实践市场",
        "name_en": "Dazhongsi Paid Practice Market",
        "public_baseline": "free_passage_rest_water_static_information_human_help",
        "ai_layer": "optional_and_removable"
      },
      "geometry": {
        "type": "Polygon",
        "coordinates": [
          [
            [
              116.35396,
              39.947971200000005
            ],
            [
              116.35396,
              39.9493728
            ],
            [
              116.34304,
              39.9493728
            ],
            [
              116.34304,
              39.947971200000005
            ],
            [
              116.35396,
              39.947971200000005
            ]
          ]
        ]
      }
    }
  ]
}
