{
 "type": "FeatureCollection",
 "features": [
  {
   "type": "Feature",
   "id": "CON-001",
   "properties": {
    "id": "CON-001",
    "layer": "REGULATORY_CONTROL",
    "constraint_type": "provisional_boundary",
    "name_zh": "总体设计范围临时边界（临时控制条件）",
    "source_type": "agent_inferred_from_public_data",
    "confidence": "medium",
    "geometry_role": "provisional_constraint",
    "official_boundary": false,
    "boundary_precision": "provisional_rough"
   },
   "geometry": {
    "type": "Polygon",
    "coordinates": [
     [
      [
       116.34070000000001,
       39.93899999999999
      ],
      [
       116.3553,
       39.939
      ],
      [
       116.3553,
       39.965
      ],
      [
       116.3533,
       39.989999999999995
      ],
      [
       116.3553,
       40.0265
      ],
      [
       116.34270000000001,
       40.0265
      ],
      [
       116.34169999999999,
       40.006
      ],
      [
       116.3397,
       39.97500000000001
      ],
      [
       116.34070000000001,
       39.93899999999999
      ]
     ]
    ]
   }
  },
  {
   "type": "Feature",
   "id": "CON-002",
   "properties": {
    "id": "CON-002",
    "layer": "EXISTING_RAIL",
    "constraint_type": "rail_corridor_hint",
    "name_zh": "京张铁路走廊概念示意（非官方线位）",
    "source_type": "agent_generated_design",
    "confidence": "low",
    "geometry_role": "design_proposal",
    "usage_note": "仅概念示意原铁路走廊走向，非官方线位、非工程方案。"
   },
   "geometry": {
    "type": "LineString",
    "coordinates": [
     [
      116.34540288620958,
      39.94164639906164
     ],
     [
      116.34349008928707,
      40.01929963117053
     ]
    ]
   }
  }
 ]
}