{
 "type": "FeatureCollection",
 "features": [
  {
   "type": "Feature",
   "id": "PUB-001",
   "properties": {
    "id": "PUB-001",
    "layer": "PUBLIC_SPACE",
    "public_type": "signal_plaza",
    "name_zh": "信号广场（概念）",
    "source_type": "agent_generated_design",
    "confidence": "medium",
    "geometry_role": "design_proposal",
    "area_sqm_declared": 90000.0,
    "area_crs": "EPSG:4548"
   },
   "geometry": {
    "type": "Polygon",
    "coordinates": [
     [
      [
       116.3478468999383,
       39.94301425196676
      ],
      [
       116.34787254917762,
       39.940312540403745
      ],
      [
       116.34436269977469,
       39.940292745081365
      ],
      [
       116.34433691251128,
       39.94299445476029
      ],
      [
       116.3478468999383,
       39.94301425196676
      ]
     ]
    ]
   }
  }
 ]
}