{
  "type": "FeatureCollection",
  "name": "on_time_response_network",
  "features": [
    {
      "type": "Feature",
      "id": "ROAD-RESP-001",
      "properties": {
        "id": "ROAD-RESP-001",
        "layer": "ROAD_CENTERLINE",
        "source_type": "agent_generated_design",
        "confidence": "medium",
        "geometry_role": "design_proposal",
        "road_class": "greenway",
        "name_zh": "准点响应脊",
        "name_en": "On-time response spine",
        "usage_note": "概念慢行/服务联系；不是现状或规划道路红线。"
      },
      "geometry": {
        "type": "LineString",
        "coordinates": [
          [
            116.3461,
            39.9403
          ],
          [
            116.3465,
            39.949
          ],
          [
            116.3469,
            39.97
          ],
          [
            116.3471,
            39.9885
          ],
          [
            116.3473,
            40.008
          ],
          [
            116.3476,
            40.0254
          ]
        ]
      }
    },
    {
      "type": "Feature",
      "id": "ROAD-WEST-LOOP",
      "properties": {
        "id": "ROAD-WEST-LOOP",
        "layer": "ROAD_CENTERLINE",
        "source_type": "agent_generated_design",
        "confidence": "medium",
        "geometry_role": "design_proposal",
        "road_class": "cycleway",
        "name_zh": "西翼科研社区回路",
        "name_en": "West research-community loop",
        "usage_note": "概念慢行/服务联系；不是现状或规划道路红线。"
      },
      "geometry": {
        "type": "LineString",
        "coordinates": [
          [
            116.3433,
            39.945
          ],
          [
            116.3432,
            39.97
          ],
          [
            116.3438,
            39.989
          ],
          [
            116.3442,
            40.012
          ],
          [
            116.3445,
            40.024
          ]
        ]
      }
    },
    {
      "type": "Feature",
      "id": "ROAD-EAST-LOOP",
      "properties": {
        "id": "ROAD-EAST-LOOP",
        "layer": "ROAD_CENTERLINE",
        "source_type": "agent_generated_design",
        "confidence": "medium",
        "geometry_role": "design_proposal",
        "road_class": "pedestrian",
        "name_zh": "东翼生活产业回路",
        "name_en": "East civic-industry loop",
        "usage_note": "概念慢行/服务联系；不是现状或规划道路红线。"
      },
      "geometry": {
        "type": "LineString",
        "coordinates": [
          [
            116.3528,
            39.945
          ],
          [
            116.3525,
            39.97
          ],
          [
            116.352,
            39.989
          ],
          [
            116.3524,
            40.011
          ],
          [
            116.353,
            40.024
          ]
        ]
      }
    },
    {
      "type": "Feature",
      "id": "ROAD-CROSS-SOUTH",
      "properties": {
        "id": "ROAD-CROSS-SOUTH",
        "layer": "ROAD_CENTERLINE",
        "source_type": "agent_generated_design",
        "confidence": "medium",
        "geometry_role": "design_proposal",
        "road_class": "transit_connection",
        "name_zh": "南部服务接驳",
        "name_en": "South service connector",
        "usage_note": "概念慢行/服务联系；不是现状或规划道路红线。"
      },
      "geometry": {
        "type": "LineString",
        "coordinates": [
          [
            116.3423,
            39.947
          ],
          [
            116.3544,
            39.947
          ]
        ]
      }
    },
    {
      "type": "Feature",
      "id": "ROAD-CROSS-MID",
      "properties": {
        "id": "ROAD-CROSS-MID",
        "layer": "ROAD_CENTERLINE",
        "source_type": "agent_generated_design",
        "confidence": "medium",
        "geometry_role": "design_proposal",
        "road_class": "pedestrian",
        "name_zh": "中部人类接管横街",
        "name_en": "Central handover link",
        "usage_note": "概念慢行/服务联系；不是现状或规划道路红线。"
      },
      "geometry": {
        "type": "LineString",
        "coordinates": [
          [
            116.3423,
            39.9886
          ],
          [
            116.3528,
            39.9886
          ]
        ]
      }
    },
    {
      "type": "Feature",
      "id": "ROAD-CROSS-NORTH",
      "properties": {
        "id": "ROAD-CROSS-NORTH",
        "layer": "ROAD_CENTERLINE",
        "source_type": "agent_generated_design",
        "confidence": "medium",
        "geometry_role": "design_proposal",
        "road_class": "transit_connection",
        "name_zh": "北部验证接驳",
        "name_en": "North validation connector",
        "usage_note": "概念慢行/服务联系；不是现状或规划道路红线。"
      },
      "geometry": {
        "type": "LineString",
        "coordinates": [
          [
            116.3431,
            40.017
          ],
          [
            116.3535,
            40.017
          ]
        ]
      }
    }
  ]
}
