{
 "type": "FeatureCollection",
 "name": "buildings",
 "crs": {
  "type": "name",
  "properties": {
   "name": "EPSG:4326"
  }
 },
 "features": [
  {
   "type": "Feature",
   "id": "BLDG-0011",
   "properties": {
    "id": "BLDG-0011",
    "layer": "BUILDING_FOOTPRINT",
    "source_type": "agent_generated_design",
    "confidence": "low",
    "geometry_role": "design_proposal",
    "building_type": "ai_r_and_d",
    "retain_renovate_demolish": "renew",
    "name_zh": "重点区示意建筑 1-1",
    "design_note": "概念示意体块，非现状建筑轮廓；正式深化需现状建筑与权属数据"
   },
   "geometry": {
    "type": "Polygon",
    "coordinates": [
     [
      [
       116.34818050122738,
       40.00988663987421
      ],
      [
       116.34817027619205,
       40.01096156328036
      ],
      [
       116.34826854653146,
       40.01096211597403
      ],
      [
       116.34827877002552,
       40.00988719254698
      ],
      [
       116.34818050122738,
       40.00988663987421
      ]
     ]
    ]
   }
  },
  {
   "type": "Feature",
   "id": "BLDG-0012",
   "properties": {
    "id": "BLDG-0012",
    "layer": "BUILDING_FOOTPRINT",
    "source_type": "agent_generated_design",
    "confidence": "low",
    "geometry_role": "design_proposal",
    "building_type": "ai_r_and_d",
    "retain_renovate_demolish": "renew",
    "name_zh": "重点区示意建筑 1-2",
    "design_note": "概念示意体块，非现状建筑轮廓；正式深化需现状建筑与权属数据"
   },
   "geometry": {
    "type": "Polygon",
    "coordinates": [
     [
      [
       116.3483055706073,
       40.00988734326145
      ],
      [
       116.34829534753358,
       40.01096226669422
      ],
      [
       116.34839361787643,
       40.01096281928184
      ],
      [
       116.3484038394089,
       40.00988789582816
      ],
      [
       116.3483055706073,
       40.00988734326145
      ]
     ]
    ]
   }
  },
  {
   "type": "Feature",
   "id": "BLDG-0021",
   "properties": {
    "id": "BLDG-0021",
    "layer": "BUILDING_FOOTPRINT",
    "source_type": "agent_generated_design",
    "confidence": "low",
    "geometry_role": "design_proposal",
    "building_type": "lab",
    "retain_renovate_demolish": "new",
    "name_zh": "重点区示意建筑 2-1",
    "design_note": "概念示意体块，非现状建筑轮廓；正式深化需现状建筑与权属数据"
   },
   "geometry": {
    "type": "Polygon",
    "coordinates": [
     [
      [
       116.34922244526142,
       40.01085342497462
      ],
      [
       116.34920799958196,
       40.01237441277487
      ],
      [
       116.3504143663915,
       40.01238118112952
      ],
      [
       116.35042878529774,
       40.010860192966796
      ],
      [
       116.34922244526142,
       40.01085342497462
      ]
     ]
    ]
   }
  },
  {
   "type": "Feature",
   "id": "BLDG-0022",
   "properties": {
    "id": "BLDG-0022",
    "layer": "BUILDING_FOOTPRINT",
    "source_type": "agent_generated_design",
    "confidence": "low",
    "geometry_role": "design_proposal",
    "building_type": "lab",
    "retain_renovate_demolish": "new",
    "name_zh": "重点区示意建筑 2-2",
    "design_note": "概念示意体块，非现状建筑轮廓；正式深化需现状建筑与权属数据"
   },
   "geometry": {
    "type": "Polygon",
    "coordinates": [
     [
      [
       116.3507577871966,
       40.010862036603726
      ],
      [
       116.35074337559216,
       40.01238302486518
      ],
      [
       116.35194974292044,
       40.01238977723871
      ],
      [
       116.35196412775163,
       40.01086878861562
      ],
      [
       116.3507577871966,
       40.010862036603726
      ]
     ]
    ]
   }
  },
  {
   "type": "Feature",
   "id": "BLDG-0023",
   "properties": {
    "id": "BLDG-0023",
    "layer": "BUILDING_FOOTPRINT",
    "source_type": "agent_generated_design",
    "confidence": "low",
    "geometry_role": "design_proposal",
    "building_type": "lab",
    "retain_renovate_demolish": "new",
    "name_zh": "重点区示意建筑 2-3",
    "design_note": "概念示意体块，非现状建筑轮廓；正式深化需现状建筑与权属数据"
   },
   "geometry": {
    "type": "Polygon",
    "coordinates": [
     [
      [
       116.35229312979179,
       40.01087062789427
      ],
      [
       116.35227875226242,
       40.01239161661588
      ],
      [
       116.35348512010826,
       40.01239835300825
      ],
      [
       116.3534994708643,
       40.010877363925886
      ],
      [
       116.35229312979179,
       40.01087062789427
      ]
     ]
    ]
   }
  },
  {
   "type": "Feature",
   "id": "BLDG-0031",
   "properties": {
    "id": "BLDG-0031",
    "layer": "BUILDING_FOOTPRINT",
    "source_type": "agent_generated_design",
    "confidence": "low",
    "geometry_role": "design_proposal",
    "building_type": "incubator",
    "retain_renovate_demolish": "renew",
    "name_zh": "重点区示意建筑 3-1",
    "design_note": "概念示意体块，非现状建筑轮廓；正式深化需现状建筑与权属数据"
   },
   "geometry": {
    "type": "Polygon",
    "coordinates": [
     [
      [
       116.34232162930856,
       39.98527843743483
      ],
      [
       116.34231389864966,
       39.986084605584765
      ],
      [
       116.34293480592662,
       39.98608812715244
      ],
      [
       116.34294252928844,
       39.98528195890252
      ],
      [
       116.34232162930856,
       39.98527843743483
      ]
     ]
    ]
   }
  },
  {
   "type": "Feature",
   "id": "BLDG-0032",
   "properties": {
    "id": "BLDG-0032",
    "layer": "BUILDING_FOOTPRINT",
    "source_type": "agent_generated_design",
    "confidence": "low",
    "geometry_role": "design_proposal",
    "building_type": "incubator",
    "retain_renovate_demolish": "renew",
    "name_zh": "重点区示意建筑 3-2",
    "design_note": "概念示意体块，非现状建筑轮廓；正式深化需现状建筑与权属数据"
   },
   "geometry": {
    "type": "Polygon",
    "coordinates": [
     [
      [
       116.34311186566553,
       39.9852829187256
      ],
      [
       116.34310414429383,
       39.986089087002775
      ],
      [
       116.34372505170977,
       39.9860926043376
      ],
      [
       116.34373276578441,
       39.985286435960575
      ],
      [
       116.34311186566553,
       39.9852829187256
      ]
     ]
    ]
   }
  },
  {
   "type": "Feature",
   "id": "BLDG-0041",
   "properties": {
    "id": "BLDG-0041",
    "layer": "BUILDING_FOOTPRINT",
    "source_type": "agent_generated_design",
    "confidence": "low",
    "geometry_role": "design_proposal",
    "building_type": "mixed_use",
    "retain_renovate_demolish": "new",
    "name_zh": "重点区示意建筑 4-1",
    "design_note": "概念示意体块，非现状建筑轮廓；正式深化需现状建筑与权属数据"
   },
   "geometry": {
    "type": "Polygon",
    "coordinates": [
     [
      [
       116.3423345073162,
       39.98868637247097
      ],
      [
       116.34233139813551,
       39.989010574853324
      ],
      [
       116.34295733334672,
       39.98901412489247
      ],
      [
       116.34296043956873,
       39.9886899224696
      ],
      [
       116.3423345073162,
       39.98868637247097
      ]
     ]
    ]
   }
  },
  {
   "type": "Feature",
   "id": "BLDG-0042",
   "properties": {
    "id": "BLDG-0042",
    "layer": "BUILDING_FOOTPRINT",
    "source_type": "agent_generated_design",
    "confidence": "low",
    "geometry_role": "design_proposal",
    "building_type": "mixed_use",
    "retain_renovate_demolish": "new",
    "name_zh": "重点区示意建筑 4-2",
    "design_note": "概念示意体块，非现状建筑轮廓；正式深化需现状建筑与权属数据"
   },
   "geometry": {
    "type": "Polygon",
    "coordinates": [
     [
      [
       116.34313114838415,
       39.98869089006444
      ],
      [
       116.34312804296903,
       39.98901509249837
      ],
      [
       116.34375397832144,
       39.98901863823577
      ],
      [
       116.3437570807779,
       39.98869443576135
      ],
      [
       116.34313114838415,
       39.98869089006444
      ]
     ]
    ]
   }
  },
  {
   "type": "Feature",
   "id": "BLDG-0043",
   "properties": {
    "id": "BLDG-0043",
    "layer": "BUILDING_FOOTPRINT",
    "source_type": "agent_generated_design",
    "confidence": "low",
    "geometry_role": "design_proposal",
    "building_type": "mixed_use",
    "retain_renovate_demolish": "new",
    "name_zh": "重点区示意建筑 4-3",
    "design_note": "概念示意体块，非现状建筑轮廓；正式深化需现状建筑与权属数据"
   },
   "geometry": {
    "type": "Polygon",
    "coordinates": [
     [
      [
       116.34392778963183,
       39.98869540218301
      ],
      [
       116.34392468798222,
       39.989019604668464
      ],
      [
       116.34455062347573,
       39.9890231461041
      ],
      [
       116.34455372216665,
       39.988698943578235
      ],
      [
       116.34392778963183,
       39.98869540218301
      ]
     ]
    ]
   }
  },
  {
   "type": "Feature",
   "id": "BLDG-0051",
   "properties": {
    "id": "BLDG-0051",
    "layer": "BUILDING_FOOTPRINT",
    "source_type": "agent_generated_design",
    "confidence": "low",
    "geometry_role": "design_proposal",
    "building_type": "office",
    "retain_renovate_demolish": "retain",
    "name_zh": "重点区示意建筑 5-1",
    "design_note": "概念示意体块，非现状建筑轮廓；正式深化需现状建筑与权属数据"
   },
   "geometry": {
    "type": "Polygon",
    "coordinates": [
     [
      [
       116.34253133537592,
       39.94500210316097
      ],
      [
       116.34252692278794,
       39.94546306707194
      ],
      [
       116.34351859097592,
       39.94546868666744
      ],
      [
       116.34352299690954,
       39.945007722665224
      ],
      [
       116.34253133537592,
       39.94500210316097
      ]
     ]
    ]
   }
  },
  {
   "type": "Feature",
   "id": "BLDG-0052",
   "properties": {
    "id": "BLDG-0052",
    "layer": "BUILDING_FOOTPRINT",
    "source_type": "agent_generated_design",
    "confidence": "low",
    "geometry_role": "design_proposal",
    "building_type": "office",
    "retain_renovate_demolish": "retain",
    "name_zh": "重点区示意建筑 5-2",
    "design_note": "概念示意体块，非现状建筑轮廓；正式深化需现状建筑与权属数据"
   },
   "geometry": {
    "type": "Polygon",
    "coordinates": [
     [
      [
       116.34379345010339,
       39.94500925378534
      ],
      [
       116.34378904598456,
       39.945470217812414
      ],
      [
       116.34478071452654,
       39.94547582661339
      ],
      [
       116.344785111991,
       39.94501486249522
      ],
      [
       116.34379345010339,
       39.94500925378534
      ]
     ]
    ]
   }
  },
  {
   "type": "Feature",
   "id": "BLDG-0061",
   "properties": {
    "id": "BLDG-0061",
    "layer": "BUILDING_FOOTPRINT",
    "source_type": "agent_generated_design",
    "confidence": "low",
    "geometry_role": "design_proposal",
    "building_type": "office",
    "retain_renovate_demolish": "new",
    "name_zh": "重点区示意建筑 6-1",
    "design_note": "概念示意体块，非现状建筑轮廓；正式深化需现状建筑与权属数据"
   },
   "geometry": {
    "type": "Polygon",
    "coordinates": [
     [
      [
       116.3421457105452,
       39.947858258145864
      ],
      [
       116.34214001346056,
       39.948452996523464
      ],
      [
       116.34243036527936,
       39.948454643769566
      ],
      [
       116.34243605984997,
       39.94785990535745
      ],
      [
       116.3421457105452,
       39.947858258145864
      ]
     ]
    ]
   }
  },
  {
   "type": "Feature",
   "id": "BLDG-0062",
   "properties": {
    "id": "BLDG-0062",
    "layer": "BUILDING_FOOTPRINT",
    "source_type": "agent_generated_design",
    "confidence": "low",
    "geometry_role": "design_proposal",
    "building_type": "office",
    "retain_renovate_demolish": "new",
    "name_zh": "重点区示意建筑 6-2",
    "design_note": "概念示意体块，非现状建筑轮廓；正式深化需现状建筑与权属数据"
   },
   "geometry": {
    "type": "Polygon",
    "coordinates": [
     [
      [
       116.34251524602816,
       39.94786035447079
      ],
      [
       116.34250955214318,
       39.94845509289232
      ],
      [
       116.34279990399239,
       39.94845673921302
      ],
      [
       116.34280559536333,
       39.947862000757
      ],
      [
       116.34251524602816,
       39.94786035447079
      ]
     ]
    ]
   }
  },
  {
   "type": "Feature",
   "id": "BLDG-0063",
   "properties": {
    "id": "BLDG-0063",
    "layer": "BUILDING_FOOTPRINT",
    "source_type": "agent_generated_design",
    "confidence": "low",
    "geometry_role": "design_proposal",
    "building_type": "office",
    "retain_renovate_demolish": "new",
    "name_zh": "重点区示意建筑 6-3",
    "design_note": "概念示意体块，非现状建筑轮廓；正式深化需现状建筑与权属数据"
   },
   "geometry": {
    "type": "Polygon",
    "coordinates": [
     [
      [
       116.34288478154981,
       39.947862449617965
      ],
      [
       116.34287909086447,
       39.948457188083374
      ],
      [
       116.34316944274408,
       39.94845883347869
      ],
      [
       116.3431751309154,
       39.9478640949788
      ],
      [
       116.34288478154981,
       39.947862449617965
      ]
     ]
    ]
   }
  }
 ]
}