{
  "type": "FeatureCollection",
  "name": "constraints",
  "crs": {
    "type": "name",
    "properties": {
      "name": "urn:ogc:def:crs:OGC:1.3:CRS84"
    }
  },
  "features": [
    {
      "type": "Feature",
      "properties": {
        "name": "京张铁路（13号线）",
        "constraint_type": "现状铁路",
        "category": "铁路",
        "constraint_level": "强约束",
        "length_m": 9764.0,
        "description": "京张铁路遗址暨地铁13号线，核心约束条件与设计骨架",
        "status": "provisional",
        "data_source": "概念设计示意",
        "id": "CS-001",
        "layer": "REGULATORY_CONTROL",
        "confidence": "medium",
        "geometry_role": "design_proposal",
        "source_type": "agent_generated_design",
        "source_id": "AGENT-DIAMETER-DESIGN-001"
      },
      "geometry": {
        "type": "LineString",
        "coordinates": [
          [
            116.349,
            39.947
          ],
          [
            116.342,
            39.963
          ],
          [
            116.338,
            39.977
          ],
          [
            116.336,
            39.993
          ],
          [
            116.33,
            40.006
          ],
          [
            116.325,
            40.015
          ],
          [
            116.322,
            40.024
          ],
          [
            116.32,
            40.032
          ]
        ]
      },
      "id": "CS-001"
    },
    {
      "type": "Feature",
      "properties": {
        "name": "地铁10号线",
        "constraint_type": "现状地铁",
        "category": "地铁",
        "constraint_level": "强约束",
        "length_m": 4823.0,
        "description": "地铁10号线，地下轨道交通控制保护区",
        "status": "provisional",
        "data_source": "概念设计示意",
        "id": "CS-002",
        "layer": "REGULATORY_CONTROL",
        "confidence": "medium",
        "geometry_role": "design_proposal",
        "source_type": "agent_generated_design",
        "source_id": "AGENT-DIAMETER-DESIGN-001"
      },
      "geometry": {
        "type": "LineString",
        "coordinates": [
          [
            116.308,
            39.972
          ],
          [
            116.322,
            39.975
          ],
          [
            116.338,
            39.977
          ],
          [
            116.352,
            39.974
          ],
          [
            116.362,
            39.97
          ]
        ]
      },
      "id": "CS-002"
    },
    {
      "type": "Feature",
      "properties": {
        "name": "地铁15号线",
        "constraint_type": "现状地铁",
        "category": "地铁",
        "constraint_level": "强约束",
        "length_m": 1990.0,
        "description": "地铁15号线，地下轨道交通控制保护区",
        "status": "provisional",
        "data_source": "概念设计示意",
        "id": "CS-003",
        "layer": "REGULATORY_CONTROL",
        "confidence": "medium",
        "geometry_role": "design_proposal",
        "source_type": "agent_generated_design",
        "source_id": "AGENT-DIAMETER-DESIGN-001"
      },
      "geometry": {
        "type": "LineString",
        "coordinates": [
          [
            116.325,
            40.015
          ],
          [
            116.335,
            40.014
          ],
          [
            116.348,
            40.012
          ]
        ]
      },
      "id": "CS-003"
    },
    {
      "type": "Feature",
      "properties": {
        "name": "小月河生态廊道",
        "constraint_type": "河流水系",
        "category": "生态廊道",
        "constraint_level": "中约束",
        "length_m": 9237.0,
        "description": "小月河滨水生态廊道，蓝绿空间保护",
        "status": "provisional",
        "data_source": "概念设计示意",
        "id": "CS-004",
        "layer": "REGULATORY_CONTROL",
        "confidence": "medium",
        "geometry_role": "design_proposal",
        "source_type": "agent_generated_design",
        "source_id": "AGENT-DIAMETER-DESIGN-001"
      },
      "geometry": {
        "type": "LineString",
        "coordinates": [
          [
            116.362,
            39.952
          ],
          [
            116.358,
            39.975
          ],
          [
            116.354,
            39.995
          ],
          [
            116.352,
            40.018
          ],
          [
            116.35,
            40.035
          ]
        ]
      },
      "id": "CS-004"
    },
    {
      "type": "Feature",
      "properties": {
        "name": "大钟寺（觉生寺）",
        "constraint_type": "全国重点文保单位",
        "category": "历史文化遗产",
        "constraint_level": "强约束",
        "area_ha": 19.0,
        "description": "全国重点文物保护单位，建筑高度与风貌严格控制",
        "status": "provisional",
        "data_source": "概念设计示意",
        "protection_level": "全国重点文物保护单位",
        "height_limit_m": 18,
        "id": "CS-005",
        "layer": "REGULATORY_CONTROL",
        "confidence": "medium",
        "geometry_role": "design_proposal",
        "source_type": "agent_generated_design",
        "source_id": "AGENT-DIAMETER-DESIGN-001"
      },
      "geometry": {
        "type": "Polygon",
        "coordinates": [
          [
            [
              116.33330815200694,
              39.96186095293831
            ],
            [
              116.33835048838995,
              39.96206778353785
            ],
            [
              116.33852558783276,
              39.965887185816364
            ],
            [
              116.3335797859885,
              39.966106759239345
            ],
            [
              116.33330815200694,
              39.96186095293831
            ]
          ]
        ]
      },
      "id": "CS-005"
    },
    {
      "type": "Feature",
      "properties": {
        "name": "京张铁路遗址",
        "constraint_type": "工业遗产",
        "category": "历史文化遗产",
        "constraint_level": "中约束",
        "area_ha": 99.42,
        "description": "京张铁路遗址（清华园站等），工业遗产保护与再利用",
        "status": "provisional",
        "data_source": "概念设计示意",
        "protection_level": "工业遗产",
        "id": "CS-006",
        "layer": "REGULATORY_CONTROL",
        "confidence": "medium",
        "geometry_role": "design_proposal",
        "source_type": "agent_generated_design",
        "source_id": "AGENT-DIAMETER-DESIGN-001"
      },
      "geometry": {
        "type": "Polygon",
        "coordinates": [
          [
            [
              116.33036711565735,
              39.97504289899756
            ],
            [
              116.33559917026078,
              39.974845813148555
            ],
            [
              116.33562772046972,
              39.99518588830921
            ],
            [
              116.33034323949987,
              39.9948102713702
            ],
            [
              116.33036711565735,
              39.97504289899756
            ]
          ]
        ]
      },
      "id": "CS-006"
    },
    {
      "type": "Feature",
      "properties": {
        "name": "元大都城垣遗址",
        "constraint_type": "考古遗址",
        "category": "历史文化遗产",
        "constraint_level": "强约束",
        "area_ha": 22.45,
        "description": "元大都城墙遗址，文物保护范围及建设控制地带",
        "status": "provisional",
        "data_source": "概念设计示意",
        "protection_level": "市级文保单位",
        "id": "CS-007",
        "layer": "REGULATORY_CONTROL",
        "confidence": "medium",
        "geometry_role": "design_proposal",
        "source_type": "agent_generated_design",
        "source_id": "AGENT-DIAMETER-DESIGN-001"
      },
      "geometry": {
        "type": "Polygon",
        "coordinates": [
          [
            [
              116.35092478289776,
              39.978570938914736
            ],
            [
              116.35918326913529,
              39.97845866177661
            ],
            [
              116.35908600588203,
              39.98133039859113
            ],
            [
              116.35107624576638,
              39.98155089695824
            ],
            [
              116.35092478289776,
              39.978570938914736
            ]
          ]
        ]
      },
      "id": "CS-007"
    },
    {
      "type": "Feature",
      "properties": {
        "name": "清华大学校园",
        "constraint_type": "高等院校",
        "category": "现状建成区",
        "constraint_level": "中约束",
        "area_ha": 75.52,
        "description": "清华大学校园，权属协调难度大",
        "status": "provisional",
        "data_source": "概念设计示意",
        "id": "CS-008",
        "layer": "REGULATORY_CONTROL",
        "confidence": "medium",
        "geometry_role": "design_proposal",
        "source_type": "agent_generated_design",
        "source_id": "AGENT-DIAMETER-DESIGN-001"
      },
      "geometry": {
        "type": "Polygon",
        "coordinates": [
          [
            [
              116.30584076052217,
              39.990108992353974
            ],
            [
              116.31414011729564,
              39.99004016464592
            ],
            [
              116.31384842202604,
              40.00019353774061
            ],
            [
              116.30611305413854,
              39.999938881506125
            ],
            [
              116.30584076052217,
              39.990108992353974
            ]
          ]
        ]
      },
      "id": "CS-008"
    },
    {
      "type": "Feature",
      "properties": {
        "name": "北航校园",
        "constraint_type": "高等院校",
        "category": "现状建成区",
        "constraint_level": "中约束",
        "area_ha": 78.64,
        "description": "北京航空航天大学校园",
        "status": "provisional",
        "data_source": "概念设计示意",
        "id": "CS-009",
        "layer": "REGULATORY_CONTROL",
        "confidence": "medium",
        "geometry_role": "design_proposal",
        "source_type": "agent_generated_design",
        "source_id": "AGENT-DIAMETER-DESIGN-001"
      },
      "geometry": {
        "type": "Polygon",
        "coordinates": [
          [
            [
              116.34597135120528,
              39.97094822835049
            ],
            [
              116.35400238431588,
              39.97093649246994
            ],
            [
              116.3541398302508,
              39.98112893236724
            ],
            [
              116.34584221554825,
              39.98118431502689
            ],
            [
              116.34597135120528,
              39.97094822835049
            ]
          ]
        ]
      },
      "id": "CS-009"
    },
    {
      "type": "Feature",
      "properties": {
        "name": "北京北站枢纽",
        "constraint_type": "铁路枢纽",
        "category": "交通设施",
        "constraint_level": "强约束",
        "area_ha": 35.15,
        "description": "北京北站（西直门）综合交通枢纽",
        "status": "provisional",
        "data_source": "概念设计示意",
        "id": "CS-010",
        "layer": "REGULATORY_CONTROL",
        "confidence": "medium",
        "geometry_role": "design_proposal",
        "source_type": "agent_generated_design",
        "source_id": "AGENT-DIAMETER-DESIGN-001"
      },
      "geometry": {
        "type": "Polygon",
        "coordinates": [
          [
            [
              116.34905423404244,
              39.944131482924405
            ],
            [
              116.35508292345749,
              39.94397419485801
            ],
            [
              116.3550935181216,
              39.9501861894925
            ],
            [
              116.34890803295856,
              39.950123279687524
            ],
            [
              116.34905423404244,
              39.944131482924405
            ]
          ]
        ]
      },
      "id": "CS-010"
    },
    {
      "type": "Feature",
      "properties": {
        "name": "大钟寺限高区",
        "constraint_type": "高度控制",
        "category": "建设控制",
        "constraint_level": "中约束",
        "area_ha": 44.11,
        "description": "大钟寺文保单位周边建设控制地带，高度≤18m",
        "status": "provisional",
        "data_source": "概念设计示意",
        "height_limit_m": 18,
        "id": "CS-011",
        "layer": "REGULATORY_CONTROL",
        "confidence": "medium",
        "geometry_role": "design_proposal",
        "source_type": "agent_generated_design",
        "source_id": "AGENT-DIAMETER-DESIGN-001"
      },
      "geometry": {
        "type": "Polygon",
        "coordinates": [
          [
            [
              116.33201526916257,
              39.95799339900155
            ],
            [
              116.3399742297972,
              39.95809241048572
            ],
            [
              116.33990735821523,
              39.964140685264006
            ],
            [
              116.33213229240755,
              39.96383466515922
            ],
            [
              116.33201526916257,
              39.95799339900155
            ]
          ]
        ]
      },
      "id": "CS-011"
    }
  ]
}