{
  "type": "FeatureCollection",
  "name": "green_space",
  "features": [
    {
      "type": "Feature",
      "id": "GS-006",
      "properties": {
        "id": "GS-006",
        "layer": "GREEN_SPACE",
        "source_type": "agent_generated_design",
        "confidence": "medium",
        "geometry_role": "design_proposal",
        "land_use_code": "1401",
        "name_zh": "京张AI活力绿带",
        "area_sqm_declared": 1846913.325
      },
      "geometry": {
        "type": "Polygon",
        "coordinates": [
          [
            [
              116.34682673665273,
              39.94344000103382
            ],
            [
              116.34680611472447,
              39.94492305208315
            ],
            [
              116.34678549279442,
              39.94640610313247
            ],
            [
              116.3467648708626,
              39.9478891541818
            ],
            [
              116.346744248929,
              39.949372205231136
            ],
            [
              116.34673830041085,
              39.9498
            ],
            [
              116.3467236269936,
              39.95085525628046
            ],
            [
              116.34670300505643,
              39.95233830732982
            ],
            [
              116.34668238311748,
              39.95382135837917
            ],
            [
              116.3466617611767,
              39.95530440942853
            ],
            [
              116.3466411392342,
              39.956787460477905
            ],
            [
              116.34662051728985,
              39.95827051152725
            ],
            [
              116.34659989534376,
              39.959753562576644
            ],
            [
              116.34657927339588,
              39.96123661362601
            ],
            [
              116.34655865144616,
              39.962719664675404
            ],
            [
              116.34653811524741,
              39.96419654891967
            ],
            [
              116.3464901260908,
              39.96566644753291
            ],
            [
              116.3464105585701,
              39.96714251486043
            ],
            [
              116.34633061456746,
              39.96862556649063
            ],
            [
              116.34625067056304,
              39.97010861812087
            ],
            [
              116.34617072655686,
              39.97159166975112
            ],
            [
              116.34609078254887,
              39.973074721381415
            ],
            [
              116.34601083853909,
              39.97455777301171
            ],
            [
              116.34601002052861,
              39.9745797894469
            ],
            [
              116.34597974318073,
              39.97606283981398
            ],
            [
              116.3459796258327,
              39.976071170245355
            ],
            [
              116.3459681201126,
              39.977554220790296
            ],
            [
              116.3459566143875,
              39.97903727175024
            ],
            [
              116.34594510866062,
              39.98052032271018
            ],
            [
              116.34593360293194,
              39.982003373670146
            ],
            [
              116.34592209720144,
              39.98348642463005
            ],
            [
              116.34592199188168,
              39.9835
            ],
            [
              116.34591059146918,
              39.98496947559001
            ],
            [
              116.34589908573517,
              39.986452526549996
            ],
            [
              116.34588757999933,
              39.987935577509944
            ],
            [
              116.3458760742617,
              39.98941862846989
            ],
            [
              116.3458764224393,
              39.9894457398843
            ],
            [
              116.34592603117456,
              39.990928791008876
            ],
            [
              116.34592683161247,
              39.99094599001285
            ],
            [
              116.34601527945779,
              39.99242904101674
            ],
            [
              116.34607915049953,
              39.9935
            ],
            [
              116.3461037272148,
              39.99391209056979
            ],
            [
              116.34619217500266,
              39.99539514067005
            ],
            [
              116.34628062278873,
              39.99687819077001
            ],
            [
              116.34636907055534,
              39.99836124057405
            ],
            [
              116.34645751832538,
              39.999844290465674
            ],
            [
              116.34654596611584,
              40.00132734072866
            ],
            [
              116.34663441388228,
              40.002810390619715
            ],
            [
              116.34672286165407,
              40.00429344063041
            ],
            [
              116.34681118277615,
              40.0057743671103
            ],
            [
              116.34688989190465,
              40.0072548358258
            ],
            [
              116.34690258436665,
              40.0075
            ],
            [
              116.34696664762666,
              40.008737428660154
            ],
            [
              116.3470434270116,
              40.010220478605525
            ],
            [
              116.34712020639476,
              40.01170352855074
            ],
            [
              116.34719698579005,
              40.01318657876365
            ],
            [
              116.34727376518758,
              40.01466962905549
            ],
            [
              116.34735054456536,
              40.01615267900003
            ],
            [
              116.34742732395961,
              40.01763572929739
            ],
            [
              116.34750410332055,
              40.019118778985614
            ],
            [
              116.34758088270613,
              40.02060182918533
            ],
            [
              116.34765766209058,
              40.02208487939665
            ],
            [
              116.34773444147729,
              40.02356792968709
            ],
            [
              116.3478,
              40.02483424077031
            ],
            [
              116.34781122084017,
              40.02505097955078
            ],
            [
              116.34788623845552,
              40.0265
            ],
            [
              116.3488,
              40.0265
            ],
            [
              116.3492,
              40.0265
            ],
            [
              116.35010941125665,
              40.0265
            ],
            [
              116.35011199879081,
              40.026465959001634
            ],
            [
              116.35003517122676,
              40.0249829086906
            ],
            [
              116.34995834359772,
              40.02349985709046
            ],
            [
              116.34988151597045,
              40.02201680549037
            ],
            [
              116.34980468834496,
              40.020533753890284
            ],
            [
              116.34972786072133,
              40.019050702290265
            ],
            [
              116.34965103309943,
              40.017567650690204
            ],
            [
              116.34957420547931,
              40.0160845990902
            ],
            [
              116.349497377861,
              40.01460154749025
            ],
            [
              116.34942055024449,
              40.01311849589028
            ],
            [
              116.34934372262977,
              40.011635444290356
            ],
            [
              116.34926689501683,
              40.010152392690436
            ],
            [
              116.3492,
              40.008861076192844
            ],
            [
              116.34919006740569,
              40.00866934109053
            ],
            [
              116.34912949117185,
              40.0075
            ],
            [
              116.34911323979634,
              40.007186289490654
            ],
            [
              116.34911319170439,
              40.007185373464054
            ],
            [
              116.34903429719631,
              40.00570232317197
            ],
            [
              116.34903405741267,
              40.005698074267194
            ],
            [
              116.34894556151127,
              40.004215024066006
            ],
            [
              116.34885706552141,
              40.002731972352564
            ],
            [
              116.3488,
              40.001775645165885
            ],
            [
              116.34876856953333,
              40.001248920639185
            ],
            [
              116.348680073547,
              39.99976586892579
            ],
            [
              116.34859157756252,
              39.99828281721246
            ],
            [
              116.3485030815798,
              39.996799765499155
            ],
            [
              116.3484145855989,
              39.99531671378584
            ],
            [
              116.34832608961977,
              39.99383366207259
            ],
            [
              116.34830617949058,
              39.9935
            ],
            [
              116.34823759364242,
              39.99235061035934
            ],
            [
              116.34814961061731,
              39.990876155044255
            ],
            [
              116.34810069564104,
              39.98941526064963
            ],
            [
              116.34811204852448,
              39.98794576757387
            ],
            [
              116.34812350615846,
              39.986462716600656
            ],
            [
              116.34813496379233,
              39.98497966586624
            ],
            [
              116.34814639527747,
              39.9835
            ],
            [
              116.34814642142801,
              39.983496615131855
            ],
            [
              116.34815787906552,
              39.98201356439747
            ],
            [
              116.34816933670321,
              39.980530513863016
            ],
            [
              116.34818079434582,
              39.97904746292863
            ],
            [
              116.34819225198852,
              39.97756441221442
            ],
            [
              116.34820367745357,
              39.97608552689694
            ],
            [
              116.34823359740064,
              39.97461765284376
            ],
            [
              116.34831290050629,
              39.97314560639989
            ],
            [
              116.3483927964409,
              39.971662556001355
            ],
            [
              116.34847269236714,
              39.97017950579125
            ],
            [
              116.34855258826866,
              39.968696456073566
            ],
            [
              116.3486324842087,
              39.96721340567423
            ],
            [
              116.34871238017028,
              39.965730354907315
            ],
            [
              116.348712984202,
              39.96571638595302
            ],
            [
              116.34876135474975,
              39.964233334454185
            ],
            [
              116.34876164137951,
              39.96422100242736
            ],
            [
              116.34878221528707,
              39.96273795162525
            ],
            [
              116.3488,
              39.961455957411964
            ],
            [
              116.34880278919888,
              39.961254900647695
            ],
            [
              116.34882336310923,
              39.95977184990183
            ],
            [
              116.34884393701329,
              39.95828879973877
            ],
            [
              116.34886451093102,
              39.95680574871997
            ],
            [
              116.34888508484593,
              39.955322698029384
            ],
            [
              116.34890565875729,
              39.95383964772875
            ],
            [
              116.34892623267751,
              39.95235659691495
            ],
            [
              116.34894680660047,
              39.950873546031914
            ],
            [
              116.34896169958597,
              39.9498
            ],
            [
              116.34896738052194,
              39.94939049538692
            ],
            [
              116.34898795444123,
              39.94790744502742
            ],
            [
              116.34900852837022,
              39.94642439409687
            ],
            [
              116.34902910229704,
              39.94494134345186
            ],
            [
              116.34904967622042,
              39.94345829318058
            ],
            [
              116.34907025015602,
              39.94197524216181
            ],
            [
              116.34909082408818,
              39.94049219151677
            ],
            [
              116.34911139802213,
              39.9390091408717
            ],
            [
              116.349110356352,
              39.939
            ],
            [
              116.3488,
              39.939
            ],
            [
              116.3478,
              39.939
            ],
            [
              116.34688847516604,
              39.939
            ],
            [
              116.34686798050389,
              39.94047389893524
            ],
            [
              116.34684735857921,
              39.941956949984544
            ],
            [
              116.34682673665273,
              39.94344000103382
            ]
          ]
        ]
      }
    }
  ]
}
