{
  "type": "FeatureCollection",
  "name": "TRACK-0 road centerlines (concept)",
  "features": [
    {
      "type": "Feature",
      "id": "ROAD-001",
      "properties": {
        "id": "ROAD-001",
        "layer": "ROAD_CENTERLINE",
        "source_type": "agent_generated_design",
        "confidence": "medium",
        "geometry_role": "design_proposal",
        "road_class": "greenway",
        "name_zh": "慢行与创新服务廊道"
      },
      "geometry": {
        "type": "LineString",
        "coordinates": [
          [
            116.340948,
            39.9845
          ],
          [
            116.35374,
            39.9845
          ]
        ]
      }
    },
    {
      "type": "Feature",
      "id": "ROAD-002",
      "properties": {
        "id": "ROAD-002",
        "layer": "ROAD_CENTERLINE",
        "source_type": "agent_generated_design",
        "confidence": "medium",
        "geometry_role": "design_proposal",
        "road_class": "greenway",
        "name_zh": "京张遗址公园活力带慢行主轴"
      },
      "geometry": {
        "type": "LineString",
        "coordinates": [
          [
            116.3456,
            39.939
          ],
          [
            116.344,
            40.0265
          ]
        ]
      }
    },
    {
      "type": "Feature",
      "id": "ROAD-003",
      "properties": {
        "id": "ROAD-003",
        "layer": "ROAD_CENTERLINE",
        "source_type": "agent_generated_design",
        "confidence": "medium",
        "geometry_role": "design_proposal",
        "road_class": "secondary",
        "name_zh": "东西向联系次干路（原点社区段）"
      },
      "geometry": {
        "type": "LineString",
        "coordinates": [
          [
            116.3407,
            39.9835
          ],
          [
            116.3553,
            39.9835
          ]
        ]
      }
    },
    {
      "type": "Feature",
      "id": "ROAD-004",
      "properties": {
        "id": "ROAD-004",
        "layer": "ROAD_CENTERLINE",
        "source_type": "agent_generated_design",
        "confidence": "medium",
        "geometry_role": "design_proposal",
        "road_class": "transit_connection",
        "name_zh": "大钟寺站周边轨道接驳"
      },
      "geometry": {
        "type": "LineString",
        "coordinates": [
          [
            116.348,
            39.946
          ],
          [
            116.353,
            39.946
          ]
        ]
      }
    },
    {
      "type": "Feature",
      "id": "ROAD-005",
      "properties": {
        "id": "ROAD-005",
        "layer": "ROAD_CENTERLINE",
        "source_type": "agent_generated_design",
        "confidence": "medium",
        "geometry_role": "design_proposal",
        "road_class": "branch",
        "name_zh": "众智园内部支路"
      },
      "geometry": {
        "type": "LineString",
        "coordinates": [
          [
            116.3415,
            40.012
          ],
          [
            116.35,
            40.012
          ]
        ]
      }
    },
    {
      "type": "Feature",
      "id": "ROAD-006",
      "properties": {
        "id": "ROAD-006",
        "layer": "ROAD_CENTERLINE",
        "source_type": "agent_generated_design",
        "confidence": "medium",
        "geometry_role": "design_proposal",
        "road_class": "secondary",
        "name_zh": "学院路方向联系次干路（北段）"
      },
      "geometry": {
        "type": "LineString",
        "coordinates": [
          [
            116.3445,
            40.0145
          ],
          [
            116.354,
            40.0145
          ]
        ]
      }
    },
    {
      "type": "Feature",
      "id": "ROAD-007",
      "properties": {
        "id": "ROAD-007",
        "layer": "ROAD_CENTERLINE",
        "source_type": "agent_generated_design",
        "confidence": "medium",
        "geometry_role": "design_proposal",
        "road_class": "branch",
        "name_zh": "众智园内部支路（东段）"
      },
      "geometry": {
        "type": "LineString",
        "coordinates": [
          [
            116.3512,
            40.004
          ],
          [
            116.3512,
            40.023
          ]
        ]
      }
    },
    {
      "type": "Feature",
      "id": "ROAD-008",
      "properties": {
        "id": "ROAD-008",
        "layer": "ROAD_CENTERLINE",
        "source_type": "agent_generated_design",
        "confidence": "medium",
        "geometry_role": "design_proposal",
        "road_class": "branch",
        "name_zh": "原点社区支路（横线）"
      },
      "geometry": {
        "type": "LineString",
        "coordinates": [
          [
            116.3438,
            39.9798
          ],
          [
            116.352,
            39.9798
          ]
        ]
      }
    },
    {
      "type": "Feature",
      "id": "ROAD-009",
      "properties": {
        "id": "ROAD-009",
        "layer": "ROAD_CENTERLINE",
        "source_type": "agent_generated_design",
        "confidence": "medium",
        "geometry_role": "design_proposal",
        "road_class": "transit_connection",
        "name_zh": "知春路站接驳线"
      },
      "geometry": {
        "type": "LineString",
        "coordinates": [
          [
            116.3468,
            39.99
          ],
          [
            116.3468,
            39.996
          ]
        ]
      }
    },
    {
      "type": "Feature",
      "id": "ROAD-010",
      "properties": {
        "id": "ROAD-010",
        "layer": "ROAD_CENTERLINE",
        "source_type": "agent_generated_design",
        "confidence": "medium",
        "geometry_role": "design_proposal",
        "road_class": "transit_connection",
        "name_zh": "西土城站接驳线"
      },
      "geometry": {
        "type": "LineString",
        "coordinates": [
          [
            116.348,
            39.968
          ],
          [
            116.348,
            39.974
          ]
        ]
      }
    },
    {
      "type": "Feature",
      "id": "ROAD-011",
      "properties": {
        "id": "ROAD-011",
        "layer": "ROAD_CENTERLINE",
        "source_type": "agent_generated_design",
        "confidence": "medium",
        "geometry_role": "design_proposal",
        "road_class": "transit_connection",
        "name_zh": "清华东路西口接驳线"
      },
      "geometry": {
        "type": "LineString",
        "coordinates": [
          [
            116.3443,
            40.018
          ],
          [
            116.3443,
            40.024
          ]
        ]
      }
    },
    {
      "type": "Feature",
      "id": "ROAD-012",
      "properties": {
        "id": "ROAD-012",
        "layer": "ROAD_CENTERLINE",
        "source_type": "agent_generated_design",
        "confidence": "medium",
        "geometry_role": "design_proposal",
        "road_class": "pedestrian",
        "name_zh": "遗址公园慢行支线（北段）"
      },
      "geometry": {
        "type": "LineString",
        "coordinates": [
          [
            116.3455,
            40.004
          ],
          [
            116.3455,
            40.02
          ]
        ]
      }
    },
    {
      "type": "Feature",
      "id": "ROAD-013",
      "properties": {
        "id": "ROAD-013",
        "layer": "ROAD_CENTERLINE",
        "source_type": "agent_generated_design",
        "confidence": "medium",
        "geometry_role": "design_proposal",
        "road_class": "cycleway",
        "name_zh": "小月河绿道（南北）"
      },
      "geometry": {
        "type": "LineString",
        "coordinates": [
          [
            116.3412,
            39.94
          ],
          [
            116.3412,
            40.02
          ]
        ]
      }
    },
    {
      "type": "Feature",
      "id": "ROAD-014",
      "properties": {
        "id": "ROAD-014",
        "layer": "ROAD_CENTERLINE",
        "source_type": "agent_generated_design",
        "confidence": "medium",
        "geometry_role": "design_proposal",
        "road_class": "greenway",
        "name_zh": "清河界面绿道"
      },
      "geometry": {
        "type": "LineString",
        "coordinates": [
          [
            116.3438,
            40.0258
          ],
          [
            116.352,
            40.0258
          ]
        ]
      }
    },
    {
      "type": "Feature",
      "id": "ROAD-015",
      "properties": {
        "id": "ROAD-015",
        "layer": "ROAD_CENTERLINE",
        "source_type": "agent_generated_design",
        "confidence": "medium",
        "geometry_role": "design_proposal",
        "road_class": "transit_connection",
        "name_zh": "大钟寺站接驳延伸线"
      },
      "geometry": {
        "type": "LineString",
        "coordinates": [
          [
            116.3474,
            39.9468
          ],
          [
            116.3532,
            39.9468
          ]
        ]
      }
    }
  ]
}
