{
  "type": "FeatureCollection",
  "name": "jingzhang_ai_belt_roads",
  "metadata": {
    "source": "Design-generated based on site boundary and urban design principles",
    "crs": "EPSG:4326",
    "proposal_agent": "wlaura-wlj"
  },
  "features": [
    {
      "type": "Feature",
      "id": "RD-E-001",
      "properties": {
        "id": "RD-E-001",
        "layer": "ROAD_CENTERLINE",
        "name_zh": "学院路",
        "name_en": "Xueyuan Road",
        "road_type": "arterial",
        "source_type": "agent_inferred_from_public_data",
        "confidence": "medium",
        "geometry_role": "design_proposal"
      },
      "geometry": {
        "type": "LineString",
        "coordinates": [
          [
            116.3523,
            39.939
          ],
          [
            116.3523,
            40.0265
          ]
        ]
      }
    },
    {
      "type": "Feature",
      "id": "RD-E-002",
      "properties": {
        "id": "RD-E-002",
        "layer": "ROAD_CENTERLINE",
        "name_zh": "中关村大街",
        "name_en": "Zhongguancun Avenue",
        "road_type": "arterial",
        "source_type": "agent_inferred_from_public_data",
        "confidence": "medium",
        "geometry_role": "design_proposal"
      },
      "geometry": {
        "type": "LineString",
        "coordinates": [
          [
            116.3437,
            39.939
          ],
          [
            116.3437,
            40.0265
          ]
        ]
      }
    },
    {
      "type": "Feature",
      "id": "RD-E-003",
      "properties": {
        "id": "RD-E-003",
        "layer": "ROAD_CENTERLINE",
        "name_zh": "大钟寺东路",
        "name_en": "Dazhongsi East Road",
        "road_type": "collector",
        "source_type": "agent_inferred_from_public_data",
        "confidence": "medium",
        "geometry_role": "design_proposal"
      },
      "geometry": {
        "type": "LineString",
        "coordinates": [
          [
            116.34169999999999,
            39.939
          ],
          [
            116.34169999999999,
            40.00599999999978
          ]
        ]
      }
    },
    {
      "type": "Feature",
      "id": "RD-G-001",
      "properties": {
        "id": "RD-G-001",
        "layer": "ROAD_CENTERLINE",
        "name_zh": "京张AI慢行专用道",
        "name_en": "Jing-Zhang AI Slow Lane",
        "road_type": "slow_mobility",
        "source_type": "agent_inferred_from_public_data",
        "confidence": "medium",
        "geometry_role": "design_proposal"
      },
      "geometry": {
        "type": "LineString",
        "coordinates": [
          [
            116.3475,
            39.939
          ],
          [
            116.3475,
            40.0265
          ]
        ]
      }
    },
    {
      "type": "Feature",
      "id": "RD-H-001",
      "properties": {
        "id": "RD-H-001",
        "layer": "ROAD_CENTERLINE",
        "name_zh": "北五环路",
        "name_en": "North 5th Ring Rd",
        "road_type": "expressway",
        "source_type": "agent_inferred_from_public_data",
        "confidence": "medium",
        "geometry_role": "design_proposal"
      },
      "geometry": {
        "type": "LineString",
        "coordinates": [
          [
            116.34267560975609,
            40.025999999999996
          ],
          [
            116.35527260273973,
            40.025999999999996
          ]
        ]
      }
    },
    {
      "type": "Feature",
      "id": "RD-H-002",
      "properties": {
        "id": "RD-H-002",
        "layer": "ROAD_CENTERLINE",
        "name_zh": "北四环路",
        "name_en": "North 4th Ring Rd",
        "road_type": "expressway",
        "source_type": "agent_inferred_from_public_data",
        "confidence": "medium",
        "geometry_role": "design_proposal"
      },
      "geometry": {
        "type": "LineString",
        "coordinates": [
          [
            116.34132903225806,
            40.00025
          ],
          [
            116.35386164383561,
            40.00025
          ]
        ]
      }
    },
    {
      "type": "Feature",
      "id": "RD-H-003",
      "properties": {
        "id": "RD-H-003",
        "layer": "ROAD_CENTERLINE",
        "name_zh": "知春路",
        "name_en": "Zhichun Road",
        "road_type": "arterial",
        "source_type": "agent_inferred_from_public_data",
        "confidence": "medium",
        "geometry_role": "design_proposal"
      },
      "geometry": {
        "type": "LineString",
        "coordinates": [
          [
            116.33991774193548,
            39.978375
          ],
          [
            116.35423,
            39.978375
          ]
        ]
      }
    },
    {
      "type": "Feature",
      "id": "RD-H-004",
      "properties": {
        "id": "RD-H-004",
        "layer": "ROAD_CENTERLINE",
        "name_zh": "西直门外大街",
        "name_en": "Xizhimen Outer St",
        "road_type": "arterial",
        "source_type": "agent_inferred_from_public_data",
        "confidence": "medium",
        "geometry_role": "design_proposal"
      },
      "geometry": {
        "type": "LineString",
        "coordinates": [
          [
            116.34068611111111,
            39.9395
          ],
          [
            116.3553,
            39.9395
          ]
        ]
      }
    },
    {
      "type": "Feature",
      "id": "RD-C-001",
      "properties": {
        "id": "RD-C-001",
        "layer": "ROAD_CENTERLINE",
        "name_zh": "京包铁路西侧路",
        "name_en": "Jingbao Railway West Rd",
        "road_type": "collector",
        "source_type": "agent_inferred_from_public_data",
        "confidence": "medium",
        "geometry_role": "design_proposal"
      },
      "geometry": {
        "type": "LineString",
        "coordinates": [
          [
            116.3455,
            39.939
          ],
          [
            116.3455,
            40.0265
          ]
        ]
      }
    },
    {
      "type": "Feature",
      "id": "RD-C-002",
      "properties": {
        "id": "RD-C-002",
        "layer": "ROAD_CENTERLINE",
        "name_zh": "京包铁路东侧路",
        "name_en": "Jingbao Railway East Rd",
        "road_type": "collector",
        "source_type": "agent_inferred_from_public_data",
        "confidence": "medium",
        "geometry_role": "design_proposal"
      },
      "geometry": {
        "type": "LineString",
        "coordinates": [
          [
            116.34949999999999,
            39.939
          ],
          [
            116.34949999999999,
            40.0265
          ]
        ]
      }
    }
  ]
}