{
 "type": "FeatureCollection",
 "name": "green_space",
 "features": [
  {
   "type": "Feature",
   "id": "GREEN-001",
   "properties": {
    "id": "GREEN-001",
    "layer": "GREEN_SPACE",
    "source_type": "agent_generated_design",
    "confidence": "medium",
    "geometry_role": "design_proposal",
    "name_zh": "京张遗址公园活力脊（绿脊）",
    "area_sqm_declared": 1812538.243,
    "design_note": "沿百年京张铁路遗址形成的南北向公园绿脊，方案的核心公共空间骨架。"
   },
   "geometry": {
    "type": "Polygon",
    "coordinates": [
     [
      [
       116.343522,
       39.95475
      ],
      [
       116.343522,
       39.96525
      ],
      [
       116.343522,
       39.97575
      ],
      [
       116.343522,
       39.98625
      ],
      [
       116.343522,
       39.99675
      ],
      [
       116.343522,
       40.00725
      ],
      [
       116.343522,
       40.0265
      ],
      [
       116.344536,
       40.0265
      ],
      [
       116.345706,
       40.0265
      ],
      [
       116.345706,
       40.00725
      ],
      [
       116.345706,
       39.99675
      ],
      [
       116.345706,
       39.98625
      ],
      [
       116.345706,
       39.97575
      ],
      [
       116.345706,
       39.96525
      ],
      [
       116.345706,
       39.95475
      ],
      [
       116.345706,
       39.946
      ],
      [
       116.345706,
       39.939
      ],
      [
       116.344536,
       39.939
      ],
      [
       116.343522,
       39.939
      ],
      [
       116.343522,
       39.946
      ],
      [
       116.343522,
       39.95475
      ]
     ]
    ]
   }
  },
  {
   "type": "Feature",
   "id": "GREEN-002",
   "properties": {
    "id": "GREEN-002",
    "layer": "GREEN_SPACE",
    "source_type": "agent_generated_design",
    "confidence": "medium",
    "geometry_role": "design_proposal",
    "name_zh": "大钟寺缝合廊绿廊",
    "area_sqm_declared": 18125.963,
    "design_note": "缝合绿廊：横向绿色连接带，与京张遗址公园活力脊相交形成绿色网络节点。"
   },
   "geometry": {
    "type": "Polygon",
    "coordinates": [
     [
      [
       116.3399726,
       39.9651876
      ],
      [
       116.3399691,
       39.9653124
      ],
      [
       116.355275,
       39.9653124
      ],
      [
       116.355285,
       39.9651876
      ],
      [
       116.3399726,
       39.9651876
      ]
     ]
    ]
   }
  },
  {
   "type": "Feature",
   "id": "GREEN-003",
   "properties": {
    "id": "GREEN-003",
    "layer": "GREEN_SPACE",
    "source_type": "agent_generated_design",
    "confidence": "medium",
    "geometry_role": "design_proposal",
    "name_zh": "知春缝合廊绿廊",
    "area_sqm_declared": 17392.105,
    "design_note": "缝合绿廊：横向绿色连接带，与京张遗址公园活力脊相交形成绿色网络节点。"
   },
   "geometry": {
    "type": "Polygon",
    "coordinates": [
     [
      [
       116.3397444,
       39.9756876
      ],
      [
       116.3397524,
       39.9758124
      ],
      [
       116.354435,
       39.9758124
      ],
      [
       116.354445,
       39.9756876
      ],
      [
       116.3397444,
       39.9756876
      ]
     ]
    ]
   }
  },
  {
   "type": "Feature",
   "id": "GREEN-004",
   "properties": {
    "id": "GREEN-004",
    "layer": "GREEN_SPACE",
    "source_type": "agent_generated_design",
    "confidence": "medium",
    "geometry_role": "design_proposal",
    "name_zh": "原点缝合廊绿廊",
    "area_sqm_declared": 15593.415,
    "design_note": "缝合绿廊：横向绿色连接带，与京张遗址公园活力脊相交形成绿色网络节点。"
   },
   "geometry": {
    "type": "Polygon",
    "coordinates": [
     [
      [
       116.3404218,
       39.9861876
      ],
      [
       116.3404298,
       39.9863124
      ],
      [
       116.353595,
       39.9863124
      ],
      [
       116.353605,
       39.9861876
      ],
      [
       116.3404218,
       39.9861876
      ]
     ]
    ]
   }
  },
  {
   "type": "Feature",
   "id": "GREEN-005",
   "properties": {
    "id": "GREEN-005",
    "layer": "GREEN_SPACE",
    "source_type": "agent_generated_design",
    "confidence": "medium",
    "geometry_role": "design_proposal",
    "name_zh": "众智缝合廊绿廊",
    "area_sqm_declared": 14772.338,
    "design_note": "缝合绿廊：横向绿色连接带，与京张遗址公园活力脊相交形成绿色网络节点。"
   },
   "geometry": {
    "type": "Polygon",
    "coordinates": [
     [
      [
       116.3417579,
       40.0071876
      ],
      [
       116.341764,
       40.0073124
      ],
      [
       116.3542486,
       40.0073124
      ],
      [
       116.3542418,
       40.0071876
      ],
      [
       116.3417579,
       40.0071876
      ]
     ]
    ]
   }
  }
 ]
}