{
 "type": "FeatureCollection",
 "name": "buildings",
 "metadata": {
  "crs": "EPSG:4326",
  "area_check_crs": "EPSG:4548",
  "boundary_status": "provisional_constraint_based",
  "note_zh": "六个唤醒原型的概念基底，非现状建筑，非法定规模。"
 },
 "features": [
  {
   "type": "Feature",
   "id": "BLDG-01",
   "properties": {
    "id": "BLDG-01",
    "layer": "BUILDING_FOOTPRINT",
    "source_type": "agent_generated_design",
    "confidence": "medium",
    "geometry_role": "design_proposal",
    "building_type": "retail",
    "floors_concept": 8,
    "gross_floor_area_sqm_concept": 28967.4,
    "name_zh": "整楼唤醒示范楼（大钟寺·低效楼宇再生原型）",
    "name_en": "Whole-building wake prototype (Dazhongsi)",
    "note_zh": "概念建筑原型占位，不代表现状建筑、批准规模或拆改留结论。",
    "area_sqm_declared": 3620.9
   },
   "geometry": {
    "type": "Polygon",
    "coordinates": [
     [
      [
       116.34402941176471,
       39.94531981981982
      ],
      [
       116.34402941176471,
       39.94568018018018
      ],
      [
       116.3429705882353,
       39.94568018018018
      ],
      [
       116.3429705882353,
       39.94531981981982
      ],
      [
       116.34402941176471,
       39.94531981981982
      ]
     ]
    ]
   }
  },
  {
   "type": "Feature",
   "id": "BLDG-02",
   "properties": {
    "id": "BLDG-02",
    "layer": "BUILDING_FOOTPRINT",
    "source_type": "agent_generated_design",
    "confidence": "medium",
    "geometry_role": "design_proposal",
    "building_type": "cultural",
    "floors_concept": 2,
    "gross_floor_area_sqm_concept": 3620.4,
    "name_zh": "空间车站·醒楼台账展厅（概念）",
    "name_en": "Space Depot ledger hall",
    "note_zh": "概念建筑原型占位，不代表现状建筑、批准规模或拆改留结论。",
    "area_sqm_declared": 1810.2
   },
   "geometry": {
    "type": "Polygon",
    "coordinates": [
     [
      [
       116.34695294117647,
       39.95616486486487
      ],
      [
       116.34695294117647,
       39.95643513513513
      ],
      [
       116.34624705882352,
       39.95643513513513
      ],
      [
       116.34624705882352,
       39.95616486486487
      ],
      [
       116.34695294117647,
       39.95616486486487
      ]
     ]
    ]
   }
  },
  {
   "type": "Feature",
   "id": "BLDG-03",
   "properties": {
    "id": "BLDG-03",
    "layer": "BUILDING_FOOTPRINT",
    "source_type": "agent_generated_design",
    "confidence": "medium",
    "geometry_role": "design_proposal",
    "building_type": "incubator",
    "floors_concept": 4,
    "gross_floor_area_sqm_concept": 9649.9,
    "name_zh": "院墙唤醒共享首层（AI原点社区原型）",
    "name_en": "Courtyard-wake shared ground floor (AI Origin)",
    "note_zh": "概念建筑原型占位，不代表现状建筑、批准规模或拆改留结论。",
    "area_sqm_declared": 2412.5
   },
   "geometry": {
    "type": "Polygon",
    "coordinates": [
     [
      [
       116.34447058823528,
       39.98786486486487
      ],
      [
       116.34447058823528,
       39.98813513513513
      ],
      [
       116.3435294117647,
       39.98813513513513
      ],
      [
       116.3435294117647,
       39.98786486486487
      ],
      [
       116.34447058823528,
       39.98786486486487
      ]
     ]
    ]
   }
  },
  {
   "type": "Feature",
   "id": "BLDG-04",
   "properties": {
    "id": "BLDG-04",
    "layer": "BUILDING_FOOTPRINT",
    "source_type": "agent_generated_design",
    "confidence": "medium",
    "geometry_role": "design_proposal",
    "building_type": "mixed_use",
    "floors_concept": 5,
    "gross_floor_area_sqm_concept": 9046.6,
    "name_zh": "五道口智能原生业态样板（概念）",
    "name_en": "Wudaokou AI-native format prototype",
    "note_zh": "概念建筑原型占位，不代表现状建筑、批准规模或拆改留结论。",
    "area_sqm_declared": 1809.3
   },
   "geometry": {
    "type": "Polygon",
    "coordinates": [
     [
      [
       116.35135294117647,
       39.988864864864865
      ],
      [
       116.35135294117647,
       39.98913513513513
      ],
      [
       116.35064705882353,
       39.98913513513513
      ],
      [
       116.35064705882353,
       39.988864864864865
      ],
      [
       116.35135294117647,
       39.988864864864865
      ]
     ]
    ]
   }
  },
  {
   "type": "Feature",
   "id": "BLDG-05",
   "properties": {
    "id": "BLDG-05",
    "layer": "BUILDING_FOOTPRINT",
    "source_type": "agent_generated_design",
    "confidence": "medium",
    "geometry_role": "design_proposal",
    "building_type": "lab",
    "floors_concept": 3,
    "gross_floor_area_sqm_concept": 15071.9,
    "name_zh": "众智园快装中试棚（全栈测试载体原型）",
    "name_en": "Zhongzhiyuan quick-fit pilot shed",
    "note_zh": "概念建筑原型占位，不代表现状建筑、批准规模或拆改留结论。",
    "area_sqm_declared": 5024.0
   },
   "geometry": {
    "type": "Polygon",
    "coordinates": [
     [
      [
       116.34508823529411,
       40.015774774774776
      ],
      [
       116.34508823529411,
       40.01622522522522
      ],
      [
       116.34391176470588,
       40.01622522522522
      ],
      [
       116.34391176470588,
       40.015774774774776
      ],
      [
       116.34508823529411,
       40.015774774774776
      ]
     ]
    ]
   }
  },
  {
   "type": "Feature",
   "id": "BLDG-06",
   "properties": {
    "id": "BLDG-06",
    "layer": "BUILDING_FOOTPRINT",
    "source_type": "agent_generated_design",
    "confidence": "medium",
    "geometry_role": "design_proposal",
    "building_type": "community_service",
    "floors_concept": 2,
    "gross_floor_area_sqm_concept": 1608.7,
    "name_zh": "醒楼驿站（社区服务与人工服务窗原型）",
    "name_en": "Wake station (community service)",
    "note_zh": "概念建筑原型占位，不代表现状建筑、批准规模或拆改留结论。",
    "area_sqm_declared": 804.4
   },
   "geometry": {
    "type": "Polygon",
    "coordinates": [
     [
      [
       116.35223529411765,
       39.96990990990991
      ],
      [
       116.35223529411765,
       39.97009009009009
      ],
      [
       116.35176470588236,
       39.97009009009009
      ],
      [
       116.35176470588236,
       39.96990990990991
      ],
      [
       116.35223529411765,
       39.96990990990991
      ]
     ]
    ]
   }
  }
 ]
}