{
 "type": "FeatureCollection",
 "name": "land_use",
 "metadata": {
  "crs": "EPSG:4326",
  "area_check_crs": "EPSG:4548",
  "boundary_status": "provisional_constraint_based",
  "note_zh": "对临时边界的完整无缝概念分区；法定用地性质待官方控规确认。"
 },
 "features": [
  {
   "type": "Feature",
   "id": "LU-R0-C",
   "properties": {
    "id": "LU-R0-C",
    "layer": "LAND_USE",
    "source_type": "agent_generated_design",
    "confidence": "medium",
    "geometry_role": "design_proposal",
    "land_use_code": "1401",
    "name_zh": "公园绿地（遗址公园南段·社区活力段）",
    "name_en": "Park green (heritage park south community段)",
    "statutory_use": "non_statutory_concept_overlay",
    "note_zh": "概念用地角色叠加，不构成法定用地性质或控规调整建议。",
    "area_sqm_declared": 334047.4
   },
   "geometry": {
    "type": "Polygon",
    "coordinates": [
     [
      [
       116.346,
       39.939
      ],
      [
       116.346,
       39.95
      ],
      [
       116.3492,
       39.95
      ],
      [
       116.3492,
       39.939
      ],
      [
       116.346,
       39.939
      ]
     ]
    ]
   }
  },
  {
   "type": "Feature",
   "id": "LU-R0-E",
   "properties": {
    "id": "LU-R0-E",
    "layer": "LAND_USE",
    "source_type": "agent_generated_design",
    "confidence": "medium",
    "geometry_role": "design_proposal",
    "land_use_code": "07",
    "name_zh": "居住用地（社区服务与人才居住织补）",
    "name_en": "Residential (community & talent housing infill)",
    "statutory_use": "non_statutory_concept_overlay",
    "note_zh": "概念用地角色叠加，不构成法定用地性质或控规调整建议。",
    "area_sqm_declared": 636777.1
   },
   "geometry": {
    "type": "Polygon",
    "coordinates": [
     [
      [
       116.3553,
       39.939
      ],
      [
       116.3492,
       39.939
      ],
      [
       116.3492,
       39.95
      ],
      [
       116.3553,
       39.95
      ],
      [
       116.3553,
       39.939
      ]
     ]
    ]
   }
  },
  {
   "type": "Feature",
   "id": "LU-R0-W",
   "properties": {
    "id": "LU-R0-W",
    "layer": "LAND_USE",
    "source_type": "agent_generated_design",
    "confidence": "medium",
    "geometry_role": "design_proposal",
    "land_use_code": "05",
    "name_zh": "商业服务业用地（大钟寺整楼唤醒区·智能原生消费与商务）",
    "name_en": "Commercial & business (Dazhongsi whole-building wake zone)",
    "statutory_use": "non_statutory_concept_overlay",
    "note_zh": "概念用地角色叠加，不构成法定用地性质或控规调整建议。",
    "area_sqm_declared": 569213.9
   },
   "geometry": {
    "type": "Polygon",
    "coordinates": [
     [
      [
       116.3407,
       39.939
      ],
      [
       116.34039444444444,
       39.95
      ],
      [
       116.346,
       39.95
      ],
      [
       116.346,
       39.939
      ],
      [
       116.3407,
       39.939
      ]
     ]
    ]
   }
  },
  {
   "type": "Feature",
   "id": "LU-R1-C",
   "properties": {
    "id": "LU-R1-C",
    "layer": "LAND_USE",
    "source_type": "agent_generated_design",
    "confidence": "medium",
    "geometry_role": "design_proposal",
    "land_use_code": "1401",
    "name_zh": "公园绿地（三环门户城市阳台段）",
    "name_en": "Park green (3rd-Ring terrace段)",
    "statutory_use": "non_statutory_concept_overlay",
    "note_zh": "概念用地角色叠加，不构成法定用地性质或控规调整建议。",
    "area_sqm_declared": 455433.9
   },
   "geometry": {
    "type": "Polygon",
    "coordinates": [
     [
      [
       116.346,
       39.95
      ],
      [
       116.346,
       39.965
      ],
      [
       116.3492,
       39.965
      ],
      [
       116.3492,
       39.95
      ],
      [
       116.346,
       39.95
      ]
     ]
    ]
   }
  },
  {
   "type": "Feature",
   "id": "LU-R1-E",
   "properties": {
    "id": "LU-R1-E",
    "layer": "LAND_USE",
    "source_type": "agent_generated_design",
    "confidence": "medium",
    "geometry_role": "design_proposal",
    "land_use_code": "0804",
    "name_zh": "教育用地（西土城—学院路高校带）",
    "name_en": "Education (Xitucheng university belt)",
    "statutory_use": "non_statutory_concept_overlay",
    "note_zh": "概念用地角色叠加，不构成法定用地性质或控规调整建议。",
    "area_sqm_declared": 868170.0
   },
   "geometry": {
    "type": "Polygon",
    "coordinates": [
     [
      [
       116.3553,
       39.95
      ],
      [
       116.3492,
       39.95
      ],
      [
       116.3492,
       39.965
      ],
      [
       116.3553,
       39.965
      ],
      [
       116.3553,
       39.95
      ]
     ]
    ]
   }
  },
  {
   "type": "Feature",
   "id": "LU-R1-W",
   "properties": {
    "id": "LU-R1-W",
    "layer": "LAND_USE",
    "source_type": "agent_generated_design",
    "confidence": "medium",
    "geometry_role": "design_proposal",
    "land_use_code": "07",
    "name_zh": "居住用地（北下关—学院南路居住修补）",
    "name_en": "Residential (Beixiaguan renewal)",
    "statutory_use": "non_statutory_concept_overlay",
    "note_zh": "概念用地角色叠加，不构成法定用地性质或控规调整建议。",
    "area_sqm_declared": 827448.6
   },
   "geometry": {
    "type": "Polygon",
    "coordinates": [
     [
      [
       116.33997777777778,
       39.965
      ],
      [
       116.346,
       39.965
      ],
      [
       116.346,
       39.95
      ],
      [
       116.34039444444444,
       39.95
      ],
      [
       116.33997777777778,
       39.965
      ]
     ]
    ]
   }
  },
  {
   "type": "Feature",
   "id": "LU-R2-C",
   "properties": {
    "id": "LU-R2-C",
    "layer": "LAND_USE",
    "source_type": "agent_generated_design",
    "confidence": "medium",
    "geometry_role": "design_proposal",
    "land_use_code": "1401",
    "name_zh": "公园绿地（大运村—知春路衔接段）",
    "name_en": "Park green (Dayuncun link段)",
    "statutory_use": "non_statutory_concept_overlay",
    "note_zh": "概念用地角色叠加，不构成法定用地性质或控规调整建议。",
    "area_sqm_declared": 561566.4
   },
   "geometry": {
    "type": "Polygon",
    "coordinates": [
     [
      [
       116.346,
       39.965
      ],
      [
       116.346,
       39.9835
      ],
      [
       116.3492,
       39.9835
      ],
      [
       116.3492,
       39.965
      ],
      [
       116.346,
       39.965
      ]
     ]
    ]
   }
  },
  {
   "type": "Feature",
   "id": "LU-R2-E",
   "properties": {
    "id": "LU-R2-E",
    "layer": "LAND_USE",
    "source_type": "agent_generated_design",
    "confidence": "medium",
    "geometry_role": "design_proposal",
    "land_use_code": "0804",
    "name_zh": "教育用地（学院路高校带北段）",
    "name_en": "Education (Xueyuan Rd campus belt north)",
    "statutory_use": "non_statutory_concept_overlay",
    "note_zh": "概念用地角色叠加，不构成法定用地性质或控规调整建议。",
    "area_sqm_declared": 940639.4
   },
   "geometry": {
    "type": "Polygon",
    "coordinates": [
     [
      [
       116.3553,
       39.965
      ],
      [
       116.3492,
       39.965
      ],
      [
       116.3492,
       39.9835
      ],
      [
       116.35382,
       39.9835
      ],
      [
       116.3553,
       39.965
      ]
     ]
    ]
   }
  },
  {
   "type": "Feature",
   "id": "LU-R2-W",
   "properties": {
    "id": "LU-R2-W",
    "layer": "LAND_USE",
    "source_type": "agent_generated_design",
    "confidence": "medium",
    "geometry_role": "design_proposal",
    "land_use_code": "0802",
    "name_zh": "科研用地（知春路科研服务带）",
    "name_en": "Research (Zhichun Rd research belt)",
    "statutory_use": "non_statutory_concept_overlay",
    "note_zh": "概念用地角色叠加，不构成法定用地性质或控规调整建议。",
    "area_sqm_declared": 1070303.6
   },
   "geometry": {
    "type": "Polygon",
    "coordinates": [
     [
      [
       116.3397,
       39.975
      ],
      [
       116.34024838709676,
       39.9835
      ],
      [
       116.346,
       39.9835
      ],
      [
       116.346,
       39.965
      ],
      [
       116.33997777777778,
       39.965
      ],
      [
       116.3397,
       39.975
      ]
     ]
    ]
   }
  },
  {
   "type": "Feature",
   "id": "LU-R3-C",
   "properties": {
    "id": "LU-R3-C",
    "layer": "LAND_USE",
    "source_type": "agent_generated_design",
    "confidence": "medium",
    "geometry_role": "design_proposal",
    "land_use_code": "1401",
    "name_zh": "公园绿地（五道口启动区段）",
    "name_en": "Park green (Wudaokou starter段)",
    "statutory_use": "non_statutory_concept_overlay",
    "note_zh": "概念用地角色叠加，不构成法定用地性质或控规调整建议。",
    "area_sqm_declared": 303487.1
   },
   "geometry": {
    "type": "Polygon",
    "coordinates": [
     [
      [
       116.346,
       39.9835
      ],
      [
       116.346,
       39.9935
      ],
      [
       116.3492,
       39.9935
      ],
      [
       116.3492,
       39.9835
      ],
      [
       116.346,
       39.9835
      ]
     ]
    ]
   }
  },
  {
   "type": "Feature",
   "id": "LU-R3-E",
   "properties": {
    "id": "LU-R3-E",
    "layer": "LAND_USE",
    "source_type": "agent_generated_design",
    "confidence": "medium",
    "geometry_role": "design_proposal",
    "land_use_code": "05",
    "name_zh": "商业服务业用地（五道口智能原生消费界面）",
    "name_en": "Commercial (Wudaokou AI-native retail)",
    "statutory_use": "non_statutory_concept_overlay",
    "note_zh": "概念用地角色叠加，不构成法定用地性质或控规调整建议。",
    "area_sqm_declared": 408054.1
   },
   "geometry": {
    "type": "Polygon",
    "coordinates": [
     [
      [
       116.3533,
       39.99
      ],
      [
       116.35382,
       39.9835
      ],
      [
       116.3492,
       39.9835
      ],
      [
       116.3492,
       39.9935
      ],
      [
       116.35349178082193,
       39.9935
      ],
      [
       116.3533,
       39.99
      ]
     ]
    ]
   }
  },
  {
   "type": "Feature",
   "id": "LU-R3-W",
   "properties": {
    "id": "LU-R3-W",
    "layer": "LAND_USE",
    "source_type": "agent_generated_design",
    "confidence": "medium",
    "geometry_role": "design_proposal",
    "land_use_code": "0802",
    "name_zh": "科研用地（AI原点社区·院墙唤醒区）",
    "name_en": "Research (AI Origin courtyard-wake zone)",
    "statutory_use": "non_statutory_concept_overlay",
    "note_zh": "概念用地角色叠加，不构成法定用地性质或控规调整建议。",
    "area_sqm_declared": 514890.2
   },
   "geometry": {
    "type": "Polygon",
    "coordinates": [
     [
      [
       116.3408935483871,
       39.9935
      ],
      [
       116.346,
       39.9935
      ],
      [
       116.346,
       39.9835
      ],
      [
       116.34024838709676,
       39.9835
      ],
      [
       116.3408935483871,
       39.9935
      ]
     ]
    ]
   }
  },
  {
   "type": "Feature",
   "id": "LU-R4-C",
   "properties": {
    "id": "LU-R4-C",
    "layer": "LAND_USE",
    "source_type": "agent_generated_design",
    "confidence": "medium",
    "geometry_role": "design_proposal",
    "land_use_code": "1401",
    "name_zh": "公园绿地（北段自然休闲段）",
    "name_en": "Park green (north natural leisure段)",
    "statutory_use": "non_statutory_concept_overlay",
    "note_zh": "概念用地角色叠加，不构成法定用地性质或控规调整建议。",
    "area_sqm_declared": 424808.4
   },
   "geometry": {
    "type": "Polygon",
    "coordinates": [
     [
      [
       116.346,
       39.9935
      ],
      [
       116.346,
       40.0075
      ],
      [
       116.3492,
       40.0075
      ],
      [
       116.3492,
       39.9935
      ],
      [
       116.346,
       39.9935
      ]
     ]
    ]
   }
  },
  {
   "type": "Feature",
   "id": "LU-R4-E",
   "properties": {
    "id": "LU-R4-E",
    "layer": "LAND_USE",
    "source_type": "agent_generated_design",
    "confidence": "medium",
    "geometry_role": "design_proposal",
    "land_use_code": "07",
    "name_zh": "居住用地（学清路居住织补）",
    "name_en": "Residential (Xueqing Rd infill)",
    "statutory_use": "non_statutory_concept_overlay",
    "note_zh": "概念用地角色叠加，不构成法定用地性质或控规调整建议。",
    "area_sqm_declared": 620658.6
   },
   "geometry": {
    "type": "Polygon",
    "coordinates": [
     [
      [
       116.35349178082193,
       39.9935
      ],
      [
       116.3492,
       39.9935
      ],
      [
       116.3492,
       40.0075
      ],
      [
       116.35425890410959,
       40.0075
      ],
      [
       116.35349178082193,
       39.9935
      ]
     ]
    ]
   }
  },
  {
   "type": "Feature",
   "id": "LU-R4-W",
   "properties": {
    "id": "LU-R4-W",
    "layer": "LAND_USE",
    "source_type": "agent_generated_design",
    "confidence": "medium",
    "geometry_role": "design_proposal",
    "land_use_code": "0804",
    "name_zh": "教育用地（清华东路科教界面）",
    "name_en": "Education (Qinghua East Rd interface)",
    "statutory_use": "non_statutory_concept_overlay",
    "note_zh": "概念用地角色叠加，不构成法定用地性质或控规调整建议。",
    "area_sqm_declared": 618115.2
   },
   "geometry": {
    "type": "Polygon",
    "coordinates": [
     [
      [
       116.3417,
       40.006
      ],
      [
       116.34177317073171,
       40.0075
      ],
      [
       116.346,
       40.0075
      ],
      [
       116.346,
       39.9935
      ],
      [
       116.3408935483871,
       39.9935
      ],
      [
       116.3417,
       40.006
      ]
     ]
    ]
   }
  },
  {
   "type": "Feature",
   "id": "LU-R5-C",
   "properties": {
    "id": "LU-R5-C",
    "layer": "LAND_USE",
    "source_type": "agent_generated_design",
    "confidence": "medium",
    "geometry_role": "design_proposal",
    "land_use_code": "1401",
    "name_zh": "公园绿地（京张之环—北五环段）",
    "name_en": "Park green (Jingzhang Ring–5th Ring段)",
    "statutory_use": "non_statutory_concept_overlay",
    "note_zh": "概念用地角色叠加，不构成法定用地性质或控规调整建议。",
    "area_sqm_declared": 576388.6
   },
   "geometry": {
    "type": "Polygon",
    "coordinates": [
     [
      [
       116.3492,
       40.0265
      ],
      [
       116.3492,
       40.0075
      ],
      [
       116.346,
       40.0075
      ],
      [
       116.346,
       40.0265
      ],
      [
       116.3492,
       40.0265
      ]
     ]
    ]
   }
  },
  {
   "type": "Feature",
   "id": "LU-R5-E",
   "properties": {
    "id": "LU-R5-E",
    "layer": "LAND_USE",
    "source_type": "agent_generated_design",
    "confidence": "medium",
    "geometry_role": "design_proposal",
    "land_use_code": "16",
    "name_zh": "留白用地（弹性中试与场景储备）",
    "name_en": "Reserved white land (flexible pilot reserve)",
    "statutory_use": "non_statutory_concept_overlay",
    "note_zh": "概念用地角色叠加，不构成法定用地性质或控规调整建议。",
    "area_sqm_declared": 1004965.5
   },
   "geometry": {
    "type": "Polygon",
    "coordinates": [
     [
      [
       116.3553,
       40.0265
      ],
      [
       116.35425890410959,
       40.0075
      ],
      [
       116.3492,
       40.0075
      ],
      [
       116.3492,
       40.0265
      ],
      [
       116.3553,
       40.0265
      ]
     ]
    ]
   }
  },
  {
   "type": "Feature",
   "id": "LU-R5-W",
   "properties": {
    "id": "LU-R5-W",
    "layer": "LAND_USE",
    "source_type": "agent_generated_design",
    "confidence": "medium",
    "geometry_role": "design_proposal",
    "land_use_code": "0802",
    "name_zh": "科研用地（众智园快装唤醒区·全栈中试）",
    "name_en": "Research (Zhongzhiyuan quick-fit wake zone)",
    "statutory_use": "non_statutory_concept_overlay",
    "note_zh": "概念用地角色叠加，不构成法定用地性质或控规调整建议。",
    "area_sqm_declared": 677883.5
   },
   "geometry": {
    "type": "Polygon",
    "coordinates": [
     [
      [
       116.3427,
       40.0265
      ],
      [
       116.346,
       40.0265
      ],
      [
       116.346,
       40.0075
      ],
      [
       116.34177317073171,
       40.0075
      ],
      [
       116.3427,
       40.0265
      ]
     ]
    ]
   }
  }
 ]
}