{
  "type": "FeatureCollection",
  "name": "roads",
  "metadata": {
    "design_concept": "九章方洲·京张智原",
    "coordinate_reference_system": "EPSG:4326",
    "convention": "all LineStrings use shared cut coordinates to support topology"
  },
  "features": [
    {
      "type": "Feature",
      "id": "ROAD-001",
      "properties": {
        "id": "ROAD-001",
        "layer": "ROAD_CENTERLINE",
        "source_type": "agent_generated_design",
        "confidence": "medium",
        "geometry_role": "design_proposal",
        "road_class": "greenway",
        "name_zh": "九章·绿脉中枢——京张遗址公园慢行绿道",
        "length_m_declared": 9335.0,
        "scenario_function": "百年文脉 + 慢行主轴"
      },
      "geometry": {
        "type": "LineString",
        "coordinates": [
          [
            116.3475,
            39.939
          ],
          [
            116.3475,
            39.97
          ],
          [
            116.3475,
            40.0
          ],
          [
            116.3475,
            40.0265
          ]
        ]
      }
    },
    {
      "type": "Feature",
      "id": "ROAD-002",
      "properties": {
        "id": "ROAD-002",
        "layer": "ROAD_CENTERLINE",
        "source_type": "agent_generated_design",
        "confidence": "medium",
        "geometry_role": "design_proposal",
        "road_class": "arterial",
        "name_zh": "九章·西翼动脉——中关村科技服务翼主干",
        "length_m_declared": 1450.0,
        "scenario_function": "科技服务 + 通勤"
      },
      "geometry": {
        "type": "LineString",
        "coordinates": [
          [
            116.342,
            39.939
          ],
          [
            116.342,
            39.985
          ],
          [
            116.342,
            40.0265
          ]
        ]
      }
    },
    {
      "type": "Feature",
      "id": "ROAD-003",
      "properties": {
        "id": "ROAD-003",
        "layer": "ROAD_CENTERLINE",
        "source_type": "agent_generated_design",
        "confidence": "medium",
        "geometry_role": "design_proposal",
        "road_class": "arterial",
        "name_zh": "九章·东翼动脉——小月河场景赋能翼主干",
        "length_m_declared": 1450.0,
        "scenario_function": "场景赋能 + 通勤"
      },
      "geometry": {
        "type": "LineString",
        "coordinates": [
          [
            116.353,
            39.939
          ],
          [
            116.353,
            39.985
          ],
          [
            116.353,
            40.0265
          ]
        ]
      }
    },
    {
      "type": "Feature",
      "id": "ROAD-004",
      "properties": {
        "id": "ROAD-004",
        "layer": "ROAD_CENTERLINE",
        "source_type": "agent_generated_design",
        "confidence": "medium",
        "geometry_role": "design_proposal",
        "road_class": "secondary",
        "name_zh": "九章·南庭横线——大钟寺T0D横向接驳",
        "length_m_declared": 1300.0,
        "scenario_function": "TOD接驳 + 智能出行"
      },
      "geometry": {
        "type": "LineString",
        "coordinates": [
          [
            116.342,
            39.947
          ],
          [
            116.35,
            39.947
          ],
          [
            116.354,
            39.947
          ]
        ]
      }
    },
    {
      "type": "Feature",
      "id": "ROAD-005",
      "properties": {
        "id": "ROAD-005",
        "layer": "ROAD_CENTERLINE",
        "source_type": "agent_generated_design",
        "confidence": "medium",
        "geometry_role": "design_proposal",
        "road_class": "secondary",
        "name_zh": "九章·中庭横线——AI原点社区开源环路",
        "length_m_declared": 1200.0,
        "scenario_function": "开源环路 + 慢行"
      },
      "geometry": {
        "type": "LineString",
        "coordinates": [
          [
            116.343,
            39.988
          ],
          [
            116.35,
            39.988
          ],
          [
            116.352,
            39.988
          ]
        ]
      }
    },
    {
      "type": "Feature",
      "id": "ROAD-006",
      "properties": {
        "id": "ROAD-006",
        "layer": "ROAD_CENTERLINE",
        "source_type": "agent_generated_design",
        "confidence": "medium",
        "geometry_role": "design_proposal",
        "road_class": "secondary",
        "name_zh": "九章·北源横线——众智园全栈环路",
        "length_m_declared": 1150.0,
        "scenario_function": "全栈研发 + 治理沙盒"
      },
      "geometry": {
        "type": "LineString",
        "coordinates": [
          [
            116.344,
            40.018
          ],
          [
            116.35,
            40.018
          ],
          [
            116.353,
            40.018
          ]
        ]
      }
    },
    {
      "type": "Feature",
      "id": "ROAD-007",
      "properties": {
        "id": "ROAD-007",
        "layer": "ROAD_CENTERLINE",
        "source_type": "agent_generated_design",
        "confidence": "medium",
        "geometry_role": "design_proposal",
        "road_class": "greenway",
        "name_zh": "九章·南庭步行街——大钟寺智能消费步行环",
        "length_m_declared": 700.0,
        "scenario_function": "智能消费 + 公共体验"
      },
      "geometry": {
        "type": "LineString",
        "coordinates": [
          [
            116.347,
            39.944
          ],
          [
            116.347,
            39.94984
          ],
          [
            116.354,
            39.94984
          ]
        ]
      }
    },
    {
      "type": "Feature",
      "id": "ROAD-008",
      "properties": {
        "id": "ROAD-008",
        "layer": "ROAD_CENTERLINE",
        "source_type": "agent_generated_design",
        "confidence": "medium",
        "geometry_role": "design_proposal",
        "road_class": "greenway",
        "name_zh": "九章·中庭步行街——AI原点社区共创步行环",
        "length_m_declared": 800.0,
        "scenario_function": "开源共创 + 慢行"
      },
      "geometry": {
        "type": "LineString",
        "coordinates": [
          [
            116.345,
            39.9835
          ],
          [
            116.345,
            39.9935
          ],
          [
            116.353,
            39.9935
          ]
        ]
      }
    },
    {
      "type": "Feature",
      "id": "ROAD-009",
      "properties": {
        "id": "ROAD-009",
        "layer": "ROAD_CENTERLINE",
        "source_type": "agent_generated_design",
        "confidence": "medium",
        "geometry_role": "design_proposal",
        "road_class": "secondary",
        "name_zh": "九章·北源外环——众智园外围车行环",
        "length_m_declared": 1300.0,
        "scenario_function": "全栈研发 + 物流"
      },
      "geometry": {
        "type": "LineString",
        "coordinates": [
          [
            116.343,
            40.0075
          ],
          [
            116.343,
            40.0265
          ],
          [
            116.354,
            40.0265
          ]
        ]
      }
    }
  ]
}