{
  "type": "FeatureCollection",
  "name": "translation_line_walking_and_cycling_network",
  "features": [
    {
      "type": "Feature",
      "id": "ROAD-001",
      "properties": {
        "id": "ROAD-001",
        "layer": "ROAD_CENTERLINE",
        "source_type": "agent_generated_design",
        "confidence": "medium",
        "geometry_role": "design_proposal",
        "road_class": "greenway",
        "name_zh": "南北共译慢行主脊",
        "name_en": "North-South Translation Walking Spine",
        "design_intent": "heritage-oriented walking and cycling concept; not an engineering alignment"
      },
      "geometry": {
        "type": "LineString",
        "coordinates": [
          [
            116.34175,
            39.9396349
          ],
          [
            116.34175,
            39.9494361
          ],
          [
            116.3411,
            39.9596256
          ],
          [
            116.3395,
            39.9698097
          ],
          [
            116.3394582,
            39.9800026
          ],
          [
            116.3385325,
            39.9901904
          ],
          [
            116.3378,
            40.0003793
          ],
          [
            116.3378,
            40.0105724
          ],
          [
            116.3378,
            40.015669
          ]
        ]
      }
    },
    {
      "type": "Feature",
      "id": "ROAD-002",
      "properties": {
        "id": "ROAD-002",
        "layer": "ROAD_CENTERLINE",
        "source_type": "agent_generated_design",
        "confidence": "medium",
        "geometry_role": "design_proposal",
        "road_class": "cycleway",
        "name_zh": "东西共译横廊 1",
        "name_en": "East-West Translation Link 1",
        "design_intent": "Conceptual cross-corridor connection subject to road, rail, heritage and accessibility review."
      },
      "geometry": {
        "type": "LineString",
        "coordinates": [
          [
            116.3344536,
            39.9462581
          ],
          [
            116.3490464,
            39.9463409
          ]
        ]
      }
    },
    {
      "type": "Feature",
      "id": "ROAD-003",
      "properties": {
        "id": "ROAD-003",
        "layer": "ROAD_CENTERLINE",
        "source_type": "agent_generated_design",
        "confidence": "medium",
        "geometry_role": "design_proposal",
        "road_class": "pedestrian",
        "name_zh": "东西共译横廊 2",
        "name_en": "East-West Translation Link 2",
        "design_intent": "Conceptual cross-corridor connection subject to road, rail, heritage and accessibility review."
      },
      "geometry": {
        "type": "LineString",
        "coordinates": [
          [
            116.3344536,
            39.9556672
          ],
          [
            116.3482061,
            39.9557453
          ]
        ]
      }
    },
    {
      "type": "Feature",
      "id": "ROAD-004",
      "properties": {
        "id": "ROAD-004",
        "layer": "ROAD_CENTERLINE",
        "source_type": "agent_generated_design",
        "confidence": "medium",
        "geometry_role": "design_proposal",
        "road_class": "cycleway",
        "name_zh": "东西共译横廊 3",
        "name_en": "East-West Translation Link 3",
        "design_intent": "Conceptual cross-corridor connection subject to road, rail, heritage and accessibility review."
      },
      "geometry": {
        "type": "LineString",
        "coordinates": [
          [
            116.3312536,
            39.9650578
          ],
          [
            116.3477464,
            39.9651518
          ]
        ]
      }
    },
    {
      "type": "Feature",
      "id": "ROAD-005",
      "properties": {
        "id": "ROAD-005",
        "layer": "ROAD_CENTERLINE",
        "source_type": "agent_generated_design",
        "confidence": "medium",
        "geometry_role": "design_proposal",
        "road_class": "pedestrian",
        "name_zh": "东西共译横廊 4",
        "name_en": "East-West Translation Link 4",
        "design_intent": "Conceptual cross-corridor connection subject to road, rail, heritage and accessibility review."
      },
      "geometry": {
        "type": "LineString",
        "coordinates": [
          [
            116.3329536,
            39.9744767
          ],
          [
            116.3477464,
            39.9745609
          ]
        ]
      }
    },
    {
      "type": "Feature",
      "id": "ROAD-006",
      "properties": {
        "id": "ROAD-006",
        "layer": "ROAD_CENTERLINE",
        "source_type": "agent_generated_design",
        "confidence": "medium",
        "geometry_role": "design_proposal",
        "road_class": "cycleway",
        "name_zh": "东西共译横廊 5",
        "name_en": "East-West Translation Link 5",
        "design_intent": "Conceptual cross-corridor connection subject to road, rail, heritage and accessibility review."
      },
      "geometry": {
        "type": "LineString",
        "coordinates": [
          [
            116.3313581,
            39.9838766
          ],
          [
            116.3468464,
            39.9839649
          ]
        ]
      }
    },
    {
      "type": "Feature",
      "id": "ROAD-007",
      "properties": {
        "id": "ROAD-007",
        "layer": "ROAD_CENTERLINE",
        "source_type": "agent_generated_design",
        "confidence": "medium",
        "geometry_role": "design_proposal",
        "road_class": "pedestrian",
        "name_zh": "东西共译横廊 6",
        "name_en": "East-West Translation Link 6",
        "design_intent": "Conceptual cross-corridor connection subject to road, rail, heritage and accessibility review."
      },
      "geometry": {
        "type": "LineString",
        "coordinates": [
          [
            116.3299536,
            39.9932775
          ],
          [
            116.3468464,
            39.9933739
          ]
        ]
      }
    },
    {
      "type": "Feature",
      "id": "ROAD-008",
      "properties": {
        "id": "ROAD-008",
        "layer": "ROAD_CENTERLINE",
        "source_type": "agent_generated_design",
        "confidence": "medium",
        "geometry_role": "design_proposal",
        "road_class": "cycleway",
        "name_zh": "东西共译横廊 7",
        "name_en": "East-West Translation Link 7",
        "design_intent": "Conceptual cross-corridor connection subject to road, rail, heritage and accessibility review."
      },
      "geometry": {
        "type": "LineString",
        "coordinates": [
          [
            116.3299536,
            40.0026865
          ],
          [
            116.3456464,
            40.0027762
          ]
        ]
      }
    },
    {
      "type": "Feature",
      "id": "ROAD-009",
      "properties": {
        "id": "ROAD-009",
        "layer": "ROAD_CENTERLINE",
        "source_type": "agent_generated_design",
        "confidence": "medium",
        "geometry_role": "design_proposal",
        "road_class": "pedestrian",
        "name_zh": "东西共译横廊 8",
        "name_en": "East-West Translation Link 8",
        "design_intent": "Conceptual cross-corridor connection subject to road, rail, heritage and accessibility review."
      },
      "geometry": {
        "type": "LineString",
        "coordinates": [
          [
            116.3299536,
            40.0120955
          ],
          [
            116.3456464,
            40.0121852
          ]
        ]
      }
    }
  ]
}
