{
  "type": "FeatureCollection",
  "name": "translation_line_provisional_site_boundary",
  "features": [
    {
      "type": "Feature",
      "id": "SITE-001",
      "properties": {
        "id": "SITE-001",
        "layer": "SITE_BOUNDARY",
        "source_type": "agent_inferred_from_public_data",
        "confidence": "medium",
        "geometry_role": "provisional_constraint",
        "official_boundary": false,
        "boundary_precision": "provisional_rough",
        "scope_id": "overall_design_area",
        "name_zh": "总体设计范围街道贴合临时边界（基于公开 Issue #846 可复用推导）",
        "name_en": "Street-Aligned Provisional Overall Design Area (reused derivation from public Issue #846)",
        "announced_area_sqm": 11400000,
        "derived_from_source_ids": [
          "OFFICIAL-ANNOUNCEMENT",
          "PEER-STREET-BOUNDARY",
          "OSM-CONTEXT"
        ],
        "derivation_method": "Reused with attribution from the street-aligned provisional geometry published by xr843 in Issue #846; calibrated in EPSG:4548 to the announced approximate area. OSM street centerlines are context only and are not road redlines.",
        "usage_note": "For design generation, visualization and intake review only. Not an official redline, property boundary, approval basis or precise statutory area. Recompute the entire package when official polygons arrive.",
        "area_sqm_declared": 11400064.345
      },
      "geometry": {
        "type": "Polygon",
        "coordinates": [
          [
            [
              116.3344536,
              39.96
            ],
            [
              116.3312536,
              39.964
            ],
            [
              116.3312536,
              39.9705
            ],
            [
              116.3329536,
              39.9705
            ],
            [
              116.3329536,
              39.9751
            ],
            [
              116.3299536,
              39.9916
            ],
            [
              116.3299536,
              40.0168
            ],
            [
              116.3456464,
              40.0168
            ],
            [
              116.3456464,
              40.0
            ],
            [
              116.3468464,
              39.9997
            ],
            [
              116.3468464,
              39.9751
            ],
            [
              116.3477464,
              39.9751
            ],
            [
              116.3477464,
              39.9567
            ],
            [
              116.3490464,
              39.954
            ],
            [
              116.3490464,
              39.9385
            ],
            [
              116.3344536,
              39.9385
            ],
            [
              116.3344536,
              39.96
            ]
          ]
        ]
      }
    }
  ],
  "metadata": {
    "crs": "EPSG:4326",
    "area_calculation_crs": "EPSG:4548",
    "official_boundary_available": false
  }
}
