{
  "type": "FeatureCollection",
  "name": "open_studio_phasing",
  "features": [
    {
      "type": "Feature",
      "id": "PHASE-001",
      "properties": {
        "id": "PHASE-001",
        "layer": "PHASE",
        "source_type": "agent_generated_design",
        "confidence": "low",
        "geometry_role": "design_proposal",
        "name_zh": "近期：权利、样片与可逆公共界面",
        "name_en": "Near term: rights, dailies, reversible public interfaces",
        "phase": "near_term",
        "design_intent": "Sequence governance and reversible pilots before capital-intensive construction.",
        "release_gate": "Advance only after the prior phase passes rights, public-interest, safety, operation, and professional spatial review.",
        "area_sqm_declared": 5259538.333
      },
      "geometry": {
        "type": "Polygon",
        "coordinates": [
          [
            [
              116.3407,
              39.939
            ],
            [
              116.3397,
              39.975
            ],
            [
              116.33976451612902,
              39.976
            ],
            [
              116.35442,
              39.976
            ],
            [
              116.3553,
              39.965
            ],
            [
              116.3553,
              39.939
            ],
            [
              116.3407,
              39.939
            ]
          ]
        ]
      }
    },
    {
      "type": "Feature",
      "id": "PHASE-002",
      "properties": {
        "id": "PHASE-002",
        "layer": "PHASE",
        "source_type": "agent_generated_design",
        "confidence": "low",
        "geometry_role": "design_proposal",
        "name_zh": "中期：开源人才与社区制作网络",
        "name_en": "Mid term: open talent and community-production network",
        "phase": "mid_term",
        "design_intent": "Sequence governance and reversible pilots before capital-intensive construction.",
        "release_gate": "Advance only after the prior phase passes rights, public-interest, safety, operation, and professional spatial review.",
        "area_sqm_declared": 4308732.734
      },
      "geometry": {
        "type": "Polygon",
        "coordinates": [
          [
            [
              116.3533,
              39.99
            ],
            [
              116.35442,
              39.976
            ],
            [
              116.33976451612902,
              39.976
            ],
            [
              116.3417,
              40.006
            ],
            [
              116.34194390243903,
              40.011
            ],
            [
              116.3544506849315,
              40.011
            ],
            [
              116.3533,
              39.99
            ]
          ]
        ]
      }
    },
    {
      "type": "Feature",
      "id": "PHASE-003",
      "properties": {
        "id": "PHASE-003",
        "layer": "PHASE",
        "source_type": "agent_generated_design",
        "confidence": "low",
        "geometry_role": "design_proposal",
        "name_zh": "长期：源模与具身制作验证平台",
        "name_en": "Long term: model and embodied-production validation platform",
        "phase": "long_term",
        "design_intent": "Sequence governance and reversible pilots before capital-intensive construction.",
        "release_gate": "Advance only after the prior phase passes rights, public-interest, safety, operation, and professional spatial review.",
        "area_sqm_declared": 1844562.499
      },
      "geometry": {
        "type": "Polygon",
        "coordinates": [
          [
            [
              116.3544506849315,
              40.011
            ],
            [
              116.34194390243903,
              40.011
            ],
            [
              116.3427,
              40.0265
            ],
            [
              116.3553,
              40.0265
            ],
            [
              116.3544506849315,
              40.011
            ]
          ]
        ]
      }
    }
  ]
}
