{
  "type": "FeatureCollection",
  "name": "building_footprints_concept",
  "features": [
    {
      "type": "Feature",
      "id": "BLDG-001",
      "properties": {
        "id": "BLDG-001",
        "layer": "BUILDING_FOOTPRINT",
        "source_type": "agent_generated_design",
        "confidence": "medium",
        "geometry_role": "design_proposal",
        "building_type": "mixed_use",
        "proposed_action": "retain_or_renovate_study",
        "name_zh": "大钟寺城市型产业服务客厅",
        "name_en": "Urban industry services",
        "scale_status": "concept footprint only; current building survey and controls pending",
        "area_sqm_declared": 4317.811
      },
      "geometry": {
        "type": "Polygon",
        "coordinates": [
          [
            [
              116.347375,
              39.94625
            ],
            [
              116.347375,
              39.946949999999994
            ],
            [
              116.348025,
              39.946949999999994
            ],
            [
              116.348025,
              39.94625
            ],
            [
              116.347375,
              39.94625
            ]
          ]
        ]
      }
    },
    {
      "type": "Feature",
      "id": "BLDG-002",
      "properties": {
        "id": "BLDG-002",
        "layer": "BUILDING_FOOTPRINT",
        "source_type": "agent_generated_design",
        "confidence": "medium",
        "geometry_role": "design_proposal",
        "building_type": "office",
        "proposed_action": "retain_or_renovate_study",
        "name_zh": "大钟寺智能原生企业服务节点",
        "name_en": "Office",
        "scale_status": "concept footprint only; current building survey and controls pending",
        "area_sqm_declared": 3700.927
      },
      "geometry": {
        "type": "Polygon",
        "coordinates": [
          [
            [
              116.3489,
              39.947275000000005
            ],
            [
              116.3489,
              39.947925
            ],
            [
              116.34949999999999,
              39.947925
            ],
            [
              116.34949999999999,
              39.947275000000005
            ],
            [
              116.3489,
              39.947275000000005
            ]
          ]
        ]
      }
    },
    {
      "type": "Feature",
      "id": "BLDG-003",
      "properties": {
        "id": "BLDG-003",
        "layer": "BUILDING_FOOTPRINT",
        "source_type": "agent_generated_design",
        "confidence": "medium",
        "geometry_role": "design_proposal",
        "building_type": "incubator",
        "proposed_action": "renovation_candidate_study",
        "name_zh": "原点社区成果转化驿站",
        "name_en": "Incubator",
        "scale_status": "concept footprint only; current building survey and controls pending",
        "area_sqm_declared": 3234.029
      },
      "geometry": {
        "type": "Polygon",
        "coordinates": [
          [
            [
              116.347625,
              39.98829
            ],
            [
              116.347625,
              39.98891
            ],
            [
              116.348175,
              39.98891
            ],
            [
              116.348175,
              39.98829
            ],
            [
              116.347625,
              39.98829
            ]
          ]
        ]
      }
    },
    {
      "type": "Feature",
      "id": "BLDG-004",
      "properties": {
        "id": "BLDG-004",
        "layer": "BUILDING_FOOTPRINT",
        "source_type": "agent_generated_design",
        "confidence": "medium",
        "geometry_role": "design_proposal",
        "building_type": "education",
        "proposed_action": "retain_or_renovate_study",
        "name_zh": "近校开源协作厅",
        "name_en": "Education and research",
        "scale_status": "concept footprint only; current building survey and controls pending",
        "area_sqm_declared": 2608.057
      },
      "geometry": {
        "type": "Polygon",
        "coordinates": [
          [
            [
              116.34935,
              39.989125
            ],
            [
              116.34935,
              39.989675000000005
            ],
            [
              116.34984999999999,
              39.989675000000005
            ],
            [
              116.34984999999999,
              39.989125
            ],
            [
              116.34935,
              39.989125
            ]
          ]
        ]
      }
    },
    {
      "type": "Feature",
      "id": "BLDG-005",
      "properties": {
        "id": "BLDG-005",
        "layer": "BUILDING_FOOTPRINT",
        "source_type": "agent_generated_design",
        "confidence": "medium",
        "geometry_role": "design_proposal",
        "building_type": "talent_apartment",
        "proposed_action": "retain_or_renovate_study",
        "name_zh": "人才生活服务原型",
        "name_en": "Talent housing",
        "scale_status": "concept footprint only; current building survey and controls pending",
        "area_sqm_declared": 2640.369
      },
      "geometry": {
        "type": "Polygon",
        "coordinates": [
          [
            [
              116.34656,
              39.98741
            ],
            [
              116.34656,
              39.987989999999996
            ],
            [
              116.34704,
              39.987989999999996
            ],
            [
              116.34704,
              39.98741
            ],
            [
              116.34656,
              39.98741
            ]
          ]
        ]
      }
    },
    {
      "type": "Feature",
      "id": "BLDG-006",
      "properties": {
        "id": "BLDG-006",
        "layer": "BUILDING_FOOTPRINT",
        "source_type": "agent_generated_design",
        "confidence": "medium",
        "geometry_role": "design_proposal",
        "building_type": "ai_r_and_d",
        "proposed_action": "new_build_siting_study",
        "name_zh": "全栈模型测试楼概念落点",
        "name_en": "AI research",
        "scale_status": "concept footprint only; current building survey and controls pending",
        "area_sqm_declared": 4645.297
      },
      "geometry": {
        "type": "Polygon",
        "coordinates": [
          [
            [
              116.34795,
              40.015750000000004
            ],
            [
              116.34795,
              40.01645
            ],
            [
              116.34864999999999,
              40.01645
            ],
            [
              116.34864999999999,
              40.015750000000004
            ],
            [
              116.34795,
              40.015750000000004
            ]
          ]
        ]
      }
    },
    {
      "type": "Feature",
      "id": "BLDG-007",
      "properties": {
        "id": "BLDG-007",
        "layer": "BUILDING_FOOTPRINT",
        "source_type": "agent_generated_design",
        "confidence": "medium",
        "geometry_role": "design_proposal",
        "building_type": "lab",
        "proposed_action": "new_build_siting_study",
        "name_zh": "可信评测与安全治理实验楼概念落点",
        "name_en": "Laboratory",
        "scale_status": "concept footprint only; current building survey and controls pending",
        "area_sqm_declared": 3628.955
      },
      "geometry": {
        "type": "Polygon",
        "coordinates": [
          [
            [
              116.34970999999999,
              40.01697
            ],
            [
              116.34970999999999,
              40.01763
            ],
            [
              116.35029,
              40.01763
            ],
            [
              116.35029,
              40.01697
            ],
            [
              116.34970999999999,
              40.01697
            ]
          ]
        ]
      }
    },
    {
      "type": "Feature",
      "id": "BLDG-008",
      "properties": {
        "id": "BLDG-008",
        "layer": "BUILDING_FOOTPRINT",
        "source_type": "agent_generated_design",
        "confidence": "medium",
        "geometry_role": "design_proposal",
        "building_type": "mixed_use",
        "proposed_action": "renovation_candidate_study",
        "name_zh": "清河创新展示与社区服务",
        "name_en": "Urban industry services",
        "scale_status": "concept footprint only; current building survey and controls pending",
        "area_sqm_declared": 3409.046
      },
      "geometry": {
        "type": "Polygon",
        "coordinates": [
          [
            [
              116.34600999999999,
              40.016490000000005
            ],
            [
              116.34600999999999,
              40.01711
            ],
            [
              116.34659,
              40.01711
            ],
            [
              116.34659,
              40.016490000000005
            ],
            [
              116.34600999999999,
              40.016490000000005
            ]
          ]
        ]
      }
    },
    {
      "type": "Feature",
      "id": "BLDG-009",
      "properties": {
        "id": "BLDG-009",
        "layer": "BUILDING_FOOTPRINT",
        "source_type": "agent_generated_design",
        "confidence": "medium",
        "geometry_role": "design_proposal",
        "building_type": "cultural",
        "proposed_action": "retain_or_renovate_study",
        "name_zh": "京张记忆与AI新文化展厅",
        "name_en": "Culture",
        "scale_status": "concept footprint only; current building survey and controls pending",
        "area_sqm_declared": 2662.515
      },
      "geometry": {
        "type": "Polygon",
        "coordinates": [
          [
            [
              116.34834000000001,
              40.00343
            ],
            [
              116.34834000000001,
              40.00397
            ],
            [
              116.34886,
              40.00397
            ],
            [
              116.34886,
              40.00343
            ],
            [
              116.34834000000001,
              40.00343
            ]
          ]
        ]
      }
    },
    {
      "type": "Feature",
      "id": "BLDG-010",
      "properties": {
        "id": "BLDG-010",
        "layer": "BUILDING_FOOTPRINT",
        "source_type": "agent_generated_design",
        "confidence": "medium",
        "geometry_role": "design_proposal",
        "building_type": "office",
        "proposed_action": "retain_or_renovate_study",
        "name_zh": "产业协作与数据要素会客厅",
        "name_en": "Office",
        "scale_status": "concept footprint only; current building survey and controls pending",
        "area_sqm_declared": 3024.718
      },
      "geometry": {
        "type": "Polygon",
        "coordinates": [
          [
            [
              116.350225,
              40.00351
            ],
            [
              116.350225,
              40.00409
            ],
            [
              116.350775,
              40.00409
            ],
            [
              116.350775,
              40.00351
            ],
            [
              116.350225,
              40.00351
            ]
          ]
        ]
      }
    },
    {
      "type": "Feature",
      "id": "BLDG-011",
      "properties": {
        "id": "BLDG-011",
        "layer": "BUILDING_FOOTPRINT",
        "source_type": "agent_generated_design",
        "confidence": "medium",
        "geometry_role": "design_proposal",
        "building_type": "community_service",
        "proposed_action": "retain_or_renovate_study",
        "name_zh": "遗址公园公共服务驿站",
        "name_en": "Community service",
        "scale_status": "concept footprint only; current building survey and controls pending",
        "area_sqm_declared": 3130.555
      },
      "geometry": {
        "type": "Polygon",
        "coordinates": [
          [
            [
              116.345725,
              39.9695
            ],
            [
              116.345725,
              39.9701
            ],
            [
              116.346275,
              39.9701
            ],
            [
              116.346275,
              39.9695
            ],
            [
              116.345725,
              39.9695
            ]
          ]
        ]
      }
    },
    {
      "type": "Feature",
      "id": "BLDG-012",
      "properties": {
        "id": "BLDG-012",
        "layer": "BUILDING_FOOTPRINT",
        "source_type": "agent_generated_design",
        "confidence": "medium",
        "geometry_role": "design_proposal",
        "building_type": "mobility_hub",
        "proposed_action": "new_build_siting_study",
        "name_zh": "慢行接驳与非机动车服务节点",
        "name_en": "Mobility hub",
        "scale_status": "concept footprint only; current building survey and controls pending",
        "area_sqm_declared": 3411.372
      },
      "geometry": {
        "type": "Polygon",
        "coordinates": [
          [
            [
              116.35010999999999,
              39.96909
            ],
            [
              116.35010999999999,
              39.96971
            ],
            [
              116.35069,
              39.96971
            ],
            [
              116.35069,
              39.96909
            ],
            [
              116.35010999999999,
              39.96909
            ]
          ]
        ]
      }
    }
  ]
}
