{
 "type": "FeatureCollection",
 "name": "phasing",
 "features": [
  {
   "type": "Feature",
   "id": "phase_1",
   "properties": {
    "id": "phase_1",
    "layer": "PHASE",
    "phase": 1,
    "name_zh": "一期（2027-2030）近期启动",
    "source_type": "agent_generated_design",
    "confidence": "high",
    "geometry_role": "design_proposal",
    "official_boundary": false,
    "area_sqm_declared": 3423847.6
   },
   "geometry": {
    "type": "Polygon",
    "coordinates": [
     [
      [
       116.35372277083671,
       39.997718432842774
      ],
      [
       116.34116098188458,
       39.99764770399871
      ],
      [
       116.34169999999999,
       40.00600000000001
      ],
      [
       116.34270000000001,
       40.0265
      ],
      [
       116.3553,
       40.0265
      ],
      [
       116.35372277083671,
       39.997718432842774
      ]
     ]
    ]
   }
  },
  {
   "type": "Feature",
   "id": "phase_2",
   "properties": {
    "id": "phase_2",
    "layer": "PHASE",
    "phase": 2,
    "name_zh": "二期（2030-2035）全面推进",
    "source_type": "agent_generated_design",
    "confidence": "high",
    "geometry_role": "design_proposal",
    "official_boundary": false,
    "area_sqm_declared": 4565130.2
   },
   "geometry": {
    "type": "Polygon",
    "coordinates": [
     [
      [
       116.3533,
       39.989999999999995
      ],
      [
       116.3553,
       39.965
      ],
      [
       116.35530000425732,
       39.96320161864294
      ],
      [
       116.340030265111,
       39.963115690161054
      ],
      [
       116.3397,
       39.975
      ],
      [
       116.34116098188458,
       39.99764770399871
      ],
      [
       116.35372277083671,
       39.997718432842774
      ],
      [
       116.3533,
       39.989999999999995
      ]
     ]
    ]
   }
  },
  {
   "type": "Feature",
   "id": "phase_3",
   "properties": {
    "id": "phase_3",
    "layer": "PHASE",
    "phase": 3,
    "name_zh": "三期（2035-2040）远期完善",
    "source_type": "agent_generated_design",
    "confidence": "high",
    "geometry_role": "design_proposal",
    "official_boundary": false,
    "area_sqm_declared": 3423847.6
   },
   "geometry": {
    "type": "Polygon",
    "coordinates": [
     [
      [
       116.34070000000001,
       39.93899999999999
      ],
      [
       116.340030265111,
       39.963115690161054
      ],
      [
       116.35530000425732,
       39.96320161864294
      ],
      [
       116.3553,
       39.939
      ],
      [
       116.34070000000001,
       39.93899999999999
      ]
     ]
    ]
   }
  }
 ]
}