{
  "type": "FeatureCollection",
  "name": "sonic_commons_land_use_partition",
  "features": [
    {
      "type": "Feature",
      "id": "LU-01",
      "properties": {
        "id": "LU-01",
        "layer": "LAND_USE",
        "source_type": "agent_generated_design",
        "confidence": "low",
        "geometry_role": "design_proposal",
        "land_use_code": "1401",
        "name_zh": "声景缓冲公园绿地",
        "name_en": "Soundscape buffer park",
        "design_status": "conceptual_not_statutory",
        "area_sqm_declared": 1428208.867
      },
      "geometry": {
        "type": "Polygon",
        "coordinates": [
          [
            [
              116.3407,
              39.939
            ],
            [
              116.3397,
              39.975
            ],
            [
              116.3417,
              40.006
            ],
            [
              116.34244483,
              40.02126911
            ],
            [
              116.34247155,
              40.02042361
            ],
            [
              116.34251065,
              40.01920833
            ],
            [
              116.3425497,
              40.01799306
            ],
            [
              116.34258794,
              40.01677778
            ],
            [
              116.34262463,
              40.0155625
            ],
            [
              116.34265904,
              40.01434722
            ],
            [
              116.34269052,
              40.01313194
            ],
            [
              116.34271844,
              40.01191667
            ],
            [
              116.34274227,
              40.01070139
            ],
            [
              116.34276153,
              40.00948611
            ],
            [
              116.34277586,
              40.00827083
            ],
            [
              116.34278498,
              40.00705556
            ],
            [
              116.34278871,
              40.00584028
            ],
            [
              116.34278697,
              40.004625
            ],
            [
              116.34277981,
              40.00340972
            ],
            [
              116.34276735,
              40.00219444
            ],
            [
              116.34274984,
              40.00097917
            ],
            [
              116.34272763,
              39.99976389
            ],
            [
              116.34270114,
              39.99854861
            ],
            [
              116.3426709,
              39.99733333
            ],
            [
              116.34263748,
              39.99611806
            ],
            [
              116.34260154,
              39.99490278
            ],
            [
              116.34256379,
              39.9936875
            ],
            [
              116.34252494,
              39.99247222
            ],
            [
              116.34248577,
              39.99125694
            ],
            [
              116.34244703,
              39.99004167
            ],
            [
              116.34240947,
              39.98882639
            ],
            [
              116.34237384,
              39.98761111
            ],
            [
              116.34234081,
              39.98639583
            ],
            [
              116.34231104,
              39.98518056
            ],
            [
              116.3422851,
              39.98396528
            ],
            [
              116.34226351,
              39.98275
            ],
            [
              116.34224667,
              39.98153472
            ],
            [
              116.34223491,
              39.98031944
            ],
            [
              116.34222847,
              39.97910417
            ],
            [
              116.34222748,
              39.97788889
            ],
            [
              116.34223194,
              39.97667361
            ],
            [
              116.34224177,
              39.97545833
            ],
            [
              116.34225679,
              39.97424306
            ],
            [
              116.3422767,
              39.97302778
            ],
            [
              116.34230111,
              39.9718125
            ],
            [
              116.34232954,
              39.97059722
            ],
            [
              116.34236145,
              39.96938194
            ],
            [
              116.34239621,
              39.96816667
            ],
            [
              116.34243315,
              39.96695139
            ],
            [
              116.34247155,
              39.96573611
            ],
            [
              116.34251065,
              39.96452083
            ],
            [
              116.3425497,
              39.96330556
            ],
            [
              116.34258794,
              39.96209028
            ],
            [
              116.34262463,
              39.960875
            ],
            [
              116.34265904,
              39.95965972
            ],
            [
              116.34269052,
              39.95844444
            ],
            [
              116.34271844,
              39.95722917
            ],
            [
              116.34274227,
              39.95601389
            ],
            [
              116.34276153,
              39.95479861
            ],
            [
              116.34277586,
              39.95358333
            ],
            [
              116.34278498,
              39.95236806
            ],
            [
              116.34278871,
              39.95115278
            ],
            [
              116.34278697,
              39.9499375
            ],
            [
              116.34277981,
              39.94872222
            ],
            [
              116.34276735,
              39.94750694
            ],
            [
              116.34274984,
              39.94629167
            ],
            [
              116.34272763,
              39.94507639
            ],
            [
              116.34270114,
              39.94386111
            ],
            [
              116.3426709,
              39.94264583
            ],
            [
              116.34263748,
              39.94143056
            ],
            [
              116.34260154,
              39.94021528
            ],
            [
              116.34256379,
              39.939
            ],
            [
              116.3407,
              39.939
            ]
          ]
        ]
      }
    },
    {
      "type": "Feature",
      "id": "LU-02",
      "properties": {
        "id": "LU-02",
        "layer": "LAND_USE",
        "source_type": "agent_generated_design",
        "confidence": "low",
        "geometry_role": "design_proposal",
        "land_use_code": "0802",
        "name_zh": "机器听觉与AI科研用地",
        "name_en": "Machine-listening and AI research",
        "design_status": "conceptual_not_statutory",
        "area_sqm_declared": 3168506.721
      },
      "geometry": {
        "type": "Polygon",
        "coordinates": [
          [
            [
              116.34256379,
              39.939
            ],
            [
              116.34260154,
              39.94021528
            ],
            [
              116.34263748,
              39.94143056
            ],
            [
              116.3426709,
              39.94264583
            ],
            [
              116.34270114,
              39.94386111
            ],
            [
              116.34272763,
              39.94507639
            ],
            [
              116.34274984,
              39.94629167
            ],
            [
              116.34276735,
              39.94750694
            ],
            [
              116.34277981,
              39.94872222
            ],
            [
              116.34278697,
              39.9499375
            ],
            [
              116.34278871,
              39.95115278
            ],
            [
              116.34278498,
              39.95236806
            ],
            [
              116.34277586,
              39.95358333
            ],
            [
              116.34276153,
              39.95479861
            ],
            [
              116.34274227,
              39.95601389
            ],
            [
              116.34271844,
              39.95722917
            ],
            [
              116.34269052,
              39.95844444
            ],
            [
              116.34265904,
              39.95965972
            ],
            [
              116.34262463,
              39.960875
            ],
            [
              116.34258794,
              39.96209028
            ],
            [
              116.3425497,
              39.96330556
            ],
            [
              116.34251065,
              39.96452083
            ],
            [
              116.34247155,
              39.96573611
            ],
            [
              116.34243315,
              39.96695139
            ],
            [
              116.34239621,
              39.96816667
            ],
            [
              116.34236145,
              39.96938194
            ],
            [
              116.34232954,
              39.97059722
            ],
            [
              116.34230111,
              39.9718125
            ],
            [
              116.3422767,
              39.97302778
            ],
            [
              116.34225679,
              39.97424306
            ],
            [
              116.34224177,
              39.97545833
            ],
            [
              116.34223194,
              39.97667361
            ],
            [
              116.34222748,
              39.97788889
            ],
            [
              116.34222847,
              39.97910417
            ],
            [
              116.34223491,
              39.98031944
            ],
            [
              116.34224667,
              39.98153472
            ],
            [
              116.34226351,
              39.98275
            ],
            [
              116.3422851,
              39.98396528
            ],
            [
              116.34231104,
              39.98518056
            ],
            [
              116.34234081,
              39.98639583
            ],
            [
              116.34237384,
              39.98761111
            ],
            [
              116.34240947,
              39.98882639
            ],
            [
              116.34244703,
              39.99004167
            ],
            [
              116.34248577,
              39.99125694
            ],
            [
              116.34252494,
              39.99247222
            ],
            [
              116.34256379,
              39.9936875
            ],
            [
              116.34260154,
              39.99490278
            ],
            [
              116.34263748,
              39.99611806
            ],
            [
              116.3426709,
              39.99733333
            ],
            [
              116.34270114,
              39.99854861
            ],
            [
              116.34272763,
              39.99976389
            ],
            [
              116.34274984,
              40.00097917
            ],
            [
              116.34276735,
              40.00219444
            ],
            [
              116.34277981,
              40.00340972
            ],
            [
              116.34278697,
              40.004625
            ],
            [
              116.34278871,
              40.00584028
            ],
            [
              116.34278498,
              40.00705556
            ],
            [
              116.34277586,
              40.00827083
            ],
            [
              116.34276153,
              40.00948611
            ],
            [
              116.34274227,
              40.01070139
            ],
            [
              116.34271844,
              40.01191667
            ],
            [
              116.34269052,
              40.01313194
            ],
            [
              116.34265904,
              40.01434722
            ],
            [
              116.34262463,
              40.0155625
            ],
            [
              116.34258794,
              40.01677778
            ],
            [
              116.3425497,
              40.01799306
            ],
            [
              116.34251065,
              40.01920833
            ],
            [
              116.34247155,
              40.02042361
            ],
            [
              116.34244483,
              40.02126911
            ],
            [
              116.3427,
              40.0265
            ],
            [
              116.34611166,
              40.0265
            ],
            [
              116.3460827,
              40.02528472
            ],
            [
              116.34606007,
              40.02406944
            ],
            [
              116.34604421,
              40.02285417
            ],
            [
              116.34603543,
              40.02163889
            ],
            [
              116.34603391,
              40.02042361
            ],
            [
              116.34603966,
              40.01920833
            ],
            [
              116.34605259,
              40.01799306
            ],
            [
              116.34607243,
              40.01677778
            ],
            [
              116.34609881,
              40.0155625
            ],
            [
              116.3461312,
              40.01434722
            ],
            [
              116.34616898,
              40.01313194
            ],
            [
              116.34621141,
              40.01191667
            ],
            [
              116.34625767,
              40.01070139
            ],
            [
              116.34630686,
              40.00948611
            ],
            [
              116.34635801,
              40.00827083
            ],
            [
              116.34641014,
              40.00705556
            ],
            [
              116.34646222,
              40.00584028
            ],
            [
              116.34651325,
              40.004625
            ],
            [
              116.34656223,
              40.00340972
            ],
            [
              116.34660821,
              40.00219444
            ],
            [
              116.34665029,
              40.00097917
            ],
            [
              116.34668766,
              39.99976389
            ],
            [
              116.34671958,
              39.99854861
            ],
            [
              116.34674544,
              39.99733333
            ],
            [
              116.34676473,
              39.99611806
            ],
            [
              116.34677708,
              39.99490278
            ],
            [
              116.34678224,
              39.9936875
            ],
            [
              116.34678012,
              39.99247222
            ],
            [
              116.34677076,
              39.99125694
            ],
            [
              116.34675433,
              39.99004167
            ],
            [
              116.34673117,
              39.98882639
            ],
            [
              116.34670171,
              39.98761111
            ],
            [
              116.34666654,
              39.98639583
            ],
            [
              116.34662634,
              39.98518056
            ],
            [
              116.34658188,
              39.98396528
            ],
            [
              116.34653404,
              39.98275
            ],
            [
              116.34648375,
              39.98153472
            ],
            [
              116.34643199,
              39.98031944
            ],
            [
              116.34637975,
              39.97910417
            ],
            [
              116.34632807,
              39.97788889
            ],
            [
              116.34627794,
              39.97667361
            ],
            [
              116.34623035,
              39.97545833
            ],
            [
              116.34618621,
              39.97424306
            ],
            [
              116.34614639,
              39.97302778
            ],
            [
              116.34611166,
              39.9718125
            ],
            [
              116.3460827,
              39.97059722
            ],
            [
              116.34606007,
              39.96938194
            ],
            [
              116.34604421,
              39.96816667
            ],
            [
              116.34603543,
              39.96695139
            ],
            [
              116.34603391,
              39.96573611
            ],
            [
              116.34603966,
              39.96452083
            ],
            [
              116.34605259,
              39.96330556
            ],
            [
              116.34607243,
              39.96209028
            ],
            [
              116.34609881,
              39.960875
            ],
            [
              116.3461312,
              39.95965972
            ],
            [
              116.34616898,
              39.95844444
            ],
            [
              116.34621141,
              39.95722917
            ],
            [
              116.34625767,
              39.95601389
            ],
            [
              116.34630686,
              39.95479861
            ],
            [
              116.34635801,
              39.95358333
            ],
            [
              116.34641014,
              39.95236806
            ],
            [
              116.34646222,
              39.95115278
            ],
            [
              116.34651325,
              39.9499375
            ],
            [
              116.34656223,
              39.94872222
            ],
            [
              116.34660821,
              39.94750694
            ],
            [
              116.34665029,
              39.94629167
            ],
            [
              116.34668766,
              39.94507639
            ],
            [
              116.34671958,
              39.94386111
            ],
            [
              116.34674544,
              39.94264583
            ],
            [
              116.34676473,
              39.94143056
            ],
            [
              116.34677708,
              39.94021528
            ],
            [
              116.34678224,
              39.939
            ],
            [
              116.34256379,
              39.939
            ]
          ]
        ]
      }
    },
    {
      "type": "Feature",
      "id": "LU-03",
      "properties": {
        "id": "LU-03",
        "layer": "LAND_USE",
        "source_type": "agent_generated_design",
        "confidence": "low",
        "geometry_role": "design_proposal",
        "land_use_code": "0803",
        "name_zh": "京张文化与包容交流用地",
        "name_en": "Jing-Zhang culture and inclusive exchange",
        "design_status": "conceptual_not_statutory",
        "area_sqm_declared": 2560566.436
      },
      "geometry": {
        "type": "Polygon",
        "coordinates": [
          [
            [
              116.34678224,
              39.939
            ],
            [
              116.34677708,
              39.94021528
            ],
            [
              116.34676473,
              39.94143056
            ],
            [
              116.34674544,
              39.94264583
            ],
            [
              116.34671958,
              39.94386111
            ],
            [
              116.34668766,
              39.94507639
            ],
            [
              116.34665029,
              39.94629167
            ],
            [
              116.34660821,
              39.94750694
            ],
            [
              116.34656223,
              39.94872222
            ],
            [
              116.34651325,
              39.9499375
            ],
            [
              116.34646222,
              39.95115278
            ],
            [
              116.34641014,
              39.95236806
            ],
            [
              116.34635801,
              39.95358333
            ],
            [
              116.34630686,
              39.95479861
            ],
            [
              116.34625767,
              39.95601389
            ],
            [
              116.34621141,
              39.95722917
            ],
            [
              116.34616898,
              39.95844444
            ],
            [
              116.3461312,
              39.95965972
            ],
            [
              116.34609881,
              39.960875
            ],
            [
              116.34607243,
              39.96209028
            ],
            [
              116.34605259,
              39.96330556
            ],
            [
              116.34603966,
              39.96452083
            ],
            [
              116.34603391,
              39.96573611
            ],
            [
              116.34603543,
              39.96695139
            ],
            [
              116.34604421,
              39.96816667
            ],
            [
              116.34606007,
              39.96938194
            ],
            [
              116.3460827,
              39.97059722
            ],
            [
              116.34611166,
              39.9718125
            ],
            [
              116.34614639,
              39.97302778
            ],
            [
              116.34618621,
              39.97424306
            ],
            [
              116.34623035,
              39.97545833
            ],
            [
              116.34627794,
              39.97667361
            ],
            [
              116.34632807,
              39.97788889
            ],
            [
              116.34637975,
              39.97910417
            ],
            [
              116.34643199,
              39.98031944
            ],
            [
              116.34648375,
              39.98153472
            ],
            [
              116.34653404,
              39.98275
            ],
            [
              116.34658188,
              39.98396528
            ],
            [
              116.34662634,
              39.98518056
            ],
            [
              116.34666654,
              39.98639583
            ],
            [
              116.34670171,
              39.98761111
            ],
            [
              116.34673117,
              39.98882639
            ],
            [
              116.34675433,
              39.99004167
            ],
            [
              116.34677076,
              39.99125694
            ],
            [
              116.34678012,
              39.99247222
            ],
            [
              116.34678224,
              39.9936875
            ],
            [
              116.34677708,
              39.99490278
            ],
            [
              116.34676473,
              39.99611806
            ],
            [
              116.34674544,
              39.99733333
            ],
            [
              116.34671958,
              39.99854861
            ],
            [
              116.34668766,
              39.99976389
            ],
            [
              116.34665029,
              40.00097917
            ],
            [
              116.34660821,
              40.00219444
            ],
            [
              116.34656223,
              40.00340972
            ],
            [
              116.34651325,
              40.004625
            ],
            [
              116.34646222,
              40.00584028
            ],
            [
              116.34641014,
              40.00705556
            ],
            [
              116.34635801,
              40.00827083
            ],
            [
              116.34630686,
              40.00948611
            ],
            [
              116.34625767,
              40.01070139
            ],
            [
              116.34621141,
              40.01191667
            ],
            [
              116.34616898,
              40.01313194
            ],
            [
              116.3461312,
              40.01434722
            ],
            [
              116.34609881,
              40.0155625
            ],
            [
              116.34607243,
              40.01677778
            ],
            [
              116.34605259,
              40.01799306
            ],
            [
              116.34603966,
              40.01920833
            ],
            [
              116.34603391,
              40.02042361
            ],
            [
              116.34603543,
              40.02163889
            ],
            [
              116.34604421,
              40.02285417
            ],
            [
              116.34606007,
              40.02406944
            ],
            [
              116.3460827,
              40.02528472
            ],
            [
              116.34611166,
              40.0265
            ],
            [
              116.34958592,
              40.0265
            ],
            [
              116.34954269,
              40.02528472
            ],
            [
              116.34949917,
              40.02406944
            ],
            [
              116.34945622,
              40.02285417
            ],
            [
              116.34941466,
              40.02163889
            ],
            [
              116.34937531,
              40.02042361
            ],
            [
              116.34933893,
              40.01920833
            ],
            [
              116.34930623,
              40.01799306
            ],
            [
              116.34927784,
              40.01677778
            ],
            [
              116.34925433,
              40.0155625
            ],
            [
              116.34923614,
              40.01434722
            ],
            [
              116.34922363,
              40.01313194
            ],
            [
              116.34921705,
              40.01191667
            ],
            [
              116.34921652,
              40.01070139
            ],
            [
              116.34922205,
              40.00948611
            ],
            [
              116.34923354,
              40.00827083
            ],
            [
              116.34925075,
              40.00705556
            ],
            [
              116.34927337,
              40.00584028
            ],
            [
              116.34930094,
              40.004625
            ],
            [
              116.34933293,
              40.00340972
            ],
            [
              116.34936872,
              40.00219444
            ],
            [
              116.3494076,
              40.00097917
            ],
            [
              116.34944883,
              39.99976389
            ],
            [
              116.34949161,
              39.99854861
            ],
            [
              116.34953509,
              39.99733333
            ],
            [
              116.34957843,
              39.99611806
            ],
            [
              116.34962079,
              39.99490278
            ],
            [
              116.34966134,
              39.9936875
            ],
            [
              116.3496993,
              39.99247222
            ],
            [
              116.34973393,
              39.99125694
            ],
            [
              116.34976454,
              39.99004167
            ],
            [
              116.34979056,
              39.98882639
            ],
            [
              116.34981146,
              39.98761111
            ],
            [
              116.34982684,
              39.98639583
            ],
            [
              116.34983641,
              39.98518056
            ],
            [
              116.34983998,
              39.98396528
            ],
            [
              116.34983747,
              39.98275
            ],
            [
              116.34982894,
              39.98153472
            ],
            [
              116.34981455,
              39.98031944
            ],
            [
              116.34979459,
              39.97910417
            ],
            [
              116.34976943,
              39.97788889
            ],
            [
              116.34973958,
              39.97667361
            ],
            [
              116.34970561,
              39.97545833
            ],
            [
              116.34966818,
              39.97424306
            ],
            [
              116.34962802,
              39.97302778
            ],
            [
              116.34958592,
              39.9718125
            ],
            [
              116.34954269,
              39.97059722
            ],
            [
              116.34949917,
              39.96938194
            ],
            [
              116.34945622,
              39.96816667
            ],
            [
              116.34941466,
              39.96695139
            ],
            [
              116.34937531,
              39.96573611
            ],
            [
              116.34933893,
              39.96452083
            ],
            [
              116.34930623,
              39.96330556
            ],
            [
              116.34927784,
              39.96209028
            ],
            [
              116.34925433,
              39.960875
            ],
            [
              116.34923614,
              39.95965972
            ],
            [
              116.34922363,
              39.95844444
            ],
            [
              116.34921705,
              39.95722917
            ],
            [
              116.34921652,
              39.95601389
            ],
            [
              116.34922205,
              39.95479861
            ],
            [
              116.34923354,
              39.95358333
            ],
            [
              116.34925075,
              39.95236806
            ],
            [
              116.34927337,
              39.95115278
            ],
            [
              116.34930094,
              39.9499375
            ],
            [
              116.34933293,
              39.94872222
            ],
            [
              116.34936872,
              39.94750694
            ],
            [
              116.3494076,
              39.94629167
            ],
            [
              116.34944883,
              39.94507639
            ],
            [
              116.34949161,
              39.94386111
            ],
            [
              116.34953509,
              39.94264583
            ],
            [
              116.34957843,
              39.94143056
            ],
            [
              116.34962079,
              39.94021528
            ],
            [
              116.34966134,
              39.939
            ],
            [
              116.34678224,
              39.939
            ]
          ]
        ]
      }
    },
    {
      "type": "Feature",
      "id": "LU-04",
      "properties": {
        "id": "LU-04",
        "layer": "LAND_USE",
        "source_type": "agent_generated_design",
        "confidence": "low",
        "geometry_role": "design_proposal",
        "land_use_code": "05",
        "name_zh": "创新服务与商业服务用地",
        "name_en": "Innovation and commercial services",
        "design_status": "conceptual_not_statutory",
        "area_sqm_declared": 2886712.675
      },
      "geometry": {
        "type": "Polygon",
        "coordinates": [
          [
            [
              116.34966134,
              39.939
            ],
            [
              116.34962079,
              39.94021528
            ],
            [
              116.34957843,
              39.94143056
            ],
            [
              116.34953509,
              39.94264583
            ],
            [
              116.34949161,
              39.94386111
            ],
            [
              116.34944883,
              39.94507639
            ],
            [
              116.3494076,
              39.94629167
            ],
            [
              116.34936872,
              39.94750694
            ],
            [
              116.34933293,
              39.94872222
            ],
            [
              116.34930094,
              39.9499375
            ],
            [
              116.34927337,
              39.95115278
            ],
            [
              116.34925075,
              39.95236806
            ],
            [
              116.34923354,
              39.95358333
            ],
            [
              116.34922205,
              39.95479861
            ],
            [
              116.34921652,
              39.95601389
            ],
            [
              116.34921705,
              39.95722917
            ],
            [
              116.34922363,
              39.95844444
            ],
            [
              116.34923614,
              39.95965972
            ],
            [
              116.34925433,
              39.960875
            ],
            [
              116.34927784,
              39.96209028
            ],
            [
              116.34930623,
              39.96330556
            ],
            [
              116.34933893,
              39.96452083
            ],
            [
              116.34937531,
              39.96573611
            ],
            [
              116.34941466,
              39.96695139
            ],
            [
              116.34945622,
              39.96816667
            ],
            [
              116.34949917,
              39.96938194
            ],
            [
              116.34954269,
              39.97059722
            ],
            [
              116.34958592,
              39.9718125
            ],
            [
              116.34962802,
              39.97302778
            ],
            [
              116.34966818,
              39.97424306
            ],
            [
              116.34970561,
              39.97545833
            ],
            [
              116.34973958,
              39.97667361
            ],
            [
              116.34976943,
              39.97788889
            ],
            [
              116.34979459,
              39.97910417
            ],
            [
              116.34981455,
              39.98031944
            ],
            [
              116.34982894,
              39.98153472
            ],
            [
              116.34983747,
              39.98275
            ],
            [
              116.34983998,
              39.98396528
            ],
            [
              116.34983641,
              39.98518056
            ],
            [
              116.34982684,
              39.98639583
            ],
            [
              116.34981146,
              39.98761111
            ],
            [
              116.34979056,
              39.98882639
            ],
            [
              116.34976454,
              39.99004167
            ],
            [
              116.34973393,
              39.99125694
            ],
            [
              116.3496993,
              39.99247222
            ],
            [
              116.34966134,
              39.9936875
            ],
            [
              116.34962079,
              39.99490278
            ],
            [
              116.34957843,
              39.99611806
            ],
            [
              116.34953509,
              39.99733333
            ],
            [
              116.34949161,
              39.99854861
            ],
            [
              116.34944883,
              39.99976389
            ],
            [
              116.3494076,
              40.00097917
            ],
            [
              116.34936872,
              40.00219444
            ],
            [
              116.34933293,
              40.00340972
            ],
            [
              116.34930094,
              40.004625
            ],
            [
              116.34927337,
              40.00584028
            ],
            [
              116.34925075,
              40.00705556
            ],
            [
              116.34923354,
              40.00827083
            ],
            [
              116.34922205,
              40.00948611
            ],
            [
              116.34921652,
              40.01070139
            ],
            [
              116.34921705,
              40.01191667
            ],
            [
              116.34922363,
              40.01313194
            ],
            [
              116.34923614,
              40.01434722
            ],
            [
              116.34925433,
              40.0155625
            ],
            [
              116.34927784,
              40.01677778
            ],
            [
              116.34930623,
              40.01799306
            ],
            [
              116.34933893,
              40.01920833
            ],
            [
              116.34937531,
              40.02042361
            ],
            [
              116.34941466,
              40.02163889
            ],
            [
              116.34945622,
              40.02285417
            ],
            [
              116.34949917,
              40.02406944
            ],
            [
              116.34954269,
              40.02528472
            ],
            [
              116.34958592,
              40.0265
            ],
            [
              116.35317837,
              40.0265
            ],
            [
              116.35317673,
              40.02528472
            ],
            [
              116.35317087,
              40.02406944
            ],
            [
              116.35316091,
              40.02285417
            ],
            [
              116.35314703,
              40.02163889
            ],
            [
              116.35312952,
              40.02042361
            ],
            [
              116.3531087,
              40.01920833
            ],
            [
              116.353085,
              40.01799306
            ],
            [
              116.35305885,
              40.01677778
            ],
            [
              116.35303079,
              40.0155625
            ],
            [
              116.35300135,
              40.01434722
            ],
            [
              116.3529711,
              40.01313194
            ],
            [
              116.35294063,
              40.01191667
            ],
            [
              116.35291055,
              40.01070139
            ],
            [
              116.35288142,
              40.00948611
            ],
            [
              116.35285383,
              40.00827083
            ],
            [
              116.3528283,
              40.00705556
            ],
            [
              116.35280533,
              40.00584028
            ],
            [
              116.35278538,
              40.004625
            ],
            [
              116.35276882,
              40.00340972
            ],
            [
              116.35275599,
              40.00219444
            ],
            [
              116.35274712,
              40.00097917
            ],
            [
              116.3527424,
              39.99976389
            ],
            [
              116.35274192,
              39.99854861
            ],
            [
              116.35274568,
              39.99733333
            ],
            [
              116.35275361,
              39.99611806
            ],
            [
              116.35276556,
              39.99490278
            ],
            [
              116.35278129,
              39.9936875
            ],
            [
              116.3528005,
              39.99247222
            ],
            [
              116.35282282,
              39.99125694
            ],
            [
              116.3528478,
              39.99004167
            ],
            [
              116.35287497,
              39.98882639
            ],
            [
              116.3529038,
              39.98761111
            ],
            [
              116.35293371,
              39.98639583
            ],
            [
              116.35296414,
              39.98518056
            ],
            [
              116.35299449,
              39.98396528
            ],
            [
              116.35302417,
              39.98275
            ],
            [
              116.3530526,
              39.98153472
            ],
            [
              116.35307923,
              39.98031944
            ],
            [
              116.35310353,
              39.97910417
            ],
            [
              116.35312505,
              39.97788889
            ],
            [
              116.35314335,
              39.97667361
            ],
            [
              116.35315808,
              39.97545833
            ],
            [
              116.35316895,
              39.97424306
            ],
            [
              116.35317576,
              39.97302778
            ],
            [
              116.35317837,
              39.9718125
            ],
            [
              116.35317673,
              39.97059722
            ],
            [
              116.35317087,
              39.96938194
            ],
            [
              116.35316091,
              39.96816667
            ],
            [
              116.35314703,
              39.96695139
            ],
            [
              116.35312952,
              39.96573611
            ],
            [
              116.3531087,
              39.96452083
            ],
            [
              116.353085,
              39.96330556
            ],
            [
              116.35305885,
              39.96209028
            ],
            [
              116.35303079,
              39.960875
            ],
            [
              116.35300135,
              39.95965972
            ],
            [
              116.3529711,
              39.95844444
            ],
            [
              116.35294063,
              39.95722917
            ],
            [
              116.35291055,
              39.95601389
            ],
            [
              116.35288142,
              39.95479861
            ],
            [
              116.35285383,
              39.95358333
            ],
            [
              116.3528283,
              39.95236806
            ],
            [
              116.35280533,
              39.95115278
            ],
            [
              116.35278538,
              39.9499375
            ],
            [
              116.35276882,
              39.94872222
            ],
            [
              116.35275599,
              39.94750694
            ],
            [
              116.35274712,
              39.94629167
            ],
            [
              116.3527424,
              39.94507639
            ],
            [
              116.35274192,
              39.94386111
            ],
            [
              116.35274568,
              39.94264583
            ],
            [
              116.35275361,
              39.94143056
            ],
            [
              116.35276556,
              39.94021528
            ],
            [
              116.35278129,
              39.939
            ],
            [
              116.34966134,
              39.939
            ]
          ]
        ]
      }
    },
    {
      "type": "Feature",
      "id": "LU-05",
      "properties": {
        "id": "LU-05",
        "layer": "LAND_USE",
        "source_type": "agent_generated_design",
        "confidence": "low",
        "geometry_role": "design_proposal",
        "land_use_code": "0702",
        "name_zh": "社区服务与安静配套用地",
        "name_en": "Community service and quiet support",
        "design_status": "conceptual_not_statutory",
        "area_sqm_declared": 1368830.683
      },
      "geometry": {
        "type": "Polygon",
        "coordinates": [
          [
            [
              116.35278129,
              39.939
            ],
            [
              116.35276556,
              39.94021528
            ],
            [
              116.35275361,
              39.94143056
            ],
            [
              116.35274568,
              39.94264583
            ],
            [
              116.35274192,
              39.94386111
            ],
            [
              116.3527424,
              39.94507639
            ],
            [
              116.35274712,
              39.94629167
            ],
            [
              116.35275599,
              39.94750694
            ],
            [
              116.35276882,
              39.94872222
            ],
            [
              116.35278538,
              39.9499375
            ],
            [
              116.35280533,
              39.95115278
            ],
            [
              116.3528283,
              39.95236806
            ],
            [
              116.35285383,
              39.95358333
            ],
            [
              116.35288142,
              39.95479861
            ],
            [
              116.35291055,
              39.95601389
            ],
            [
              116.35294063,
              39.95722917
            ],
            [
              116.3529711,
              39.95844444
            ],
            [
              116.35300135,
              39.95965972
            ],
            [
              116.35303079,
              39.960875
            ],
            [
              116.35305885,
              39.96209028
            ],
            [
              116.353085,
              39.96330556
            ],
            [
              116.3531087,
              39.96452083
            ],
            [
              116.35312952,
              39.96573611
            ],
            [
              116.35314703,
              39.96695139
            ],
            [
              116.35316091,
              39.96816667
            ],
            [
              116.35317087,
              39.96938194
            ],
            [
              116.35317673,
              39.97059722
            ],
            [
              116.35317837,
              39.9718125
            ],
            [
              116.35317576,
              39.97302778
            ],
            [
              116.35316895,
              39.97424306
            ],
            [
              116.35315808,
              39.97545833
            ],
            [
              116.35314335,
              39.97667361
            ],
            [
              116.35312505,
              39.97788889
            ],
            [
              116.35310353,
              39.97910417
            ],
            [
              116.35307923,
              39.98031944
            ],
            [
              116.3530526,
              39.98153472
            ],
            [
              116.35302417,
              39.98275
            ],
            [
              116.35299449,
              39.98396528
            ],
            [
              116.35296414,
              39.98518056
            ],
            [
              116.35293371,
              39.98639583
            ],
            [
              116.3529038,
              39.98761111
            ],
            [
              116.35287497,
              39.98882639
            ],
            [
              116.3528478,
              39.99004167
            ],
            [
              116.35282282,
              39.99125694
            ],
            [
              116.3528005,
              39.99247222
            ],
            [
              116.35278129,
              39.9936875
            ],
            [
              116.35276556,
              39.99490278
            ],
            [
              116.35275361,
              39.99611806
            ],
            [
              116.35274568,
              39.99733333
            ],
            [
              116.35274192,
              39.99854861
            ],
            [
              116.3527424,
              39.99976389
            ],
            [
              116.35274712,
              40.00097917
            ],
            [
              116.35275599,
              40.00219444
            ],
            [
              116.35276882,
              40.00340972
            ],
            [
              116.35278538,
              40.004625
            ],
            [
              116.35280533,
              40.00584028
            ],
            [
              116.3528283,
              40.00705556
            ],
            [
              116.35285383,
              40.00827083
            ],
            [
              116.35288142,
              40.00948611
            ],
            [
              116.35291055,
              40.01070139
            ],
            [
              116.35294063,
              40.01191667
            ],
            [
              116.3529711,
              40.01313194
            ],
            [
              116.35300135,
              40.01434722
            ],
            [
              116.35303079,
              40.0155625
            ],
            [
              116.35305885,
              40.01677778
            ],
            [
              116.353085,
              40.01799306
            ],
            [
              116.3531087,
              40.01920833
            ],
            [
              116.35312952,
              40.02042361
            ],
            [
              116.35314703,
              40.02163889
            ],
            [
              116.35316091,
              40.02285417
            ],
            [
              116.35317087,
              40.02406944
            ],
            [
              116.35317673,
              40.02528472
            ],
            [
              116.35317837,
              40.0265
            ],
            [
              116.3553,
              40.0265
            ],
            [
              116.3533,
              39.99
            ],
            [
              116.3553,
              39.965
            ],
            [
              116.3553,
              39.96452083
            ],
            [
              116.3553,
              39.96330556
            ],
            [
              116.3553,
              39.96209028
            ],
            [
              116.3553,
              39.960875
            ],
            [
              116.3553,
              39.95965972
            ],
            [
              116.3553,
              39.95844444
            ],
            [
              116.3553,
              39.95722917
            ],
            [
              116.3553,
              39.95601389
            ],
            [
              116.3553,
              39.95479861
            ],
            [
              116.3553,
              39.95358333
            ],
            [
              116.3553,
              39.95236806
            ],
            [
              116.3553,
              39.95115278
            ],
            [
              116.3553,
              39.9499375
            ],
            [
              116.3553,
              39.94872222
            ],
            [
              116.3553,
              39.94750694
            ],
            [
              116.3553,
              39.94629167
            ],
            [
              116.3553,
              39.94507639
            ],
            [
              116.3553,
              39.94386111
            ],
            [
              116.3553,
              39.94264583
            ],
            [
              116.3553,
              39.94143056
            ],
            [
              116.3553,
              39.94021528
            ],
            [
              116.3553,
              39.939
            ],
            [
              116.35278129,
              39.939
            ]
          ]
        ]
      }
    }
  ]
}
