{"type": "FeatureCollection", "name": "phasing", "features": [{"type": "Feature", "id": "PHASE-001", "properties": {"id": "PHASE-001", "layer": "PHASE", "source_type": "agent_generated_design", "confidence": "medium", "geometry_role": "design_proposal", "phase": "phase_1", "name_zh": "一期：内核慢行与数字底座", "area_sqm_declared": 2259237.554}, "geometry": {"type": "Polygon", "coordinates": [[[116.34177317073171, 40.0075], [116.3427, 40.0265], [116.3553, 40.0265], [116.35425890410959, 40.0075], [116.34177317073171, 40.0075]]]}}, {"type": "Feature", "id": "PHASE-002", "properties": {"id": "PHASE-002", "layer": "PHASE", "source_type": "agent_generated_design", "confidence": "medium", "geometry_role": "design_proposal", "phase": "phase_2", "name_zh": "二期：两翼场景与产业更新", "area_sqm_declared": 2890018.919}, "geometry": {"type": "Polygon", "coordinates": [[[116.35382, 39.9835], [116.34024838709676, 39.9835], [116.3417, 40.006], [116.34177317073171, 40.0075], [116.35425890410959, 40.0075], [116.3533, 39.99], [116.35382, 39.9835]]]}}, {"type": "Feature", "id": "PHASE-003", "properties": {"id": "PHASE-003", "layer": "PHASE", "source_type": "agent_generated_design", "confidence": "medium", "geometry_role": "design_proposal", "phase": "phase_3", "name_zh": "三期：南翼大钟寺国际交往", "area_sqm_declared": 6263565.897}, "geometry": {"type": "Polygon", "coordinates": [[[116.3397, 39.975], [116.34024838709676, 39.9835], [116.35382, 39.9835], [116.3553, 39.965], [116.3553, 39.939], [116.3407, 39.939], [116.3397, 39.975]]]}}]}