{
  "type": "FeatureCollection",
  "name": "constraints",
  "features": [
    {
      "type": "Feature",
      "id": "CON-HERITAGE-01",
      "properties": {
        "id": "CON-HERITAGE-01",
        "layer": "HERITAGE_PROTECTION",
        "source_type": "agent_generated_design",
        "confidence": "medium",
        "geometry_role": "provisional_constraint",
        "official_boundary": false,
        "boundary_precision": "provisional_rough",
        "name_zh": "京张铁路遗址保护范围",
        "constraint_type": "heritage_protection"
      },
      "geometry": {
        "type": "Polygon",
        "coordinates": [
          [
            [
              116.34649999999999,
              39.939
            ],
            [
              116.3485,
              39.939
            ],
            [
              116.3485,
              40.0265
            ],
            [
              116.34649999999999,
              40.0265
            ],
            [
              116.34649999999999,
              39.939
            ]
          ]
        ]
      }
    },
    {
      "type": "Feature",
      "id": "CON-GREEN-01",
      "properties": {
        "id": "CON-GREEN-01",
        "layer": "REGULATORY_CONTROL",
        "source_type": "agent_generated_design",
        "confidence": "medium",
        "geometry_role": "provisional_constraint",
        "official_boundary": false,
        "boundary_precision": "provisional_rough",
        "name_zh": "绿线控制",
        "constraint_type": "green_line"
      },
      "geometry": {
        "type": "Polygon",
        "coordinates": [
          [
            [
              116.3445,
              39.944
            ],
            [
              116.3505,
              39.944
            ],
            [
              116.3505,
              40.021499999999996
            ],
            [
              116.3445,
              40.021499999999996
            ],
            [
              116.3445,
              39.944
            ]
          ]
        ]
      }
    }
  ]
}