{
  "type": "FeatureCollection",
  "name": "roads",
  "features": [
    {
      "type": "Feature",
      "id": "RD-SPINE-01",
      "properties": {
        "id": "RD-SPINE-01",
        "layer": "ROAD_CENTERLINE",
        "source_type": "agent_generated_design",
        "confidence": "medium",
        "geometry_role": "design_proposal",
        "official_boundary": false,
        "boundary_precision": "provisional_rough",
        "name_zh": "京张神经脊柱主轴",
        "road_class": "greenway",
        "role": "neural_spine"
      },
      "geometry": {
        "type": "LineString",
        "coordinates": [
          [
            116.3475,
            39.939
          ],
          [
            116.3475,
            40.0265
          ]
        ]
      }
    },
    {
      "type": "Feature",
      "id": "RD-SYNAPSE-01",
      "properties": {
        "id": "RD-SYNAPSE-01",
        "layer": "ROAD_CENTERLINE",
        "source_type": "agent_generated_design",
        "confidence": "medium",
        "geometry_role": "design_proposal",
        "official_boundary": false,
        "boundary_precision": "provisional_rough",
        "name_zh": "突触连接1",
        "road_class": "secondary",
        "role": "synapse_link"
      },
      "geometry": {
        "type": "LineString",
        "coordinates": [
          [
            116.3397,
            39.947
          ],
          [
            116.3553,
            39.947
          ]
        ]
      }
    },
    {
      "type": "Feature",
      "id": "RD-SYNAPSE-02",
      "properties": {
        "id": "RD-SYNAPSE-02",
        "layer": "ROAD_CENTERLINE",
        "source_type": "agent_generated_design",
        "confidence": "medium",
        "geometry_role": "design_proposal",
        "official_boundary": false,
        "boundary_precision": "provisional_rough",
        "name_zh": "突触连接2",
        "road_class": "secondary",
        "role": "synapse_link"
      },
      "geometry": {
        "type": "LineString",
        "coordinates": [
          [
            116.3397,
            39.965
          ],
          [
            116.3553,
            39.965
          ]
        ]
      }
    },
    {
      "type": "Feature",
      "id": "RD-SYNAPSE-03",
      "properties": {
        "id": "RD-SYNAPSE-03",
        "layer": "ROAD_CENTERLINE",
        "source_type": "agent_generated_design",
        "confidence": "medium",
        "geometry_role": "design_proposal",
        "official_boundary": false,
        "boundary_precision": "provisional_rough",
        "name_zh": "突触连接3",
        "road_class": "secondary",
        "role": "synapse_link"
      },
      "geometry": {
        "type": "LineString",
        "coordinates": [
          [
            116.3397,
            39.988
          ],
          [
            116.3553,
            39.988
          ]
        ]
      }
    },
    {
      "type": "Feature",
      "id": "RD-SYNAPSE-04",
      "properties": {
        "id": "RD-SYNAPSE-04",
        "layer": "ROAD_CENTERLINE",
        "source_type": "agent_generated_design",
        "confidence": "medium",
        "geometry_role": "design_proposal",
        "official_boundary": false,
        "boundary_precision": "provisional_rough",
        "name_zh": "突触连接4",
        "road_class": "secondary",
        "role": "synapse_link"
      },
      "geometry": {
        "type": "LineString",
        "coordinates": [
          [
            116.3397,
            40.005
          ],
          [
            116.3553,
            40.005
          ]
        ]
      }
    },
    {
      "type": "Feature",
      "id": "RD-SYNAPSE-05",
      "properties": {
        "id": "RD-SYNAPSE-05",
        "layer": "ROAD_CENTERLINE",
        "source_type": "agent_generated_design",
        "confidence": "medium",
        "geometry_role": "design_proposal",
        "official_boundary": false,
        "boundary_precision": "provisional_rough",
        "name_zh": "突触连接5",
        "road_class": "secondary",
        "role": "synapse_link"
      },
      "geometry": {
        "type": "LineString",
        "coordinates": [
          [
            116.3397,
            40.017
          ],
          [
            116.3553,
            40.017
          ]
        ]
      }
    }
  ]
}