{
  "type": "FeatureCollection",
  "name": "building_footprints",
  "features": [
    {
      "type": "Feature",
      "id": "BLDG-001",
      "properties": {
        "id": "BLDG-001",
        "layer": "BUILDING_FOOTPRINT",
        "source_type": "agent_generated_design",
        "confidence": "medium",
        "geometry_role": "design_proposal",
        "building_type": "ai_r_and_d",
        "name_zh": "众智园AI研发集群",
        "area_sqm_declared": 72470.48
      },
      "geometry": {
        "type": "Polygon",
        "coordinates": [
          [
            [
              116.34235199999999,
              40.009
            ],
            [
              116.34235199999999,
              40.016
            ],
            [
              116.34344399999999,
              40.016
            ],
            [
              116.34344399999999,
              40.009
            ],
            [
              116.34235199999999,
              40.009
            ]
          ]
        ]
      }
    },
    {
      "type": "Feature",
      "id": "BLDG-002",
      "properties": {
        "id": "BLDG-002",
        "layer": "BUILDING_FOOTPRINT",
        "source_type": "agent_generated_design",
        "confidence": "medium",
        "geometry_role": "design_proposal",
        "building_type": "lab",
        "name_zh": "全栈自主创新实验室",
        "area_sqm_declared": 45293.753
      },
      "geometry": {
        "type": "Polygon",
        "coordinates": [
          [
            [
              116.34344399999999,
              40.01075
            ],
            [
              116.34344399999999,
              40.015125
            ],
            [
              116.34453599999999,
              40.015125
            ],
            [
              116.34453599999999,
              40.01075
            ],
            [
              116.34344399999999,
              40.01075
            ]
          ]
        ]
      }
    },
    {
      "type": "Feature",
      "id": "BLDG-003",
      "properties": {
        "id": "BLDG-003",
        "layer": "BUILDING_FOOTPRINT",
        "source_type": "agent_generated_design",
        "confidence": "medium",
        "geometry_role": "design_proposal",
        "building_type": "mobility_hub",
        "name_zh": "众智园轨道换乘枢纽",
        "area_sqm_declared": 31057.954
      },
      "geometry": {
        "type": "Polygon",
        "coordinates": [
          [
            [
              116.34781199999999,
              40.012499999999996
            ],
            [
              116.34781199999999,
              40.016
            ],
            [
              116.348748,
              40.016
            ],
            [
              116.348748,
              40.012499999999996
            ],
            [
              116.34781199999999,
              40.012499999999996
            ]
          ]
        ]
      }
    },
    {
      "type": "Feature",
      "id": "BLDG-004",
      "properties": {
        "id": "BLDG-004",
        "layer": "BUILDING_FOOTPRINT",
        "source_type": "agent_generated_design",
        "confidence": "medium",
        "geometry_role": "design_proposal",
        "building_type": "incubator",
        "name_zh": "原点社区孵化器街区",
        "area_sqm_declared": 81563.649
      },
      "geometry": {
        "type": "Polygon",
        "coordinates": [
          [
            [
              116.3475,
              39.97925
            ],
            [
              116.3475,
              39.987125
            ],
            [
              116.348592,
              39.987125
            ],
            [
              116.348592,
              39.97925
            ],
            [
              116.3475,
              39.97925
            ]
          ]
        ]
      }
    },
    {
      "type": "Feature",
      "id": "BLDG-005",
      "properties": {
        "id": "BLDG-005",
        "layer": "BUILDING_FOOTPRINT",
        "source_type": "agent_generated_design",
        "confidence": "medium",
        "geometry_role": "design_proposal",
        "building_type": "education",
        "name_zh": "高校成果转化楼",
        "area_sqm_declared": 72500.65
      },
      "geometry": {
        "type": "Polygon",
        "coordinates": [
          [
            [
              116.342508,
              39.980125
            ],
            [
              116.342508,
              39.987125
            ],
            [
              116.3436,
              39.987125
            ],
            [
              116.3436,
              39.980125
            ],
            [
              116.342508,
              39.980125
            ]
          ]
        ]
      }
    },
    {
      "type": "Feature",
      "id": "BLDG-006",
      "properties": {
        "id": "BLDG-006",
        "layer": "BUILDING_FOOTPRINT",
        "source_type": "agent_generated_design",
        "confidence": "medium",
        "geometry_role": "design_proposal",
        "building_type": "office",
        "name_zh": "开源协作办公",
        "area_sqm_declared": 63438.45
      },
      "geometry": {
        "type": "Polygon",
        "coordinates": [
          [
            [
              116.343756,
              39.980125
            ],
            [
              116.343756,
              39.98625
            ],
            [
              116.344848,
              39.98625
            ],
            [
              116.344848,
              39.980125
            ],
            [
              116.343756,
              39.980125
            ]
          ]
        ]
      }
    },
    {
      "type": "Feature",
      "id": "BLDG-007",
      "properties": {
        "id": "BLDG-007",
        "layer": "BUILDING_FOOTPRINT",
        "source_type": "agent_generated_design",
        "confidence": "medium",
        "geometry_role": "design_proposal",
        "building_type": "talent_apartment",
        "name_zh": "青年人才公寓",
        "area_sqm_declared": 54375.753
      },
      "geometry": {
        "type": "Polygon",
        "coordinates": [
          [
            [
              116.348592,
              39.980125
            ],
            [
              116.348592,
              39.98625
            ],
            [
              116.34952799999999,
              39.98625
            ],
            [
              116.34952799999999,
              39.980125
            ],
            [
              116.348592,
              39.980125
            ]
          ]
        ]
      }
    },
    {
      "type": "Feature",
      "id": "BLDG-008",
      "properties": {
        "id": "BLDG-008",
        "layer": "BUILDING_FOOTPRINT",
        "source_type": "agent_generated_design",
        "confidence": "medium",
        "geometry_role": "design_proposal",
        "building_type": "community_service",
        "name_zh": "社区综合服务中心",
        "area_sqm_declared": 72500.525
      },
      "geometry": {
        "type": "Polygon",
        "coordinates": [
          [
            [
              116.34984,
              39.980125
            ],
            [
              116.34984,
              39.987125
            ],
            [
              116.350932,
              39.987125
            ],
            [
              116.350932,
              39.980125
            ],
            [
              116.34984,
              39.980125
            ]
          ]
        ]
      }
    },
    {
      "type": "Feature",
      "id": "BLDG-009",
      "properties": {
        "id": "BLDG-009",
        "layer": "BUILDING_FOOTPRINT",
        "source_type": "agent_generated_design",
        "confidence": "medium",
        "geometry_role": "design_proposal",
        "building_type": "retail",
        "name_zh": "大钟寺智能消费街区",
        "area_sqm_declared": 72538.475
      },
      "geometry": {
        "type": "Polygon",
        "coordinates": [
          [
            [
              116.34781199999999,
              39.94425
            ],
            [
              116.34781199999999,
              39.950375
            ],
            [
              116.34906,
              39.950375
            ],
            [
              116.34906,
              39.94425
            ],
            [
              116.34781199999999,
              39.94425
            ]
          ]
        ]
      }
    },
    {
      "type": "Feature",
      "id": "BLDG-010",
      "properties": {
        "id": "BLDG-010",
        "layer": "BUILDING_FOOTPRINT",
        "source_type": "agent_generated_design",
        "confidence": "medium",
        "geometry_role": "design_proposal",
        "building_type": "cultural",
        "name_zh": "大钟寺文化体验馆",
        "area_sqm_declared": 72538.563
      },
      "geometry": {
        "type": "Polygon",
        "coordinates": [
          [
            [
              116.342664,
              39.94425
            ],
            [
              116.342664,
              39.950375
            ],
            [
              116.34391199999999,
              39.950375
            ],
            [
              116.34391199999999,
              39.94425
            ],
            [
              116.342664,
              39.94425
            ]
          ]
        ]
      }
    },
    {
      "type": "Feature",
      "id": "BLDG-011",
      "properties": {
        "id": "BLDG-011",
        "layer": "BUILDING_FOOTPRINT",
        "source_type": "agent_generated_design",
        "confidence": "medium",
        "geometry_role": "design_proposal",
        "building_type": "mixed_use",
        "name_zh": "站城融合商办综合体",
        "area_sqm_declared": 63471.134
      },
      "geometry": {
        "type": "Polygon",
        "coordinates": [
          [
            [
              116.349996,
              39.94425
            ],
            [
              116.349996,
              39.950375
            ],
            [
              116.351088,
              39.950375
            ],
            [
              116.351088,
              39.94425
            ],
            [
              116.349996,
              39.94425
            ]
          ]
        ]
      }
    },
    {
      "type": "Feature",
      "id": "BLDG-012",
      "properties": {
        "id": "BLDG-012",
        "layer": "BUILDING_FOOTPRINT",
        "source_type": "agent_generated_design",
        "confidence": "medium",
        "geometry_role": "design_proposal",
        "building_type": "office",
        "name_zh": "小月河场景企业办公",
        "area_sqm_declared": 54365.885
      },
      "geometry": {
        "type": "Polygon",
        "coordinates": [
          [
            [
              116.34281999999999,
              39.993249999999996
            ],
            [
              116.34281999999999,
              39.9985
            ],
            [
              116.34391199999999,
              39.9985
            ],
            [
              116.34391199999999,
              39.993249999999996
            ],
            [
              116.34281999999999,
              39.993249999999996
            ]
          ]
        ]
      }
    },
    {
      "type": "Feature",
      "id": "BLDG-013",
      "properties": {
        "id": "BLDG-013",
        "layer": "BUILDING_FOOTPRINT",
        "source_type": "agent_generated_design",
        "confidence": "medium",
        "geometry_role": "design_proposal",
        "building_type": "residential",
        "name_zh": "存量更新居住街区",
        "area_sqm_declared": 62132.345
      },
      "geometry": {
        "type": "Polygon",
        "coordinates": [
          [
            [
              116.349216,
              39.993249999999996
            ],
            [
              116.349216,
              39.9985
            ],
            [
              116.350464,
              39.9985
            ],
            [
              116.350464,
              39.993249999999996
            ],
            [
              116.349216,
              39.993249999999996
            ]
          ]
        ]
      }
    }
  ]
}
