{
  "type": "FeatureCollection",
  "name": "roads_jingmai",
  "features": [
    {
      "type": "Feature",
      "id": "ROAD-001",
      "properties": {
        "id": "ROAD-001",
        "layer": "ROAD_CENTERLINE",
        "source_type": "agent_generated_design",
        "confidence": "medium",
        "geometry_role": "design_proposal",
        "road_class": "greenway",
        "name_zh": "京张智脉慢行主廊道",
        "network_role": "north_south_spine"
      },
      "geometry": {
        "type": "LineString",
        "coordinates": [
          [
            116.3445,
            39.941
          ],
          [
            116.3448,
            39.985
          ],
          [
            116.3452,
            40.024
          ]
        ]
      }
    },
    {
      "type": "Feature",
      "id": "ROAD-002",
      "properties": {
        "id": "ROAD-002",
        "layer": "ROAD_CENTERLINE",
        "source_type": "agent_generated_design",
        "confidence": "medium",
        "geometry_role": "design_proposal",
        "road_class": "arterial",
        "name_zh": "南北科技服务干道",
        "network_role": "north_south_spine"
      },
      "geometry": {
        "type": "LineString",
        "coordinates": [
          [
            116.35,
            39.941
          ],
          [
            116.35,
            40.024
          ]
        ]
      }
    },
    {
      "type": "Feature",
      "id": "ROAD-003",
      "properties": {
        "id": "ROAD-003",
        "layer": "ROAD_CENTERLINE",
        "source_type": "agent_generated_design",
        "confidence": "medium",
        "geometry_role": "design_proposal",
        "road_class": "secondary",
        "name_zh": "众智园-原点社区联系道路",
        "network_role": "east_west_connector"
      },
      "geometry": {
        "type": "LineString",
        "coordinates": [
          [
            116.345,
            40.0
          ],
          [
            116.35,
            40.0
          ]
        ]
      }
    },
    {
      "type": "Feature",
      "id": "ROAD-004",
      "properties": {
        "id": "ROAD-004",
        "layer": "ROAD_CENTERLINE",
        "source_type": "agent_generated_design",
        "confidence": "medium",
        "geometry_role": "design_proposal",
        "road_class": "secondary",
        "name_zh": "原点社区-大钟寺联系道路",
        "network_role": "east_west_connector"
      },
      "geometry": {
        "type": "LineString",
        "coordinates": [
          [
            116.345,
            39.966
          ],
          [
            116.35,
            39.966
          ]
        ]
      }
    },
    {
      "type": "Feature",
      "id": "ROAD-005",
      "properties": {
        "id": "ROAD-005",
        "layer": "ROAD_CENTERLINE",
        "source_type": "agent_generated_design",
        "confidence": "medium",
        "geometry_role": "design_proposal",
        "road_class": "pedestrian",
        "name_zh": "小月河场景赋能慢行径",
        "network_role": "scenario_wing"
      },
      "geometry": {
        "type": "LineString",
        "coordinates": [
          [
            116.343,
            39.945
          ],
          [
            116.343,
            40.02
          ]
        ]
      }
    }
  ]
}