{
  "type": "FeatureCollection",
  "name": "phasing",
  "features": [
    {
      "type": "Feature",
      "id": "PHASE-001",
      "properties": {
        "id": "PHASE-001",
        "layer": "PHASE",
        "source_type": "agent_generated_design",
        "confidence": "medium",
        "geometry_role": "design_proposal",
        "phase": 1,
        "name_zh": "近期：开放接口与可逆试点",
        "implementation_role": "inventory_pilot_and_governance",
        "status": "conceptual_sequence_pending_official_conditions",
        "area_sqm_declared": 4103994.765
      },
      "geometry": {
        "type": "Polygon",
        "coordinates": [
          [
            [
              116.3398998154,
              39.9678118193
            ],
            [
              116.3550683372,
              39.9678972043
            ],
            [
              116.3553000361,
              39.9650000438
            ],
            [
              116.3553000395,
              39.9390000341
            ],
            [
              116.3406999626,
              39.9389999747
            ],
            [
              116.3398998154,
              39.9678118193
            ]
          ]
        ]
      }
    },
    {
      "type": "Feature",
      "id": "PHASE-002",
      "properties": {
        "id": "PHASE-002",
        "layer": "PHASE",
        "source_type": "agent_generated_design",
        "confidence": "medium",
        "geometry_role": "design_proposal",
        "phase": 2,
        "name_zh": "中期：三核平台与横链缝合",
        "implementation_role": "platform_and_public_realm_delivery",
        "status": "conceptual_sequence_pending_official_conditions",
        "area_sqm_declared": 3774134.985
      },
      "geometry": {
        "type": "Polygon",
        "coordinates": [
          [
            [
              116.3550683372,
              39.9678972043
            ],
            [
              116.3398998154,
              39.9678118193
            ],
            [
              116.3397000237,
              39.975000011
            ],
            [
              116.3411008804,
              39.996717045
            ],
            [
              116.3536718004,
              39.9967878309
            ],
            [
              116.3532999876,
              39.9900000144
            ],
            [
              116.3550683372,
              39.9678972043
            ]
          ]
        ]
      }
    },
    {
      "type": "Feature",
      "id": "PHASE-003",
      "properties": {
        "id": "PHASE-003",
        "layer": "PHASE",
        "source_type": "agent_generated_design",
        "confidence": "medium",
        "geometry_role": "design_proposal",
        "phase": 3,
        "name_zh": "远期：网络扩展与绩效再投资",
        "implementation_role": "network_scaling_and_reinvestment",
        "status": "conceptual_sequence_pending_official_conditions",
        "area_sqm_declared": 3534697.404
      },
      "geometry": {
        "type": "Polygon",
        "coordinates": [
          [
            [
              116.3536718004,
              39.9967878309
            ],
            [
              116.3411008804,
              39.996717045
            ],
            [
              116.3417000345,
              40.005999967
            ],
            [
              116.3427000455,
              40.0265000355
            ],
            [
              116.3552999436,
              40.0265000342
            ],
            [
              116.3536718004,
              39.9967878309
            ]
          ]
        ]
      }
    }
  ]
}
