{
  "type": "FeatureCollection",
  "name": "jingzhang_site_boundary",
  "metadata": {
    "source_id": "DATA-SRC-PROVISIONAL-BOUNDARIES-20260605",
    "derived_from": [
      "DATA-SRC-OFFICIAL-ANNOUNCEMENT-20260509"
    ],
    "coordinate_reference_system": "EPSG:4326",
    "official_boundary_available": false,
    "boundary_status": "maintainer_defined_provisional",
    "layer": "SITE_BOUNDARY",
    "scope": "overall_design_area_11.4km2"
  },
  "features": [
    {
      "type": "Feature",
      "properties": {
        "geometry_role": "provisional_constraint",
        "official_boundary": false,
        "id": "SITE-001",
        "name_zh": "总体设计范围（11.4 km² 概念边界）",
        "scope_id": "overall_design_area",
        "area_sqm_provisional": 11400000,
        "source_id": "DATA-SRC-PROVISIONAL-BOUNDARIES-20260605",
        "derived_from": [
          "DATA-SRC-OFFICIAL-ANNOUNCEMENT-20260509"
        ],
        "coordinate_reference_system": "EPSG:4326",
        "official_boundary_available": false,
        "boundary_status": "maintainer_defined_provisional"
      },
      "geometry": {
        "type": "Polygon",
        "coordinates": [
          [
            [
              116.3407,
              39.939
            ],
            [
              116.3553,
              39.939
            ],
            [
              116.3553,
              39.965
            ],
            [
              116.3533,
              39.99
            ],
            [
              116.3553,
              40.0265
            ],
            [
              116.3427,
              40.0265
            ],
            [
              116.3417,
              40.006
            ],
            [
              116.3397,
              39.975
            ],
            [
              116.3407,
              39.939
            ]
          ]
        ]
      }
    },
    {
      "type": "Feature",
      "properties": {
        "geometry_role": "provisional_constraint",
        "official_boundary": false,
        "id": "RESEARCH-001",
        "name_zh": "统筹研究范围（43.6 km² 概念边界）",
        "scope_id": "coordinated_research_area",
        "area_sqm_provisional": 43600000,
        "source_id": "DATA-SRC-PROVISIONAL-BOUNDARIES-20260605",
        "derived_from": [
          "DATA-SRC-OFFICIAL-ANNOUNCEMENT-20260509"
        ],
        "coordinate_reference_system": "EPSG:4326",
        "official_boundary_available": false,
        "boundary_status": "maintainer_defined_provisional"
      },
      "geometry": {
        "type": "Polygon",
        "coordinates": [
          [
            [
              116.31885,
              39.938
            ],
            [
              116.36615,
              39.938
            ],
            [
              116.37215,
              39.965
            ],
            [
              116.37215,
              40.027
            ],
            [
              116.33285,
              40.027
            ],
            [
              116.32085,
              40.0
            ],
            [
              116.31285,
              39.965
            ],
            [
              116.31885,
              39.938
            ]
          ]
        ]
      }
    }
  ]
}