{
  "type": "FeatureCollection",
  "name": "public_space_enhanced",
  "features": [
    {
      "type": "Feature",
      "id": "PUBLIC-001",
      "properties": {
        "id": "PUBLIC-001",
        "layer": "PUBLIC_SPACE",
        "source_type": "agent_generated_design",
        "confidence": "medium",
        "geometry_role": "design_proposal",
        "name_zh": "开源广场L2",
        "landmark_id": "L2",
        "area_sqm_declared": 608133.175
      },
      "geometry": {
        "type": "Polygon",
        "coordinates": [
          [
            [
              116.3445,
              40.02075
            ],
            [
              116.3525,
              40.02075
            ],
            [
              116.3525,
              40.012750000000004
            ],
            [
              116.3445,
              40.012750000000004
            ],
            [
              116.3445,
              40.02075
            ]
          ]
        ]
      }
    },
    {
      "type": "Feature",
      "id": "PUBLIC-002",
      "properties": {
        "id": "PUBLIC-002",
        "layer": "PUBLIC_SPACE",
        "source_type": "agent_generated_design",
        "confidence": "medium",
        "geometry_role": "design_proposal",
        "name_zh": "全栈成就馆L3",
        "landmark_id": "L3",
        "area_sqm_declared": 608382.891
      },
      "geometry": {
        "type": "Polygon",
        "coordinates": [
          [
            [
              116.34349999999999,
              39.9925
            ],
            [
              116.3515,
              39.9925
            ],
            [
              116.3515,
              39.984500000000004
            ],
            [
              116.34349999999999,
              39.984500000000004
            ],
            [
              116.34349999999999,
              39.9925
            ]
          ]
        ]
      }
    },
    {
      "type": "Feature",
      "id": "PUBLIC-003",
      "properties": {
        "id": "PUBLIC-003",
        "layer": "PUBLIC_SPACE",
        "source_type": "agent_generated_design",
        "confidence": "medium",
        "geometry_role": "design_proposal",
        "name_zh": "大钟寺AI星厅L4",
        "landmark_id": "L4",
        "area_sqm_declared": 608748.194
      },
      "geometry": {
        "type": "Polygon",
        "coordinates": [
          [
            [
              116.3445,
              39.95092
            ],
            [
              116.3525,
              39.95092
            ],
            [
              116.3525,
              39.94292000000001
            ],
            [
              116.3445,
              39.94292000000001
            ],
            [
              116.3445,
              39.95092
            ]
          ]
        ]
      }
    },
    {
      "type": "Feature",
      "id": "PUBLIC-004",
      "properties": {
        "id": "PUBLIC-004",
        "layer": "PUBLIC_SPACE",
        "source_type": "agent_generated_design",
        "confidence": "medium",
        "geometry_role": "design_proposal",
        "name_zh": "智脉之门L1",
        "landmark_id": "L1",
        "area_sqm_declared": 224131.36
      },
      "geometry": {
        "type": "Polygon",
        "coordinates": [
          [
            [
              116.3438,
              40.018
            ],
            [
              116.3438,
              40.005
            ],
            [
              116.3418,
              40.005
            ],
            [
              116.3418,
              40.00805000000009
            ],
            [
              116.34228536585366,
              40.018
            ],
            [
              116.3438,
              40.018
            ]
          ]
        ]
      }
    }
  ]
}
