{
  "type": "FeatureCollection",
  "name": "rights_handover_public_spaces",
  "features": [
    {
      "type": "Feature",
      "id": "PUBLIC-001",
      "properties": {
        "id": "PUBLIC-001",
        "layer": "PUBLIC_SPACE",
        "source_type": "agent_generated_design",
        "confidence": "low",
        "geometry_role": "design_proposal",
        "name_zh": "无摄像本人选择庭",
        "name_en": "Camera-free self-choice court",
        "purpose": "plain_language_and_paper_route"
      },
      "geometry": {
        "type": "Polygon",
        "coordinates": [
          [
            [
              116.342508,
              39.96175
            ],
            [
              116.342508,
              40.00375
            ],
            [
              116.346408,
              40.00375
            ],
            [
              116.346408,
              39.96175
            ],
            [
              116.342508,
              39.96175
            ]
          ]
        ]
      }
    },
    {
      "type": "Feature",
      "id": "PUBLIC-002",
      "properties": {
        "id": "PUBLIC-002",
        "layer": "PUBLIC_SPACE",
        "source_type": "agent_generated_design",
        "confidence": "low",
        "geometry_role": "design_proposal",
        "name_zh": "下游撤回与争议还场面",
        "name_en": "Downstream withdrawal and dispute-return surface",
        "purpose": "freeze_and_closeout"
      },
      "geometry": {
        "type": "Polygon",
        "coordinates": [
          [
            [
              116.3533,
              39.99
            ],
            [
              116.353896,
              39.98254999999997
            ],
            [
              116.353896,
              39.96525
            ],
            [
              116.351244,
              39.96525
            ],
            [
              116.351244,
              40.00025
            ],
            [
              116.35386164383561,
              40.00025
            ],
            [
              116.3533,
              39.99
            ]
          ]
        ]
      }
    }
  ]
}
