{
  "type": "FeatureCollection",
  "name": "key_areas",
  "metadata": {
    "coordinate_reference_system": "EPSG:4326",
    "area_calculation_crs": "EPSG:4548",
    "source": "Derived from provisional boundaries in brief/site-package/geometry/provisional_boundaries.geojson; civic-service design elements authored as conceptual recommendations",
    "boundary_status": "provisional_constraint",
    "official_boundary": false,
    "usage_note": "All geometries are derived from provisional boundaries. Do not use as official redline, approval basis, or precise area calculation basis."
  },
  "features": [
    {
      "type": "Feature",
      "id": "zhongzhiyuan_ai_acceleration_area",
      "properties": {
        "source_type": "agent_inferred_from_public_data",
        "confidence": "medium",
        "geometry_role": "provisional_constraint",
        "official_boundary": false,
        "id": "zhongzhiyuan_ai_acceleration_area",
        "layer": "KEY_AREA",
        "parent_scope_id": "key_detailed_design_area",
        "area_id": "zhongzhiyuan_ai_acceleration_area",
        "name_zh": "众智园AI自主创新加速区",
        "boundary_precision": "provisional_rough",
        "announced_area_sqm": 1921000,
        "area_sqm_declared": 1929201.88,
        "area_sqm_calculated": 1929201.88,
        "source_id": "DATA-SRC-PROVISIONAL-BOUNDARIES-20260605",
        "usage_note": "临时粗略边界，不得作为 official redline 或审批依据。"
      },
      "geometry": {
        "type": "Polygon",
        "coordinates": [
          [
            [
              116.343,
              40.0075
            ],
            [
              116.354,
              40.0075
            ],
            [
              116.354,
              40.026
            ],
            [
              116.343,
              40.026
            ],
            [
              116.343,
              40.0075
            ]
          ]
        ]
      }
    },
    {
      "type": "Feature",
      "id": "beijing_ai_origin_community",
      "properties": {
        "source_type": "agent_inferred_from_public_data",
        "confidence": "medium",
        "geometry_role": "provisional_constraint",
        "official_boundary": false,
        "id": "beijing_ai_origin_community",
        "layer": "KEY_AREA",
        "parent_scope_id": "key_detailed_design_area",
        "area_id": "beijing_ai_origin_community",
        "name_zh": "北京AI原点社区",
        "boundary_precision": "provisional_rough",
        "announced_area_sqm": 1043000,
        "area_sqm_declared": 1043236.91,
        "area_sqm_calculated": 1043236.91,
        "source_id": "DATA-SRC-PROVISIONAL-BOUNDARIES-20260605",
        "usage_note": "临时粗略边界，不得作为 official redline 或审批依据。"
      },
      "geometry": {
        "type": "Polygon",
        "coordinates": [
          [
            [
              116.342,
              39.9835
            ],
            [
              116.353,
              39.9835
            ],
            [
              116.353,
              39.9935
            ],
            [
              116.342,
              39.9935
            ],
            [
              116.342,
              39.9835
            ]
          ]
        ]
      }
    },
    {
      "type": "Feature",
      "id": "dazhongsi_ai_industry_cluster",
      "properties": {
        "source_type": "agent_inferred_from_public_data",
        "confidence": "medium",
        "geometry_role": "provisional_constraint",
        "official_boundary": false,
        "id": "dazhongsi_ai_industry_cluster",
        "layer": "KEY_AREA",
        "parent_scope_id": "key_detailed_design_area",
        "area_id": "dazhongsi_ai_industry_cluster",
        "name_zh": "大钟寺AI产业集聚区",
        "boundary_precision": "provisional_rough",
        "announced_area_sqm": 720000,
        "area_sqm_declared": 720454.22,
        "area_sqm_calculated": 720454.22,
        "source_id": "DATA-SRC-PROVISIONAL-BOUNDARIES-20260605",
        "usage_note": "临时粗略边界，不得作为 official redline 或审批依据。"
      },
      "geometry": {
        "type": "Polygon",
        "coordinates": [
          [
            [
              116.342,
              39.944
            ],
            [
              116.355,
              39.944
            ],
            [
              116.355,
              39.94984
            ],
            [
              116.342,
              39.94984
            ],
            [
              116.342,
              39.944
            ]
          ]
        ]
      }
    }
  ]
}