{"type": "FeatureCollection", "name": "phasing", "features": [{"type": "Feature", "id": "PHASE-001", "properties": {"id": "PHASE-001", "layer": "PHASE", "source_type": "agent_generated_design", "confidence": "medium", "geometry_role": "design_proposal", "area_sqm_declared": 7035056.302, "phase_id": "PH1", "name_zh": "近期(2026-2028)遗址公园贯通+三站节点+众智园启动", "phase_year_range": null}, "geometry": {"type": "MultiPolygon", "coordinates": [[[[116.34720000000002, 39.99958], [116.34720000000002, 39.9993225], [116.34720000000002, 39.999064999999995], [116.34720000000002, 39.9988075], [116.34720000000002, 39.99855], [116.34720000000002, 39.99829250000002], [116.34720000000002, 39.998034999999994], [116.34720000000002, 39.9977775], [116.34720000000002, 39.99752], [116.34720000000002, 39.997519999000005], [116.34720000000002, 39.99727208333333], [116.34720000000002, 39.99702416666667], [116.34720000000002, 39.99677625], [116.34720000000002, 39.99652833333333], [116.34720000000002, 39.99628041666667], [116.34720000000002, 39.9960325], [116.34720000000002, 39.99578458333334], [116.34720000000002, 39.99553666666667], [116.34720000000002, 39.99528875000001], [116.34720000000002, 39.99504083333333], [116.34720000000002, 39.994792916666654], [116.34720000000002, 39.994544999999995], [116.34720000000002, 39.994297083333336], [116.34720000000002, 39.99404916666668], [116.34720000000002, 39.99380125], [116.34720000000002, 39.99355333333334], [116.34720000000002, 39.993305416666665], [116.34720000000002, 39.993057500000006], [116.34720000000002, 39.992809583333326], [116.34720000000002, 39.99256166666667], [116.34720000000002, 39.992313749999994], [116.34720000000002, 39.992065833333335], [116.34720000000002, 39.99181791666667], [116.34720000000002, 39.99157], [116.34720000000002, 39.991569999000006], [116.34720000000002, 39.99131815384616], [116.34720000000002, 39.99106630769229], [116.34720000000002, 39.99081446153845], [116.34720000000002, 39.99056261538461], [116.34720000000002, 39.99031076923078], [116.34720000000002, 39.99005892307692], [116.34720000000002, 39.98980707692307], [116.34720000000002, 39.989555230769234], [116.34720000000002, 39.98930338461538], [116.34720000000002, 39.98905153846154], [116.34720000000002, 39.98879969230769], [116.34720000000002, 39.98854784615386], [116.34720000000002, 39.98829600000001], [116.34720000000002, 39.988044153846154], [116.34720000000002, 39.98779230769231], [116.34720000000002, 39.987540461538465], [116.34720000000002, 39.98728861538462], [116.34720000000002, 39.98703676923077], [116.34720000000002, 39.986784923076925], [116.34720000000002, 39.98653307692308], [116.34720000000002, 39.98628123076924], [116.34720000000002, 39.98602938461538], [116.34720000000002, 39.98577753846155], [116.34720000000002, 39.98552569230769], [116.34720000000002, 39.98527384615383], [116.34720000000002, 39.985022], [116.34720000000002, 39.984770153846156], [116.34720000000002, 39.98451830769232], [116.34720000000002, 39.98426646153846], [116.34720000000002, 39.98401461538461], [116.34720000000002, 39.983762769230765], [116.34720000000002, 39.98351092307692], [116.34720000000002, 39.98325907692309], [116.34720000000002, 39.98300723076923], [116.34720000000002, 39.98275538461539], [116.34720000000002, 39.98250353846154], [116.34720000000002, 39.982251692307685], [116.34720000000002, 39.98199984615385], [116.34720000000002, 39.981748], [116.34720000000002, 39.98149615384616], [116.34720000000002, 39.98124430769229], [116.34720000000002, 39.980992461538456], [116.34720000000002, 39.98074061538461], [116.34720000000002, 39.98048876923076], [116.34720000000002, 39.98023692307692], [116.34720000000002, 39.97998507692307], [116.34720000000002, 39.979733230769234], [116.34720000000002, 39.979481384615376], [116.34720000000002, 39.979229538461524], [116.34720000000002, 39.978977692307694], [116.34720000000002, 39.97872584615385], [116.34720000000002, 39.978473999999984], [116.34720000000002, 39.97822215384616], [116.34720000000002, 39.97797030769231], [116.34720000000002, 39.977718461538466], [116.34720000000002, 39.97746661538462], [116.34720000000002, 39.97721476923077], [116.34720000000002, 39.976962923076925], [116.34720000000002, 39.976711076923074], [116.34720000000002, 39.97645923076923], [116.34720000000002, 39.97620738461538], [116.34720000000002, 39.97595553846155], [116.34720000000002, 39.97570369230769], [116.34720000000002, 39.975451846153845], [116.34720000000002, 39.9752], [116.3473, 39.975199999], [116.3473, 39.975195], [116.3473, 39.97518999999999], [116.3473, 39.975185], [116.3473, 39.97518], [116.3473, 39.975174999999986], [116.3473, 39.97517], [116.3473, 39.975165], [116.3473, 39.97516000000001], [116.3473, 39.975154999999994], [116.3473, 39.97515], [116.3473, 39.975145], [116.3473, 39.975139999999996], [116.3473, 39.975135], [116.3473, 39.975129999999986], [116.3473, 39.975125], [116.3473, 39.97511999999999], [116.3473, 39.97511499999999], [116.3473, 39.975109999999994], [116.3473, 39.975105], [116.3473, 39.9751], [116.3473, 39.975094999999996], [116.3473, 39.97509000000001], [116.3473, 39.975085], [116.3473, 39.97508], [116.3473, 39.97507999900001], [116.3473, 39.974826176470586], [116.3473, 39.97457235294117], [116.3473, 39.97431852941175], [116.3473, 39.97406470588234], [116.3473, 39.97381088235294], [116.3473, 39.97355705882353], [116.3473, 39.97330323529412], [116.3473, 39.973049411764705], [116.3473, 39.9727955882353], [116.3473, 39.97254176470587], [116.3473, 39.97228794117647], [116.3473, 39.97203411764705], [116.3473, 39.97178029411764], [116.3473, 39.97152647058823], [116.3473, 39.971272647058825], [116.3473, 39.97101882352942], [116.3473, 39.970765], [116.3473, 39.97051117647059], [116.3473, 39.97025735294117], [116.3473, 39.97000352941176], [116.3473, 39.96974970588235], [116.3473, 39.969495882352945], [116.3473, 39.96924205882353], [116.3473, 39.96898823529412], [116.3473, 39.968734411764714], [116.3473, 39.968480588235295], [116.3473, 39.96822676470588], [116.3473, 39.96797294117647], [116.3473, 39.96771911764705], [116.3473, 39.96746529411765], [116.3473, 39.96721147058824], [116.3473, 39.96695764705883], [116.3473, 39.96670382352941], [116.3473, 39.9665], [116.331, 39.9665], [116.331, 39.966703823529414], [116.331, 39.96695764705883], [116.331, 39.96721147058823], [116.331, 39.96746529411766], [116.331, 39.96771911764705], [116.331, 39.967972941176455], [116.331, 39.96822676470588], [116.331, 39.968480588235295], [116.331, 39.96873441176471], [116.331, 39.96898823529412], [116.331, 39.96924205882353], [116.331, 39.969495882352945], [116.331, 39.96974970588235], [116.331, 39.97000352941177], [116.331, 39.970257352941175], [116.331, 39.970511176470595], [116.331, 39.970765], [116.331, 39.97101882352942], [116.331, 39.97127264705882], [116.331, 39.97152647058824], [116.331, 39.97178029411765], [116.331, 39.97203411764706], [116.331, 39.97228794117647], [116.331, 39.97254176470589], [116.331, 39.9727955882353], [116.331, 39.9730494117647], [116.331, 39.97330323529411], [116.331, 39.97355705882352], [116.331, 39.97381088235294], [116.331, 39.97406470588235], [116.331, 39.974318529411754], [116.331, 39.974572352941166], [116.331, 39.97482617647059], [116.331, 39.975079999], [116.331, 39.975079999999984], [116.331, 39.97508499999999], [116.331, 39.97509], [116.331, 39.975095], [116.331, 39.9751], [116.331, 39.975105], [116.331, 39.975109999999994], [116.331, 39.97511499999999], [116.331, 39.97511999999999], [116.331, 39.97512499999999], [116.331, 39.97512999999999], [116.331, 39.975134999999995], [116.331, 39.975139999999996], [116.331, 39.975145], [116.331, 39.97515], [116.331, 39.97515499999999], [116.331, 39.975159999999995], [116.331, 39.97516499999999], [116.331, 39.97516999999999], [116.331, 39.975175], [116.331, 39.975179999999995], [116.331, 39.97518500000001], [116.331, 39.97518999999999], [116.331, 39.97519500000001], [116.331, 39.975199999000004], [116.331, 39.97520000000001], [116.331, 39.97545184615385], [116.331, 39.9757036923077], [116.331, 39.97595553846155], [116.331, 39.976207384615385], [116.331, 39.97645923076923], [116.331, 39.97671107692308], [116.331, 39.97696292307692], [116.331, 39.97721476923077], [116.331, 39.977466615384614], [116.331, 39.977718461538466], [116.331, 39.97797030769231], [116.331, 39.97822215384616], [116.331, 39.978474], [116.331, 39.97872584615385], [116.331, 39.97897769230769], [116.331, 39.97922953846153], [116.331, 39.979481384615376], [116.331, 39.979733230769234], [116.331, 39.97998507692307], [116.331, 39.98023692307692], [116.331, 39.98048876923077], [116.331, 39.980740615384605], [116.331, 39.980992461538456], [116.331, 39.98124430769231], [116.331, 39.98149615384616], [116.331, 39.981748], [116.331, 39.98199984615385], [116.331, 39.98225169230769], [116.331, 39.98250353846154], [116.331, 39.98275538461539], [116.331, 39.98300723076924], [116.331, 39.98325907692308], [116.331, 39.98351092307693], [116.331, 39.98376276923078], [116.331, 39.984014615384616], [116.331, 39.984266461538446], [116.331, 39.98451830769232], [116.331, 39.98477015384615], [116.331, 39.985022], [116.331, 39.98527384615384], [116.331, 39.985525692307704], [116.331, 39.98577753846154], [116.331, 39.986029384615385], [116.331, 39.98628123076924], [116.331, 39.98653307692308], [116.331, 39.98678492307693], [116.331, 39.98703676923078], [116.331, 39.98728861538462], [116.331, 39.98754046153846], [116.331, 39.98779230769232], [116.331, 39.988044153846154], [116.331, 39.988296000000005], [116.331, 39.98854784615386], [116.331, 39.98879969230769], [116.331, 39.98905153846154], [116.331, 39.98930338461538], [116.331, 39.989555230769234], [116.331, 39.98980707692308], [116.331, 39.99005892307692], [116.331, 39.99031076923079], [116.331, 39.99056261538461], [116.331, 39.990814461538456], [116.331, 39.9910663076923], [116.331, 39.99131815384616], [116.331, 39.991569999000006], [116.331, 39.99157], [116.331, 39.99181791666667], [116.331, 39.99206583333333], [116.331, 39.99231375], [116.331, 39.99256166666666], [116.331, 39.992809583333326], [116.331, 39.993057500000006], [116.331, 39.99330541666667], [116.331, 39.99355333333334], [116.331, 39.99380124999999], [116.331, 39.99404916666666], [116.331, 39.994297083333336], [116.331, 39.99454500000001], [116.331, 39.99479291666667], [116.331, 39.99504083333332], [116.331, 39.99528875], [116.331, 39.995536666666666], [116.331, 39.99578458333335], [116.331, 39.99603249999999], [116.331, 39.996280416666664], [116.331, 39.996528333333345], [116.331, 39.99677625], [116.331, 39.99702416666666], [116.331, 39.99727208333334], [116.331, 39.997519999000005], [116.33125000000003, 39.9975199995], [116.33150000000002, 39.997519999999994], [116.33150000000002, 39.9977775], [116.33150000000002, 39.998035], [116.33150000000002, 39.998292500000005], [116.33150000000002, 39.99854999999999], [116.33150000000002, 39.9988075], [116.33150000000002, 39.999064999999995], [116.33150000000002, 39.9993225], [116.33150000000002, 39.99958], [116.33150000000002, 39.9998], [116.34720000000002, 39.99980000000001], [116.34720000000002, 39.99958]]], [[[116.3432148931866, 40.007499999999986], [116.34317070714008, 40.00794186046512], [116.3431265210936, 40.00838372093023], [116.34308233504704, 40.00882558139534], [116.34303814900056, 40.00926744186046], [116.34299396295404, 40.009709302325575], [116.34294977690752, 40.01015116279069], [116.34290559086104, 40.01059302325581], [116.34286140481451, 40.01103488372094], [116.342817218768, 40.011476744186055], [116.34277303272148, 40.01191860465116], [116.34272884667497, 40.012360465116274], [116.34268466062848, 40.01280232558139], [116.34264047458196, 40.0132441860465], [116.34259628853545, 40.013686046511644], [116.34255210248892, 40.01412790697674], [116.34250791644241, 40.01456976744185], [116.34246373039592, 40.01501162790698], [116.3424195443494, 40.01545348837209], [116.34237535830289, 40.01589534883722], [116.34233117225637, 40.01633720930233], [116.34228698620986, 40.01677906976745], [116.34224280016336, 40.01722093023255], [116.34219861411684, 40.01766279069768], [116.34215442807033, 40.01810465116278], [116.34211024202381, 40.018546511627896], [116.3420660559773, 40.01898837209301], [116.3420218699308, 40.01943023255813], [116.34197768388428, 40.019872093023245], [116.34193349783777, 40.02031395348836], [116.34188931179125, 40.02075581395348], [116.34184512574474, 40.02119767441859], [116.34180093969822, 40.02163953488372], [116.34175675365174, 40.022081395348835], [116.34171256760521, 40.022523255813944], [116.34166838155869, 40.02296511627906], [116.34162419551218, 40.023406976744184], [116.34158000946566, 40.02384883720931], [116.34153582341918, 40.02429069767441], [116.34149163737266, 40.02473255813954], [116.34144745132615, 40.02517441860466], [116.34140326527962, 40.025616279069766], [116.3413590792331, 40.02605813953488], [116.34131489318662, 40.0265], [116.34087330713267, 40.026500000000006], [116.34043172107873, 40.0265], [116.3399901350248, 40.026500000000006], [116.33954854897084, 40.026500000000006], [116.33910696291692, 40.0265], [116.33866537686299, 40.026500000000006], [116.33822379080905, 40.02649999999999], [116.33778220475513, 40.02649999999999], [116.33734061870118, 40.0265], [116.33689903264724, 40.026500000000006], [116.33645744659331, 40.0265], [116.33601586053936, 40.0265], [116.33557427448542, 40.026500000000006], [116.3351326884315, 40.026500000000006], [116.33469110237755, 40.0265], [116.33424951632361, 40.0265], [116.33380793026969, 40.026500000000006], [116.33336634421575, 40.0265], [116.33292475816182, 40.0265], [116.33248317210787, 40.0265], [116.33204158605393, 40.0265], [116.33160000000001, 40.02649999999999], [116.33160000000001, 40.02605813953488], [116.33160000000001, 40.02561627906976], [116.33160000000001, 40.025174418604664], [116.33160000000001, 40.02473255813953], [116.33160000000001, 40.02429069767441], [116.33160000000001, 40.02384883720931], [116.33160000000001, 40.02340697674419], [116.33160000000001, 40.02296511627906], [116.33160000000001, 40.02252325581395], [116.33160000000001, 40.022081395348835], [116.33160000000001, 40.021639534883725], [116.33160000000001, 40.021197674418595], [116.33160000000001, 40.02075581395348], [116.33160000000001, 40.02031395348837], [116.33160000000001, 40.01987209302325], [116.33160000000001, 40.019430232558136], [116.33160000000001, 40.01898837209302], [116.33160000000001, 40.0185465116279], [116.33160000000001, 40.01810465116279], [116.33160000000001, 40.01766279069768], [116.33160000000001, 40.01722093023256], [116.33160000000001, 40.01677906976745], [116.33160000000001, 40.016337209302314], [116.33160000000001, 40.01589534883722], [116.33160000000001, 40.0154534883721], [116.33160000000001, 40.01501162790698], [116.33160000000001, 40.014569767441856], [116.33160000000001, 40.014127906976746], [116.33160000000001, 40.01368604651163], [116.33160000000001, 40.01324418604652], [116.33160000000001, 40.012802325581404], [116.33160000000001, 40.01236046511629], [116.33160000000001, 40.01191860465116], [116.33160000000001, 40.01147674418605], [116.33160000000001, 40.01103488372093], [116.33160000000001, 40.010593023255815], [116.33160000000001, 40.01015116279069], [116.33160000000001, 40.00970930232557], [116.33160000000001, 40.00926744186047], [116.33160000000001, 40.00882558139535], [116.33160000000001, 40.008383720930226], [116.33160000000001, 40.00794186046511], [116.33160000000001, 40.0075], [116.332046726661, 40.0075], [116.33249345332204, 40.00749999999999], [116.33294017998307, 40.007499999999986], [116.33338690664411, 40.007499999999986], [116.3338336333051, 40.0075], [116.33428035996614, 40.00750000000001], [116.33472708662714, 40.0075], [116.33517381328818, 40.00749999999999], [116.3356205399492, 40.00749999999999], [116.33606726661023, 40.007499999999986], [116.33651399327127, 40.007499999999986], [116.33696071993226, 40.0075], [116.3374074465933, 40.0075], [116.33785417325431, 40.007499999999986], [116.33830089991534, 40.0075], [116.33874762657636, 40.0075], [116.3391943532374, 40.0075], [116.3396410798984, 40.00749999999999], [116.34008780655944, 40.00749999999999], [116.34053453322046, 40.00749999999999], [116.3409812598815, 40.00749999999999], [116.3414279865425, 40.00749999999999], [116.34187471320354, 40.0075], [116.34232143986456, 40.00749999999999], [116.34276816652557, 40.0075], [116.3432148931866, 40.007499999999986]]]]}}, {"type": "Feature", "id": "PHASE-002", "properties": {"id": "PHASE-002", "layer": "PHASE", "source_type": "agent_generated_design", "confidence": "medium", "geometry_role": "design_proposal", "area_sqm_declared": 3742504.628, "phase_id": "PH2", "name_zh": "中期(2029-2032)南段更新+学清路带与两翼", "phase_year_range": null}, "geometry": {"type": "MultiPolygon", "coordinates": [[[[116.3473, 39.96645], [116.3473, 39.966449999000005], [116.3473, 39.966193103448276], [116.3473, 39.965936206896544], [116.3473, 39.96567931034483], [116.3473, 39.96542241379311], [116.3473, 39.96516551724138], [116.3473, 39.96490862068965], [116.3473, 39.96465172413793], [116.3473, 39.96439482758621], [116.3473, 39.96413793103449], [116.3473, 39.96388103448275], [116.3473, 39.963624137931035], [116.3473, 39.963367241379316], [116.3473, 39.963110344827584], [116.3473, 39.96285344827586], [116.3473, 39.96259655172413], [116.3473, 39.96233965517241], [116.3473, 39.962082758620696], [116.3473, 39.96182586206897], [116.3473, 39.96156896551724], [116.3473, 39.96131206896552], [116.3473, 39.9610551724138], [116.3473, 39.96079827586207], [116.3473, 39.96054137931035], [116.3473, 39.960284482758624], [116.3473, 39.9600275862069], [116.3473, 39.959770689655166], [116.3473, 39.95951379310344], [116.3473, 39.95925689655173], [116.3473, 39.959], [116.34687608687446, 39.958999999909096], [116.34645217374893, 39.958999999818175], [116.34602826062336, 39.95899999972728], [116.34560434749783, 39.95899999963636], [116.34518043437228, 39.95899999954546], [116.34475652124675, 39.958999999454555], [116.34433260812118, 39.95899999936365], [116.34390869499565, 39.958999999272734], [116.3434847818701, 39.95899999918182], [116.34306086874457, 39.958999999090906], [116.34263695561901, 39.958999999], [116.34273158421682, 39.95874761904762], [116.34282621318972, 39.95849523809523], [116.34292084216283, 39.95824285714286], [116.34301547113607, 39.95799047619047], [116.34311010010953, 39.9577380952381], [116.34320472908317, 39.95748571428571], [116.34329935805695, 39.957233333333335], [116.34339398703092, 39.95698095238096], [116.34348861600509, 39.95672857142857], [116.34358324497938, 39.956476190476195], [116.34367787395388, 39.95622380952381], [116.34377428864285, 39.955971428571424], [116.34388469142722, 39.95571904761905], [116.34399509421178, 39.955466666666666], [116.34410549699649, 39.955214285714284], [116.3442158997814, 39.9549619047619], [116.34432630256647, 39.95470952380953], [116.34443670535171, 39.954457142857144], [116.34454710813714, 39.95420476190476], [116.34465751092273, 39.95395238095239], [116.34476791370851, 39.9537], [116.34487831649444, 39.953447619047616], [116.34498871928058, 39.95319523809524], [116.34509912206688, 39.95294285714287], [116.34520952485336, 39.95269047619047], [116.34531992764002, 39.9524380952381], [116.34543033042685, 39.95218571428571], [116.34554073321384, 39.95193333333333], [116.34565113600102, 39.95168095238095], [116.34576153878838, 39.95142857142857], [116.34587194157591, 39.9511761904762], [116.34598234436362, 39.95092380952381], [116.34609274715149, 39.950671428571425], [116.34620314993956, 39.95041904761905], [116.3463135527278, 39.95016666666666], [116.3464239555162, 39.949914285714286], [116.34653435830478, 39.94966190476191], [116.3466447610935, 39.94940952380953], [116.34675516388246, 39.94915714285714], [116.34686556667158, 39.948904761904764], [116.34697596946084, 39.94865238095238], [116.3470863722503, 39.94839999999999], [116.34719677503993, 39.94814761904762], [116.34730131943374, 39.94789523809524], [116.34739760881521, 39.94764285714286], [116.34749389819686, 39.94739047619047], [116.34759018757869, 39.9471380952381], [116.34768647696066, 39.94688571428573], [116.34778276634285, 39.94663333333334], [116.34787905572517, 39.946380952380956], [116.34797534510771, 39.946128571428574], [116.34807163449038, 39.94587619047619], [116.34816792387325, 39.94562380952381], [116.34826421325629, 39.94537142857142], [116.34836050263948, 39.94511904761905], [116.34840592215997, 39.94500000000001], [116.34088355152426, 39.94500000000001], [116.34083811891439, 39.94511904761905], [116.34074180178132, 39.94537142857143], [116.34064548464808, 39.94562380952381], [116.34054916751465, 39.945876190476184], [116.34045285038103, 39.94612857142857], [116.34035653324726, 39.946380952380956], [116.34026021611332, 39.946633333333345], [116.3401638989792, 39.94688571428572], [116.34006758184489, 39.9471380952381], [116.33997126471041, 39.94739047619047], [116.33987494757577, 39.94764285714286], [116.33977863044093, 39.94789523809524], [116.33967405829341, 39.948147619047624], [116.33956362774971, 39.94840000000001], [116.33945319720583, 39.948652380952375], [116.3393427666618, 39.94890476190475], [116.33923233611753, 39.94915714285713], [116.33912190557315, 39.94940952380952], [116.33901147502858, 39.94966190476192], [116.33890104448382, 39.949914285714286], [116.3387906139389, 39.95016666666666], [116.33868018339379, 39.95041904761904], [116.33856975284851, 39.95067142857143], [116.33845932230307, 39.9509238095238], [116.33834889175743, 39.95117619047621], [116.33823846121165, 39.951428571428565], [116.33812803066566, 39.951680952380954], [116.33801760011951, 39.951933333333336], [116.33790716957317, 39.952185714285726], [116.33779673902667, 39.952438095238094], [116.33768630847996, 39.952690476190476], [116.33757587793313, 39.95294285714286], [116.3374654473861, 39.95319523809524], [116.33735501683888, 39.953447619047616], [116.3372445862915, 39.953700000000005], [116.33713415574393, 39.95395238095238], [116.33702372519622, 39.95420476190476], [116.33691329464828, 39.95445714285714], [116.3368028641002, 39.95470952380952], [116.33669243355196, 39.95496190476191], [116.33658200300353, 39.9552142857143], [116.33647157245491, 39.95546666666666], [116.33636114190612, 39.95571904761905], [116.33625071135715, 39.95597142857143], [116.33615426890326, 39.956223809523806], [116.33605961216348, 39.956476190476195], [116.33596495542349, 39.95672857142857], [116.33587029868336, 39.95698095238095], [116.33577564194306, 39.95723333333332], [116.33568098520257, 39.95748571428572], [116.3355863284619, 39.95773809523809], [116.33549167172106, 39.95799047619048], [116.33539701498003, 39.958242857142864], [116.33530235823883, 39.958495238095225], [116.33520770149748, 39.958747619047614], [116.33511304513098, 39.95899999900001], [116.33511304475593, 39.958999999999996], [116.33501669441605, 39.95925689655172], [116.33492034407597, 39.95951379310345], [116.33482399373571, 39.95977068965517], [116.33472764339525, 39.96002758620689], [116.33463129305464, 39.960284482758624], [116.33453494271384, 39.96054137931036], [116.33443859237285, 39.960798275862075], [116.33434224203167, 39.96105517241379], [116.33424589169032, 39.96131206896551], [116.3341495413488, 39.96156896551724], [116.33405319100706, 39.96182586206898], [116.33395684066517, 39.96208275862069], [116.3338604903231, 39.962339655172414], [116.33376413998083, 39.96259655172414], [116.33366778963841, 39.962853448275865], [116.33357143929575, 39.96311034482759], [116.33347508895298, 39.963367241379316], [116.33337873860998, 39.963624137931035], [116.3332823882668, 39.96388103448276], [116.33320492133888, 39.96413793103449], [116.33314374135658, 39.964394827586204], [116.33308256137413, 39.96465172413792], [116.33302138139149, 39.964908620689656], [116.33296020140867, 39.96516551724138], [116.33289902142565, 39.9654224137931], [116.33283784144244, 39.96567931034483], [116.33277666145906, 39.96593620689655], [116.33271548147552, 39.966193103448276], [116.33265430172992, 39.96644999900001], [116.33224072629744, 39.96644999925], [116.33182715086497, 39.96644999949999], [116.33141357543248, 39.966449999750004], [116.331, 39.96644999999999], [116.331, 39.9665], [116.3473, 39.9665], [116.3473, 39.96645]]], [[[116.3458, 40.02627916666666], [116.3458, 40.02607499999999], [116.3458, 40.025870833333315], [116.3458, 40.025666666666666], [116.3458, 40.025462499999996], [116.3458, 40.025258333333326], [116.3458, 40.02505416666667], [116.3458, 40.02484999999999], [116.3458, 40.02464583333334], [116.3458, 40.024441666666654], [116.3458, 40.02423749999999], [116.3458, 40.024033333333314], [116.3458, 40.02382916666666], [116.3458, 40.02362499999999], [116.3458, 40.02342083333333], [116.3458, 40.02321666666666], [116.3458, 40.0230125], [116.3458, 40.02280833333334], [116.3458, 40.022604166666675], [116.3458, 40.022400000000005], [116.3458, 40.022399999], [116.3458, 40.02214736842105], [116.3458, 40.02189473684209], [116.3458, 40.02164210526315], [116.3458, 40.02138947368421], [116.3458, 40.02113684210527], [116.3458, 40.020884210526305], [116.3458, 40.02063157894737], [116.3458, 40.02037894736842], [116.3458, 40.02012631578946], [116.3458, 40.01987368421052], [116.3458, 40.01962105263157], [116.3458, 40.019368421052626], [116.3458, 40.01911578947368], [116.3458, 40.01886315789474], [116.3458, 40.0186105263158], [116.3458, 40.018357894736845], [116.3458, 40.0181052631579], [116.3458, 40.01785263157894], [116.3458, 40.0176], [116.3458, 40.017347368421056], [116.3458, 40.01709473684211], [116.3458, 40.01684210526315], [116.3458, 40.016589473684206], [116.3458, 40.016336842105254], [116.3458, 40.016084210526316], [116.3458, 40.01583157894737], [116.3458, 40.015578947368425], [116.3458, 40.01532631578947], [116.3458, 40.01507368421051], [116.3458, 40.014821052631575], [116.3458, 40.01456842105263], [116.3458, 40.014315789473685], [116.3458, 40.01406315789473], [116.3458, 40.01381052631579], [116.3458, 40.01355789473685], [116.3458, 40.013305263157896], [116.3458, 40.013052631578944], [116.3458, 40.0128], [116.3458, 40.012547368421046], [116.3458, 40.01229473684211], [116.3458, 40.01204210526315], [116.3458, 40.01178947368421], [116.3458, 40.011536842105265], [116.3458, 40.01128421052633], [116.3458, 40.01103157894737], [116.3458, 40.010778947368436], [116.3458, 40.01052631578948], [116.3458, 40.010273684210524], [116.3458, 40.01002105263158], [116.3458, 40.00976842105263], [116.3458, 40.00951578947368], [116.3458, 40.009263157894736], [116.3458, 40.00901052631578], [116.3458, 40.00875789473684], [116.3458, 40.0085052631579], [116.3458, 40.008252631578934], [116.3458, 40.00799999999999], [116.34580000032558, 40.007999999000006], [116.34585833333333, 40.007820833333334], [116.34591666666668, 40.00764166666667], [116.345975, 40.007462499999995], [116.34603333333332, 40.007283333333326], [116.34609166666668, 40.007104166666664], [116.34615000000001, 40.006925], [116.34620833333334, 40.00674583333333], [116.34626666666666, 40.006566666666664], [116.346325, 40.0063875], [116.34638333333334, 40.00620833333333], [116.34644166666666, 40.00602916666667], [116.34649999999999, 40.00585], [116.34655833333335, 40.005670833333326], [116.34661666666668, 40.00549166666667], [116.34667499999999, 40.005312499999995], [116.34673333333332, 40.00513333333333], [116.34679166666668, 40.004954166666664], [116.34685, 40.004775], [116.34690833333333, 40.00459583333334], [116.34696666666666, 40.00441666666667], [116.347025, 40.0042375], [116.34708333333333, 40.004058333333326], [116.34714166666669, 40.003879166666664], [116.34720000000002, 40.003699999999995], [116.34720000000002, 40.003699999000006], [116.34720000000002, 40.0034425], [116.34720000000002, 40.003185], [116.34720000000002, 40.002927500000006], [116.34720000000002, 40.00267], [116.34720000000002, 40.00241250000001], [116.34720000000002, 40.002155], [116.34720000000002, 40.0018975], [116.34720000000002, 40.00164000000001], [116.34720000000002, 40.001382500000005], [116.34720000000002, 40.00112500000001], [116.34720000000002, 40.00086749999999], [116.34720000000002, 40.00061], [116.34720000000002, 40.0003525], [116.34720000000002, 40.00009500000001], [116.34720000000002, 39.99983749999999], [116.34720000000002, 39.99980000000001], [116.33150000000002, 39.9998], [116.33150000000002, 39.99983749999999], [116.33150000000002, 40.00009500000001], [116.33150000000002, 40.0003525], [116.33150000000002, 40.00060999999999], [116.33150000000002, 40.00086749999999], [116.33150000000002, 40.001125], [116.33150000000002, 40.0013825], [116.33150000000002, 40.00164000000001], [116.33150000000002, 40.001897500000005], [116.33150000000002, 40.002155], [116.33150000000002, 40.00241250000001], [116.33150000000002, 40.002669999999995], [116.33150000000002, 40.0029275], [116.33150000000002, 40.003184999999995], [116.33150000000002, 40.003442500000006], [116.33150000000002, 40.003699999], [116.33150000000002, 40.00370000000001], [116.33150000000002, 40.00387916666667], [116.33150000000002, 40.004058333333326], [116.33150000000002, 40.0042375], [116.33150000000002, 40.00441666666666], [116.33150000000002, 40.004595833333326], [116.33150000000002, 40.00477500000001], [116.33150000000002, 40.00495416666667], [116.33150000000002, 40.00513333333334], [116.33150000000002, 40.00531250000001], [116.33150000000002, 40.00549166666666], [116.33150000000002, 40.00567083333333], [116.33150000000002, 40.005849999999995], [116.33150000000002, 40.00602916666667], [116.33150000000002, 40.00620833333334], [116.33150000000002, 40.0063875], [116.33150000000002, 40.00656666666667], [116.33150000000002, 40.00674583333332], [116.33150000000002, 40.006924999999995], [116.33150000000002, 40.00710416666667], [116.33150000000002, 40.00728333333333], [116.33150000000002, 40.00746250000001], [116.33150000000002, 40.007641666666665], [116.33150000000002, 40.00782083333332], [116.33150000000002, 40.007999999000006], [116.33150000000002, 40.008], [116.33150000000002, 40.008252631578934], [116.33150000000002, 40.0085052631579], [116.33150000000002, 40.00875789473684], [116.33150000000002, 40.009010526315784], [116.33150000000002, 40.00926315789472], [116.33150000000002, 40.00951578947368], [116.33150000000002, 40.00976842105263], [116.33150000000002, 40.01002105263158], [116.33150000000002, 40.01027368421053], [116.33150000000002, 40.01052631578948], [116.33150000000002, 40.01077894736842], [116.33150000000002, 40.01103157894737], [116.33150000000002, 40.01128421052632], [116.33150000000002, 40.01153684210526], [116.33150000000002, 40.0117894736842], [116.33150000000002, 40.012042105263156], [116.33150000000002, 40.0122947368421], [116.33150000000002, 40.012547368421046], [116.33150000000002, 40.0128], [116.33150000000002, 40.01305263157895], [116.33150000000002, 40.013305263157896], [116.33150000000002, 40.01355789473684], [116.33150000000002, 40.013810526315794], [116.33150000000002, 40.01406315789474], [116.33150000000002, 40.014315789473685], [116.33150000000002, 40.01456842105263], [116.33150000000002, 40.014821052631575], [116.33150000000002, 40.01507368421052], [116.33150000000002, 40.01532631578946], [116.33150000000002, 40.01557894736842], [116.33150000000002, 40.01583157894736], [116.33150000000002, 40.01608421052631], [116.33150000000002, 40.01633684210526], [116.33150000000002, 40.01658947368421], [116.33150000000002, 40.01684210526316], [116.33150000000002, 40.01709473684211], [116.33150000000002, 40.01734736842105], [116.33150000000002, 40.01760000000001], [116.33150000000002, 40.01785263157895], [116.33150000000002, 40.01810526315789], [116.33150000000002, 40.018357894736845], [116.33150000000002, 40.018610526315776], [116.33150000000002, 40.01886315789473], [116.33150000000002, 40.01911578947368], [116.33150000000002, 40.019368421052626], [116.33150000000002, 40.01962105263157], [116.33150000000002, 40.01987368421052], [116.33150000000002, 40.02012631578947], [116.33150000000002, 40.020378947368414], [116.33150000000002, 40.02063157894736], [116.33150000000002, 40.02088421052631], [116.33150000000002, 40.02113684210527], [116.33150000000002, 40.0213894736842], [116.33150000000002, 40.021642105263155], [116.33150000000002, 40.02189473684209], [116.33150000000002, 40.02214736842105], [116.33150000000002, 40.02239999900001], [116.33150000000002, 40.0224], [116.33150000000002, 40.022604166666675], [116.33150000000002, 40.02280833333333], [116.33150000000002, 40.0230125], [116.33150000000002, 40.02321666666665], [116.33150000000002, 40.02342083333334], [116.33150000000002, 40.02362499999999], [116.33150000000002, 40.023829166666665], [116.33150000000002, 40.02403333333332], [116.33150000000002, 40.02423749999999], [116.33150000000002, 40.02444166666666], [116.33150000000002, 40.02464583333333], [116.33150000000002, 40.02484999999999], [116.33150000000002, 40.02505416666666], [116.33150000000002, 40.02525833333333], [116.33150000000002, 40.02546249999998], [116.33150000000002, 40.02566666666666], [116.33150000000002, 40.025870833333315], [116.33150000000002, 40.02607499999999], [116.33150000000002, 40.02627916666667], [116.33150000000002, 40.02648333333334], [116.33150000000002, 40.02649999999999], [116.33160000000001, 40.02649999999999], [116.33160000000001, 40.02605813953488], [116.33160000000001, 40.02561627906976], [116.33160000000001, 40.025174418604664], [116.33160000000001, 40.02473255813953], [116.33160000000001, 40.02429069767441], [116.33160000000001, 40.02384883720931], [116.33160000000001, 40.02340697674419], [116.33160000000001, 40.02296511627906], [116.33160000000001, 40.02252325581395], [116.33160000000001, 40.022081395348835], [116.33160000000001, 40.021639534883725], [116.33160000000001, 40.021197674418595], [116.33160000000001, 40.02075581395348], [116.33160000000001, 40.02031395348837], [116.33160000000001, 40.01987209302325], [116.33160000000001, 40.019430232558136], [116.33160000000001, 40.01898837209302], [116.33160000000001, 40.0185465116279], [116.33160000000001, 40.01810465116279], [116.33160000000001, 40.01766279069768], [116.33160000000001, 40.01722093023256], [116.33160000000001, 40.01677906976745], [116.33160000000001, 40.016337209302314], [116.33160000000001, 40.01589534883722], [116.33160000000001, 40.0154534883721], [116.33160000000001, 40.01501162790698], [116.33160000000001, 40.014569767441856], [116.33160000000001, 40.014127906976746], [116.33160000000001, 40.01368604651163], [116.33160000000001, 40.01324418604652], [116.33160000000001, 40.012802325581404], [116.33160000000001, 40.01236046511629], [116.33160000000001, 40.01191860465116], [116.33160000000001, 40.01147674418605], [116.33160000000001, 40.01103488372093], [116.33160000000001, 40.010593023255815], [116.33160000000001, 40.01015116279069], [116.33160000000001, 40.00970930232557], [116.33160000000001, 40.00926744186047], [116.33160000000001, 40.00882558139535], [116.33160000000001, 40.008383720930226], [116.33160000000001, 40.00794186046511], [116.33160000000001, 40.0075], [116.332046726661, 40.0075], [116.33249345332204, 40.00749999999999], [116.33294017998307, 40.007499999999986], [116.33338690664411, 40.007499999999986], [116.3338336333051, 40.0075], [116.33428035996614, 40.00750000000001], [116.33472708662714, 40.0075], [116.33517381328818, 40.00749999999999], [116.3356205399492, 40.00749999999999], [116.33606726661023, 40.007499999999986], [116.33651399327127, 40.007499999999986], [116.33696071993226, 40.0075], [116.3374074465933, 40.0075], [116.33785417325431, 40.007499999999986], [116.33830089991534, 40.0075], [116.33874762657636, 40.0075], [116.3391943532374, 40.0075], [116.3396410798984, 40.00749999999999], [116.34008780655944, 40.00749999999999], [116.34053453322046, 40.00749999999999], [116.3409812598815, 40.00749999999999], [116.3414279865425, 40.00749999999999], [116.34187471320354, 40.0075], [116.34232143986456, 40.00749999999999], [116.34276816652557, 40.0075], [116.3432148931866, 40.007499999999986], [116.34317070714008, 40.00794186046512], [116.3431265210936, 40.00838372093023], [116.34308233504704, 40.00882558139534], [116.34303814900056, 40.00926744186046], [116.34299396295404, 40.009709302325575], [116.34294977690752, 40.01015116279069], [116.34290559086104, 40.01059302325581], [116.34286140481451, 40.01103488372094], [116.342817218768, 40.011476744186055], [116.34277303272148, 40.01191860465116], [116.34272884667497, 40.012360465116274], [116.34268466062848, 40.01280232558139], [116.34264047458196, 40.0132441860465], [116.34259628853545, 40.013686046511644], [116.34255210248892, 40.01412790697674], [116.34250791644241, 40.01456976744185], [116.34246373039592, 40.01501162790698], [116.3424195443494, 40.01545348837209], [116.34237535830289, 40.01589534883722], [116.34233117225637, 40.01633720930233], [116.34228698620986, 40.01677906976745], [116.34224280016336, 40.01722093023255], [116.34219861411684, 40.01766279069768], [116.34215442807033, 40.01810465116278], [116.34211024202381, 40.018546511627896], [116.3420660559773, 40.01898837209301], [116.3420218699308, 40.01943023255813], [116.34197768388428, 40.019872093023245], [116.34193349783777, 40.02031395348836], [116.34188931179125, 40.02075581395348], [116.34184512574474, 40.02119767441859], [116.34180093969822, 40.02163953488372], [116.34175675365174, 40.022081395348835], [116.34171256760521, 40.022523255813944], [116.34166838155869, 40.02296511627906], [116.34162419551218, 40.023406976744184], [116.34158000946566, 40.02384883720931], [116.34153582341918, 40.02429069767441], [116.34149163737266, 40.02473255813954], [116.34144745132615, 40.02517441860466], [116.34140326527962, 40.025616279069766], [116.3413590792331, 40.02605813953488], [116.34131489318662, 40.0265], [116.3458, 40.0265], [116.3458, 40.02648333333334], [116.3458, 40.02627916666666]]]]}}, {"type": "Feature", "id": "PHASE-003", "properties": {"id": "PHASE-003", "layer": "PHASE", "source_type": "agent_generated_design", "confidence": "medium", "geometry_role": "design_proposal", "area_sqm_declared": 513986.569, "phase_id": "PH3", "name_zh": "远期(2033-2037)西直门门户段", "phase_year_range": null}, "geometry": {"type": "Polygon", "coordinates": [[[116.34845679202289, 39.94486666666667], [116.34855308140646, 39.944614285714295], [116.34864937079023, 39.944361904761905], [116.34874566017413, 39.94410952380952], [116.34884194955822, 39.94385714285716], [116.3489382389425, 39.94360476190477], [116.34903452832694, 39.94335238095238], [116.34913081771154, 39.943099999999994], [116.34922710709634, 39.94284761904762], [116.34932339648131, 39.942595238095244], [116.34941968586648, 39.94234285714285], [116.34951597525178, 39.942090476190465], [116.3496122646373, 39.9418380952381], [116.34970855402297, 39.941585714285715], [116.3498048434088, 39.941333333333326], [116.3499011327948, 39.94108095238096], [116.349997422181, 39.94082857142857], [116.35009371156738, 39.94057619047619], [116.35016092827222, 39.94032380952381], [116.35016091440083, 39.94007142857143], [116.35016090052957, 39.93981904761905], [116.3501608866585, 39.93956666666667], [116.3501608727876, 39.93931428571429], [116.3501608589169, 39.93906190476191], [116.35016084504635, 39.938809523809525], [116.35016083117597, 39.938557142857135], [116.35016081730578, 39.93830476190476], [116.35016080343576, 39.93805238095238], [116.35016078956592, 39.93780000000001], [116.34971834373462, 39.9378], [116.34927589790333, 39.9378], [116.34883345207206, 39.9378], [116.34839100624077, 39.9378], [116.3479485604095, 39.9378], [116.34750611457821, 39.9378], [116.34706366874691, 39.9378], [116.34662122291564, 39.9378], [116.34617877708436, 39.9378], [116.3457363312531, 39.9378], [116.3452938854218, 39.9378], [116.3448514395905, 39.9378], [116.34440899375923, 39.9378], [116.34396654792795, 39.9378], [116.34352410209668, 39.9378], [116.34308165626538, 39.93780000000001], [116.34263921043409, 39.93780000000001], [116.34263919656425, 39.93805238095237], [116.34263918269423, 39.93830476190476], [116.34263916882404, 39.938557142857135], [116.34263915495366, 39.93880952380952], [116.34263914108314, 39.9390619047619], [116.34263912721241, 39.93931428571429], [116.3426391133415, 39.93956666666667], [116.34263909947045, 39.93981904761905], [116.3426390855992, 39.94007142857143], [116.34263907172779, 39.94032380952382], [116.34257182727973, 39.9405761904762], [116.34247551014981, 39.940828571428575], [116.34237919301971, 39.941080952380965], [116.34228287588945, 39.94133333333333], [116.34218655875901, 39.941585714285715], [116.34209024162838, 39.941838095238104], [116.34199392449761, 39.94209047619048], [116.34189760736662, 39.94234285714286], [116.34180129023548, 39.942595238095244], [116.34170497310414, 39.94284761904762], [116.34160865597268, 39.9431], [116.34151233884099, 39.94335238095239], [116.34141602170916, 39.943604761904766], [116.34131970457712, 39.943857142857155], [116.34122338744493, 39.94410952380953], [116.34112707031257, 39.944361904761905], [116.34103075318002, 39.94461428571429], [116.34093443604729, 39.94486666666667], [116.34088355152426, 39.94500000000001], [116.34840592215997, 39.94500000000001], [116.34845679202289, 39.94486666666667]]]}}]}