{"type": "FeatureCollection", "name": "public_space", "features": [{"type": "Feature", "id": "PS-001", "properties": {"id": "PS-001", "layer": "PUBLIC_SPACE", "source_type": "agent_generated_design", "confidence": "medium", "geometry_role": "design_proposal", "area_sqm_declared": 53040.542, "public_space_type": "station_plaza", "land_use_code": "1403"}, "geometry": {"type": "Polygon", "coordinates": [[[116.33634431491691, 39.97019999999999], [116.33633066014319, 39.970257352941175], [116.33626493637298, 39.970511176470595], [116.33619814375422, 39.97076500000001], [116.33613135113549, 39.97101882352943], [116.3360645585168, 39.971272647058825], [116.33599776589817, 39.97152647058824], [116.33593097327959, 39.97178029411765], [116.335864180661, 39.972034117647055], [116.3357973880425, 39.97228794117647], [116.33573059542401, 39.972541764705866], [116.33566380280556, 39.9727955882353], [116.33559701018714, 39.97304941176471], [116.33553021756877, 39.973303235294125], [116.33546342495043, 39.97355705882352], [116.33539663233216, 39.973810882352936], [116.33532983971388, 39.974064705882355], [116.33526304709568, 39.974318529411754], [116.33519625447751, 39.97457235294117], [116.33512946185935, 39.974826176470586], [116.3350626695044, 39.975079999], [116.33506266924128, 39.97507999999999], [116.3350613535118, 39.975084999999986], [116.3350600377824, 39.97509], [116.33505872205295, 39.975094999999996], [116.3350574063235, 39.9751], [116.33505609059407, 39.975105], [116.33505477486462, 39.97511], [116.33505345913518, 39.975115], [116.33505214340573, 39.97512], [116.33505082767628, 39.97512499999999], [116.33504951194685, 39.97513], [116.33504819621743, 39.975134999999995], [116.33504688048798, 39.97513999999999], [116.33504556475854, 39.975145000000005], [116.3350442490291, 39.975150000000006], [116.33504293329965, 39.975155], [116.33504161757021, 39.97516000000001], [116.33504030184076, 39.975165], [116.33503898611134, 39.97517], [116.33503767038191, 39.975174999999986], [116.33503635465246, 39.97518], [116.33503503892302, 39.97518500000001], [116.33503372319358, 39.97519], [116.33503240746413, 39.975195], [116.33503109199783, 39.97519999899999], [116.33503109173469, 39.975199999999994], [116.3349648194549, 39.975451846153845], [116.33495214796831, 39.9755], [116.33530382040585, 39.97549999999999], [116.3356554928434, 39.97549999999999], [116.3360071652809, 39.975500000000004], [116.33601983602414, 39.975451846153845], [116.33608610441613, 39.975199999999994], [116.33608610467927, 39.975199999], [116.3360874200684, 39.975195], [116.33608873572064, 39.97519], [116.3360900513729, 39.97518500000001], [116.33609136702518, 39.97518], [116.33609268267742, 39.975175], [116.33609399832966, 39.975170000000006], [116.33609531398191, 39.975165], [116.33609662963418, 39.975159999999995], [116.33609794528643, 39.975154999999994], [116.3360992609387, 39.975150000000006], [116.33610057659094, 39.975145000000005], [116.33610189224319, 39.975139999999996], [116.33610320789546, 39.975135], [116.3361045235477, 39.97513], [116.33610583919997, 39.975125], [116.33610715485221, 39.975120000000004], [116.33610847050446, 39.975114999999995], [116.33610978615673, 39.975109999999994], [116.33611110180898, 39.975105], [116.33611241746125, 39.975100000000005], [116.33611373311349, 39.97509499999999], [116.33611504876573, 39.97509], [116.33611636441798, 39.97508499999999], [116.33611768007026, 39.975080000000005], [116.3361176803334, 39.975079999], [116.33618446877009, 39.974826176470586], [116.33625125747002, 39.97457235294116], [116.33631804617004, 39.97431852941176], [116.33638483487015, 39.97406470588235], [116.33645162357031, 39.973810882352936], [116.3365184122706, 39.97355705882353], [116.33658520097097, 39.97330323529412], [116.33665198967145, 39.9730494117647], [116.336718778372, 39.9727955882353], [116.33678556707262, 39.97254176470587], [116.33685235577335, 39.97228794117647], [116.33691914447417, 39.972034117647055], [116.33698593317506, 39.971780294117636], [116.33705272187606, 39.97152647058824], [116.33711951057714, 39.971272647058825], [116.3371862992783, 39.97101882352941], [116.33725308797956, 39.97076499999999], [116.3373198766809, 39.97051117647059], [116.33738559653375, 39.970257352941175], [116.33739925042234, 39.97019999999999], [116.33704760525384, 39.970200000000006], [116.3366959600854, 39.9702], [116.33634431491691, 39.97019999999999]]]}}, {"type": "Feature", "id": "PS-002", "properties": {"id": "PS-002", "layer": "PUBLIC_SPACE", "source_type": "agent_generated_design", "confidence": "medium", "geometry_role": "design_proposal", "area_sqm_declared": 32591.994, "public_space_type": "station_plaza", "name_zh": "西直门门户广场(北京北站前)"}, "geometry": {"type": "Polygon", "coordinates": [[[116.34494551789895, 39.94161418491044], [116.34536731073936, 39.941614184910435], [116.34578910357978, 39.941614184910435], [116.34621089642022, 39.941614184910435], [116.34663268926063, 39.94161418491044], [116.34705448210107, 39.94161418491045], [116.34705448210107, 39.94120709245522], [116.34705448210107, 39.94079999999999], [116.34705448210107, 39.94039290754478], [116.34705448210107, 39.93998581508956], [116.34663268926063, 39.93998581508957], [116.34621089642022, 39.93998581508956], [116.34578910357978, 39.93998581508955], [116.34536731073936, 39.939985815089564], [116.34494551789895, 39.939985815089564], [116.34494551789895, 39.94039290754478], [116.34494551789895, 39.9408], [116.34494551789895, 39.941207092455215], [116.34494551789895, 39.94161418491044]]]}}, {"type": "Feature", "id": "PS-003", "properties": {"id": "PS-003", "layer": "PUBLIC_SPACE", "source_type": "agent_generated_design", "confidence": "medium", "geometry_role": "design_proposal", "area_sqm_declared": 25751.964, "public_space_type": "station_plaza", "name_zh": "大钟寺站前广场"}, "geometry": {"type": "Polygon", "coordinates": [[[116.33496220957763, 39.97602371992039], [116.33533732574658, 39.97602371992039], [116.3357124419155, 39.9760237199204], [116.33608755808446, 39.9760237199204], [116.33646267425341, 39.97602371992039], [116.33683779042236, 39.97602371992039], [116.33683779042236, 39.975661859960205], [116.33683779042236, 39.97529999999999], [116.33683779042236, 39.97493814003979], [116.33683779042236, 39.974576280079596], [116.33646267425341, 39.974576280079596], [116.33608755808446, 39.97457628007961], [116.3357124419155, 39.97457628007961], [116.33533732574658, 39.9745762800796], [116.33496220957763, 39.9745762800796], [116.33496220957763, 39.97493814003978], [116.33496220957763, 39.975300000000004], [116.33496220957763, 39.9756618599602], [116.33496220957763, 39.97602371992039]]]}}, {"type": "Feature", "id": "PS-004", "properties": {"id": "PS-004", "layer": "PUBLIC_SPACE", "source_type": "agent_generated_design", "confidence": "medium", "geometry_role": "design_proposal", "area_sqm_declared": 14629.612, "public_space_type": "station_plaza", "name_zh": "知春路站前广场"}, "geometry": {"type": "Polygon", "coordinates": [[[116.3461208240519, 39.97442151257462], [116.3461208240519, 39.97476075628731], [116.3461208240519, 39.975100000000005], [116.3461208240519, 39.97543924371268], [116.3461208240519, 39.97577848742536], [116.34648054936794, 39.97577848742536], [116.34684027468396, 39.97577848742536], [116.34720000000002, 39.975778487425366], [116.34720000000002, 39.97570369230769], [116.34720000000002, 39.975451846153845], [116.34720000000002, 39.9752], [116.3473, 39.975199999], [116.3473, 39.975195], [116.3473, 39.97518999999999], [116.3473, 39.975185], [116.3473, 39.97518], [116.3473, 39.975174999999986], [116.3473, 39.97517], [116.3473, 39.975165], [116.3473, 39.97516000000001], [116.3473, 39.975154999999994], [116.3473, 39.97515], [116.3473, 39.975145], [116.3473, 39.975139999999996], [116.3473, 39.975135], [116.3473, 39.975129999999986], [116.3473, 39.975125], [116.3473, 39.97511999999999], [116.3473, 39.97511499999999], [116.3473, 39.975109999999994], [116.3473, 39.975105], [116.3473, 39.9751], [116.3473, 39.975094999999996], [116.3473, 39.97509000000001], [116.3473, 39.975085], [116.3473, 39.97508], [116.3473, 39.97507999900001], [116.3473, 39.974826176470586], [116.3473, 39.97457235294117], [116.3473, 39.97442151257463], [116.34690694135062, 39.97442151257464], [116.34651388270127, 39.97442151257463], [116.3461208240519, 39.97442151257462]]]}}, {"type": "Feature", "id": "PS-005", "properties": {"id": "PS-005", "layer": "PUBLIC_SPACE", "source_type": "agent_generated_design", "confidence": "medium", "geometry_role": "design_proposal", "area_sqm_declared": 22484.857, "public_space_type": "station_plaza", "name_zh": "五道口站前广场(道口广场)"}, "geometry": {"type": "Polygon", "coordinates": [[[116.33263801692843, 39.99252371992039], [116.33263801692843, 39.99216185996019], [116.33263801692843, 39.9918], [116.33263801692843, 39.991438140039804], [116.33263801692843, 39.9910762800796], [116.33222851269633, 39.9910762800796], [116.3318190084642, 39.991076280079604], [116.33140950423213, 39.9910762800796], [116.331, 39.991076280079604], [116.331, 39.99131815384616], [116.331, 39.991569999000006], [116.331, 39.99157], [116.331, 39.99181791666667], [116.331, 39.99206583333333], [116.331, 39.99231375], [116.331, 39.992523719920385], [116.33140950423213, 39.99252371992038], [116.3318190084642, 39.992523719920385], [116.33222851269633, 39.99252371992039], [116.33263801692843, 39.99252371992039]]]}}, {"type": "Feature", "id": "PS-006", "properties": {"id": "PS-006", "layer": "PUBLIC_SPACE", "source_type": "agent_generated_design", "confidence": "medium", "geometry_role": "design_proposal", "area_sqm_declared": 14425.791, "public_space_type": "station_plaza", "name_zh": "清华园站旧址纪念广场"}, "geometry": {"type": "Polygon", "coordinates": [[[116.33217945782901, 39.99767848742536], [116.33217945782901, 39.99733924371268], [116.33217945782901, 39.996999999999986], [116.33217945782901, 39.99666075628731], [116.33217945782901, 39.996321512574625], [116.33178630521937, 39.99632151257463], [116.33139315260968, 39.996321512574625], [116.331, 39.996321512574625], [116.331, 39.996528333333345], [116.331, 39.99677625], [116.331, 39.99702416666666], [116.331, 39.99727208333334], [116.331, 39.997519999000005], [116.33125000000003, 39.9975199995], [116.33150000000002, 39.997519999999994], [116.33150000000002, 39.99767848742537], [116.33183972891452, 39.99767848742536], [116.33217945782901, 39.99767848742536]]]}}, {"type": "Feature", "id": "PS-007", "properties": {"id": "PS-007", "layer": "PUBLIC_SPACE", "source_type": "agent_generated_design", "confidence": "medium", "geometry_role": "design_proposal", "area_sqm_declared": 19737.982, "public_space_type": "station_plaza", "name_zh": "清河站前广场"}, "geometry": {"type": "Polygon", "coordinates": [[[116.33293823125184, 40.008123719920384], [116.33293823125184, 40.0077618599602], [116.33293823125184, 40.00739999999999], [116.33293823125184, 40.00703814003979], [116.33293823125184, 40.00667628007961], [116.3325786734389, 40.00667628007961], [116.33221911562592, 40.006676280079596], [116.33185955781298, 40.006676280079596], [116.33150000000002, 40.00667628007961], [116.33150000000002, 40.00674583333332], [116.33150000000002, 40.006924999999995], [116.33150000000002, 40.00710416666667], [116.33150000000002, 40.00728333333333], [116.33150000000002, 40.00746250000001], [116.33150000000002, 40.007641666666665], [116.33150000000002, 40.00782083333332], [116.33150000000002, 40.007999999000006], [116.33150000000002, 40.008], [116.33150000000002, 40.0081237199204], [116.33185955781298, 40.00812371992039], [116.33221911562592, 40.008123719920384], [116.3325786734389, 40.008123719920384], [116.33293823125184, 40.008123719920384]]]}}, {"type": "Feature", "id": "PS-008", "properties": {"id": "PS-008", "layer": "PUBLIC_SPACE", "source_type": "agent_generated_design", "confidence": "medium", "geometry_role": "design_proposal", "area_sqm_declared": 31732.8, "public_space_type": "station_plaza", "name_zh": "众智园编组广场"}, "geometry": {"type": "Polygon", "coordinates": [[[116.33355570504173, 40.020814184910456], [116.33355570504173, 40.02040709245523], [116.33355570504173, 40.02], [116.33355570504173, 40.01959290754479], [116.33355570504173, 40.019185815089564], [116.33314456403339, 40.019185815089564], [116.33273342302505, 40.019185815089564], [116.33232228201669, 40.01918581508957], [116.33191114100835, 40.01918581508955], [116.33150000000002, 40.01918581508956], [116.33150000000002, 40.019368421052626], [116.33150000000002, 40.01962105263157], [116.33150000000002, 40.01987368421052], [116.33150000000002, 40.02012631578947], [116.33150000000002, 40.020378947368414], [116.33150000000002, 40.02063157894736], [116.33150000000002, 40.02081418491045], [116.33191114100835, 40.02081418491045], [116.33232228201669, 40.02081418491044], [116.33273342302505, 40.02081418491044], [116.33314456403339, 40.020814184910456], [116.33355570504173, 40.020814184910456]]]}}, {"type": "Feature", "id": "PS-009", "properties": {"id": "PS-009", "layer": "PUBLIC_SPACE", "source_type": "agent_generated_design", "confidence": "medium", "geometry_role": "design_proposal", "area_sqm_declared": 19716.423, "public_space_type": "station_plaza", "name_zh": "清华东路西口站广场"}, "geometry": {"type": "Polygon", "coordinates": [[[116.34317913061997, 40.00113325493034], [116.34358956531, 40.001133254930345], [116.34400000000001, 40.00113325493035], [116.34441043468999, 40.00113325493034], [116.34482086938, 40.00113325493035], [116.34482086938, 40.000711084976786], [116.34482086938, 40.00028891502321], [116.34482086938, 39.99986674506966], [116.34441043468999, 39.999866745069646], [116.34400000000001, 39.99986674506966], [116.34358956531, 39.99986674506966], [116.34317913061997, 39.99986674506966], [116.34317913061997, 40.00028891502321], [116.34317913061997, 40.000711084976786], [116.34317913061997, 40.00113325493034]]]}}]}