{
  "type": "FeatureCollection",
  "name": "safe_return_line_conceptual_programme_partition",
  "features": [
    {
      "type": "Feature",
      "id": "LU-001",
      "properties": {
        "id": "LU-001",
        "source_type": "agent_generated_design",
        "confidence": "low",
        "geometry_role": "design_proposal",
        "conceptual_only": true,
        "not_statutory_planning": true,
        "layer": "LAND_USE",
        "land_use_code": "05",
        "name_zh": "大钟寺责任服务与通勤触达研究带",
        "name_en": "Dazhongsi responsibility service and commuter access",
        "overlay_type": "dominant_programme_research",
        "area_sqm_declared": 2393399.262,
        "usage_note": "完整覆盖仅用于拓扑校验与主导功能适配研究，不代表现状用地、控规调整或法定用途。"
      },
      "geometry": {
        "type": "Polygon",
        "coordinates": [
          [
            [
              116.3407,
              39.939
            ],
            [
              116.34022777777777,
              39.956
            ],
            [
              116.3553,
              39.956
            ],
            [
              116.3553,
              39.939
            ],
            [
              116.3407,
              39.939
            ]
          ]
        ]
      }
    },
    {
      "type": "Feature",
      "id": "LU-002",
      "properties": {
        "id": "LU-002",
        "source_type": "agent_generated_design",
        "confidence": "low",
        "geometry_role": "design_proposal",
        "conceptual_only": true,
        "not_statutory_planning": true,
        "layer": "LAND_USE",
        "land_use_code": "0702",
        "name_zh": "居民生活服务候选研究带",
        "name_en": "Candidate resident-life service band",
        "overlay_type": "dominant_programme_research",
        "area_sqm_declared": 3141454.609,
        "usage_note": "完整覆盖仅用于拓扑校验与主导功能适配研究，不代表现状用地、控规调整或法定用途。"
      },
      "geometry": {
        "type": "Polygon",
        "coordinates": [
          [
            [
              116.3553,
              39.965
            ],
            [
              116.3553,
              39.956
            ],
            [
              116.34022777777777,
              39.956
            ],
            [
              116.3397,
              39.975
            ],
            [
              116.3398935483871,
              39.978
            ],
            [
              116.35426,
              39.978
            ],
            [
              116.3553,
              39.965
            ]
          ]
        ]
      }
    },
    {
      "type": "Feature",
      "id": "LU-003",
      "properties": {
        "id": "LU-003",
        "source_type": "agent_generated_design",
        "confidence": "low",
        "geometry_role": "design_proposal",
        "conceptual_only": true,
        "not_statutory_planning": true,
        "layer": "LAND_USE",
        "land_use_code": "0802",
        "name_zh": "AI原点协作与适老服务研究带",
        "name_en": "AI Origin collaboration and inclusive service",
        "overlay_type": "dominant_programme_research",
        "area_sqm_declared": 2610849.954,
        "usage_note": "完整覆盖仅用于拓扑校验与主导功能适配研究，不代表现状用地、控规调整或法定用途。"
      },
      "geometry": {
        "type": "Polygon",
        "coordinates": [
          [
            [
              116.3533,
              39.99
            ],
            [
              116.35426,
              39.978
            ],
            [
              116.3398935483871,
              39.978
            ],
            [
              116.34124838709677,
              39.999
            ],
            [
              116.35379315068494,
              39.999
            ],
            [
              116.3533,
              39.99
            ]
          ]
        ]
      }
    },
    {
      "type": "Feature",
      "id": "LU-004",
      "properties": {
        "id": "LU-004",
        "source_type": "agent_generated_design",
        "confidence": "low",
        "geometry_role": "design_proposal",
        "conceptual_only": true,
        "not_statutory_planning": true,
        "layer": "LAND_USE",
        "land_use_code": "1401",
        "name_zh": "京张公共责任文化与开敞空间研究带",
        "name_en": "Jingzhang public responsibility culture and open-space band",
        "overlay_type": "dominant_programme_research",
        "area_sqm_declared": 1185537.731,
        "usage_note": "完整覆盖仅用于拓扑校验与主导功能适配研究，不代表现状用地、控规调整或法定用途。"
      },
      "geometry": {
        "type": "Polygon",
        "coordinates": [
          [
            [
              116.35379315068494,
              39.999
            ],
            [
              116.34124838709677,
              39.999
            ],
            [
              116.3417,
              40.006
            ],
            [
              116.34184634146342,
              40.009
            ],
            [
              116.35434109589042,
              40.009
            ],
            [
              116.35379315068494,
              39.999
            ]
          ]
        ]
      }
    },
    {
      "type": "Feature",
      "id": "LU-005",
      "properties": {
        "id": "LU-005",
        "source_type": "agent_generated_design",
        "confidence": "low",
        "geometry_role": "design_proposal",
        "conceptual_only": true,
        "not_statutory_planning": true,
        "layer": "LAND_USE",
        "land_use_code": "0802",
        "name_zh": "众智园验证与治理研究带",
        "name_en": "Zhongzhiyuan validation and governance band",
        "overlay_type": "dominant_programme_research",
        "area_sqm_declared": 2081602.66,
        "usage_note": "完整覆盖仅用于拓扑校验与主导功能适配研究，不代表现状用地、控规调整或法定用途。"
      },
      "geometry": {
        "type": "Polygon",
        "coordinates": [
          [
            [
              116.35434109589042,
              40.009
            ],
            [
              116.34184634146342,
              40.009
            ],
            [
              116.3427,
              40.0265
            ],
            [
              116.3553,
              40.0265
            ],
            [
              116.35434109589042,
              40.009
            ]
          ]
        ]
      }
    }
  ]
}
