{
  "type": "FeatureCollection",
  "name": "safe_return_line_operational_research_phasing",
  "features": [
    {
      "type": "Feature",
      "id": "PHASE-001",
      "properties": {
        "id": "PHASE-001",
        "source_type": "agent_generated_design",
        "confidence": "low",
        "geometry_role": "design_proposal",
        "conceptual_only": true,
        "not_statutory_planning": true,
        "layer": "PHASE",
        "phase": "phase_1",
        "name_zh": "90天南部双入口验证范围",
        "name_en": "90-day southern dual-entrance validation",
        "area_sqm_declared": 720454.219,
        "usage_note": "运营研究分期，不代表建设、土地开发、资金或审批时序。"
      },
      "geometry": {
        "type": "Polygon",
        "coordinates": [
          [
            [
              116.342,
              39.944
            ],
            [
              116.355,
              39.944
            ],
            [
              116.355,
              39.94984
            ],
            [
              116.342,
              39.94984
            ],
            [
              116.342,
              39.944
            ]
          ]
        ]
      }
    },
    {
      "type": "Feature",
      "id": "PHASE-002",
      "properties": {
        "id": "PHASE-002",
        "source_type": "agent_generated_design",
        "confidence": "low",
        "geometry_role": "design_proposal",
        "conceptual_only": true,
        "not_statutory_planning": true,
        "layer": "PHASE",
        "phase": "phase_2",
        "name_zh": "中部公共协作与协议发布范围",
        "name_en": "Central public collaboration and protocol release",
        "area_sqm_declared": 1043236.909,
        "usage_note": "运营研究分期，不代表建设、土地开发、资金或审批时序。"
      },
      "geometry": {
        "type": "Polygon",
        "coordinates": [
          [
            [
              116.342,
              39.9835
            ],
            [
              116.353,
              39.9835
            ],
            [
              116.353,
              39.9935
            ],
            [
              116.342,
              39.9935
            ],
            [
              116.342,
              39.9835
            ]
          ]
        ]
      }
    },
    {
      "type": "Feature",
      "id": "PHASE-003",
      "properties": {
        "id": "PHASE-003",
        "source_type": "agent_generated_design",
        "confidence": "low",
        "geometry_role": "design_proposal",
        "conceptual_only": true,
        "not_statutory_planning": true,
        "layer": "PHASE",
        "phase": "phase_3",
        "name_zh": "北部合成验证与开放评估范围",
        "name_en": "Northern synthetic validation and open evaluation",
        "area_sqm_declared": 1929201.877,
        "usage_note": "运营研究分期，不代表建设、土地开发、资金或审批时序。"
      },
      "geometry": {
        "type": "Polygon",
        "coordinates": [
          [
            [
              116.343,
              40.0075
            ],
            [
              116.354,
              40.0075
            ],
            [
              116.354,
              40.026
            ],
            [
              116.343,
              40.026
            ],
            [
              116.343,
              40.0075
            ]
          ]
        ]
      }
    }
  ]
}
