{
  "type": "FeatureCollection",
  "name": "jingzhang_civic_stack_public_space",
  "features": [
    {
      "type": "Feature",
      "id": "PUBLIC-001",
      "properties": {
        "id": "PUBLIC-001",
        "layer": "PUBLIC_SPACE",
        "source_type": "agent_generated_design",
        "confidence": "medium",
        "geometry_role": "design_proposal",
        "control_status": "conceptual_non_statutory",
        "name_zh": "公共协议步道与五个可停留论坛",
        "area_sqm": 593063.382,
        "public_access_rule": "no app, payment or identity credential required for basic access",
        "accessibility_intent": "continuous step-free route with rest points and human help desks"
      },
      "geometry": {
        "type": "Polygon",
        "coordinates": [
          [
            [
              116.34903117132066,
              39.94683531473222
            ],
            [
              116.3489963084467,
              39.94675856027948
            ],
            [
              116.34895183898897,
              39.94668480551622
            ],
            [
              116.34889819123659,
              39.94661476073065
            ],
            [
              116.34883588186486,
              39.946549100480276
            ],
            [
              116.3487655109586,
              39.94648845709606
            ],
            [
              116.3486877562326,
              39.94643341459309
            ],
            [
              116.34860336650469,
              39.946384503046815
            ],
            [
              116.34851315448437,
              39.946342193488746
            ],
            [
              116.34841798894617,
              39.9463068933705
            ],
            [
              116.34831878636375,
              39.946278942640426
            ],
            [
              116.34830013037428,
              39.94627523419197
            ],
            [
              116.34810061068356,
              39.94026503154886
            ],
            [
              116.34744563509304,
              39.940277911974384
            ],
            [
              116.34764511149037,
              39.9462885375305
            ],
            [
              116.34759411110578,
              39.94630226000381
            ],
            [
              116.34749828556345,
              39.946336486012484
            ],
            [
              116.34740727993488,
              39.946377776422835
            ],
            [
              116.34732197063593,
              39.94642573359777
            ],
            [
              116.34724317923029,
              39.9464798956966
            ],
            [
              116.34717166451775,
              39.94653974112255
            ],
            [
              116.34710811522672,
              39.94660469354538
            ],
            [
              116.3470531433814,
              39.94667412745121
            ],
            [
              116.34700727840719,
              39.946747374166115
            ],
            [
              116.34697096203138,
              39.94682372829528
            ],
            [
              116.34694454402828,
              39.946902454515914
            ],
            [
              116.34692827884959,
              39.94698279465849
            ],
            [
              116.34692232317266,
              39.947063975008035
            ],
            [
              116.34692673439032,
              39.94714521375529
            ],
            [
              116.34694147005668,
              39.947225728525815
            ],
            [
              116.34696638829459,
              39.947304743914806
            ],
            [
              116.34700124916051,
              39.94738149895475
            ],
            [
              116.34704571695421,
              39.94745525444416
            ],
            [
              116.34709936345043,
              39.947525300066935
            ],
            [
              116.34716167202224,
              39.94759096123339
            ],
            [
              116.3472320426155,
              39.94765160557736
            ],
            [
              116.34730979752746,
              39.947706649046886
            ],
            [
              116.34739418793313,
              39.947755561529334
            ],
            [
              116.34748440109705,
              39.94779787195726
            ],
            [
              116.3475795682006,
              39.94783317284561
            ],
            [
              116.34767877271008,
              39.94786112421644
            ],
            [
              116.3476974290943,
              39.947864832767074
            ],
            [
              116.34807037701994,
              39.95909983015213
            ],
            [
              116.34795859986025,
              39.96084836978928
            ],
            [
              116.34790092193586,
              39.9608638856951
            ],
            [
              116.34781966135846,
              39.96089290340803
            ],
            [
              116.34774248812013,
              39.96092791049572
            ],
            [
              116.34767014542832,
              39.96096856982946
            ],
            [
              116.34760332997449,
              39.96101448984712
            ],
            [
              116.34754268522467,
              39.961065228323776
            ],
            [
              116.34748879522292,
              39.96112029663017
            ],
            [
              116.3474421789664,
              39.96117916443809
            ],
            [
              116.34740328540703,
              39.96124126482738
            ],
            [
              116.34737248912721,
              39.96130599974532
            ],
            [
              116.34735008673196,
              39.9613727457659
            ],
            [
              116.34733629399149,
              39.96144086009348
            ],
            [
              116.34733124376248,
              39.96150968675313
            ],
            [
              116.3473349847076,
              39.961578562907796
            ],
            [
              116.34734748082577,
              39.96164682524188
            ],
            [
              116.34736861179798,
              39.96171381634919
            ],
            [
              116.34739817414497,
              39.961778891064334
            ],
            [
              116.34743588318597,
              39.961841422676166
            ],
            [
              116.34748137577954,
              39.96190080896354
            ],
            [
              116.34753421382015,
              39.96195647799541
            ],
            [
              116.34759388845687,
              39.96200789363904
            ],
            [
              116.34765982499358,
              39.96205456072375
            ],
            [
              116.34773138842348,
              39.962096029810006
            ],
            [
              116.34780788954457,
              39.96213190151812
            ],
            [
              116.34787495471377,
              39.962156773057856
            ],
            [
              116.3467641004529,
              39.97952783280384
            ],
            [
              116.34670640650604,
              39.97954334793689
            ],
            [
              116.34662512320398,
              39.97957236453703
            ],
            [
              116.34654792822671,
              39.97960737054292
            ],
            [
              116.34647556499108,
              39.97964802883626
            ],
            [
              116.3464087303863,
              39.979693947864924
            ],
            [
              116.34634806806291,
              39.979744685413536
            ],
            [
              116.34629416223416,
              39.97979975286178
            ],
            [
              116.34624753204969,
              39.97985861988973
            ],
            [
              116.34620862659548,
              39.97992071958473
            ],
            [
              116.34617782056858,
              39.979985453900746
            ],
            [
              116.34615541066788,
              39.980052199417585
            ],
            [
              116.34614161273589,
              39.98012031334447
            ],
            [
              116.34613655967931,
              39.980189139710305
            ],
            [
              116.34614030018803,
              39.9802580156809
            ],
            [
              116.34615279826522,
              39.980326277942396
            ],
            [
              116.34617393357303,
              39.9803932690893
            ],
            [
              116.34620350259047,
              39.98045834395588
            ],
            [
              116.34624122057257,
              39.98052087582948
            ],
            [
              116.34628672429177,
              39.98058026248646
            ],
            [
              116.34633957553544,
              39.98063593199218
            ],
            [
              116.34639926532546,
              39.980687348209365
            ],
            [
              116.34646521881983,
              39.98073401596179
            ],
            [
              116.34653680084836,
              39.98077548580347
            ],
            [
              116.34661332203,
              39.98081135834747
            ],
            [
              116.3466804049243,
              39.98083623064198
            ],
            [
              116.34655877860958,
              39.98273749487293
            ],
            [
              116.34730460934438,
              39.996536617040164
            ],
            [
              116.34724293293867,
              39.99655862907496
            ],
            [
              116.3471657190299,
              39.99659363523891
            ],
            [
              116.34709333809191,
              39.996634293658055
            ],
            [
              116.34702648718442,
              39.99668021277907
            ],
            [
              116.34696581011497,
              39.99673095038569
            ],
            [
              116.34691189123882,
              39.99678601785703
            ],
            [
              116.34686524983123,
              39.99684488487294
            ],
            [
              116.34682633508638,
              39.996906984520926
            ],
            [
              116.34679552179072,
              39.99697171875539
            ],
            [
              116.34677310671316,
              39.99703846415691
            ],
            [
              116.3467593057461,
              39.997106577935845
            ],
            [
              116.34675425182552,
              39.99717540412252
            ],
            [
              116.3467579936496,
              39.99724427988447
            ],
            [
              116.34677049520894,
              39.997312541909835
            ],
            [
              116.34679163613211,
              39.99737953279542
            ],
            [
              116.34682121284408,
              39.997444607377986
            ],
            [
              116.3468589405258,
              39.9975071389476
            ],
            [
              116.34690445585632,
              39.99756652528356
            ],
            [
              116.34695732051115,
              39.99762219445431
            ],
            [
              116.34701702538311,
              39.997673610325805
            ],
            [
              116.34708299548487,
              39.997720277725115
            ],
            [
              116.34715459548633,
              39.99776174720968
            ],
            [
              116.34723113583335,
              39.997797619395975
            ],
            [
              116.34731187938866,
              39.99782754880622
            ],
            [
              116.34737536291858,
              39.997845423029254
            ],
            [
              116.34778997678009,
              40.0055141026619
            ],
            [
              116.34713747761529,
              40.018467511016304
            ],
            [
              116.34712024561397,
              40.018470726750664
            ],
            [
              116.3470204173653,
              40.01849755708011
            ],
            [
              116.34692449013797,
              40.018531781375785
            ],
            [
              116.34683338773952,
              40.0185730700495
            ],
            [
              116.34674798751776,
              40.01862102548084
            ],
            [
              116.34666911191188,
              40.018675185846014
            ],
            [
              116.3465975205326,
              40.01873502956492
            ],
            [
              116.3465339028467,
              40.01879998032383
            ],
            [
              116.3464788715371,
              40.01886941262492
            ],
            [
              116.34643295660187,
              40.01894265780975
            ],
            [
              116.3463966002496,
              40.01901901049825
            ],
            [
              116.34637015263966,
              40.01909773538155
            ],
            [
              116.346353868509,
              40.019178074303
            ],
            [
              116.34634790471763,
              40.01925925355942
            ],
            [
              116.34635231873663,
              40.019340491352075
            ],
            [
              116.34636706809331,
              40.01942100531571
            ],
            [
              116.34639201077874,
              40.01950002005328
            ],
            [
              116.34642690661411,
              40.019576774603514
            ],
            [
              116.34647141956246,
              40.01965052976969
            ],
            [
              116.34652512096383,
              40.0197205752387
            ],
            [
              116.34658749366253,
              40.019786236422355
            ],
            [
              116.3466579369869,
              40.01984688095432
            ],
            [
              116.34673577253379,
              40.01990192478072
            ],
            [
              116.34682025070161,
              40.0199508377855
            ],
            [
              116.34691055790965,
              40.019993148896134
            ],
            [
              116.34700582443362,
              40.02002845062096
            ],
            [
              116.34705808851184,
              40.0200431614214
            ],
            [
              116.3467981461431,
              40.02520170732653
            ],
            [
              116.34745365558834,
              40.025221229933194
            ],
            [
              116.34771352554016,
              40.02006314196399
            ],
            [
              116.34773075791644,
              40.02005992614528
            ],
            [
              116.3478305881804,
              40.02003309522711
            ],
            [
              116.3479265170778,
              40.01999887020339
            ],
            [
              116.34801762073694,
              40.01995758069032
            ],
            [
              116.34810302176156,
              40.01990962434053
            ],
            [
              116.34818189768156,
              40.019855463013144
            ],
            [
              116.3482534888742,
              40.01979561832519
            ],
            [
              116.34831710587987,
              40.01973066662768
            ],
            [
              116.34837213604183,
              40.01966123345452
            ],
            [
              116.34841804940602,
              40.01958798749763
            ],
            [
              116.34845440382428,
              40.019511634166754
            ],
            [
              116.34848084921157,
              40.01943290879545
            ],
            [
              116.34849713091631,
              40.019352569559125
            ],
            [
              116.34850309217178,
              40.01927139017305
            ],
            [
              116.34849867560429,
              40.019190152440984
            ],
            [
              116.34848392378451,
              40.0191096387258
            ],
            [
              116.34845897881603,
              40.019030624415024
            ],
            [
              116.34842408096539,
              40.01895387045351
            ],
            [
              116.34837956634694,
              40.018880116015374
            ],
            [
              116.34832586368489,
              40.018810071385715
            ],
            [
              116.34826349018337,
              40.01874441112052
            ],
            [
              116.34819304654484,
              40.01868376755078
            ],
            [
              116.34811521118458,
              40.0186287246934
            ],
            [
              116.34803073369696,
              40.018579812627216
            ],
            [
              116.3479404276366,
              40.01853750238866
            ],
            [
              116.34784516268365,
              40.01850220143589
            ],
            [
              116.34779289960281,
              40.01848749099462
            ],
            [
              116.34844631725005,
              40.005513382088786
            ],
            [
              116.3480305363244,
              39.997824478485626
            ],
            [
              116.3480922136273,
              39.997802466043574
            ],
            [
              116.34816942844125,
              39.997767459276744
            ],
            [
              116.34824180995568,
              39.997726800197945
            ],
            [
              116.34830866108871,
              39.99768088038581
            ],
            [
              116.34836933802417,
              39.9976301420832
            ],
            [
              116.3484232564119,
              39.997575073937725
            ],
            [
              116.34846989699541,
              39.99751620629542
            ],
            [
              116.34850881061226,
              39.99745410609292
            ],
            [
              116.34853962251927,
              39.99738937139707
            ],
            [
              116.34856203600093,
              39.99732262564503
            ],
            [
              116.34857583522613,
              39.997254511639944
            ],
            [
              116.3485808873259,
              39.99718568536015
            ],
            [
              116.34857714367195,
              39.99711680964171
            ],
            [
              116.3485646403441,
              39.99704854779479
            ],
            [
              116.34854349778165,
              39.996981557215726
            ],
            [
              116.34851391962266,
              39.99691648305602
            ],
            [
              116.3484761907418,
              39.99685395200932
            ],
            [
              116.3484306745061,
              39.99679456627622
            ],
            [
              116.34837780927482,
              39.996738897765134
            ],
            [
              116.34831810417732,
              39.996687482584754
            ],
            [
              116.34825213420956,
              39.99664081588145
            ],
            [
              116.3481805346965,
              39.996599347071026
            ],
            [
              116.34810399517355,
              39.9965634755111
            ],
            [
              116.34802325274627,
              39.996533546655385
            ],
            [
              116.3479597702528,
              39.99651567279161
            ],
            [
              116.34721504359685,
              39.98273941798394
            ],
            [
              116.34733520704226,
              39.98086074044318
            ],
            [
              116.34739290196323,
              39.98084522500842
            ],
            [
              116.34747418646346,
              39.9808162078857
            ],
            [
              116.34755138234519,
              39.98078120127733
            ],
            [
              116.34762374615681,
              39.98074054232474
            ],
            [
              116.347690580987,
              39.98069462260538
            ],
            [
              116.34775124317656,
              39.98064388436118
            ],
            [
              116.34780514851737,
              39.98058881623919
            ],
            [
              116.34785177787853,
              39.98052994858523
            ],
            [
              116.34789068220569,
              39.98046784833602
            ],
            [
              116.34792148684512,
              39.980403113558864
            ],
            [
              116.34794389515132,
              39.98033636769169
            ],
            [
              116.34795769134297,
              39.98026825353877
            ],
            [
              116.34796274258028,
              39.980199427079846
            ],
            [
              116.34795900024326,
              39.98013055115269
            ],
            [
              116.34794650039902,
              39.98006228906951
            ],
            [
              116.34792536345331,
              39.97999529822891
            ],
            [
              116.34789579299006,
              39.97993022378491
            ],
            [
              116.3478580738098,
              39.97986769243388
            ],
            [
              116.34781256918613,
              39.97980830637939
            ],
            [
              116.34775971736646,
              39.979752637532926
            ],
            [
              116.34770002735102,
              39.97970122200644
            ],
            [
              116.34763407399049,
              39.97965455494959
            ],
            [
              116.34756249244991,
              39.979613085781644
            ],
            [
              116.34748597209158,
              39.97957721386366
            ],
            [
              116.3474188901239,
              39.97955234203756
            ],
            [
              116.3485295792086,
              39.96218127476137
            ],
            [
              116.34858725810616,
              39.96216575855401
            ],
            [
              116.34866851988056,
              39.96213674031885
            ],
            [
              116.34874569402244,
              39.96210173262905
            ],
            [
              116.3488180372896,
              39.962061072636466
            ],
            [
              116.34888485296858,
              39.96201515192858
            ],
            [
              116.34894549758461,
              39.9619644127568
            ],
            [
              116.3489993870988,
              39.96190934377713
            ],
            [
              116.3490460025327,
              39.96185047534363
            ],
            [
              116.34908489496604,
              39.961788374400506
            ],
            [
              116.34911568985964,
              39.96172363902177
            ],
            [
              116.34913809066182,
              39.96165689265114
            ],
            [
              116.34915188166354,
              39.961588778097685
            ],
            [
              116.34915693007494,
              39.96151995134504
            ],
            [
              116.34915318730324,
              39.96145107523382
            ],
            [
              116.3491406894197,
              39.96138281307797
            ],
            [
              116.34911955681115,
              39.961315822276816
            ],
            [
              116.34908999301976,
              39.961250747983975
            ],
            [
              116.34905228278177,
              39.96118821689439
            ],
            [
              116.34900678928464,
              39.961128831209116
            ],
            [
              116.34895395066863,
              39.96107316283609
            ],
            [
              116.34889427580679,
              39.9610217478827
            ],
            [
              116.34882833940385,
              39.960975081493096
            ],
            [
              116.34875677646154,
              39.96093361308013
            ],
            [
              116.34868027616307,
              39.96089774199758
            ],
            [
              116.34861321191967,
              39.960872870925925
            ],
            [
              116.34872615773706,
              39.959105785876815
            ],
            [
              116.34835246301074,
              39.94785152925742
            ],
            [
              116.34840346440308,
              39.94783780646217
            ],
            [
              116.34849929160944,
              39.94780357972736
            ],
            [
              116.34859029849413,
              39.94776228847979
            ],
            [
              116.348675608593,
              39.947714330388784
            ],
            [
              116.34875440031166,
              39.9476601673302
            ],
            [
              116.34882591483826,
              39.94760032093771
            ],
            [
              116.3488894634515,
              39.94753536757868
            ],
            [
              116.34894443415325,
              39.947465932803
            ],
            [
              116.34899029756208,
              39.947392685317986
            ],
            [
              116.34902661201083,
              39.94731633054808
            ],
            [
              116.34905302779929,
              39.94723760384067
            ],
            [
              116.34906929056079,
              39.947157263384014
            ],
            [
              116.34907524371094,
              39.947076082905134
            ],
            [
              116.34907082995399,
              39.94699484421828
            ],
            [
              116.3490560918334,
              39.94691432969554
            ],
            [
              116.34903117132066,
              39.94683531473222
            ]
          ]
        ]
      }
    }
  ]
}
