{
  "type": "FeatureCollection",
  "name": "jingzhi_belt_phasing",
  "features": [
    {
      "type": "Feature",
      "id": "PHASE-001",
      "properties": {
        "id": "PHASE-001",
        "layer": "PHASE",
        "source_type": "agent_generated_design",
        "confidence": "medium",
        "geometry_role": "design_proposal",
        "phase": "phase_1",
        "name_zh": "近期启动：大钟寺站城一体与公园南段",
        "area_sqm_declared": 5224741.1
      },
      "geometry": {
        "type": "Polygon",
        "coordinates": [
          [
            [
              116.3407,
              39.939
            ],
            [
              116.3397,
              39.975
            ],
            [
              116.33974839,
              39.97575
            ],
            [
              116.35444,
              39.97575
            ],
            [
              116.3553,
              39.965
            ],
            [
              116.3553,
              39.939
            ],
            [
              116.3407,
              39.939
            ]
          ]
        ]
      }
    },
    {
      "type": "Feature",
      "id": "PHASE-002",
      "properties": {
        "id": "PHASE-002",
        "layer": "PHASE",
        "source_type": "agent_generated_design",
        "confidence": "medium",
        "geometry_role": "design_proposal",
        "phase": "phase_2",
        "name_zh": "中期推进：原点社区近校更新与公园中段",
        "area_sqm_declared": 3277393.587
      },
      "geometry": {
        "type": "Polygon",
        "coordinates": [
          [
            [
              116.3533,
              39.99
            ],
            [
              116.35444,
              39.97575
            ],
            [
              116.33974839,
              39.97575
            ],
            [
              116.34144194,
              40.002
            ],
            [
              116.35395753,
              40.002
            ],
            [
              116.3533,
              39.99
            ]
          ]
        ]
      }
    },
    {
      "type": "Feature",
      "id": "PHASE-003",
      "properties": {
        "id": "PHASE-003",
        "layer": "PHASE",
        "source_type": "agent_generated_design",
        "confidence": "medium",
        "geometry_role": "design_proposal",
        "phase": "phase_3",
        "name_zh": "远期统筹：众智园北段与清河界面",
        "area_sqm_declared": 2910687.936
      },
      "geometry": {
        "type": "Polygon",
        "coordinates": [
          [
            [
              116.35395753,
              40.002
            ],
            [
              116.34144194,
              40.002
            ],
            [
              116.3417,
              40.006
            ],
            [
              116.3427,
              40.0265
            ],
            [
              116.3553,
              40.0265
            ],
            [
              116.35395753,
              40.002
            ]
          ]
        ]
      }
    }
  ]
}
