{
  "type": "FeatureCollection",
  "name": "civic-service-relay-concept-anchors",
  "crs": {
    "type": "name",
    "properties": {
      "name": "urn:ogc:def:crs:OGC:1.3:CRS84"
    }
  },
  "features": [
    {
      "type": "Feature",
      "id": "LCK-NODE-01",
      "properties": {
        "id": "LCK-NODE-01",
        "layer": "SCENARIO_NODE",
        "source_type": "agent_generated_design",
        "confidence": "low",
        "geometry_role": "design_proposal",
        "name_zh": "夜间安心驿站",
        "name_en": "NIGHT SUPPORT STATION",
        "constraint_type": "conceptual_civic_service_interface",
        "technical_alias": "life_capacity_interface",
        "status": "provisional_design_anchor",
        "official_boundary": false,
        "scenario_slug": "public-safety-operations-review",
        "source": "designer-derived centroid of provisional key-area geometry",
        "warning": "Concept anchor only; not an approved site or engineering location."
      },
      "geometry": {
        "type": "Point",
        "coordinates": [
          116.3474,
          40.0149
        ]
      }
    },
    {
      "type": "Feature",
      "id": "LCK-NODE-02",
      "properties": {
        "id": "LCK-NODE-02",
        "layer": "SCENARIO_NODE",
        "source_type": "agent_generated_design",
        "confidence": "low",
        "geometry_role": "design_proposal",
        "name_zh": "共享照护小院",
        "name_en": "SHARED CARE COURTYARD",
        "constraint_type": "conceptual_civic_service_interface",
        "technical_alias": "life_capacity_interface",
        "status": "provisional_design_anchor",
        "official_boundary": false,
        "scenario_slug": "enterprise-service-copilot",
        "source": "designer-derived centroid of provisional key-area geometry",
        "warning": "Concept anchor only; not an approved site or engineering location."
      },
      "geometry": {
        "type": "Point",
        "coordinates": [
          116.34639999999999,
          39.9875
        ]
      }
    },
    {
      "type": "Feature",
      "id": "LCK-NODE-03",
      "properties": {
        "id": "LCK-NODE-03",
        "layer": "SCENARIO_NODE",
        "source_type": "agent_generated_design",
        "confidence": "low",
        "geometry_role": "design_proposal",
        "name_zh": "全时便民服务厅",
        "name_en": "ALL-HOURS CIVIC SERVICE HALL",
        "constraint_type": "conceptual_civic_service_interface",
        "technical_alias": "life_capacity_interface",
        "status": "provisional_design_anchor",
        "official_boundary": false,
        "scenario_slug": "ai-traffic-walkability",
        "source": "designer-derived centroid of provisional key-area geometry",
        "warning": "Concept anchor only; not an approved site or engineering location."
      },
      "geometry": {
        "type": "Point",
        "coordinates": [
          116.3472,
          39.946336
        ]
      }
    }
  ]
}
