{
  "type": "FeatureCollection",
  "name": "jz_1x1_algorithmic_exposure_cadastre_nodes",
  "layer_semantics": "SCENARIO_NODE anchors plus AI_SERVICE_ZONE conceptual algorithmic exposure envelopes",
  "constraint_status": "not_a_regulatory_constraint_layer",
  "regulatory_controls_source": "not_available_in_site_package",
  "usage_boundary": "conceptual design and pilot-review aid only; not an official redline or approval basis",
  "scenario_card_mapping": "SC-01 through SC-12 each have one conceptual spatial anchor; scenario_id remains a reusable scenario-type taxonomy",
  "operator_assignment_status": "unassigned_pending_ownership_and_operating_agreement",
  "footprint_geometry_status": "conceptual AI_SERVICE_ZONE polygons attached; not measured field-of-view",
  "route_exposure_geometry_status": "ROAD-001 carries the conceptual continuous low-exposure route; field access and accessibility audit remain pending",
  "features": [
    {
      "type": "Feature",
      "id": "NODE-001",
      "properties": {
        "id": "NODE-001",
        "layer": "SCENARIO_NODE",
        "source_type": "agent_generated_design",
        "confidence": "medium",
        "geometry_role": "analysis_helper",
        "name_zh": "铁路文化导览与AI朝圣节点",
        "scenario_role": "cultural",
        "usage_note": "概念场景节点；需在官方边界、产权、交通与安全资料补齐后复核",
        "design_thesis": "JZ 1:1 prototype mesh",
        "evidence_status": "conceptual_reference_proposal",
        "prototype_role": "park_review_face",
        "passport_fields": [
          "version",
          "material",
          "data_license",
          "life_days",
          "owner",
          "tools",
          "maintenance_time",
          "next_destination"
        ],
        "pause_trigger": "copyright_or_historical_claim_challenge|route_conflict|accessible_bypass_missing",
        "scenario_id": "ai-cultural-guide",
        "scenario_card_id": "SC-09",
        "scenario_card_title_zh": "铁路文化导览",
        "scenario_card_title_en": "Railway heritage guide",
        "exposure_level": "N1",
        "sensing_mode": "on_request",
        "operating_hours": "08:00-20:00",
        "retention": "none",
        "human_handover": "human_culture_review",
        "no_capture_mask": "heritage_text_only",
        "expiry": "review_every_90_days",
        "non_ai_equivalent": "paper_or_human_service_available",
        "maintenance_sla_hours": 72,
        "exposure_register": "AI感知地籍概念登记；未登记 footprint 不进入公共空间（概念规则，非法律控制）",
        "zone_id": "ZONE-001",
        "zone_geometry_status": "conceptual_AI_SERVICE_ZONE_polygon_attached",
        "zone_kind": "controlled_public_explanation",
        "footprint_geometry_status": "conceptual_zone_not_measured_field_of_view",
        "operator_role": "heritage_interpretation_team",
        "independent_reviewer": "heritage_rights_and_accessibility_reviewer",
        "asset_owner_role": "park_or_heritage_asset_holder_to_be_named",
        "ai_input": "rights_cleared_railway_text_and_public_questions",
        "ai_role": "suggested multilingual routes and questions; curator decides published text",
        "human_equivalent": "curated_static_panel|paper_map|human_guide",
        "exit_action": "remove_ai_layer_restore_cleared_panel_or_relocate_reusable_kit",
        "evidence_record_template": [
          "source_rights_check",
          "curator_signoff",
          "accessible_route_walk",
          "withdrawal_log"
        ],
        "control_record_status": "conceptual_template_pending_field_witness",
        "stop_state_transition": "AI_SERVICE_ZONE_to_N0_then_ordinary_service_continues"
      },
      "geometry": {
        "type": "Point",
        "coordinates": [
          116.346,
          39.9477
        ]
      }
    },
    {
      "type": "Feature",
      "id": "NODE-002",
      "properties": {
        "id": "NODE-002",
        "layer": "SCENARIO_NODE",
        "source_type": "agent_generated_design",
        "confidence": "medium",
        "geometry_role": "analysis_helper",
        "name_zh": "社区服务解释与可退出节点",
        "scenario_role": "civic-agent",
        "usage_note": "概念场景节点；需在官方边界、产权、交通与安全资料补齐后复核",
        "design_thesis": "JZ 1:1 prototype mesh",
        "evidence_status": "conceptual_reference_proposal",
        "prototype_role": "offline_service_room",
        "passport_fields": [
          "version",
          "material",
          "data_license",
          "life_days",
          "owner",
          "tools",
          "maintenance_time",
          "next_destination"
        ],
        "pause_trigger": "wrong_service_route|sensitive_data_request|offline_queue_failure|access_complaint_unresolved",
        "scenario_id": "enterprise-service-copilot",
        "scenario_card_id": "SC-05",
        "scenario_card_title_zh": "社区服务房",
        "scenario_card_title_en": "Community service room",
        "exposure_level": "N0",
        "sensing_mode": "always_off",
        "operating_hours": "offline_only",
        "retention": "none",
        "human_handover": "service_desk",
        "no_capture_mask": "no_capture",
        "expiry": "review_every_90_days",
        "non_ai_equivalent": "paper_or_human_service_available",
        "maintenance_sla_hours": 72,
        "exposure_register": "AI感知地籍概念登记；未登记 footprint 不进入公共空间（概念规则，非法律控制）",
        "zone_id": "ZONE-002",
        "zone_geometry_status": "conceptual_AI_SERVICE_ZONE_polygon_attached",
        "zone_kind": "no_sensing_service_room",
        "footprint_geometry_status": "conceptual_zone_not_measured_field_of_view",
        "operator_role": "community_service_desk",
        "independent_reviewer": "care_service_privacy_and_accessibility_reviewer",
        "asset_owner_role": "community_service_asset_holder_to_be_named",
        "ai_input": "versioned_public_service_guides_only",
        "ai_role": "optional retrieval of public information; never diagnoses or stores case files",
        "human_equivalent": "staffed_counter|paper_form|telephone_or_in_person_referral",
        "exit_action": "switch_interface_off_keep_counter_open|repair_content|remove_kit",
        "evidence_record_template": [
          "version_check",
          "offline_drill",
          "staff_handover_log",
          "complaint_closeout"
        ],
        "control_record_status": "conceptual_template_pending_field_witness",
        "stop_state_transition": "AI_SERVICE_ZONE_to_N0_then_ordinary_service_continues"
      },
      "geometry": {
        "type": "Point",
        "coordinates": [
          116.3466,
          39.9883
        ]
      }
    },
    {
      "type": "Feature",
      "id": "NODE-003",
      "properties": {
        "id": "NODE-003",
        "layer": "SCENARIO_NODE",
        "source_type": "agent_generated_design",
        "confidence": "medium",
        "geometry_role": "analysis_helper",
        "name_zh": "近校成果转化节点",
        "scenario_role": "enterprise",
        "usage_note": "概念场景节点；需在官方边界、产权、交通与安全资料补齐后复核",
        "design_thesis": "JZ 1:1 prototype mesh",
        "evidence_status": "conceptual_reference_proposal",
        "prototype_role": "translation_room",
        "passport_fields": [
          "version",
          "material",
          "data_license",
          "life_days",
          "owner",
          "tools",
          "maintenance_time",
          "next_destination"
        ],
        "pause_trigger": "licence_withdrawal|misattribution|campus_privacy_risk|manual_review_overdue",
        "scenario_id": "enterprise-service-copilot",
        "scenario_card_id": "SC-04",
        "scenario_card_title_zh": "近校成果转译房",
        "scenario_card_title_en": "Near-campus research translation room",
        "exposure_level": "N1",
        "sensing_mode": "on_request",
        "operating_hours": "09:00-18:00",
        "retention": "none",
        "human_handover": "ip_service_reviewer",
        "no_capture_mask": "campus_and_home_mask",
        "expiry": "review_every_90_days",
        "non_ai_equivalent": "paper_or_human_service_available",
        "maintenance_sla_hours": 72,
        "exposure_register": "AI感知地籍概念登记；未登记 footprint 不进入公共空间（概念规则，非法律控制）",
        "zone_id": "ZONE-003",
        "zone_geometry_status": "conceptual_AI_SERVICE_ZONE_polygon_attached",
        "zone_kind": "on_request_translation_room",
        "footprint_geometry_status": "conceptual_zone_not_measured_field_of_view",
        "operator_role": "research_translation_and_ip_desk",
        "independent_reviewer": "rights_holder_and_ip_reviewer",
        "asset_owner_role": "campus_or_innovation_asset_holder_to_be_named",
        "ai_input": "licensed_research_abstracts_and_public_patents",
        "ai_role": "maps research to candidate room programs; rights holder approves display",
        "human_equivalent": "staffed_translation_desk|printed_brief|appointment_referral",
        "exit_action": "unpublish_claimed_content|retain_neutral_room|transfer_components_to_reuse_catalogue",
        "evidence_record_template": [
          "licence_receipt",
          "rights_holder_approval",
          "room_use_log",
          "withdrawal_and_restore_log"
        ],
        "control_record_status": "conceptual_template_pending_field_witness",
        "stop_state_transition": "AI_SERVICE_ZONE_to_N0_then_ordinary_service_continues"
      },
      "geometry": {
        "type": "Point",
        "coordinates": [
          116.3477,
          39.9883
        ]
      }
    },
    {
      "type": "Feature",
      "id": "NODE-004",
      "properties": {
        "id": "NODE-004",
        "layer": "SCENARIO_NODE",
        "source_type": "agent_generated_design",
        "confidence": "medium",
        "geometry_role": "analysis_helper",
        "name_zh": "模型红队沙盒节点",
        "scenario_role": "test-yard",
        "usage_note": "概念场景节点；需在官方边界、产权、交通与安全资料补齐后复核",
        "design_thesis": "JZ 1:1 prototype mesh",
        "evidence_status": "conceptual_reference_proposal",
        "prototype_role": "prototype_room",
        "passport_fields": [
          "version",
          "material",
          "data_license",
          "life_days",
          "owner",
          "tools",
          "maintenance_time",
          "next_destination"
        ],
        "pause_trigger": "misdirection|obstruction|audio_conflict|accessible_bypass_missing|red_team_failure",
        "scenario_id": "prototype-room-wayfinding",
        "scenario_card_id": "SC-01",
        "scenario_card_title_zh": "原型房：无障碍多语言导视",
        "scenario_card_title_en": "Prototype room: accessible multilingual wayfinding",
        "exposure_level": "N3",
        "sensing_mode": "controlled_test",
        "operating_hours": "09:00-17:00",
        "retention": "event_log_30d",
        "human_handover": "safety_reviewer",
        "no_capture_mask": "public_boundary_mask",
        "expiry": "after_90_day_trial",
        "non_ai_equivalent": "paper_or_human_service_available",
        "maintenance_sla_hours": 24,
        "exposure_register": "AI感知地籍概念登记；未登记 footprint 不进入公共空间（概念规则，非法律控制）",
        "zone_id": "ZONE-004",
        "zone_geometry_status": "conceptual_AI_SERVICE_ZONE_polygon_attached",
        "zone_kind": "closed_test_room",
        "footprint_geometry_status": "conceptual_zone_not_measured_field_of_view",
        "operator_role": "prototype_safety_steward",
        "independent_reviewer": "independent_safety_and_accessibility_reviewer",
        "asset_owner_role": "innovation_asset_holder_to_be_named",
        "ai_input": "cleared_synthetic_test_set_and_model_card",
        "ai_role": "generate candidate wayfinding variants for controlled 1:1 test only",
        "human_equivalent": "static_signage|tactile_map|human_steward",
        "exit_action": "set_zone_to_N0|restore_baseline_signage|repair_or_disassemble_for_reuse",
        "evidence_record_template": [
          "model_card",
          "entry_checklist",
          "group_route_witness",
          "fault_and_stop_log"
        ],
        "control_record_status": "conceptual_template_pending_field_witness",
        "stop_state_transition": "AI_SERVICE_ZONE_to_N0_then_ordinary_service_continues"
      },
      "geometry": {
        "type": "Point",
        "coordinates": [
          116.3497,
          40.0205
        ]
      }
    },
    {
      "type": "Feature",
      "id": "NODE-005",
      "properties": {
        "id": "NODE-005",
        "layer": "SCENARIO_NODE",
        "source_type": "agent_generated_design",
        "confidence": "medium",
        "geometry_role": "analysis_helper",
        "name_zh": "共享制作课程与低碳算力接口节点",
        "scenario_role": "infrastructure",
        "usage_note": "概念场景节点；需在官方边界、产权、交通与安全资料补齐后复核",
        "design_thesis": "JZ 1:1 prototype mesh",
        "evidence_status": "conceptual_reference_proposal",
        "prototype_role": "interface_box",
        "passport_fields": [
          "version",
          "material",
          "data_license",
          "life_days",
          "owner",
          "tools",
          "maintenance_time",
          "next_destination"
        ],
        "pause_trigger": "unsafe_device_state|energy_or_heat_alarm|unconsented_participant_record|instructor_override_missing",
        "scenario_id": "low-carbon-computing-kiosk",
        "scenario_card_id": "SC-06",
        "scenario_card_title_zh": "共享制作课程",
        "scenario_card_title_en": "Shared making course",
        "exposure_level": "N1",
        "sensing_mode": "on_request",
        "operating_hours": "09:00-18:00",
        "retention": "aggregate_24h",
        "human_handover": "energy_operator",
        "no_capture_mask": "device_log_mask",
        "expiry": "review_every_90_days",
        "non_ai_equivalent": "paper_or_human_service_available",
        "maintenance_sla_hours": 72,
        "exposure_register": "AI感知地籍概念登记；未登记 footprint 不进入公共空间（概念规则，非法律控制）",
        "zone_id": "ZONE-005",
        "zone_geometry_status": "conceptual_AI_SERVICE_ZONE_polygon_attached",
        "zone_kind": "on_request_shared_making",
        "footprint_geometry_status": "conceptual_zone_not_measured_field_of_view",
        "operator_role": "shared_making_course_steward",
        "independent_reviewer": "energy_safety_and_child_safeguarding_reviewer",
        "asset_owner_role": "education_or_innovation_asset_holder_to_be_named",
        "ai_input": "public_course_materials_and_device_telemetry_aggregate_only",
        "ai_role": "suggest session sequence and interface settings; instructor controls equipment",
        "human_equivalent": "printed_curriculum|manual_tool_checkout|instructor_led_session",
        "exit_action": "power_down_interface|retain_room_for_manual_course|repair_or_redeploy_kit",
        "evidence_record_template": [
          "course_plan",
          "equipment_check",
          "instructor_override_test",
          "participant_deletion_log"
        ],
        "control_record_status": "conceptual_template_pending_field_witness",
        "stop_state_transition": "AI_SERVICE_ZONE_to_N0_then_ordinary_service_continues"
      },
      "geometry": {
        "type": "Point",
        "coordinates": [
          116.3489,
          39.9883
        ]
      }
    },
    {
      "type": "Feature",
      "id": "NODE-006",
      "properties": {
        "id": "NODE-006",
        "layer": "SCENARIO_NODE",
        "source_type": "agent_generated_design",
        "confidence": "medium",
        "geometry_role": "analysis_helper",
        "name_zh": "两翼公共反馈与人工复核节点",
        "scenario_role": "governance",
        "usage_note": "概念场景节点；需在官方边界、产权、交通与安全资料补齐后复核",
        "design_thesis": "JZ 1:1 prototype mesh",
        "evidence_status": "conceptual_reference_proposal",
        "prototype_role": "public_feedback_desk",
        "passport_fields": [
          "version",
          "material",
          "data_license",
          "life_days",
          "owner",
          "tools",
          "maintenance_time",
          "next_destination"
        ],
        "pause_trigger": "stale_warning|false_alarm|privacy_boundary_breach|duty_staff_unavailable",
        "scenario_id": "public-safety-operations-review",
        "scenario_card_id": "SC-12",
        "scenario_card_title_zh": "公共韧性提示",
        "scenario_card_title_en": "Public resilience cues",
        "exposure_level": "N2",
        "sensing_mode": "visible_public",
        "operating_hours": "event_only",
        "retention": "event_log_7d",
        "human_handover": "public_operations_team",
        "no_capture_mask": "residential_mask",
        "expiry": "after_90_day_trial",
        "non_ai_equivalent": "paper_or_human_service_available",
        "maintenance_sla_hours": 72,
        "exposure_register": "AI感知地籍概念登记；未登记 footprint 不进入公共空间（概念规则，非法律控制）",
        "zone_id": "ZONE-006",
        "zone_geometry_status": "conceptual_AI_SERVICE_ZONE_polygon_attached",
        "zone_kind": "visible_public_resilience",
        "footprint_geometry_status": "conceptual_zone_not_measured_field_of_view",
        "operator_role": "public_operations_feedback_team",
        "independent_reviewer": "public_interest_and_privacy_reviewer",
        "asset_owner_role": "public_realm_asset_holder_to_be_named",
        "ai_input": "aggregate_weather_water_and_facility_status_plus_public_questions",
        "ai_role": "draft visible resilience cues; duty staff verifies every notice",
        "human_equivalent": "manual_notice_board|staffed_information_point|official_alert_channel",
        "exit_action": "remove_generated_notice|retain_manual_signage|archive_event_record_without_personal_data",
        "evidence_record_template": [
          "source_timestamp",
          "duty_staff_signoff",
          "public_notice_log",
          "false_alarm_review"
        ],
        "control_record_status": "conceptual_template_pending_field_witness",
        "stop_state_transition": "AI_SERVICE_ZONE_to_N0_then_ordinary_service_continues"
      },
      "geometry": {
        "type": "Point",
        "coordinates": [
          116.352,
          40.0202
        ]
      }
    },
    {
      "type": "Feature",
      "id": "NODE-007",
      "properties": {
        "id": "NODE-007",
        "layer": "SCENARIO_NODE",
        "source_type": "agent_generated_design",
        "confidence": "low",
        "geometry_role": "analysis_helper",
        "name_zh": "MAKE 原型护照领取台",
        "prototype_role": "prototype_passport_counter",
        "design_thesis": "JZ 1:1 prototype mesh",
        "evidence_status": "conceptual_reference_proposal",
        "passport_fields": [
          "version",
          "material",
          "data_license",
          "life_days",
          "owner",
          "tools",
          "maintenance_time",
          "next_destination"
        ],
        "pause_trigger": "instability|pinch_hazard|route_obstruction|missing_component_record|repair_tool_inaccessible",
        "scenario_id": "prototype-room-wayfinding",
        "scenario_card_id": "SC-02",
        "scenario_card_title_zh": "原型院：可调公共家具",
        "scenario_card_title_en": "Prototype courtyard: adjustable public furniture",
        "exposure_level": "N3",
        "sensing_mode": "controlled_test",
        "operating_hours": "09:00-17:00",
        "retention": "event_log_30d",
        "human_handover": "accessibility_reviewer",
        "no_capture_mask": "face_and_voice_mask",
        "expiry": "after_90_day_trial",
        "non_ai_equivalent": "paper_or_human_service_available",
        "maintenance_sla_hours": 24,
        "exposure_register": "AI感知地籍概念登记；未登记 footprint 不进入公共空间（概念规则，非法律控制）",
        "zone_id": "ZONE-007",
        "zone_geometry_status": "conceptual_AI_SERVICE_ZONE_polygon_attached",
        "zone_kind": "closed_test_courtyard",
        "footprint_geometry_status": "conceptual_zone_not_measured_field_of_view",
        "operator_role": "prototype_passport_counter_and_material_steward",
        "independent_reviewer": "structural_accessibility_and_material_reuse_reviewer",
        "asset_owner_role": "innovation_asset_holder_to_be_named",
        "ai_input": "model_card|material_passport|user_requested_adjustment_brief",
        "ai_role": "propose adjustable furniture dimensions for a controlled physical test",
        "human_equivalent": "fixed_seating|unobstructed_route|staffed_adjustment_help",
        "exit_action": "set_zone_to_N0|isolate_furniture|restore_fixed_seating|disassemble_for_reuse",
        "evidence_record_template": [
          "material_passport",
          "fit_and_stability_witness",
          "maintenance_tool_check",
          "component_ledger"
        ],
        "control_record_status": "conceptual_template_pending_field_witness",
        "stop_state_transition": "AI_SERVICE_ZONE_to_N0_then_ordinary_service_continues"
      },
      "geometry": {
        "type": "Point",
        "coordinates": [
          116.3509,
          40.0193
        ]
      }
    },
    {
      "type": "Feature",
      "id": "NODE-008",
      "properties": {
        "id": "NODE-008",
        "layer": "SCENARIO_NODE",
        "source_type": "agent_generated_design",
        "confidence": "low",
        "geometry_role": "analysis_helper",
        "name_zh": "TRANSLATE 离线人工服务门廊",
        "prototype_role": "offline_human_service_porch",
        "design_thesis": "JZ 1:1 prototype mesh",
        "evidence_status": "conceptual_reference_proposal",
        "passport_fields": [
          "version",
          "material",
          "data_license",
          "life_days",
          "owner",
          "tools",
          "maintenance_time",
          "next_destination"
        ],
        "pause_trigger": "core_task_without_human_path|version_or_owner_unknown|queue_or_egress_failure",
        "scenario_id": "enterprise-service-copilot",
        "scenario_card_id": "SC-03",
        "scenario_card_title_zh": "公共街段：离线服务界面",
        "scenario_card_title_en": "Public street segment: offline service interface",
        "exposure_level": "N0",
        "sensing_mode": "always_off",
        "operating_hours": "offline_only",
        "retention": "none",
        "human_handover": "human_service_desk",
        "no_capture_mask": "no_capture",
        "expiry": "review_every_90_days",
        "non_ai_equivalent": "paper_or_human_service_available",
        "maintenance_sla_hours": 72,
        "exposure_register": "AI感知地籍概念登记；未登记 footprint 不进入公共空间（概念规则，非法律控制）",
        "zone_id": "ZONE-008",
        "zone_geometry_status": "conceptual_AI_SERVICE_ZONE_polygon_attached",
        "zone_kind": "no_sensing_offline_service",
        "footprint_geometry_status": "conceptual_zone_not_measured_field_of_view",
        "operator_role": "offline_human_service_desk",
        "independent_reviewer": "public_service_and_language_access_reviewer",
        "asset_owner_role": "community_service_asset_holder_to_be_named",
        "ai_input": "none_by_default|versioned_public_guides_when_opted_in",
        "ai_role": "optional display aid only; core tasks must run without a model",
        "human_equivalent": "paper_form|staffed_counter|phone_or_in_person_referral",
        "exit_action": "keep_N0_offline_mode|remove_optional_interface|retain_service_room_and_clear_route",
        "evidence_record_template": [
          "offline_task_drill",
          "version_label",
          "staff_capacity_log",
          "complaint_closeout"
        ],
        "control_record_status": "conceptual_template_pending_field_witness",
        "stop_state_transition": "AI_SERVICE_ZONE_to_N0_then_ordinary_service_continues"
      },
      "geometry": {
        "type": "Point",
        "coordinates": [
          116.34775,
          39.98755
        ]
      }
    },
    {
      "type": "Feature",
      "id": "NODE-009",
      "properties": {
        "id": "NODE-009",
        "layer": "SCENARIO_NODE",
        "source_type": "agent_generated_design",
        "confidence": "low",
        "geometry_role": "analysis_helper",
        "name_zh": "USE 采用与退役台",
        "prototype_role": "adoption_retirement_desk",
        "design_thesis": "JZ 1:1 prototype mesh",
        "evidence_status": "conceptual_reference_proposal",
        "passport_fields": [
          "version",
          "material",
          "data_license",
          "life_days",
          "owner",
          "tools",
          "maintenance_time",
          "next_destination"
        ],
        "pause_trigger": "accessible_route_blocked|crowd_conflict|heritage_rights_complaint|manual_service_capacity_shortfall",
        "scenario_id": "ai-cultural-guide",
        "scenario_card_id": "SC-07",
        "scenario_card_title_zh": "站前终端采用试用",
        "scenario_card_title_en": "Station-front terminal adoption trial",
        "exposure_level": "N2",
        "sensing_mode": "visible_public",
        "operating_hours": "10:00-20:00",
        "retention": "aggregate_24h",
        "human_handover": "venue_operator",
        "no_capture_mask": "station_home_mask",
        "expiry": "after_90_day_trial",
        "non_ai_equivalent": "paper_or_human_service_available",
        "maintenance_sla_hours": 72,
        "exposure_register": "AI感知地籍概念登记；未登记 footprint 不进入公共空间（概念规则，非法律控制）",
        "zone_id": "ZONE-009",
        "zone_geometry_status": "conceptual_AI_SERVICE_ZONE_polygon_attached",
        "zone_kind": "visible_public_adoption",
        "footprint_geometry_status": "conceptual_zone_not_measured_field_of_view",
        "operator_role": "station_front_adoption_and_retirement_desk",
        "independent_reviewer": "mobility_heritage_and_public_safety_reviewer",
        "asset_owner_role": "station_or_commercial_frontage_asset_holder_to_be_named",
        "ai_input": "public_terminal_content|voluntary_user_feedback|maintenance_observations",
        "ai_role": "compare comprehension and repair demand; never gate access to the station",
        "human_equivalent": "staffed_information_desk|paper_map|ordinary_wayfinding",
        "exit_action": "return_frontage_to_ordinary_mode|remove_terminal|log_next_destination_in_passport",
        "evidence_record_template": [
          "frontage_walk",
          "comprehension_witness",
          "manual_service_log",
          "deinstallation_rehearsal"
        ],
        "control_record_status": "conceptual_template_pending_field_witness",
        "stop_state_transition": "AI_SERVICE_ZONE_to_N0_then_ordinary_service_continues"
      },
      "geometry": {
        "type": "Point",
        "coordinates": [
          116.34675,
          39.9465
        ]
      }
    },
    {
      "type": "Feature",
      "id": "NODE-010",
      "properties": {
        "id": "NODE-010",
        "layer": "SCENARIO_NODE",
        "source_type": "agent_generated_design",
        "confidence": "low",
        "geometry_role": "analysis_helper",
        "name_zh": "可拆换构件维修台",
        "prototype_role": "repair_reuse_workbench",
        "design_thesis": "JZ 1:1 prototype mesh",
        "evidence_status": "conceptual_reference_proposal",
        "passport_fields": [
          "version",
          "material",
          "data_license",
          "life_days",
          "owner",
          "tools",
          "maintenance_time",
          "next_destination"
        ],
        "pause_trigger": "unsafe_repair_condition|missing_material_origin|worker_exposure|destination_unconfirmed",
        "scenario_id": "public-safety-operations-review",
        "scenario_card_id": "SC-08",
        "scenario_card_title_zh": "维修与再利用台账",
        "scenario_card_title_en": "Repair and reuse ledger",
        "exposure_level": "N0",
        "sensing_mode": "always_off",
        "operating_hours": "maintenance_only",
        "retention": "none",
        "human_handover": "maintenance_team",
        "no_capture_mask": "no_capture",
        "expiry": "review_every_90_days",
        "non_ai_equivalent": "paper_or_human_service_available",
        "maintenance_sla_hours": 72,
        "exposure_register": "AI感知地籍概念登记；未登记 footprint 不进入公共空间（概念规则，非法律控制）",
        "zone_id": "ZONE-010",
        "zone_geometry_status": "conceptual_AI_SERVICE_ZONE_polygon_attached",
        "zone_kind": "no_sensing_repair_ledger",
        "footprint_geometry_status": "conceptual_zone_not_measured_field_of_view",
        "operator_role": "repair_and_reuse_ledger_team",
        "independent_reviewer": "maintenance_and_worker_safety_reviewer",
        "asset_owner_role": "public_realm_or_facilities_asset_holder_to_be_named",
        "ai_input": "component_passports|fault_reports_without_personal_identifiers",
        "ai_role": "suggest repair priority and next compatible destination; technician decides",
        "human_equivalent": "paper_parts_ledger|manual_inspection|technician_work_order",
        "exit_action": "retain_N0_manual_ledger|quarantine_component|repair_reuse_or_material_recovery",
        "evidence_record_template": [
          "worker_briefing",
          "fault_photo_or_note",
          "repair_signoff",
          "next_destination_receipt"
        ],
        "control_record_status": "conceptual_template_pending_field_witness",
        "stop_state_transition": "AI_SERVICE_ZONE_to_N0_then_ordinary_service_continues"
      },
      "geometry": {
        "type": "Point",
        "coordinates": [
          116.3472,
          39.9477
        ]
      }
    },
    {
      "type": "Feature",
      "id": "NODE-011",
      "properties": {
        "id": "NODE-011",
        "layer": "SCENARIO_NODE",
        "source_type": "agent_generated_design",
        "confidence": "low",
        "geometry_role": "analysis_helper",
        "name_zh": "90天原型街段",
        "prototype_role": "ninety_day_public_segment",
        "design_thesis": "JZ 1:1 prototype mesh",
        "evidence_status": "conceptual_reference_proposal",
        "passport_fields": [
          "version",
          "material",
          "data_license",
          "life_days",
          "owner",
          "tools",
          "maintenance_time",
          "next_destination"
        ],
        "pause_trigger": "counting_bias|accessible_route_gap|privacy_objection|weather_or_event_conflict|manual_review_overdue",
        "scenario_id": "ai-traffic-walkability",
        "scenario_card_id": "SC-10",
        "scenario_card_title_zh": "AI 慢行诊断",
        "scenario_card_title_en": "AI-assisted walkability diagnosis",
        "exposure_level": "N1",
        "sensing_mode": "on_request",
        "operating_hours": "07:00-22:00",
        "retention": "aggregate_24h",
        "human_handover": "mobility_reviewer",
        "no_capture_mask": "school_home_mask",
        "expiry": "review_every_90_days",
        "non_ai_equivalent": "paper_or_human_service_available",
        "maintenance_sla_hours": 72,
        "exposure_register": "AI感知地籍概念登记；未登记 footprint 不进入公共空间（概念规则，非法律控制）",
        "zone_id": "ZONE-011",
        "zone_geometry_status": "conceptual_AI_SERVICE_ZONE_polygon_attached",
        "zone_kind": "on_request_walkability",
        "footprint_geometry_status": "conceptual_zone_not_measured_field_of_view",
        "operator_role": "mobility_and_accessibility_field_team",
        "independent_reviewer": "independent_accessibility_and_traffic_reviewer",
        "asset_owner_role": "public_realm_asset_holder_to_be_named",
        "ai_input": "anonymous_counts|manual_walk_audit|opt_in_public_feedback",
        "ai_role": "flag possible walking gaps; professionals decide any sign or layout change",
        "human_equivalent": "manual_walk_audit|paper_map|staffed_route_assistance",
        "exit_action": "disable_sensing|restore_previous_signage|remove_90_day_kit|publish_retest_note",
        "evidence_record_template": [
          "baseline_walk",
          "anonymous_count_method",
          "group_access_witness",
          "retest_and_exit_log"
        ],
        "control_record_status": "conceptual_template_pending_field_witness",
        "stop_state_transition": "AI_SERVICE_ZONE_to_N0_then_ordinary_service_continues"
      },
      "geometry": {
        "type": "Point",
        "coordinates": [
          116.34565,
          39.964
        ]
      }
    },
    {
      "type": "Feature",
      "id": "NODE-012",
      "properties": {
        "id": "NODE-012",
        "layer": "SCENARIO_NODE",
        "source_type": "agent_generated_design",
        "confidence": "low",
        "geometry_role": "analysis_helper",
        "name_zh": "低速服务设备与30年公共框架接口盒",
        "prototype_role": "long_life_frame_interface_box",
        "design_thesis": "JZ 1:1 prototype mesh",
        "evidence_status": "conceptual_reference_proposal",
        "passport_fields": [
          "version",
          "material",
          "data_license",
          "life_days",
          "owner",
          "tools",
          "maintenance_time",
          "next_destination"
        ],
        "pause_trigger": "person_device_conflict|speed_or_weather_limit|takeover_unavailable|route_obstruction",
        "scenario_id": "public-safety-operations-review",
        "scenario_card_id": "SC-11",
        "scenario_card_title_zh": "低速服务设备试用",
        "scenario_card_title_en": "Low-speed service device trial",
        "exposure_level": "N1",
        "sensing_mode": "on_request",
        "operating_hours": "event_only",
        "retention": "aggregate_24h",
        "human_handover": "park_operator",
        "no_capture_mask": "residential_mask",
        "expiry": "review_every_90_days",
        "non_ai_equivalent": "paper_or_human_service_available",
        "maintenance_sla_hours": 72,
        "exposure_register": "AI感知地籍概念登记；未登记 footprint 不进入公共空间（概念规则，非法律控制）",
        "zone_id": "ZONE-012",
        "zone_geometry_status": "conceptual_AI_SERVICE_ZONE_polygon_attached",
        "zone_kind": "on_request_scene_interface",
        "footprint_geometry_status": "conceptual_zone_not_measured_field_of_view",
        "operator_role": "low_speed_service_device_steward",
        "independent_reviewer": "public_safety_mobility_and_park_reviewer",
        "asset_owner_role": "park_or_service_asset_holder_to_be_named",
        "ai_input": "device_status|weather|aggregate_route_conflicts",
        "ai_role": "suggest low-speed service window; human operator retains takeover",
        "human_equivalent": "human_carry_or_cart_service|ordinary_delivery_window|staffed_help_point",
        "exit_action": "stop_device_return_frame_to_N0|remove_device|repair_or_redeploy_after_review",
        "evidence_record_template": [
          "prestart_check",
          "takeover_drill",
          "conflict_log",
          "stop_and_recovery_record"
        ],
        "control_record_status": "conceptual_template_pending_field_witness",
        "stop_state_transition": "AI_SERVICE_ZONE_to_N0_then_ordinary_service_continues"
      },
      "geometry": {
        "type": "Point",
        "coordinates": [
          116.3483,
          39.9959
        ]
      }
    },
    {
      "type": "Feature",
      "id": "ZONE-001",
      "properties": {
        "id": "ZONE-001",
        "layer": "AI_SERVICE_ZONE",
        "source_type": "agent_generated_design",
        "confidence": "low",
        "geometry_role": "design_proposal",
        "node_id": "NODE-001",
        "scenario_id": "ai-cultural-guide",
        "scenario_card_id": "SC-09",
        "scenario_card_title_zh": "铁路文化导览",
        "scenario_card_title_en": "Railway heritage guide",
        "name_zh": "铁路文化导览与AI朝圣节点 感知分区",
        "exposure_level": "N1",
        "sensing_mode": "on_request",
        "operating_hours": "08:00-20:00",
        "retention": "none",
        "human_handover": "human_culture_review",
        "no_capture_mask": "heritage_text_only",
        "expiry": "review_every_90_days",
        "non_ai_equivalent": "paper_or_human_service_available",
        "maintenance_sla_hours": 72,
        "zone_kind": "controlled_public_explanation",
        "zone_boundary_type": "conceptual_sensing_envelope_or_no_sensing_setback",
        "outward_sensing_forbidden": true,
        "official_boundary": false,
        "area_sqm_declared": 3888.0,
        "area_semantics": "conceptual exposure envelope; not a measured field-of-view, legal privacy setback, or approval boundary",
        "usage_note": "must be replaced or field-checked before any pilot; N0 means no sensing in this envelope",
        "evidence_status": "conceptual_reference_proposal",
        "operator_role": "heritage_interpretation_team",
        "independent_reviewer": "heritage_rights_and_accessibility_reviewer",
        "asset_owner_role": "park_or_heritage_asset_holder_to_be_named",
        "human_equivalent": "curated_static_panel|paper_map|human_guide",
        "exit_action": "remove_ai_layer_restore_cleared_panel_or_relocate_reusable_kit",
        "evidence_record_template": [
          "source_rights_check",
          "curator_signoff",
          "accessible_route_walk",
          "withdrawal_log"
        ],
        "control_record_status": "conceptual_template_pending_field_witness",
        "stop_state_transition": "AI_SERVICE_ZONE_to_N0_then_ordinary_service_continues",
        "pause_trigger": "copyright_or_historical_claim_challenge|route_conflict|accessible_bypass_missing",
        "ai_input": "rights_cleared_railway_text_and_public_questions",
        "ai_role": "suggested multilingual routes and questions; curator decides published text",
        "zone_return_state": "N0 ordinary public mode"
      },
      "geometry": {
        "type": "Polygon",
        "coordinates": [
          [
            [
              116.3464235413,
              39.9474592217
            ],
            [
              116.3464189133,
              39.9479455292
            ],
            [
              116.3455764557,
              39.9479407767
            ],
            [
              116.3455810897,
              39.9474544693
            ],
            [
              116.3464235413,
              39.9474592217
            ]
          ]
        ]
      }
    },
    {
      "type": "Feature",
      "id": "ZONE-002",
      "properties": {
        "id": "ZONE-002",
        "layer": "AI_SERVICE_ZONE",
        "source_type": "agent_generated_design",
        "confidence": "low",
        "geometry_role": "design_proposal",
        "node_id": "NODE-002",
        "scenario_id": "enterprise-service-copilot",
        "scenario_card_id": "SC-05",
        "scenario_card_title_zh": "社区服务房",
        "scenario_card_title_en": "Community service room",
        "name_zh": "社区服务解释与可退出节点 感知分区",
        "exposure_level": "N0",
        "sensing_mode": "always_off",
        "operating_hours": "offline_only",
        "retention": "none",
        "human_handover": "service_desk",
        "no_capture_mask": "no_capture",
        "expiry": "review_every_90_days",
        "non_ai_equivalent": "paper_or_human_service_available",
        "maintenance_sla_hours": 72,
        "zone_kind": "no_sensing_service_room",
        "zone_boundary_type": "conceptual_sensing_envelope_or_no_sensing_setback",
        "outward_sensing_forbidden": true,
        "official_boundary": false,
        "area_sqm_declared": 4256.0,
        "area_semantics": "conceptual exposure envelope; not a measured field-of-view, legal privacy setback, or approval boundary",
        "usage_note": "must be replaced or field-checked before any pilot; N0 means no sensing in this envelope",
        "evidence_status": "conceptual_reference_proposal",
        "operator_role": "community_service_desk",
        "independent_reviewer": "care_service_privacy_and_accessibility_reviewer",
        "asset_owner_role": "community_service_asset_holder_to_be_named",
        "human_equivalent": "staffed_counter|paper_form|telephone_or_in_person_referral",
        "exit_action": "switch_interface_off_keep_counter_open|repair_content|remove_kit",
        "evidence_record_template": [
          "version_check",
          "offline_drill",
          "staff_handover_log",
          "complaint_closeout"
        ],
        "control_record_status": "conceptual_template_pending_field_witness",
        "stop_state_transition": "AI_SERVICE_ZONE_to_N0_then_ordinary_service_continues",
        "pause_trigger": "wrong_service_route|sensitive_data_request|offline_queue_failure|access_complaint_unresolved",
        "ai_input": "versioned_public_service_guides_only",
        "ai_role": "optional retrieval of public information; never diagnoses or stores case files",
        "zone_return_state": "N0 ordinary public mode"
      },
      "geometry": {
        "type": "Polygon",
        "coordinates": [
          [
            [
              116.3470472928,
              39.9880503495
            ],
            [
              116.3470424911,
              39.9885546649
            ],
            [
              116.3461527039,
              39.9885496487
            ],
            [
              116.3461575122,
              39.9880453335
            ],
            [
              116.3470472928,
              39.9880503495
            ]
          ]
        ]
      }
    },
    {
      "type": "Feature",
      "id": "ZONE-003",
      "properties": {
        "id": "ZONE-003",
        "layer": "AI_SERVICE_ZONE",
        "source_type": "agent_generated_design",
        "confidence": "low",
        "geometry_role": "design_proposal",
        "node_id": "NODE-003",
        "scenario_id": "enterprise-service-copilot",
        "scenario_card_id": "SC-04",
        "scenario_card_title_zh": "近校成果转译房",
        "scenario_card_title_en": "Near-campus research translation room",
        "name_zh": "近校成果转化节点 感知分区",
        "exposure_level": "N1",
        "sensing_mode": "on_request",
        "operating_hours": "09:00-18:00",
        "retention": "none",
        "human_handover": "ip_service_reviewer",
        "no_capture_mask": "campus_and_home_mask",
        "expiry": "review_every_90_days",
        "non_ai_equivalent": "paper_or_human_service_available",
        "maintenance_sla_hours": 72,
        "zone_kind": "on_request_translation_room",
        "zone_boundary_type": "conceptual_sensing_envelope_or_no_sensing_setback",
        "outward_sensing_forbidden": true,
        "official_boundary": false,
        "area_sqm_declared": 4640.0,
        "area_semantics": "conceptual exposure envelope; not a measured field-of-view, legal privacy setback, or approval boundary",
        "usage_note": "must be replaced or field-checked before any pilot; N0 means no sensing in this envelope",
        "evidence_status": "conceptual_reference_proposal",
        "operator_role": "research_translation_and_ip_desk",
        "independent_reviewer": "rights_holder_and_ip_reviewer",
        "asset_owner_role": "campus_or_innovation_asset_holder_to_be_named",
        "human_equivalent": "staffed_translation_desk|printed_brief|appointment_referral",
        "exit_action": "unpublish_claimed_content|retain_neutral_room|transfer_components_to_reuse_catalogue",
        "evidence_record_template": [
          "licence_receipt",
          "rights_holder_approval",
          "room_use_log",
          "withdrawal_and_restore_log"
        ],
        "control_record_status": "conceptual_template_pending_field_witness",
        "stop_state_transition": "AI_SERVICE_ZONE_to_N0_then_ordinary_service_continues",
        "pause_trigger": "licence_withdrawal|misattribution|campus_privacy_risk|manual_review_overdue",
        "ai_input": "licensed_research_abstracts_and_public_patents",
        "ai_role": "maps research to candidate room programs; rights holder approves display",
        "zone_return_state": "N0 ordinary public mode"
      },
      "geometry": {
        "type": "Polygon",
        "coordinates": [
          [
            [
              116.3481707898,
              39.9880414713
            ],
            [
              116.3481658251,
              39.988563798
            ],
            [
              116.3472292067,
              39.9885585268
            ],
            [
              116.3472341785,
              39.9880362001
            ],
            [
              116.3481707898,
              39.9880414713
            ]
          ]
        ]
      }
    },
    {
      "type": "Feature",
      "id": "ZONE-004",
      "properties": {
        "id": "ZONE-004",
        "layer": "AI_SERVICE_ZONE",
        "source_type": "agent_generated_design",
        "confidence": "low",
        "geometry_role": "design_proposal",
        "node_id": "NODE-004",
        "scenario_id": "prototype-room-wayfinding",
        "scenario_card_id": "SC-01",
        "scenario_card_title_zh": "原型房：无障碍多语言导视",
        "scenario_card_title_en": "Prototype room: accessible multilingual wayfinding",
        "name_zh": "模型红队沙盒节点 感知分区",
        "exposure_level": "N3",
        "sensing_mode": "controlled_test",
        "operating_hours": "09:00-17:00",
        "retention": "event_log_30d",
        "human_handover": "safety_reviewer",
        "no_capture_mask": "public_boundary_mask",
        "expiry": "after_90_day_trial",
        "non_ai_equivalent": "paper_or_human_service_available",
        "maintenance_sla_hours": 24,
        "zone_kind": "closed_test_room",
        "zone_boundary_type": "conceptual_sensing_envelope_or_no_sensing_setback",
        "outward_sensing_forbidden": true,
        "official_boundary": false,
        "area_sqm_declared": 5376.0,
        "area_semantics": "conceptual exposure envelope; not a measured field-of-view, legal privacy setback, or approval boundary",
        "usage_note": "must be replaced or field-checked before any pilot; N0 means no sensing in this envelope",
        "evidence_status": "conceptual_reference_proposal",
        "operator_role": "prototype_safety_steward",
        "independent_reviewer": "independent_safety_and_accessibility_reviewer",
        "asset_owner_role": "innovation_asset_holder_to_be_named",
        "human_equivalent": "static_signage|tactile_map|human_steward",
        "exit_action": "set_zone_to_N0|restore_baseline_signage|repair_or_disassemble_for_reuse",
        "evidence_record_template": [
          "model_card",
          "entry_checklist",
          "group_route_witness",
          "fault_and_stop_log"
        ],
        "control_record_status": "conceptual_template_pending_field_witness",
        "stop_state_transition": "AI_SERVICE_ZONE_to_N0_then_ordinary_service_continues",
        "pause_trigger": "misdirection|obstruction|audio_conflict|accessible_bypass_missing|red_team_failure",
        "ai_input": "cleared_synthetic_test_set_and_model_card",
        "ai_role": "generate candidate wayfinding variants for controlled 1:1 test only",
        "zone_return_state": "N0 ordinary public mode"
      },
      "geometry": {
        "type": "Polygon",
        "coordinates": [
          [
            [
              116.3501946878,
              40.0202145809
            ],
            [
              116.3501892203,
              40.0207909384
            ],
            [
              116.3492053081,
              40.0207854169
            ],
            [
              116.3492107839,
              40.0202090595
            ],
            [
              116.3501946878,
              40.0202145809
            ]
          ]
        ]
      }
    },
    {
      "type": "Feature",
      "id": "ZONE-005",
      "properties": {
        "id": "ZONE-005",
        "layer": "AI_SERVICE_ZONE",
        "source_type": "agent_generated_design",
        "confidence": "low",
        "geometry_role": "design_proposal",
        "node_id": "NODE-005",
        "scenario_id": "low-carbon-computing-kiosk",
        "scenario_card_id": "SC-06",
        "scenario_card_title_zh": "共享制作课程",
        "scenario_card_title_en": "Shared making course",
        "name_zh": "共享制作课程与低碳算力接口节点 感知分区",
        "exposure_level": "N1",
        "sensing_mode": "on_request",
        "operating_hours": "09:00-18:00",
        "retention": "aggregate_24h",
        "human_handover": "energy_operator",
        "no_capture_mask": "device_log_mask",
        "expiry": "review_every_90_days",
        "non_ai_equivalent": "paper_or_human_service_available",
        "maintenance_sla_hours": 72,
        "zone_kind": "on_request_shared_making",
        "zone_boundary_type": "conceptual_sensing_envelope_or_no_sensing_setback",
        "outward_sensing_forbidden": true,
        "official_boundary": false,
        "area_sqm_declared": 4144.0,
        "area_semantics": "conceptual exposure envelope; not a measured field-of-view, legal privacy setback, or approval boundary",
        "usage_note": "must be replaced or field-checked before any pilot; N0 means no sensing in this envelope",
        "evidence_status": "conceptual_reference_proposal",
        "operator_role": "shared_making_course_steward",
        "independent_reviewer": "energy_safety_and_child_safeguarding_reviewer",
        "asset_owner_role": "education_or_innovation_asset_holder_to_be_named",
        "human_equivalent": "printed_curriculum|manual_tool_checkout|instructor_led_session",
        "exit_action": "power_down_interface|retain_room_for_manual_course|repair_or_redeploy_kit",
        "evidence_record_template": [
          "course_plan",
          "equipment_check",
          "instructor_override_test",
          "participant_deletion_log"
        ],
        "control_record_status": "conceptual_template_pending_field_witness",
        "stop_state_transition": "AI_SERVICE_ZONE_to_N0_then_ordinary_service_continues",
        "pause_trigger": "unsafe_device_state|energy_or_heat_alarm|unconsented_participant_record|instructor_override_missing",
        "ai_input": "public_course_materials_and_device_telemetry_aggregate_only",
        "ai_role": "suggest session sequence and interface settings; instructor controls equipment",
        "zone_return_state": "N0 ordinary public mode"
      },
      "geometry": {
        "type": "Polygon",
        "coordinates": [
          [
            [
              116.3493355769,
              39.9880502748
            ],
            [
              116.349330792,
              39.9885545904
            ],
            [
              116.3484644199,
              39.9885497235
            ],
            [
              116.3484692112,
              39.988045408
            ],
            [
              116.3493355769,
              39.9880502748
            ]
          ]
        ]
      }
    },
    {
      "type": "Feature",
      "id": "ZONE-006",
      "properties": {
        "id": "ZONE-006",
        "layer": "AI_SERVICE_ZONE",
        "source_type": "agent_generated_design",
        "confidence": "low",
        "geometry_role": "design_proposal",
        "node_id": "NODE-006",
        "scenario_id": "public-safety-operations-review",
        "scenario_card_id": "SC-12",
        "scenario_card_title_zh": "公共韧性提示",
        "scenario_card_title_en": "Public resilience cues",
        "name_zh": "两翼公共反馈与人工复核节点 感知分区",
        "exposure_level": "N2",
        "sensing_mode": "visible_public",
        "operating_hours": "event_only",
        "retention": "event_log_7d",
        "human_handover": "public_operations_team",
        "no_capture_mask": "residential_mask",
        "expiry": "after_90_day_trial",
        "non_ai_equivalent": "paper_or_human_service_available",
        "maintenance_sla_hours": 72,
        "zone_kind": "visible_public_resilience",
        "zone_boundary_type": "conceptual_sensing_envelope_or_no_sensing_setback",
        "outward_sensing_forbidden": true,
        "official_boundary": false,
        "area_sqm_declared": 5504.0,
        "area_semantics": "conceptual exposure envelope; not a measured field-of-view, legal privacy setback, or approval boundary",
        "usage_note": "must be replaced or field-checked before any pilot; N0 means no sensing in this envelope",
        "evidence_status": "conceptual_reference_proposal",
        "operator_role": "public_operations_feedback_team",
        "independent_reviewer": "public_interest_and_privacy_reviewer",
        "asset_owner_role": "public_realm_asset_holder_to_be_named",
        "human_equivalent": "manual_notice_board|staffed_information_point|official_alert_channel",
        "exit_action": "remove_generated_notice|retain_manual_signage|archive_event_record_without_personal_data",
        "evidence_record_template": [
          "source_timestamp",
          "duty_staff_signoff",
          "public_notice_log",
          "false_alarm_review"
        ],
        "control_record_status": "conceptual_template_pending_field_witness",
        "stop_state_transition": "AI_SERVICE_ZONE_to_N0_then_ordinary_service_continues",
        "pause_trigger": "stale_warning|false_alarm|privacy_boundary_breach|duty_staff_unavailable",
        "ai_input": "aggregate_weather_water_and_facility_status_plus_public_questions",
        "ai_role": "draft visible resilience cues; duty staff verifies every notice",
        "zone_return_state": "N0 ordinary public mode"
      },
      "geometry": {
        "type": "Polygon",
        "coordinates": [
          [
            [
              116.3525063893,
              40.0199146364
            ],
            [
              116.3525009413,
              40.0204909943
            ],
            [
              116.3514936065,
              40.0204853613
            ],
            [
              116.351499063,
              40.0199090036
            ],
            [
              116.3525063893,
              40.0199146364
            ]
          ]
        ]
      }
    },
    {
      "type": "Feature",
      "id": "ZONE-007",
      "properties": {
        "id": "ZONE-007",
        "layer": "AI_SERVICE_ZONE",
        "source_type": "agent_generated_design",
        "confidence": "low",
        "geometry_role": "design_proposal",
        "node_id": "NODE-007",
        "scenario_id": "prototype-room-wayfinding",
        "scenario_card_id": "SC-02",
        "scenario_card_title_zh": "原型院：可调公共家具",
        "scenario_card_title_en": "Prototype courtyard: adjustable public furniture",
        "name_zh": "MAKE 原型护照领取台 感知分区",
        "exposure_level": "N3",
        "sensing_mode": "controlled_test",
        "operating_hours": "09:00-17:00",
        "retention": "event_log_30d",
        "human_handover": "accessibility_reviewer",
        "no_capture_mask": "face_and_voice_mask",
        "expiry": "after_90_day_trial",
        "non_ai_equivalent": "paper_or_human_service_available",
        "maintenance_sla_hours": 24,
        "zone_kind": "closed_test_courtyard",
        "zone_boundary_type": "conceptual_sensing_envelope_or_no_sensing_setback",
        "outward_sensing_forbidden": true,
        "official_boundary": false,
        "area_sqm_declared": 5376.0,
        "area_semantics": "conceptual exposure envelope; not a measured field-of-view, legal privacy setback, or approval boundary",
        "usage_note": "must be replaced or field-checked before any pilot; N0 means no sensing in this envelope",
        "evidence_status": "conceptual_reference_proposal",
        "operator_role": "prototype_passport_counter_and_material_steward",
        "independent_reviewer": "structural_accessibility_and_material_reuse_reviewer",
        "asset_owner_role": "innovation_asset_holder_to_be_named",
        "human_equivalent": "fixed_seating|unobstructed_route|staffed_adjustment_help",
        "exit_action": "set_zone_to_N0|isolate_furniture|restore_fixed_seating|disassemble_for_reuse",
        "evidence_record_template": [
          "material_passport",
          "fit_and_stability_witness",
          "maintenance_tool_check",
          "component_ledger"
        ],
        "control_record_status": "conceptual_template_pending_field_witness",
        "stop_state_transition": "AI_SERVICE_ZONE_to_N0_then_ordinary_service_continues",
        "pause_trigger": "instability|pinch_hazard|route_obstruction|missing_component_record|repair_tool_inaccessible",
        "ai_input": "model_card|material_passport|user_requested_adjustment_brief",
        "ai_role": "propose adjustable furniture dimensions for a controlled physical test",
        "zone_return_state": "N0 ordinary public mode"
      },
      "geometry": {
        "type": "Polygon",
        "coordinates": [
          [
            [
              116.3514646108,
              40.0190509913
            ],
            [
              116.3514598363,
              40.0195553044
            ],
            [
              116.3503353851,
              40.0195490059
            ],
            [
              116.3503401679,
              40.0190446929
            ],
            [
              116.3514646108,
              40.0190509913
            ]
          ]
        ]
      }
    },
    {
      "type": "Feature",
      "id": "ZONE-008",
      "properties": {
        "id": "ZONE-008",
        "layer": "AI_SERVICE_ZONE",
        "source_type": "agent_generated_design",
        "confidence": "low",
        "geometry_role": "design_proposal",
        "node_id": "NODE-008",
        "scenario_id": "enterprise-service-copilot",
        "scenario_card_id": "SC-03",
        "scenario_card_title_zh": "公共街段：离线服务界面",
        "scenario_card_title_en": "Public street segment: offline service interface",
        "name_zh": "TRANSLATE 离线人工服务门廊 感知分区",
        "exposure_level": "N0",
        "sensing_mode": "always_off",
        "operating_hours": "offline_only",
        "retention": "none",
        "human_handover": "human_service_desk",
        "no_capture_mask": "no_capture",
        "expiry": "review_every_90_days",
        "non_ai_equivalent": "paper_or_human_service_available",
        "maintenance_sla_hours": 72,
        "zone_kind": "no_sensing_offline_service",
        "zone_boundary_type": "conceptual_sensing_envelope_or_no_sensing_setback",
        "outward_sensing_forbidden": true,
        "official_boundary": false,
        "area_sqm_declared": 8280.0,
        "area_semantics": "conceptual exposure envelope; not a measured field-of-view, legal privacy setback, or approval boundary",
        "usage_note": "must be replaced or field-checked before any pilot; N0 means no sensing in this envelope",
        "evidence_status": "conceptual_reference_proposal",
        "operator_role": "offline_human_service_desk",
        "independent_reviewer": "public_service_and_language_access_reviewer",
        "asset_owner_role": "community_service_asset_holder_to_be_named",
        "human_equivalent": "paper_form|staffed_counter|phone_or_in_person_referral",
        "exit_action": "keep_N0_offline_mode|remove_optional_interface|retain_service_room_and_clear_route",
        "evidence_record_template": [
          "offline_task_drill",
          "version_label",
          "staff_capacity_log",
          "complaint_closeout"
        ],
        "control_record_status": "conceptual_template_pending_field_witness",
        "stop_state_transition": "AI_SERVICE_ZONE_to_N0_then_ordinary_service_continues",
        "pause_trigger": "core_task_without_human_path|version_or_owner_unknown|queue_or_egress_failure",
        "ai_input": "none_by_default|versioned_public_guides_when_opted_in",
        "ai_role": "optional display aid only; core tasks must run without a model",
        "zone_return_state": "N0 ordinary public mode"
      },
      "geometry": {
        "type": "Polygon",
        "coordinates": [
          [
            [
              116.3488056471,
              39.9873487951
            ],
            [
              116.3488017136,
              39.9877630544
            ],
            [
              116.3466943468,
              39.9877511952
            ],
            [
              116.3466982931,
              39.9873369361
            ],
            [
              116.3488056471,
              39.9873487951
            ]
          ]
        ]
      }
    },
    {
      "type": "Feature",
      "id": "ZONE-009",
      "properties": {
        "id": "ZONE-009",
        "layer": "AI_SERVICE_ZONE",
        "source_type": "agent_generated_design",
        "confidence": "low",
        "geometry_role": "design_proposal",
        "node_id": "NODE-009",
        "scenario_id": "ai-cultural-guide",
        "scenario_card_id": "SC-07",
        "scenario_card_title_zh": "站前终端采用试用",
        "scenario_card_title_en": "Station-front terminal adoption trial",
        "name_zh": "USE 采用与退役台 感知分区",
        "exposure_level": "N2",
        "sensing_mode": "visible_public",
        "operating_hours": "10:00-20:00",
        "retention": "aggregate_24h",
        "human_handover": "venue_operator",
        "no_capture_mask": "station_home_mask",
        "expiry": "after_90_day_trial",
        "non_ai_equivalent": "paper_or_human_service_available",
        "maintenance_sla_hours": 72,
        "zone_kind": "visible_public_adoption",
        "zone_boundary_type": "conceptual_sensing_envelope_or_no_sensing_setback",
        "outward_sensing_forbidden": true,
        "official_boundary": false,
        "area_sqm_declared": 7280.0,
        "area_semantics": "conceptual exposure envelope; not a measured field-of-view, legal privacy setback, or approval boundary",
        "usage_note": "must be replaced or field-checked before any pilot; N0 means no sensing in this envelope",
        "evidence_status": "conceptual_reference_proposal",
        "operator_role": "station_front_adoption_and_retirement_desk",
        "independent_reviewer": "mobility_heritage_and_public_safety_reviewer",
        "asset_owner_role": "station_or_commercial_frontage_asset_holder_to_be_named",
        "human_equivalent": "staffed_information_desk|paper_map|ordinary_wayfinding",
        "exit_action": "return_frontage_to_ordinary_mode|remove_terminal|log_next_destination_in_passport",
        "evidence_record_template": [
          "frontage_walk",
          "comprehension_witness",
          "manual_service_log",
          "deinstallation_rehearsal"
        ],
        "control_record_status": "conceptual_template_pending_field_witness",
        "stop_state_transition": "AI_SERVICE_ZONE_to_N0_then_ordinary_service_continues",
        "pause_trigger": "accessible_route_blocked|crowd_conflict|heritage_rights_complaint|manual_service_capacity_shortfall",
        "ai_input": "public_terminal_content|voluntary_user_feedback|maintenance_observations",
        "ai_role": "compare comprehension and repair demand; never gate access to the station",
        "zone_return_state": "N0 ordinary public mode"
      },
      "geometry": {
        "type": "Polygon",
        "coordinates": [
          [
            [
              116.3475129318,
              39.9462521234
            ],
            [
              116.3475081405,
              39.9467564424
            ],
            [
              116.3459870628,
              39.9467478716
            ],
            [
              116.3459918652,
              39.9462435527
            ],
            [
              116.3475129318,
              39.9462521234
            ]
          ]
        ]
      }
    },
    {
      "type": "Feature",
      "id": "ZONE-010",
      "properties": {
        "id": "ZONE-010",
        "layer": "AI_SERVICE_ZONE",
        "source_type": "agent_generated_design",
        "confidence": "low",
        "geometry_role": "design_proposal",
        "node_id": "NODE-010",
        "scenario_id": "public-safety-operations-review",
        "scenario_card_id": "SC-08",
        "scenario_card_title_zh": "维修与再利用台账",
        "scenario_card_title_en": "Repair and reuse ledger",
        "name_zh": "可拆换构件维修台 感知分区",
        "exposure_level": "N0",
        "sensing_mode": "always_off",
        "operating_hours": "maintenance_only",
        "retention": "none",
        "human_handover": "maintenance_team",
        "no_capture_mask": "no_capture",
        "expiry": "review_every_90_days",
        "non_ai_equivalent": "paper_or_human_service_available",
        "maintenance_sla_hours": 72,
        "zone_kind": "no_sensing_repair_ledger",
        "zone_boundary_type": "conceptual_sensing_envelope_or_no_sensing_setback",
        "outward_sensing_forbidden": true,
        "official_boundary": false,
        "area_sqm_declared": 3500.0,
        "area_semantics": "conceptual exposure envelope; not a measured field-of-view, legal privacy setback, or approval boundary",
        "usage_note": "must be replaced or field-checked before any pilot; N0 means no sensing in this envelope",
        "evidence_status": "conceptual_reference_proposal",
        "operator_role": "repair_and_reuse_ledger_team",
        "independent_reviewer": "maintenance_and_worker_safety_reviewer",
        "asset_owner_role": "public_realm_or_facilities_asset_holder_to_be_named",
        "human_equivalent": "paper_parts_ledger|manual_inspection|technician_work_order",
        "exit_action": "retain_N0_manual_ledger|quarantine_component|repair_reuse_or_material_recovery",
        "evidence_record_template": [
          "worker_briefing",
          "fault_photo_or_note",
          "repair_signoff",
          "next_destination_receipt"
        ],
        "control_record_status": "conceptual_template_pending_field_witness",
        "stop_state_transition": "AI_SERVICE_ZONE_to_N0_then_ordinary_service_continues",
        "pause_trigger": "unsafe_repair_condition|missing_material_origin|worker_exposure|destination_unconfirmed",
        "ai_input": "component_passports|fault_reports_without_personal_identifiers",
        "ai_role": "suggest repair priority and next compatible destination; technician decides",
        "zone_return_state": "N0 ordinary public mode"
      },
      "geometry": {
        "type": "Polygon",
        "coordinates": [
          [
            [
              116.3476116653,
              39.9474771629
            ],
            [
              116.3476073879,
              39.9479274476
            ],
            [
              116.346788332,
              39.9479228356
            ],
            [
              116.3467926148,
              39.9474725509
            ],
            [
              116.3476116653,
              39.9474771629
            ]
          ]
        ]
      }
    },
    {
      "type": "Feature",
      "id": "ZONE-011",
      "properties": {
        "id": "ZONE-011",
        "layer": "AI_SERVICE_ZONE",
        "source_type": "agent_generated_design",
        "confidence": "low",
        "geometry_role": "design_proposal",
        "node_id": "NODE-011",
        "scenario_id": "ai-traffic-walkability",
        "scenario_card_id": "SC-10",
        "scenario_card_title_zh": "AI 慢行诊断",
        "scenario_card_title_en": "AI-assisted walkability diagnosis",
        "name_zh": "90天原型街段 感知分区",
        "exposure_level": "N1",
        "sensing_mode": "on_request",
        "operating_hours": "07:00-22:00",
        "retention": "aggregate_24h",
        "human_handover": "mobility_reviewer",
        "no_capture_mask": "school_home_mask",
        "expiry": "review_every_90_days",
        "non_ai_equivalent": "paper_or_human_service_available",
        "maintenance_sla_hours": 72,
        "zone_kind": "on_request_walkability",
        "zone_boundary_type": "conceptual_sensing_envelope_or_no_sensing_setback",
        "outward_sensing_forbidden": true,
        "official_boundary": false,
        "area_sqm_declared": 2116.0,
        "area_semantics": "conceptual exposure envelope; not a measured field-of-view, legal privacy setback, or approval boundary",
        "usage_note": "must be replaced or field-checked before any pilot; N0 means no sensing in this envelope",
        "evidence_status": "conceptual_reference_proposal",
        "operator_role": "mobility_and_accessibility_field_team",
        "independent_reviewer": "independent_accessibility_and_traffic_reviewer",
        "asset_owner_role": "public_realm_asset_holder_to_be_named",
        "human_equivalent": "manual_walk_audit|paper_map|staffed_route_assistance",
        "exit_action": "disable_sensing|restore_previous_signage|remove_90_day_kit|publish_retest_note",
        "evidence_record_template": [
          "baseline_walk",
          "anonymous_count_method",
          "group_access_witness",
          "retest_and_exit_log"
        ],
        "control_record_status": "conceptual_template_pending_field_witness",
        "stop_state_transition": "AI_SERVICE_ZONE_to_N0_then_ordinary_service_continues",
        "pause_trigger": "counting_bias|accessible_route_gap|privacy_objection|weather_or_event_conflict|manual_review_overdue",
        "ai_input": "anonymous_counts|manual_walk_audit|opt_in_public_feedback",
        "ai_role": "flag possible walking gaps; professionals decide any sign or layout change",
        "zone_return_state": "N0 ordinary public mode"
      },
      "geometry": {
        "type": "Polygon",
        "coordinates": [
          [
            [
              116.3459211552,
              39.9637943888
            ],
            [
              116.3459172075,
              39.9642086495
            ],
            [
              116.3453788432,
              39.9642056105
            ],
            [
              116.3453827942,
              39.9637913499
            ],
            [
              116.3459211552,
              39.9637943888
            ]
          ]
        ]
      }
    },
    {
      "type": "Feature",
      "id": "ZONE-012",
      "properties": {
        "id": "ZONE-012",
        "layer": "AI_SERVICE_ZONE",
        "source_type": "agent_generated_design",
        "confidence": "low",
        "geometry_role": "design_proposal",
        "node_id": "NODE-012",
        "scenario_id": "public-safety-operations-review",
        "scenario_card_id": "SC-11",
        "scenario_card_title_zh": "低速服务设备试用",
        "scenario_card_title_en": "Low-speed service device trial",
        "name_zh": "低速服务设备与30年公共框架接口盒 感知分区",
        "exposure_level": "N1",
        "sensing_mode": "on_request",
        "operating_hours": "event_only",
        "retention": "aggregate_24h",
        "human_handover": "park_operator",
        "no_capture_mask": "residential_mask",
        "expiry": "review_every_90_days",
        "non_ai_equivalent": "paper_or_human_service_available",
        "maintenance_sla_hours": 72,
        "zone_kind": "on_request_scene_interface",
        "zone_boundary_type": "conceptual_sensing_envelope_or_no_sensing_setback",
        "outward_sensing_forbidden": true,
        "official_boundary": false,
        "area_sqm_declared": 5376.0,
        "area_semantics": "conceptual exposure envelope; not a measured field-of-view, legal privacy setback, or approval boundary",
        "usage_note": "must be replaced or field-checked before any pilot; N0 means no sensing in this envelope",
        "evidence_status": "conceptual_reference_proposal",
        "operator_role": "low_speed_service_device_steward",
        "independent_reviewer": "public_safety_mobility_and_park_reviewer",
        "asset_owner_role": "park_or_service_asset_holder_to_be_named",
        "human_equivalent": "human_carry_or_cart_service|ordinary_delivery_window|staffed_help_point",
        "exit_action": "stop_device_return_frame_to_N0|remove_device|repair_or_redeploy_after_review",
        "evidence_record_template": [
          "prestart_check",
          "takeover_drill",
          "conflict_log",
          "stop_and_recovery_record"
        ],
        "control_record_status": "conceptual_template_pending_field_witness",
        "stop_state_transition": "AI_SERVICE_ZONE_to_N0_then_ordinary_service_continues",
        "pause_trigger": "person_device_conflict|speed_or_weather_limit|takeover_unavailable|route_obstruction",
        "ai_input": "device_status|weather|aggregate_route_conflicts",
        "ai_role": "suggest low-speed service window; human operator retains takeover",
        "zone_return_state": "N0 ordinary public mode"
      },
      "geometry": {
        "type": "Polygon",
        "coordinates": [
          [
            [
              116.3488644261,
              39.9956510015
            ],
            [
              116.3488596365,
              39.9961553164
            ],
            [
              116.3477355698,
              39.9961489957
            ],
            [
              116.3477403677,
              39.995644681
            ],
            [
              116.3488644261,
              39.9956510015
            ]
          ]
        ]
      }
    }
  ],
  "feature_layer_counts": {
    "SCENARIO_NODE": 12,
    "AI_SERVICE_ZONE": 12
  }
}
