{
  "type": "FeatureCollection",
  "name": "jz_1x1_life_based_phasing",
  "area_semantics": "overlapping_priority_action_envelopes",
  "overlap_policy": "allowed_between_phases; do_not_sum_phase_areas_as_land_area",
  "coverage_policy": "priority_envelopes_are_not_a_complete_site_partition",
  "area_calculation_crs": "EPSG:4548",
  "phase_model": "three_overlapping_spatial_action_envelopes_plus_four_temporal_evidence_gates",
  "temporal_gate_ids": [
    "P0",
    "P1",
    "P2",
    "P3"
  ],
  "non_spatial_gate_ids": [
    "P0"
  ],
  "temporal_gate_note": "P0 is a site-wide verification gate without a separate polygon; spatial envelopes do not map one-to-one to the P0-P3 timetable in proposal.md",
  "metric_refs": [
    "phasing_area_sqm",
    "phasing_union_area_sqm",
    "phasing_overlap_area_sqm",
    "phasing_site_coverage_ratio",
    "phasing_unassigned_area_sqm"
  ],
  "features": [
    {
      "type": "Feature",
      "id": "PHASE-001",
      "properties": {
        "id": "PHASE-001",
        "layer": "PHASE",
        "source_type": "agent_generated_design",
        "confidence": "medium",
        "geometry_role": "design_proposal",
        "phase": "phase_1",
        "phase_order": 1,
        "temporal_gate_refs": [
          "P1",
          "P2"
        ],
        "name_zh": "一期：大钟寺—原点公共接口试点",
        "phase_focus": "public rooms and walkability",
        "dependency": "official boundary, ownership, utilities and safety review required",
        "area_sqm_declared": 4981890.754,
        "design_thesis": "JZ 1:1 prototype mesh",
        "evidence_status": "conceptual_reference_proposal",
        "area_semantics": "priority_action_envelope; overlaps phase_2 where implementation interfaces coincide",
        "overlap_allowed": true,
      "area_basis": "projected_polygon_area_epsg4548"
      ,"delivery_register": {
        "candidate_asset_owner": "existing public-ground or park asset holder (to be named after title check)",
        "candidate_operator": "district public-space or park operations team (conceptual role)",
        "independent_reviewer": "accessibility + public-service reviewer independent of prototype supplier",
        "funding_type": "conceptual public-benefit maintenance/renewal budget; no funding commitment",
        "permit_gate": "official boundary, title, rail/river interfaces, fire and accessibility review",
        "stop_signal": "ordinary service route unavailable, safety/privacy/accessibility threshold exceeded, or complaint not acknowledged",
        "maintenance_owner": "named daily steward plus a separate maintenance lead (both pending confirmation)",
        "minimum_spatial_parameters": "continuous accessible bypass; service room and porch dimensions to be field measured",
        "capacity_basis": "capacity and staffing to be set from observed service demand, not assumed from polygon area",
        "delivery_evidence": ["signed site/title checklist", "independent access walk", "public opening log", "repair and complaint log"],
        "rights_protocol_ref": "RIGHTS-01"
      }
      },
      "geometry": {
        "type": "Polygon",
        "coordinates": [
          [
            [
              116.3553,
              39.965
            ],
            [
              116.3553,
              39.941
            ],
            [
              116.34064444444444,
              39.941
            ],
            [
              116.3397,
              39.975
            ],
            [
              116.33976451612902,
              39.976
            ],
            [
              116.35442,
              39.976
            ],
            [
              116.3553,
              39.965
            ]
          ]
        ]
      }
    },
    {
      "type": "Feature",
      "id": "PHASE-002",
      "properties": {
        "id": "PHASE-002",
        "layer": "PHASE",
        "source_type": "agent_generated_design",
        "confidence": "medium",
        "geometry_role": "design_proposal",
        "phase": "phase_2",
        "phase_order": 2,
        "temporal_gate_refs": [
          "P2",
          "P3"
        ],
        "name_zh": "二期：两翼微循环与近校转化",
        "phase_focus": "service wing and school interface",
        "dependency": "official boundary, ownership, utilities and safety review required",
        "area_sqm_declared": 4446087.688,
        "design_thesis": "JZ 1:1 prototype mesh",
        "evidence_status": "conceptual_reference_proposal",
        "area_semantics": "priority_action_envelope; overlaps phase_1 and phase_3 where implementation interfaces coincide",
        "overlap_allowed": true,
      "area_basis": "projected_polygon_area_epsg4548"
      ,"delivery_register": {
        "candidate_asset_owner": "existing education, innovation or community asset holder (to be named after title check)",
        "candidate_operator": "community service-room operator with school/enterprise liaison (conceptual role)",
        "independent_reviewer": "privacy, IP and care-service reviewer independent of the operator",
        "funding_type": "conceptual shared-service and small-repair grant; no funding commitment",
        "permit_gate": "official boundary, title, campus edge, fire, safeguarding, night access and utility review",
        "stop_signal": "loss of offline equivalent, unapproved data/rights use, unsafe crowding, or unresolved access complaint",
        "maintenance_owner": "service-room steward plus facilities technician; named people and rota pending confirmation",
        "minimum_spatial_parameters": "step-free counter, quiet/care corner, paper route and clear egress; dimensions to be surveyed",
        "capacity_basis": "staffed seats, queue and class capacity to be set after a two-week manual baseline",
        "delivery_evidence": ["title and safeguarding checklist", "offline drill record", "rights withdrawal log", "night-access walk"],
        "rights_protocol_ref": "RIGHTS-02"
      }
      },
      "geometry": {
        "type": "Polygon",
        "coordinates": [
          [
            [
              116.3533,
              39.99
            ],
            [
              116.3549,
              39.97
            ],
            [
              116.33983888888888,
              39.97
            ],
            [
              116.3397,
              39.975
            ],
            [
              116.34163548387097,
              40.005
            ],
            [
              116.35412191780823,
              40.005
            ],
            [
              116.3533,
              39.99
            ]
          ]
        ]
      }
    },
    {
      "type": "Feature",
      "id": "PHASE-003",
      "properties": {
        "id": "PHASE-003",
        "layer": "PHASE",
        "source_type": "agent_generated_design",
        "confidence": "medium",
        "geometry_role": "design_proposal",
        "phase": "phase_3",
        "phase_order": 3,
        "temporal_gate_refs": [
          "P1",
          "P3"
        ],
        "name_zh": "三期：众智园安全验证与国际传播",
        "phase_focus": "test yard and open-source replication",
        "dependency": "official boundary, ownership, utilities and safety review required",
        "area_sqm_declared": 3326419.476,
        "design_thesis": "JZ 1:1 prototype mesh",
        "evidence_status": "conceptual_reference_proposal",
        "area_semantics": "priority_action_envelope; overlaps phase_2 where implementation interfaces coincide",
        "overlap_allowed": true,
      "area_basis": "projected_polygon_area_epsg4548"
      ,"delivery_register": {
        "candidate_asset_owner": "station-front/commercial or park-interface asset holder (to be named after title check)",
        "candidate_operator": "station and public-realm interface operator with repair desk (conceptual role)",
        "independent_reviewer": "mobility, heritage and public-safety reviewer independent of terminal supplier",
        "funding_type": "conceptual reversible-public-realm pilot allocation; no capital or procurement commitment",
        "permit_gate": "official boundary, station/rail interface, pedestrian safety, heritage, fire, utilities and traffic review",
        "stop_signal": "conflict at station frontage, blocked accessible route, heritage rights complaint, or manual service capacity below baseline",
        "maintenance_owner": "frontage steward plus repair/reuse lead; supplier exit handover required",
        "minimum_spatial_parameters": "step-free interchange, unobstructed service edge, staffed repair point and removable fixing grid",
        "capacity_basis": "arrival, queue, maintenance and event capacity to be observed before any permanent work",
        "delivery_evidence": ["station-interface walk", "heritage rights clearance", "manual-equivalent drill", "de-installation rehearsal"],
        "rights_protocol_ref": "RIGHTS-03"
      }
      },
      "geometry": {
        "type": "Polygon",
        "coordinates": [
          [
            [
              116.35373835616438,
              39.998
            ],
            [
              116.34118387096774,
              39.998
            ],
            [
              116.3417,
              40.006
            ],
            [
              116.34267560975609,
              40.026
            ],
            [
              116.35527260273973,
              40.026
            ],
            [
              116.35373835616438,
              39.998
            ]
          ]
        ]
      }
    }
  ]
}
