{
  "type": "FeatureCollection",
  "name": "open_rail_protocol_green_network",
  "features": [
    {
      "type": "Feature",
      "id": "GREEN-001",
      "properties": {
        "id": "GREEN-001",
        "layer": "GREEN_SPACE",
        "source_type": "agent_generated_design",
        "confidence": "medium",
        "geometry_role": "design_proposal",
        "land_use_code": "1401",
        "name_zh": "京张记忆绿脊（概念建议）",
        "name_en": "Jing-Zhang Memory Green Spine (concept)",
        "area_sqm_declared": 2469838.853
      },
      "geometry": {
        "type": "Polygon",
        "coordinates": [
          [
            [
              116.34645,
              39.9405
            ],
            [
              116.34955,
              39.9405
            ],
            [
              116.34955,
              40.0245
            ],
            [
              116.34645,
              40.0245
            ],
            [
              116.34645,
              39.9405
            ]
          ]
        ]
      }
    },
    {
      "type": "Feature",
      "id": "GREEN-002",
      "properties": {
        "id": "GREEN-002",
        "layer": "GREEN_SPACE",
        "source_type": "agent_generated_design",
        "confidence": "medium",
        "geometry_role": "design_proposal",
        "land_use_code": "1401",
        "name_zh": "原点静谧花园（概念建议）",
        "name_en": "Origin Quiet Garden (concept)",
        "area_sqm_declared": 195371.396
      },
      "geometry": {
        "type": "Polygon",
        "coordinates": [
          [
            [
              116.3413,
              39.986
            ],
            [
              116.34645,
              39.986
            ],
            [
              116.34645,
              39.99
            ],
            [
              116.3413,
              39.99
            ],
            [
              116.3413,
              39.986
            ]
          ]
        ]
      }
    },
    {
      "type": "Feature",
      "id": "GREEN-003",
      "properties": {
        "id": "GREEN-003",
        "layer": "GREEN_SPACE",
        "source_type": "agent_generated_design",
        "confidence": "medium",
        "geometry_role": "design_proposal",
        "land_use_code": "1401",
        "name_zh": "众智园生态试验庭院（概念建议）",
        "name_en": "Zhongzhiyuan Ecological Test Courtyard (concept)",
        "area_sqm_declared": 288674.265
      },
      "geometry": {
        "type": "Polygon",
        "coordinates": [
          [
            [
              116.34955,
              40.012
            ],
            [
              116.3539,
              40.012
            ],
            [
              116.3539,
              40.019
            ],
            [
              116.34955,
              40.019
            ],
            [
              116.34955,
              40.012
            ]
          ]
        ]
      }
    }
  ]
}
