{
  "type": "FeatureCollection",
  "name": "open_rail_protocol_site_boundary",
  "features": [
    {
      "type": "Feature",
      "id": "PROV-SITE-001",
      "properties": {
        "id": "PROV-SITE-001",
        "layer": "SITE_BOUNDARY",
        "scope_id": "overall_design_area",
        "name_zh": "总体设计范围粗略替代边界",
        "name_en": "Provisional overall-design-area boundary",
        "source_type": "agent_inferred_from_public_data",
        "confidence": "medium",
        "geometry_role": "provisional_constraint",
        "official_boundary": false,
        "boundary_precision": "provisional_rough",
        "source_id": "DATA-SRC-PROVISIONAL-BOUNDARIES-20260605",
        "derived_from_source_ids": [
          "DATA-SRC-OFFICIAL-ANNOUNCEMENT-20260509"
        ],
        "source_title": "Repository-provided rough boundary based on public scope and area constraints",
        "derivation_method": "Copied without independent refinement from the repository provisional-boundaries source.",
        "area_sqm_declared": 11400000,
        "area_sqm_calculated": 11412825.386,
        "usage_note": "For AI generation, visualization and intake self-check only; never an official redline, approval basis or precise-area basis."
      },
      "geometry": {
        "type": "Polygon",
        "coordinates": [
          [
            [
              116.3407,
              39.939
            ],
            [
              116.3553,
              39.939
            ],
            [
              116.3553,
              39.965
            ],
            [
              116.3533,
              39.99
            ],
            [
              116.3553,
              40.0265
            ],
            [
              116.3427,
              40.0265
            ],
            [
              116.3417,
              40.006
            ],
            [
              116.3397,
              39.975
            ],
            [
              116.3407,
              39.939
            ]
          ]
        ]
      }
    }
  ],
  "boundary_disclosure": "Repository-provided provisional rough geometry; not an official redline."
}
