{
  "type": "FeatureCollection",
  "name": "blue_green_open_source_spine",
  "features": [
    {
      "type": "Feature",
      "id": "GREEN-001",
      "properties": {
        "id": "GREEN-001",
        "layer": "GREEN_SPACE",
        "source_type": "agent_generated_design",
        "confidence": "medium",
        "geometry_role": "design_proposal",
        "land_use_code": "1401",
        "name_zh": "京张遗产—开源智脉连续绿廊",
        "concept_role": "north_south_spine",
        "area_sqm_declared": 1118594.372
      },
      "geometry": {
        "type": "Polygon",
        "coordinates": [
          [
            [
              116.34570599999999,
              39.94075
            ],
            [
              116.34570599999999,
              40.02475
            ],
            [
              116.34711,
              40.02475
            ],
            [
              116.34711,
              39.94075
            ],
            [
              116.34570599999999,
              39.94075
            ]
          ]
        ]
      }
    },
    {
      "type": "Feature",
      "id": "GREEN-002",
      "properties": {
        "id": "GREEN-002",
        "layer": "GREEN_SPACE",
        "source_type": "agent_generated_design",
        "confidence": "medium",
        "geometry_role": "design_proposal",
        "land_use_code": "1401",
        "name_zh": "清河创新会客花园概念带",
        "concept_role": "north_ecology_exchange",
        "area_sqm_declared": 569424.746
      },
      "geometry": {
        "type": "Polygon",
        "coordinates": [
          [
            [
              116.342664,
              40.00725
            ],
            [
              116.342664,
              40.01425
            ],
            [
              116.351244,
              40.01425
            ],
            [
              116.351244,
              40.00725
            ],
            [
              116.342664,
              40.00725
            ]
          ]
        ]
      }
    },
    {
      "type": "Feature",
      "id": "GREEN-003",
      "properties": {
        "id": "GREEN-003",
        "layer": "GREEN_SPACE",
        "source_type": "agent_generated_design",
        "confidence": "medium",
        "geometry_role": "design_proposal",
        "land_use_code": "1401",
        "name_zh": "原点社区校园—园区共享花园概念带",
        "concept_role": "campus_neighborhood_link",
        "area_sqm_declared": 480343.559
      },
      "geometry": {
        "type": "Polygon",
        "coordinates": [
          [
            [
              116.343288,
              39.976625
            ],
            [
              116.343288,
              39.982749999999996
            ],
            [
              116.351556,
              39.982749999999996
            ],
            [
              116.351556,
              39.976625
            ],
            [
              116.343288,
              39.976625
            ]
          ]
        ]
      }
    },
    {
      "type": "Feature",
      "id": "GREEN-004",
      "properties": {
        "id": "GREEN-004",
        "layer": "GREEN_SPACE",
        "source_type": "agent_generated_design",
        "confidence": "medium",
        "geometry_role": "design_proposal",
        "land_use_code": "1401",
        "name_zh": "大钟寺站城公共绿廊概念带",
        "concept_role": "south_station_link",
        "area_sqm_declared": 516791.128
      },
      "geometry": {
        "type": "Polygon",
        "coordinates": [
          [
            [
              116.3436,
              39.950375
            ],
            [
              116.3436,
              39.9565
            ],
            [
              116.352492,
              39.9565
            ],
            [
              116.352492,
              39.950375
            ],
            [
              116.3436,
              39.950375
            ]
          ]
        ]
      }
    }
  ]
}
