{
  "type": "FeatureCollection",
  "name": "night_shift_mobility_network",
  "features": [
    {
      "type": "Feature",
      "id": "ROAD-NIGHT-SPINE",
      "properties": {
        "id": "ROAD-NIGHT-SPINE",
        "layer": "ROAD_CENTERLINE",
        "source_type": "agent_generated_design",
        "confidence": "medium",
        "geometry_role": "design_proposal",
        "road_class": "greenway",
        "name_zh": "京张夜行主脊",
        "name_en": "Jing-Zhang Night Spine",
        "temporal_role": "continuous_safe_route"
      },
      "geometry": {
        "type": "LineString",
        "coordinates": [
          [
            116.3457,
            39.941
          ],
          [
            116.346,
            39.963
          ],
          [
            116.3456,
            39.988
          ],
          [
            116.3458,
            40.011
          ],
          [
            116.3454,
            40.025
          ]
        ]
      }
    },
    {
      "type": "Feature",
      "id": "ROAD-GATE-N1",
      "properties": {
        "id": "ROAD-GATE-N1",
        "layer": "ROAD_CENTERLINE",
        "source_type": "agent_generated_design",
        "confidence": "medium",
        "geometry_role": "design_proposal",
        "road_class": "pedestrian",
        "name_zh": "北部夜行门",
        "temporal_role": "cross_link"
      },
      "geometry": {
        "type": "LineString",
        "coordinates": [
          [
            116.3426,
            40.016
          ],
          [
            116.3538,
            40.016
          ]
        ]
      }
    },
    {
      "type": "Feature",
      "id": "ROAD-GATE-N2",
      "properties": {
        "id": "ROAD-GATE-N2",
        "layer": "ROAD_CENTERLINE",
        "source_type": "agent_generated_design",
        "confidence": "medium",
        "geometry_role": "design_proposal",
        "road_class": "cycleway",
        "name_zh": "清河夜行门",
        "temporal_role": "cross_link"
      },
      "geometry": {
        "type": "LineString",
        "coordinates": [
          [
            116.342,
            40.009
          ],
          [
            116.3539,
            40.009
          ]
        ]
      }
    },
    {
      "type": "Feature",
      "id": "ROAD-GATE-C1",
      "properties": {
        "id": "ROAD-GATE-C1",
        "layer": "ROAD_CENTERLINE",
        "source_type": "agent_generated_design",
        "confidence": "medium",
        "geometry_role": "design_proposal",
        "road_class": "pedestrian",
        "name_zh": "原点北门",
        "temporal_role": "cross_link"
      },
      "geometry": {
        "type": "LineString",
        "coordinates": [
          [
            116.3407,
            39.991
          ],
          [
            116.3533,
            39.991
          ]
        ]
      }
    },
    {
      "type": "Feature",
      "id": "ROAD-GATE-C2",
      "properties": {
        "id": "ROAD-GATE-C2",
        "layer": "ROAD_CENTERLINE",
        "source_type": "agent_generated_design",
        "confidence": "medium",
        "geometry_role": "design_proposal",
        "road_class": "transit_connection",
        "name_zh": "原点换乘门",
        "temporal_role": "cross_link"
      },
      "geometry": {
        "type": "LineString",
        "coordinates": [
          [
            116.34,
            39.985
          ],
          [
            116.3536,
            39.985
          ]
        ]
      }
    },
    {
      "type": "Feature",
      "id": "ROAD-GATE-S1",
      "properties": {
        "id": "ROAD-GATE-S1",
        "layer": "ROAD_CENTERLINE",
        "source_type": "agent_generated_design",
        "confidence": "medium",
        "geometry_role": "design_proposal",
        "road_class": "pedestrian",
        "name_zh": "大钟寺换乘门",
        "temporal_role": "cross_link"
      },
      "geometry": {
        "type": "LineString",
        "coordinates": [
          [
            116.3404,
            39.949
          ],
          [
            116.3552,
            39.949
          ]
        ]
      }
    },
    {
      "type": "Feature",
      "id": "ROAD-GATE-S2",
      "properties": {
        "id": "ROAD-GATE-S2",
        "layer": "ROAD_CENTERLINE",
        "source_type": "agent_generated_design",
        "confidence": "medium",
        "geometry_role": "design_proposal",
        "road_class": "cycleway",
        "name_zh": "南部门户夜行门",
        "temporal_role": "cross_link"
      },
      "geometry": {
        "type": "LineString",
        "coordinates": [
          [
            116.3406,
            39.9448
          ],
          [
            116.3551,
            39.9448
          ]
        ]
      }
    }
  ]
}
