{
  "type": "FeatureCollection",
  "name": "constraints",
  "features": [
    {
      "type": "Feature",
      "id": "KM-00",
      "properties": {
        "id": "KM-00",
        "layer": "SCENARIO_NODE",
        "source_type": "agent_generated_design",
        "confidence": "medium",
        "geometry_role": "design_proposal",
        "node_type": "kmark",
        "kmark_index": "KM-00",
        "name_zh": "K-00 开源公里标",
        "public_level": "provisional"
      },
      "geometry": {
        "type": "Point",
        "coordinates": [
          116.3475,
          39.9429375
        ]
      }
    },
    {
      "type": "Feature",
      "id": "KM-01",
      "properties": {
        "id": "KM-01",
        "layer": "SCENARIO_NODE",
        "source_type": "agent_generated_design",
        "confidence": "medium",
        "geometry_role": "design_proposal",
        "node_type": "kmark",
        "kmark_index": "KM-01",
        "name_zh": "K-01 开源公里标",
        "public_level": "provisional"
      },
      "geometry": {
        "type": "Point",
        "coordinates": [
          116.3489875,
          39.95125
        ]
      }
    },
    {
      "type": "Feature",
      "id": "KM-02",
      "properties": {
        "id": "KM-02",
        "layer": "SCENARIO_NODE",
        "source_type": "agent_generated_design",
        "confidence": "medium",
        "geometry_role": "design_proposal",
        "node_type": "kmark",
        "kmark_index": "KM-02",
        "name_zh": "K-02 开源公里标",
        "public_level": "provisional"
      },
      "geometry": {
        "type": "Point",
        "coordinates": [
          116.3471167,
          39.959125
        ]
      }
    },
    {
      "type": "Feature",
      "id": "KM-03",
      "properties": {
        "id": "KM-03",
        "layer": "SCENARIO_NODE",
        "source_type": "agent_generated_design",
        "confidence": "medium",
        "geometry_role": "design_proposal",
        "node_type": "kmark",
        "kmark_index": "KM-03",
        "name_zh": "K-03 开源公里标",
        "public_level": "provisional"
      },
      "geometry": {
        "type": "Point",
        "coordinates": [
          116.3461113,
          39.967875
        ]
      }
    },
    {
      "type": "Feature",
      "id": "KM-04",
      "properties": {
        "id": "KM-04",
        "layer": "SCENARIO_NODE",
        "source_type": "agent_generated_design",
        "confidence": "medium",
        "geometry_role": "design_proposal",
        "node_type": "kmark",
        "kmark_index": "KM-04",
        "name_zh": "K-04 开源公里标",
        "public_level": "provisional"
      },
      "geometry": {
        "type": "Point",
        "coordinates": [
          116.3482412,
          39.97575
        ]
      }
    },
    {
      "type": "Feature",
      "id": "KM-05",
      "properties": {
        "id": "KM-05",
        "layer": "SCENARIO_NODE",
        "source_type": "agent_generated_design",
        "confidence": "medium",
        "geometry_role": "design_proposal",
        "node_type": "kmark",
        "kmark_index": "KM-05",
        "name_zh": "K-05 开源公里标",
        "public_level": "provisional"
      },
      "geometry": {
        "type": "Point",
        "coordinates": [
          116.3486977,
          39.98275
        ]
      }
    },
    {
      "type": "Feature",
      "id": "KM-06",
      "properties": {
        "id": "KM-06",
        "layer": "SCENARIO_NODE",
        "source_type": "agent_generated_design",
        "confidence": "medium",
        "geometry_role": "design_proposal",
        "node_type": "kmark",
        "kmark_index": "KM-06",
        "name_zh": "K-06 开源公里标",
        "public_level": "provisional"
      },
      "geometry": {
        "type": "Point",
        "coordinates": [
          116.3464502,
          39.98975
        ]
      }
    },
    {
      "type": "Feature",
      "id": "KM-07",
      "properties": {
        "id": "KM-07",
        "layer": "SCENARIO_NODE",
        "source_type": "agent_generated_design",
        "confidence": "medium",
        "geometry_role": "design_proposal",
        "node_type": "kmark",
        "kmark_index": "KM-07",
        "name_zh": "K-07 开源公里标",
        "public_level": "provisional"
      },
      "geometry": {
        "type": "Point",
        "coordinates": [
          116.3465728,
          39.99675
        ]
      }
    },
    {
      "type": "Feature",
      "id": "KM-08",
      "properties": {
        "id": "KM-08",
        "layer": "SCENARIO_NODE",
        "source_type": "agent_generated_design",
        "confidence": "medium",
        "geometry_role": "design_proposal",
        "node_type": "kmark",
        "kmark_index": "KM-08",
        "name_zh": "K-08 开源公里标",
        "public_level": "provisional"
      },
      "geometry": {
        "type": "Point",
        "coordinates": [
          116.3487887,
          40.004625
        ]
      }
    },
    {
      "type": "Feature",
      "id": "KM-09",
      "properties": {
        "id": "KM-09",
        "layer": "SCENARIO_NODE",
        "source_type": "agent_generated_design",
        "confidence": "medium",
        "geometry_role": "design_proposal",
        "node_type": "kmark",
        "kmark_index": "KM-09",
        "name_zh": "K-09 开源公里标",
        "public_level": "provisional"
      },
      "geometry": {
        "type": "Point",
        "coordinates": [
          116.3480951,
          40.01425
        ]
      }
    },
    {
      "type": "Feature",
      "id": "SCN-01",
      "properties": {
        "id": "SCN-01",
        "layer": "SCENARIO_NODE",
        "source_type": "agent_generated_design",
        "confidence": "medium",
        "geometry_role": "design_proposal",
        "node_type": "scenario",
        "scenario_id": "kmarks-open-release-hall",
        "scenario_name_zh": "开源发布厅",
        "location_zh": "北京AI原点社区",
        "kmark_index": "KM-04",
        "public_level": "provisional"
      },
      "geometry": {
        "type": "Point",
        "coordinates": [
          116.3475,
          39.9885
        ]
      }
    },
    {
      "type": "Feature",
      "id": "SCN-02",
      "properties": {
        "id": "SCN-02",
        "layer": "SCENARIO_NODE",
        "source_type": "agent_generated_design",
        "confidence": "medium",
        "geometry_role": "design_proposal",
        "node_type": "testbed",
        "scenario_id": "kmarks-fullstack-proving-ground",
        "scenario_name_zh": "全栈评测场",
        "location_zh": "众智园AI自主创新加速区",
        "kmark_index": "KM-08",
        "public_level": "provisional"
      },
      "geometry": {
        "type": "Point",
        "coordinates": [
          116.3485,
          40.01675
        ]
      }
    },
    {
      "type": "Feature",
      "id": "SCN-03",
      "properties": {
        "id": "SCN-03",
        "layer": "SCENARIO_NODE",
        "source_type": "agent_generated_design",
        "confidence": "medium",
        "geometry_role": "design_proposal",
        "node_type": "testbed",
        "scenario_id": "kmarks-redteam-governance-sandbox",
        "scenario_name_zh": "红队治理沙盒",
        "location_zh": "众智园AI自主创新加速区",
        "kmark_index": "KM-09",
        "public_level": "provisional"
      },
      "geometry": {
        "type": "Point",
        "coordinates": [
          116.3485,
          40.01675
        ]
      }
    },
    {
      "type": "Feature",
      "id": "SCN-04",
      "properties": {
        "id": "SCN-04",
        "layer": "SCENARIO_NODE",
        "source_type": "agent_generated_design",
        "confidence": "medium",
        "geometry_role": "design_proposal",
        "node_type": "scenario",
        "scenario_id": "kmarks-slow-network-observer",
        "scenario_name_zh": "慢行断点观测站",
        "location_zh": "京张遗址公园K主脊",
        "kmark_index": "KM-05",
        "public_level": "provisional"
      },
      "geometry": {
        "type": "Point",
        "coordinates": [
          116.3470419,
          39.9825
        ]
      }
    },
    {
      "type": "Feature",
      "id": "SCN-05",
      "properties": {
        "id": "SCN-05",
        "layer": "SCENARIO_NODE",
        "source_type": "agent_generated_design",
        "confidence": "medium",
        "geometry_role": "design_proposal",
        "node_type": "testbed",
        "scenario_id": "kmarks-campus-commute-pilot",
        "scenario_name_zh": "校区园区智能接驳",
        "location_zh": "北京AI原点社区",
        "kmark_index": "KM-05",
        "public_level": "provisional"
      },
      "geometry": {
        "type": "Point",
        "coordinates": [
          116.3475,
          39.9885
        ]
      }
    },
    {
      "type": "Feature",
      "id": "SCN-06",
      "properties": {
        "id": "SCN-06",
        "layer": "SCENARIO_NODE",
        "source_type": "agent_generated_design",
        "confidence": "medium",
        "geometry_role": "design_proposal",
        "node_type": "scenario",
        "scenario_id": "kmarks-agent-retail-avenue",
        "scenario_name_zh": "智能体旗舰街",
        "location_zh": "大钟寺AI产业聚集区",
        "kmark_index": "KM-01",
        "public_level": "provisional"
      },
      "geometry": {
        "type": "Point",
        "coordinates": [
          116.3485,
          39.94692
        ]
      }
    },
    {
      "type": "Feature",
      "id": "SCN-07",
      "properties": {
        "id": "SCN-07",
        "layer": "SCENARIO_NODE",
        "source_type": "agent_generated_design",
        "confidence": "medium",
        "geometry_role": "design_proposal",
        "node_type": "scenario",
        "scenario_id": "kmarks-data-elements-lounge",
        "scenario_name_zh": "数据要素会客厅",
        "location_zh": "大钟寺AI产业聚集区",
        "kmark_index": "KM-00",
        "public_level": "provisional"
      },
      "geometry": {
        "type": "Point",
        "coordinates": [
          116.3485,
          39.94692
        ]
      }
    },
    {
      "type": "Feature",
      "id": "SCN-08",
      "properties": {
        "id": "SCN-08",
        "layer": "SCENARIO_NODE",
        "source_type": "agent_generated_design",
        "confidence": "medium",
        "geometry_role": "design_proposal",
        "node_type": "scenario",
        "scenario_id": "kmarks-talent-life-steward",
        "scenario_name_zh": "人才生活管家",
        "location_zh": "总体设计范围居住配套区",
        "kmark_index": "KM-02",
        "public_level": "provisional"
      },
      "geometry": {
        "type": "Point",
        "coordinates": [
          116.3470419,
          39.9825
        ]
      }
    },
    {
      "type": "Feature",
      "id": "SCN-09",
      "properties": {
        "id": "SCN-09",
        "layer": "SCENARIO_NODE",
        "source_type": "agent_generated_design",
        "confidence": "medium",
        "geometry_role": "design_proposal",
        "node_type": "scenario",
        "scenario_id": "kmarks-qinghe-lowcarbon-edge",
        "scenario_name_zh": "清河低碳创新界面",
        "location_zh": "众智园北清河界面",
        "kmark_index": "KM-09",
        "public_level": "provisional"
      },
      "geometry": {
        "type": "Point",
        "coordinates": [
          116.3485,
          40.01675
        ]
      }
    },
    {
      "type": "Feature",
      "id": "SCN-10",
      "properties": {
        "id": "SCN-10",
        "layer": "SCENARIO_NODE",
        "source_type": "agent_generated_design",
        "confidence": "medium",
        "geometry_role": "design_proposal",
        "node_type": "scenario",
        "scenario_id": "kmarks-ai-education-lab",
        "scenario_name_zh": "AI+教育开放实验室",
        "location_zh": "北京AI原点社区教育用地",
        "kmark_index": "KM-06",
        "public_level": "provisional"
      },
      "geometry": {
        "type": "Point",
        "coordinates": [
          116.3475,
          39.9885
        ]
      }
    },
    {
      "type": "Feature",
      "id": "SCN-11",
      "properties": {
        "id": "SCN-11",
        "layer": "SCENARIO_NODE",
        "source_type": "agent_generated_design",
        "confidence": "medium",
        "geometry_role": "design_proposal",
        "node_type": "scenario",
        "scenario_id": "kmarks-global-roadshow-lounge",
        "scenario_name_zh": "全球路演客厅",
        "location_zh": "大钟寺/中关村科技服务翼",
        "kmark_index": "KM-00",
        "public_level": "provisional"
      },
      "geometry": {
        "type": "Point",
        "coordinates": [
          116.3485,
          39.94692
        ]
      }
    },
    {
      "type": "Feature",
      "id": "SCN-12",
      "properties": {
        "id": "SCN-12",
        "layer": "SCENARIO_NODE",
        "source_type": "agent_generated_design",
        "confidence": "medium",
        "geometry_role": "design_proposal",
        "node_type": "scenario",
        "scenario_id": "kmarks-open-kmarks-week",
        "scenario_name_zh": "开源公里标日活动周",
        "location_zh": "K主脊全程",
        "kmark_index": "KM-03",
        "public_level": "provisional"
      },
      "geometry": {
        "type": "Point",
        "coordinates": [
          116.3470419,
          39.9825
        ]
      }
    },
    {
      "type": "Feature",
      "id": "ZONE-FULLSTACK",
      "properties": {
        "id": "ZONE-FULLSTACK",
        "layer": "AI_SERVICE_ZONE",
        "source_type": "agent_generated_design",
        "confidence": "medium",
        "geometry_role": "design_proposal",
        "zone_type": "ai_service",
        "name_zh": "众智园全栈评测服务区",
        "public_level": "provisional",
        "area_sqm_declared": 2336655.315
      },
      "geometry": {
        "type": "Polygon",
        "coordinates": [
          [
            [
              116.3421,
              40.0142
            ],
            [
              116.3427,
              40.0265
            ],
            [
              116.3547483,
              40.0265
            ],
            [
              116.3547937,
              40.0264243
            ],
            [
              116.3548315,
              40.0263444
            ],
            [
              116.3548612,
              40.0262613
            ],
            [
              116.3548827,
              40.0261756
            ],
            [
              116.3548957,
              40.0260882
            ],
            [
              116.3549,
              40.026
            ],
            [
              116.3549,
              40.0192
            ],
            [
              116.354211,
              40.0066262
            ],
            [
              116.3541756,
              40.0066173
            ],
            [
              116.3540882,
              40.0066043
            ],
            [
              116.354,
              40.0066
            ],
            [
              116.343,
              40.0066
            ],
            [
              116.3429118,
              40.0066043
            ],
            [
              116.3428244,
              40.0066173
            ],
            [
              116.3427387,
              40.0066388
            ],
            [
              116.3426556,
              40.0066685
            ],
            [
              116.3425757,
              40.0067063
            ],
            [
              116.3425,
              40.0067517
            ],
            [
              116.342429,
              40.0068043
            ],
            [
              116.3423636,
              40.0068636
            ],
            [
              116.3423043,
              40.006929
            ],
            [
              116.3422517,
              40.007
            ],
            [
              116.3422063,
              40.0070757
            ],
            [
              116.3421685,
              40.0071556
            ],
            [
              116.3421388,
              40.0072387
            ],
            [
              116.3421173,
              40.0073244
            ],
            [
              116.3421043,
              40.0074118
            ],
            [
              116.3421,
              40.0075
            ],
            [
              116.3421,
              40.0142
            ]
          ]
        ]
      }
    },
    {
      "type": "Feature",
      "id": "ZONE-OPENSOURCE",
      "properties": {
        "id": "ZONE-OPENSOURCE",
        "layer": "AI_SERVICE_ZONE",
        "source_type": "agent_generated_design",
        "confidence": "medium",
        "geometry_role": "design_proposal",
        "zone_type": "ai_service",
        "name_zh": "原点开源协作服务区",
        "public_level": "provisional",
        "area_sqm_declared": 1386083.84
      },
      "geometry": {
        "type": "Polygon",
        "coordinates": [
          [
            [
              116.3411,
              39.9935
            ],
            [
              116.3411043,
              39.9935882
            ],
            [
              116.3411173,
              39.9936756
            ],
            [
              116.3411388,
              39.9937613
            ],
            [
              116.3411685,
              39.9938444
            ],
            [
              116.3412063,
              39.9939243
            ],
            [
              116.3412517,
              39.994
            ],
            [
              116.3413043,
              39.994071
            ],
            [
              116.3413636,
              39.9941364
            ],
            [
              116.341429,
              39.9941957
            ],
            [
              116.3415,
              39.9942483
            ],
            [
              116.3415757,
              39.9942937
            ],
            [
              116.3416556,
              39.9943315
            ],
            [
              116.3417387,
              39.9943612
            ],
            [
              116.3418244,
              39.9943827
            ],
            [
              116.3419118,
              39.9943957
            ],
            [
              116.342,
              39.9944
            ],
            [
              116.353,
              39.9944
            ],
            [
              116.3530882,
              39.9943957
            ],
            [
              116.3531756,
              39.9943827
            ],
            [
              116.3532613,
              39.9943612
            ],
            [
              116.3533444,
              39.9943315
            ],
            [
              116.3534243,
              39.9942937
            ],
            [
              116.3535,
              39.9942483
            ],
            [
              116.3535315,
              39.994225
            ],
            [
              116.3533,
              39.99
            ],
            [
              116.3538446,
              39.9831923
            ],
            [
              116.3538315,
              39.9831556
            ],
            [
              116.3537937,
              39.9830757
            ],
            [
              116.3537483,
              39.983
            ],
            [
              116.3536957,
              39.982929
            ],
            [
              116.3536364,
              39.9828636
            ],
            [
              116.353571,
              39.9828043
            ],
            [
              116.3535,
              39.9827517
            ],
            [
              116.3534243,
              39.9827063
            ],
            [
              116.3533444,
              39.9826685
            ],
            [
              116.3532613,
              39.9826388
            ],
            [
              116.3531756,
              39.9826173
            ],
            [
              116.3530882,
              39.9826043
            ],
            [
              116.353,
              39.9826
            ],
            [
              116.342,
              39.9826
            ],
            [
              116.3419118,
              39.9826043
            ],
            [
              116.3418244,
              39.9826173
            ],
            [
              116.3417387,
              39.9826388
            ],
            [
              116.3416556,
              39.9826685
            ],
            [
              116.3415757,
              39.9827063
            ],
            [
              116.3415,
              39.9827517
            ],
            [
              116.341429,
              39.9828043
            ],
            [
              116.3413636,
              39.9828636
            ],
            [
              116.3413043,
              39.982929
            ],
            [
              116.3412517,
              39.983
            ],
            [
              116.3412063,
              39.9830757
            ],
            [
              116.3411685,
              39.9831556
            ],
            [
              116.3411388,
              39.9832387
            ],
            [
              116.3411173,
              39.9833244
            ],
            [
              116.3411043,
              39.9834118
            ],
            [
              116.3411,
              39.9835
            ],
            [
              116.3411,
              39.9935
            ]
          ]
        ]
      }
    },
    {
      "type": "Feature",
      "id": "ZONE-APPLICATION",
      "properties": {
        "id": "ZONE-APPLICATION",
        "layer": "AI_SERVICE_ZONE",
        "source_type": "agent_generated_design",
        "confidence": "medium",
        "geometry_role": "design_proposal",
        "zone_type": "ai_service",
        "name_zh": "大钟寺智能商务服务区",
        "public_level": "provisional",
        "area_sqm_declared": 1026094.009
      },
      "geometry": {
        "type": "Polygon",
        "coordinates": [
          [
            [
              116.3411,
              39.94984
            ],
            [
              116.3411043,
              39.9499282
            ],
            [
              116.3411173,
              39.9500156
            ],
            [
              116.3411388,
              39.9501013
            ],
            [
              116.3411685,
              39.9501844
            ],
            [
              116.3412063,
              39.9502643
            ],
            [
              116.3412517,
              39.95034
            ],
            [
              116.3413043,
              39.950411
            ],
            [
              116.3413636,
              39.9504764
            ],
            [
              116.341429,
              39.9505357
            ],
            [
              116.3415,
              39.9505883
            ],
            [
              116.3415757,
              39.9506337
            ],
            [
              116.3416556,
              39.9506715
            ],
            [
              116.3417387,
              39.9507012
            ],
            [
              116.3418244,
              39.9507227
            ],
            [
              116.3419118,
              39.9507357
            ],
            [
              116.342,
              39.95074
            ],
            [
              116.355,
              39.95074
            ],
            [
              116.3550882,
              39.9507357
            ],
            [
              116.3551756,
              39.9507227
            ],
            [
              116.3552613,
              39.9507012
            ],
            [
              116.3553,
              39.9506874
            ],
            [
              116.3553,
              39.9431526
            ],
            [
              116.3552613,
              39.9431388
            ],
            [
              116.3551756,
              39.9431173
            ],
            [
              116.3550882,
              39.9431043
            ],
            [
              116.355,
              39.9431
            ],
            [
              116.342,
              39.9431
            ],
            [
              116.3419118,
              39.9431043
            ],
            [
              116.3418244,
              39.9431173
            ],
            [
              116.3417387,
              39.9431388
            ],
            [
              116.3416556,
              39.9431685
            ],
            [
              116.3415757,
              39.9432063
            ],
            [
              116.3415,
              39.9432517
            ],
            [
              116.341429,
              39.9433043
            ],
            [
              116.3413636,
              39.9433636
            ],
            [
              116.3413043,
              39.943429
            ],
            [
              116.3412517,
              39.9435
            ],
            [
              116.3412063,
              39.9435757
            ],
            [
              116.3411685,
              39.9436556
            ],
            [
              116.3411388,
              39.9437387
            ],
            [
              116.3411173,
              39.9438244
            ],
            [
              116.3411043,
              39.9439118
            ],
            [
              116.3411,
              39.944
            ],
            [
              116.3411,
              39.94984
            ]
          ]
        ]
      }
    }
  ]
}
