{
  "type": "FeatureCollection",
  "name": "commons_bluegreen_network",
  "features": [
    {
      "type": "Feature",
      "id": "GREEN-001",
      "properties": {
        "id": "GREEN-001",
        "layer": "GREEN_SPACE",
        "source_type": "agent_generated_design",
        "confidence": "medium",
        "geometry_role": "design_proposal",
        "name_zh": "京张遗址公园连续生态脊柱",
        "land_use_code": "1401",
        "area_sqm_declared": 1359120.913
      },
      "geometry": {
        "type": "Polygon",
        "coordinates": [
          [
            [
              116.34665793571725,
              39.998502560499816
            ],
            [
              116.3464080396607,
              40.02449175038135
            ],
            [
              116.34812396033928,
              40.02450824961864
            ],
            [
              116.34837406428272,
              39.998497439500184
            ],
            [
              116.34792404671028,
              39.969621311934645
            ],
            [
              116.34812397905837,
              39.94100599461351
            ],
            [
              116.34640802094161,
              39.94099400538649
            ],
            [
              116.34620795328969,
              39.969628688065356
            ],
            [
              116.34665793571725,
              39.998502560499816
            ]
          ]
        ]
      }
    },
    {
      "type": "Feature",
      "id": "GREEN-002",
      "properties": {
        "id": "GREEN-002",
        "layer": "GREEN_SPACE",
        "source_type": "agent_generated_design",
        "confidence": "medium",
        "geometry_role": "design_proposal",
        "name_zh": "南部城市客厅绿楔",
        "land_use_code": "1401",
        "area_sqm_declared": 283919.85
      },
      "geometry": {
        "type": "Polygon",
        "coordinates": [
          [
            [
              116.3407,
              39.9484
            ],
            [
              116.3407,
              39.9506
            ],
            [
              116.3543,
              39.9506
            ],
            [
              116.3543,
              39.9484
            ],
            [
              116.3407,
              39.9484
            ]
          ]
        ]
      }
    },
    {
      "type": "Feature",
      "id": "GREEN-003",
      "properties": {
        "id": "GREEN-003",
        "layer": "GREEN_SPACE",
        "source_type": "agent_generated_design",
        "confidence": "medium",
        "geometry_role": "design_proposal",
        "name_zh": "中部知识花园绿楔",
        "land_use_code": "1401",
        "area_sqm_declared": 270627.285
      },
      "geometry": {
        "type": "Polygon",
        "coordinates": [
          [
            [
              116.353758,
              39.984275
            ],
            [
              116.3407,
              39.984275
            ],
            [
              116.3407,
              39.986475
            ],
            [
              116.353582,
              39.986475
            ],
            [
              116.353758,
              39.984275
            ]
          ]
        ]
      }
    },
    {
      "type": "Feature",
      "id": "GREEN-004",
      "properties": {
        "id": "GREEN-004",
        "layer": "GREEN_SPACE",
        "source_type": "agent_generated_design",
        "confidence": "medium",
        "geometry_role": "design_proposal",
        "name_zh": "北部清河创新绿楔",
        "land_use_code": "1401",
        "area_sqm_declared": 252617.254
      },
      "geometry": {
        "type": "Polygon",
        "coordinates": [
          [
            [
              116.34224146341464,
              40.0171
            ],
            [
              116.3543,
              40.0171
            ],
            [
              116.3543,
              40.0149
            ],
            [
              116.34213414634146,
              40.0149
            ],
            [
              116.34224146341464,
              40.0171
            ]
          ]
        ]
      }
    }
  ]
}
