{
 "type": "FeatureCollection",
 "features": [
  {
   "type": "Feature",
   "properties": {
    "id": "BLDG-001",
    "layer": "BUILDING_FOOTPRINT",
    "building_type": "mixed_use",
    "name_zh": "智能原生消费与商务混合功能",
    "on_land_use": "LU-05-0101",
    "storeys_assumed": 5,
    "storeys_basis_zh": "层数为方案假设值，见 assumptions.json A-STOREY-001；正式控制指标待规划条件下发后核定",
    "source_type": "agent_generated_design",
    "confidence": "low",
    "geometry_role": "design_proposal",
    "official_boundary": false,
    "area_sqm_declared": 19553.9
   },
   "geometry": {
    "type": "Polygon",
    "coordinates": [
     [
      [
       116.34373699999999,
       39.940081
      ],
      [
       116.34373699999999,
       39.94291900000001
      ],
      [
       116.344463,
       39.94291900000001
      ],
      [
       116.344463,
       39.940081
      ],
      [
       116.34373699999999,
       39.940081
      ]
     ]
    ]
   },
   "id": "BLDG-001"
  },
  {
   "type": "Feature",
   "properties": {
    "id": "BLDG-002",
    "layer": "BUILDING_FOOTPRINT",
    "building_type": "mixed_use",
    "name_zh": "智能原生消费与商务混合功能",
    "on_land_use": "LU-05-0102",
    "storeys_assumed": 5,
    "storeys_basis_zh": "层数为方案假设值，见 assumptions.json A-STOREY-001；正式控制指标待规划条件下发后核定",
    "source_type": "agent_generated_design",
    "confidence": "low",
    "geometry_role": "design_proposal",
    "official_boundary": false,
    "area_sqm_declared": 172474.8
   },
   "geometry": {
    "type": "Polygon",
    "coordinates": [
     [
      [
       116.354168,
       39.94435
      ],
      [
       116.3518,
       39.94435
      ],
      [
       116.35176569400087,
       39.94434831465434
      ],
      [
       116.35173171838728,
       39.944343274848144
      ],
      [
       116.35169840036296,
       39.94433492911751
      ],
      [
       116.35166606079866,
       39.94432335783638
      ],
      [
       116.35163501114211,
       39.944308672442524
      ],
      [
       116.35160555041844,
       39.94429101436431
      ],
      [
       116.35157796235055,
       39.94427055365868
      ],
      [
       116.35155251262658,
       39.94424748737342
      ],
      [
       116.35152944634132,
       39.94422203764946
      ],
      [
       116.35150898563569,
       39.94419444958156
      ],
      [
       116.35149132755747,
       39.94416498885789
      ],
      [
       116.35147664216362,
       39.94413393920133
      ],
      [
       116.3514650708825,
       39.944101599637044
      ],
      [
       116.35145672515186,
       39.94406828161271
      ],
      [
       116.35145168534567,
       39.94403430599912
      ],
      [
       116.35145,
       39.944
      ],
      [
       116.35145,
       39.942800999999996
      ],
      [
       116.35113199999999,
       39.942800999999996
      ],
      [
       116.35113199999999,
       39.956199000000005
      ],
      [
       116.35145,
       39.956199000000005
      ],
      [
       116.35145,
       39.9498
      ],
      [
       116.35145168534567,
       39.94976569400089
      ],
      [
       116.35145672515186,
       39.9497317183873
      ],
      [
       116.3514650708825,
       39.94969840036296
      ],
      [
       116.35147664216362,
       39.94966606079868
      ],
      [
       116.35149132755747,
       39.949635011142114
      ],
      [
       116.35150898563569,
       39.94960555041845
      ],
      [
       116.35152944634132,
       39.949577962350546
      ],
      [
       116.35155251262658,
       39.94955251262659
      ],
      [
       116.35157796235055,
       39.94952944634132
      ],
      [
       116.35160555041844,
       39.949508985635696
      ],
      [
       116.35163501114211,
       39.94949132755748
      ],
      [
       116.35166606079866,
       39.949476642163624
      ],
      [
       116.35169840036296,
       39.949465070882496
      ],
      [
       116.35173171838728,
       39.94945672515186
      ],
      [
       116.35176569400087,
       39.949451685345664
      ],
      [
       116.3518,
       39.949450000000006
      ],
      [
       116.354168,
       39.949450000000006
      ],
      [
       116.354168,
       39.94435
      ]
     ]
    ]
   },
   "id": "BLDG-002"
  },
  {
   "type": "Feature",
   "properties": {
    "id": "BLDG-003",
    "layer": "BUILDING_FOOTPRINT",
    "building_type": "mixed_use",
    "name_zh": "智能原生消费与商务混合功能",
    "on_land_use": "LU-05-0103",
    "storeys_assumed": 5,
    "storeys_basis_zh": "层数为方案假设值，见 assumptions.json A-STOREY-001；正式控制指标待规划条件下发后核定",
    "source_type": "agent_generated_design",
    "confidence": "low",
    "geometry_role": "design_proposal",
    "official_boundary": false,
    "area_sqm_declared": 43192.2
   },
   "geometry": {
    "type": "Polygon",
    "coordinates": [
     [
      [
       116.34373699999999,
       39.951765
      ],
      [
       116.34373699999999,
       39.958035
      ],
      [
       116.344463,
       39.958035
      ],
      [
       116.344463,
       39.951765
      ],
      [
       116.34373699999999,
       39.951765
      ]
     ]
    ]
   },
   "id": "BLDG-003"
  },
  {
   "type": "Feature",
   "properties": {
    "id": "BLDG-004",
    "layer": "BUILDING_FOOTPRINT",
    "building_type": "mixed_use",
    "name_zh": "智能原生消费与商务混合功能",
    "on_land_use": "LU-05-0104",
    "storeys_assumed": 5,
    "storeys_basis_zh": "层数为方案假设值，见 assumptions.json A-STOREY-001；正式控制指标待规划条件下发后核定",
    "source_type": "agent_generated_design",
    "confidence": "low",
    "geometry_role": "design_proposal",
    "official_boundary": false,
    "area_sqm_declared": 17729.5
   },
   "geometry": {
    "type": "Polygon",
    "coordinates": [
     [
      [
       116.34373699999999,
       39.96141299999999
      ],
      [
       116.34373699999999,
       39.963987
      ],
      [
       116.344463,
       39.963987
      ],
      [
       116.344463,
       39.96141299999999
      ],
      [
       116.34373699999999,
       39.96141299999999
      ]
     ]
    ]
   },
   "id": "BLDG-004"
  },
  {
   "type": "Feature",
   "properties": {
    "id": "BLDG-005",
    "layer": "BUILDING_FOOTPRINT",
    "building_type": "mixed_use",
    "name_zh": "智能原生消费与商务混合功能",
    "on_land_use": "LU-05-0106",
    "storeys_assumed": 5,
    "storeys_basis_zh": "层数为方案假设值，见 assumptions.json A-STOREY-001；正式控制指标待规划条件下发后核定",
    "source_type": "agent_generated_design",
    "confidence": "low",
    "geometry_role": "design_proposal",
    "official_boundary": false,
    "area_sqm_declared": 17729.5
   },
   "geometry": {
    "type": "Polygon",
    "coordinates": [
     [
      [
       116.35053699999999,
       39.96141299999999
      ],
      [
       116.35053699999999,
       39.963987
      ],
      [
       116.351263,
       39.963987
      ],
      [
       116.351263,
       39.96141299999999
      ],
      [
       116.35053699999999,
       39.96141299999999
      ]
     ]
    ]
   },
   "id": "BLDG-005"
  },
  {
   "type": "Feature",
   "properties": {
    "id": "BLDG-006",
    "layer": "BUILDING_FOOTPRINT",
    "building_type": "mixed_use",
    "name_zh": "智能原生消费与商务混合功能",
    "on_land_use": "LU-05-0107",
    "storeys_assumed": 5,
    "storeys_basis_zh": "层数为方案假设值，见 assumptions.json A-STOREY-001；正式控制指标待规划条件下发后核定",
    "source_type": "agent_generated_design",
    "confidence": "low",
    "geometry_role": "design_proposal",
    "official_boundary": false,
    "area_sqm_declared": 19997.3
   },
   "geometry": {
    "type": "Polygon",
    "coordinates": [
     [
      [
       116.35053699999999,
       39.979498
      ],
      [
       116.35053699999999,
       39.982402
      ],
      [
       116.351263,
       39.982402
      ],
      [
       116.351263,
       39.979498
      ],
      [
       116.35053699999999,
       39.979498
      ]
     ]
    ]
   },
   "id": "BLDG-006"
  },
  {
   "type": "Feature",
   "properties": {
    "id": "BLDG-007",
    "layer": "BUILDING_FOOTPRINT",
    "building_type": "residential",
    "name_zh": "既有居住与人才公寓",
    "on_land_use": "LU-0701-0201",
    "storeys_assumed": 8,
    "storeys_basis_zh": "层数为方案假设值，见 assumptions.json A-STOREY-001；正式控制指标待规划条件下发后核定",
    "source_type": "agent_generated_design",
    "confidence": "low",
    "geometry_role": "design_proposal",
    "official_boundary": false,
    "area_sqm_declared": 198449.3
   },
   "geometry": {
    "type": "Polygon",
    "coordinates": [
     [
      [
       116.34088001483177,
       39.956199000000005
      ],
      [
       116.34244650906193,
       39.956199000000005
      ],
      [
       116.34244650906193,
       39.942800999999996
      ],
      [
       116.3409445516715,
       39.942800999999996
      ],
      [
       116.34091097615834,
       39.94400971847354
      ],
      [
       116.34088001483177,
       39.94512432623015
      ],
      [
       116.34088001483177,
       39.956199000000005
      ]
     ]
    ]
   },
   "id": "BLDG-007"
  },
  {
   "type": "Feature",
   "properties": {
    "id": "BLDG-008",
    "layer": "BUILDING_FOOTPRINT",
    "building_type": "residential",
    "name_zh": "既有居住与人才公寓",
    "on_land_use": "LU-0701-0202",
    "storeys_assumed": 8,
    "storeys_basis_zh": "层数为方案假设值，见 assumptions.json A-STOREY-001；正式控制指标待规划条件下发后核定",
    "source_type": "agent_generated_design",
    "confidence": "low",
    "geometry_role": "design_proposal",
    "official_boundary": false,
    "area_sqm_declared": 195522.0
   },
   "geometry": {
    "type": "Polygon",
    "coordinates": [
     [
      [
       116.34052626010059,
       39.963623
      ],
      [
       116.34052626010059,
       39.974777
      ],
      [
       116.34237405327362,
       39.974777
      ],
      [
       116.34237405327362,
       39.963623
      ],
      [
       116.34052626010059,
       39.963623
      ]
     ]
    ]
   },
   "id": "BLDG-008"
  },
  {
   "type": "Feature",
   "properties": {
    "id": "BLDG-009",
    "layer": "BUILDING_FOOTPRINT",
    "building_type": "residential",
    "name_zh": "既有居住与人才公寓",
    "on_land_use": "LU-0701-0203",
    "storeys_assumed": 8,
    "storeys_basis_zh": "层数为方案假设值，见 assumptions.json A-STOREY-001；正式控制指标待规划条件下发后核定",
    "source_type": "agent_generated_design",
    "confidence": "low",
    "geometry_role": "design_proposal",
    "official_boundary": false,
    "area_sqm_declared": 195888.2
   },
   "geometry": {
    "type": "Polygon",
    "coordinates": [
     [
      [
       116.342415252733,
       39.99775700000001
      ],
      [
       116.342415252733,
       39.982642999999996
      ],
      [
       116.34072741040235,
       39.982642999999996
      ],
      [
       116.34072741040235,
       39.985488582638176
      ],
      [
       116.34124282224523,
       39.9934774662027
      ],
      [
       116.34151892119989,
       39.99775700000001
      ],
      [
       116.342415252733,
       39.99775700000001
      ]
     ]
    ]
   },
   "id": "BLDG-009"
  },
  {
   "type": "Feature",
   "properties": {
    "id": "BLDG-010",
    "layer": "BUILDING_FOOTPRINT",
    "building_type": "residential",
    "name_zh": "既有居住与人才公寓",
    "on_land_use": "LU-0701-0204",
    "storeys_assumed": 8,
    "storeys_basis_zh": "层数为方案假设值，见 assumptions.json A-STOREY-001；正式控制指标待规划条件下发后核定",
    "source_type": "agent_generated_design",
    "confidence": "low",
    "geometry_role": "design_proposal",
    "official_boundary": false,
    "area_sqm_declared": 37807.3
   },
   "geometry": {
    "type": "Polygon",
    "coordinates": [
     [
      [
       116.34267847853947,
       40.0060890496428
      ],
      [
       116.34205476005639,
       40.0060890496428
      ],
      [
       116.3421227550546,
       40.0074829471062
      ],
      [
       116.34267847853947,
       40.01887527854616
      ],
      [
       116.34267847853947,
       40.0060890496428
      ]
     ]
    ]
   },
   "id": "BLDG-010"
  },
  {
   "type": "Feature",
   "properties": {
    "id": "BLDG-011",
    "layer": "BUILDING_FOOTPRINT",
    "building_type": "residential",
    "name_zh": "既有居住与人才公寓",
    "on_land_use": "LU-0701-0205",
    "storeys_assumed": 8,
    "storeys_basis_zh": "层数为方案假设值，见 assumptions.json A-STOREY-001；正式控制指标待规划条件下发后核定",
    "source_type": "agent_generated_design",
    "confidence": "low",
    "geometry_role": "design_proposal",
    "official_boundary": false,
    "area_sqm_declared": 49773.5
   },
   "geometry": {
    "type": "Polygon",
    "coordinates": [
     [
      [
       116.352626,
       39.940081
      ],
      [
       116.352626,
       39.94291900000001
      ],
      [
       116.354474,
       39.94291900000001
      ],
      [
       116.354474,
       39.940081
      ],
      [
       116.352626,
       39.940081
      ]
     ]
    ]
   },
   "id": "BLDG-011"
  },
  {
   "type": "Feature",
   "properties": {
    "id": "BLDG-012",
    "layer": "BUILDING_FOOTPRINT",
    "building_type": "residential",
    "name_zh": "既有居住与人才公寓",
    "on_land_use": "LU-0701-0206",
    "storeys_assumed": 8,
    "storeys_basis_zh": "层数为方案假设值，见 assumptions.json A-STOREY-001；正式控制指标待规划条件下发后核定",
    "source_type": "agent_generated_design",
    "confidence": "low",
    "geometry_role": "design_proposal",
    "official_boundary": false,
    "area_sqm_declared": 109943.4
   },
   "geometry": {
    "type": "Polygon",
    "coordinates": [
     [
      [
       116.352626,
       39.951765
      ],
      [
       116.352626,
       39.958035
      ],
      [
       116.354474,
       39.958035
      ],
      [
       116.354474,
       39.951765
      ],
      [
       116.352626,
       39.951765
      ]
     ]
    ]
   },
   "id": "BLDG-012"
  },
  {
   "type": "Feature",
   "properties": {
    "id": "BLDG-013",
    "layer": "BUILDING_FOOTPRINT",
    "building_type": "residential",
    "name_zh": "既有居住与人才公寓",
    "on_land_use": "LU-0701-0207",
    "storeys_assumed": 8,
    "storeys_basis_zh": "层数为方案假设值，见 assumptions.json A-STOREY-001；正式控制指标待规划条件下发后核定",
    "source_type": "agent_generated_design",
    "confidence": "low",
    "geometry_role": "design_proposal",
    "official_boundary": false,
    "area_sqm_declared": 189945.3
   },
   "geometry": {
    "type": "Polygon",
    "coordinates": [
     [
      [
       116.354474,
       39.963623
      ],
      [
       116.352626,
       39.963623
      ],
      [
       116.352626,
       39.974777
      ],
      [
       116.35416672178629,
       39.974777
      ],
      [
       116.354474,
       39.970936022328615
      ],
      [
       116.354474,
       39.963623
      ]
     ]
    ]
   },
   "id": "BLDG-013"
  },
  {
   "type": "Feature",
   "properties": {
    "id": "BLDG-014",
    "layer": "BUILDING_FOOTPRINT",
    "building_type": "residential",
    "name_zh": "既有居住与人才公寓",
    "on_land_use": "LU-0701-0208",
    "storeys_assumed": 8,
    "storeys_basis_zh": "层数为方案假设值，见 assumptions.json A-STOREY-001；正式控制指标待规划条件下发后核定",
    "source_type": "agent_generated_design",
    "confidence": "low",
    "geometry_role": "design_proposal",
    "official_boundary": false,
    "area_sqm_declared": 74990.4
   },
   "geometry": {
    "type": "Polygon",
    "coordinates": [
     [
      [
       116.35356007188263,
       39.981198
      ],
      [
       116.35243880990366,
       39.981198
      ],
      [
       116.35243880990366,
       39.990702000000006
      ],
      [
       116.35298794072033,
       39.990702000000006
      ],
      [
       116.3529505242467,
       39.99001914935635
      ],
      [
       116.35295111465251,
       39.989972089172205
      ],
      [
       116.3534711146525,
       39.9834720891722
      ],
      [
       116.35356007188263,
       39.982360123795736
      ],
      [
       116.35356007188263,
       39.981198
      ]
     ]
    ]
   },
   "id": "BLDG-014"
  },
  {
   "type": "Feature",
   "properties": {
    "id": "BLDG-015",
    "layer": "BUILDING_FOOTPRINT",
    "building_type": "community_service",
    "name_zh": "社区服务与载具后场服务",
    "on_land_use": "LU-0702-0301",
    "storeys_assumed": 3,
    "storeys_basis_zh": "层数为方案假设值，见 assumptions.json A-STOREY-001；正式控制指标待规划条件下发后核定",
    "source_type": "agent_generated_design",
    "confidence": "low",
    "geometry_role": "design_proposal",
    "official_boundary": false,
    "area_sqm_declared": 55909.1
   },
   "geometry": {
    "type": "Polygon",
    "coordinates": [
     [
      [
       116.34373699999999,
       39.96744100000001
      ],
      [
       116.34373699999999,
       39.975559000000004
      ],
      [
       116.344463,
       39.975559000000004
      ],
      [
       116.344463,
       39.96744100000001
      ],
      [
       116.34373699999999,
       39.96744100000001
      ]
     ]
    ]
   },
   "id": "BLDG-015"
  },
  {
   "type": "Feature",
   "properties": {
    "id": "BLDG-016",
    "layer": "BUILDING_FOOTPRINT",
    "building_type": "community_service",
    "name_zh": "社区服务与载具后场服务",
    "on_land_use": "LU-0702-0302",
    "storeys_assumed": 3,
    "storeys_basis_zh": "层数为方案假设值，见 assumptions.json A-STOREY-001；正式控制指标待规划条件下发后核定",
    "source_type": "agent_generated_design",
    "confidence": "low",
    "geometry_role": "design_proposal",
    "official_boundary": false,
    "area_sqm_declared": 55909.0
   },
   "geometry": {
    "type": "Polygon",
    "coordinates": [
     [
      [
       116.35053699999999,
       39.96744100000001
      ],
      [
       116.35053699999999,
       39.975559000000004
      ],
      [
       116.351263,
       39.975559000000004
      ],
      [
       116.351263,
       39.96744100000001
      ],
      [
       116.35053699999999,
       39.96744100000001
      ]
     ]
    ]
   },
   "id": "BLDG-016"
  },
  {
   "type": "Feature",
   "properties": {
    "id": "BLDG-017",
    "layer": "BUILDING_FOOTPRINT",
    "building_type": "community_service",
    "name_zh": "社区服务与载具后场服务",
    "on_land_use": "LU-0702-0303",
    "storeys_assumed": 3,
    "storeys_basis_zh": "层数为方案假设值，见 assumptions.json A-STOREY-001；正式控制指标待规划条件下发后核定",
    "source_type": "agent_generated_design",
    "confidence": "low",
    "geometry_role": "design_proposal",
    "official_boundary": false,
    "area_sqm_declared": 42262.4
   },
   "geometry": {
    "type": "Polygon",
    "coordinates": [
     [
      [
       116.34373699999999,
       39.985431
      ],
      [
       116.34373699999999,
       39.991569000000005
      ],
      [
       116.344463,
       39.991569000000005
      ],
      [
       116.344463,
       39.985431
      ],
      [
       116.34373699999999,
       39.985431
      ]
     ]
    ]
   },
   "id": "BLDG-017"
  },
  {
   "type": "Feature",
   "properties": {
    "id": "BLDG-018",
    "layer": "BUILDING_FOOTPRINT",
    "building_type": "ai_r_and_d",
    "name_zh": "AI研发与实验室",
    "on_land_use": "LU-0802-0401",
    "storeys_assumed": 6,
    "storeys_basis_zh": "层数为方案假设值，见 assumptions.json A-STOREY-001；正式控制指标待规划条件下发后核定",
    "source_type": "agent_generated_design",
    "confidence": "low",
    "geometry_role": "design_proposal",
    "official_boundary": false,
    "area_sqm_declared": 42262.3
   },
   "geometry": {
    "type": "Polygon",
    "coordinates": [
     [
      [
       116.35053699999999,
       39.985431
      ],
      [
       116.35053699999999,
       39.991569000000005
      ],
      [
       116.351263,
       39.991569000000005
      ],
      [
       116.351263,
       39.985431
      ],
      [
       116.35053699999999,
       39.985431
      ]
     ]
    ]
   },
   "id": "BLDG-018"
  },
  {
   "type": "Feature",
   "properties": {
    "id": "BLDG-019",
    "layer": "BUILDING_FOOTPRINT",
    "building_type": "ai_r_and_d",
    "name_zh": "AI研发与实验室",
    "on_land_use": "LU-0802-0402",
    "storeys_assumed": 6,
    "storeys_basis_zh": "层数为方案假设值，见 assumptions.json A-STOREY-001；正式控制指标待规划条件下发后核定",
    "source_type": "agent_generated_design",
    "confidence": "low",
    "geometry_role": "design_proposal",
    "official_boundary": false,
    "area_sqm_declared": 35441.2
   },
   "geometry": {
    "type": "Polygon",
    "coordinates": [
     [
      [
       116.34373699999999,
       39.995175999999994
      ],
      [
       116.34373699999999,
       40.000324
      ],
      [
       116.344463,
       40.000324
      ],
      [
       116.344463,
       39.995175999999994
      ],
      [
       116.34373699999999,
       39.995175999999994
      ]
     ]
    ]
   },
   "id": "BLDG-019"
  },
  {
   "type": "Feature",
   "properties": {
    "id": "BLDG-020",
    "layer": "BUILDING_FOOTPRINT",
    "building_type": "ai_r_and_d",
    "name_zh": "AI研发与实验室",
    "on_land_use": "LU-0802-0403",
    "storeys_assumed": 6,
    "storeys_basis_zh": "层数为方案假设值，见 assumptions.json A-STOREY-001；正式控制指标待规划条件下发后核定",
    "source_type": "agent_generated_design",
    "confidence": "low",
    "geometry_role": "design_proposal",
    "official_boundary": false,
    "area_sqm_declared": 104026.9
   },
   "geometry": {
    "type": "Polygon",
    "coordinates": [
     [
      [
       116.34373699999999,
       40.006643
      ],
      [
       116.34373699999999,
       40.02175700000001
      ],
      [
       116.344463,
       40.02175700000001
      ],
      [
       116.344463,
       40.006643
      ],
      [
       116.34373699999999,
       40.006643
      ]
     ]
    ]
   },
   "id": "BLDG-020"
  },
  {
   "type": "Feature",
   "properties": {
    "id": "BLDG-021",
    "layer": "BUILDING_FOOTPRINT",
    "building_type": "ai_r_and_d",
    "name_zh": "AI研发与实验室",
    "on_land_use": "LU-0802-0404",
    "storeys_assumed": 6,
    "storeys_basis_zh": "层数为方案假设值，见 assumptions.json A-STOREY-001；正式控制指标待规划条件下发后核定",
    "source_type": "agent_generated_design",
    "confidence": "low",
    "geometry_role": "design_proposal",
    "official_boundary": false,
    "area_sqm_declared": 334554.5
   },
   "geometry": {
    "type": "Polygon",
    "coordinates": [
     [
      [
       116.35112399293615,
       40.010875999999996
      ],
      [
       116.35112399293615,
       40.02262400000001
      ],
      [
       116.35412890668829,
       40.02262400000001
      ],
      [
       116.35412890668829,
       40.01152462891549
      ],
      [
       116.35409336537785,
       40.010875999999996
      ],
      [
       116.35112399293615,
       40.010875999999996
      ]
     ]
    ]
   },
   "id": "BLDG-021"
  },
  {
   "type": "Feature",
   "properties": {
    "id": "BLDG-022",
    "layer": "BUILDING_FOOTPRINT",
    "building_type": "cultural",
    "name_zh": "文化展示",
    "on_land_use": "LU-0803-0501",
    "storeys_assumed": 3,
    "storeys_basis_zh": "层数为方案假设值，见 assumptions.json A-STOREY-001；正式控制指标待规划条件下发后核定",
    "source_type": "agent_generated_design",
    "confidence": "low",
    "geometry_role": "design_proposal",
    "official_boundary": false,
    "area_sqm_declared": 23190.0
   },
   "geometry": {
    "type": "Polygon",
    "coordinates": [
     [
      [
       116.34373699999999,
       39.945217
      ],
      [
       116.34373699999999,
       39.948583
      ],
      [
       116.344463,
       39.948583
      ],
      [
       116.344463,
       39.945217
      ],
      [
       116.34373699999999,
       39.945217
      ]
     ]
    ]
   },
   "id": "BLDG-022"
  },
  {
   "type": "Feature",
   "properties": {
    "id": "BLDG-023",
    "layer": "BUILDING_FOOTPRINT",
    "building_type": "education",
    "name_zh": "教育科研配套",
    "on_land_use": "LU-0804-0601",
    "storeys_assumed": 5,
    "storeys_basis_zh": "层数为方案假设值，见 assumptions.json A-STOREY-001；正式控制指标待规划条件下发后核定",
    "source_type": "agent_generated_design",
    "confidence": "low",
    "geometry_role": "design_proposal",
    "official_boundary": false,
    "area_sqm_declared": 104320.2
   },
   "geometry": {
    "type": "Polygon",
    "coordinates": [
     [
      [
       116.35090043129232,
       39.995175999999994
      ],
      [
       116.35090043129232,
       40.000324
      ],
      [
       116.35303739983895,
       40.000324
      ],
      [
       116.35303739983895,
       39.995175999999994
      ],
      [
       116.35090043129232,
       39.995175999999994
      ]
     ]
    ]
   },
   "id": "BLDG-023"
  },
  {
   "type": "Feature",
   "properties": {
    "id": "BLDG-024",
    "layer": "BUILDING_FOOTPRINT",
    "building_type": "education",
    "name_zh": "教育科研配套",
    "on_land_use": "LU-0804-0602",
    "storeys_assumed": 5,
    "storeys_basis_zh": "层数为方案假设值，见 assumptions.json A-STOREY-001；正式控制指标待规划条件下发后核定",
    "source_type": "agent_generated_design",
    "confidence": "low",
    "geometry_role": "design_proposal",
    "official_boundary": false,
    "area_sqm_declared": 64318.0
   },
   "geometry": {
    "type": "Polygon",
    "coordinates": [
     [
      [
       116.35095166416902,
       40.003498
      ],
      [
       116.35095166416902,
       40.006402
      ],
      [
       116.35328753682525,
       40.006402
      ],
      [
       116.35328753682525,
       40.003498
      ],
      [
       116.35095166416902,
       40.003498
      ]
     ]
    ]
   },
   "id": "BLDG-024"
  },
  {
   "type": "Feature",
   "properties": {
    "id": "BLDG-025",
    "layer": "BUILDING_FOOTPRINT",
    "building_type": "community_service",
    "name_zh": "医疗与检测样本锚点设施",
    "on_land_use": "LU-0806-0801",
    "storeys_assumed": 4,
    "storeys_basis_zh": "层数为方案假设值，见 assumptions.json A-STOREY-001；正式控制指标待规划条件下发后核定",
    "source_type": "agent_generated_design",
    "confidence": "low",
    "geometry_role": "design_proposal",
    "official_boundary": false,
    "area_sqm_declared": 19997.3
   },
   "geometry": {
    "type": "Polygon",
    "coordinates": [
     [
      [
       116.34373699999999,
       39.979498
      ],
      [
       116.34373699999999,
       39.982402
      ],
      [
       116.344463,
       39.982402
      ],
      [
       116.344463,
       39.979498
      ],
      [
       116.34373699999999,
       39.979498
      ]
     ]
    ]
   },
   "id": "BLDG-025"
  }
 ]
}