{
  "type": "FeatureCollection",
  "name": "building_footprints",
  "features": [
    {
      "type": "Feature",
      "id": "BLDG-001",
      "properties": {
        "id": "BLDG-001",
        "layer": "BUILDING_FOOTPRINT",
        "source_type": "agent_generated_design",
        "confidence": "medium",
        "geometry_role": "design_proposal",
        "building_type": "ai_r_and_d",
        "name_zh": "全栈创新研发组团",
        "name_en": "Full-stack R&D cluster",
        "key_area": "zhongzhiyuan",
        "retain_renovate_demolish": "pending_survey",
        "provisional_note": "Derived inside the provisional corridor boundary; recompute when the organiser publishes the official redline.",
        "area_sqm_declared": 9599.983
      },
      "geometry": {
        "type": "Polygon",
        "coordinates": [
          [
            [
              116.3424172,
              40.01045
            ],
            [
              116.3426673,
              40.01045
            ],
            [
              116.3429174,
              40.01045
            ],
            [
              116.3431674,
              40.01045
            ],
            [
              116.3434175,
              40.01045
            ],
            [
              116.3435425,
              40.01045
            ],
            [
              116.3434979,
              40.00955
            ],
            [
              116.3433729,
              40.00955
            ],
            [
              116.343123,
              40.00955
            ],
            [
              116.342873,
              40.00955
            ],
            [
              116.3426231,
              40.00955
            ],
            [
              116.3423731,
              40.00955
            ],
            [
              116.3424172,
              40.01045
            ]
          ]
        ]
      }
    },
    {
      "type": "Feature",
      "id": "BLDG-002",
      "properties": {
        "id": "BLDG-002",
        "layer": "BUILDING_FOOTPRINT",
        "source_type": "agent_generated_design",
        "confidence": "medium",
        "geometry_role": "design_proposal",
        "building_type": "ai_r_and_d",
        "name_zh": "全栈创新研发组团",
        "name_en": "Full-stack R&D cluster",
        "key_area": "zhongzhiyuan",
        "retain_renovate_demolish": "pending_survey",
        "provisional_note": "Derived inside the provisional corridor boundary; recompute when the organiser publishes the official redline.",
        "area_sqm_declared": 9600.394
      },
      "geometry": {
        "type": "Polygon",
        "coordinates": [
          [
            [
              116.3491691,
              40.01045
            ],
            [
              116.3494192,
              40.01045
            ],
            [
              116.3496692,
              40.01045
            ],
            [
              116.3499193,
              40.01045
            ],
            [
              116.3501694,
              40.01045
            ],
            [
              116.3502944,
              40.01045
            ],
            [
              116.3502469,
              40.00955
            ],
            [
              116.3501219,
              40.00955
            ],
            [
              116.3498719,
              40.00955
            ],
            [
              116.349622,
              40.00955
            ],
            [
              116.349372,
              40.00955
            ],
            [
              116.349122,
              40.00955
            ],
            [
              116.3491691,
              40.01045
            ]
          ]
        ]
      }
    },
    {
      "type": "Feature",
      "id": "BLDG-003",
      "properties": {
        "id": "BLDG-003",
        "layer": "BUILDING_FOOTPRINT",
        "source_type": "agent_generated_design",
        "confidence": "medium",
        "geometry_role": "design_proposal",
        "building_type": "ai_r_and_d",
        "name_zh": "全栈创新研发组团",
        "name_en": "Full-stack R&D cluster",
        "key_area": "zhongzhiyuan",
        "retain_renovate_demolish": "pending_survey",
        "provisional_note": "Derived inside the provisional corridor boundary; recompute when the organiser publishes the official redline.",
        "area_sqm_declared": 9635.561
      },
      "geometry": {
        "type": "Polygon",
        "coordinates": [
          [
            [
              116.3428094,
              40.01845
            ],
            [
              116.3430604,
              40.01845
            ],
            [
              116.3433114,
              40.01845
            ],
            [
              116.3435625,
              40.01845
            ],
            [
              116.3438135,
              40.01845
            ],
            [
              116.343939,
              40.01845
            ],
            [
              116.3438944,
              40.01755
            ],
            [
              116.343769,
              40.01755
            ],
            [
              116.343518,
              40.01755
            ],
            [
              116.3432671,
              40.01755
            ],
            [
              116.3430162,
              40.01755
            ],
            [
              116.3427653,
              40.01755
            ],
            [
              116.3428094,
              40.01845
            ]
          ]
        ]
      }
    },
    {
      "type": "Feature",
      "id": "BLDG-004",
      "properties": {
        "id": "BLDG-004",
        "layer": "BUILDING_FOOTPRINT",
        "source_type": "agent_generated_design",
        "confidence": "medium",
        "geometry_role": "design_proposal",
        "building_type": "ai_r_and_d",
        "name_zh": "全栈创新研发组团",
        "name_en": "Full-stack R&D cluster",
        "key_area": "zhongzhiyuan",
        "retain_renovate_demolish": "pending_survey",
        "provisional_note": "Derived inside the provisional corridor boundary; recompute when the organiser publishes the official redline.",
        "area_sqm_declared": 9636.399
      },
      "geometry": {
        "type": "Polygon",
        "coordinates": [
          [
            [
              116.3495872,
              40.01845
            ],
            [
              116.3498383,
              40.01845
            ],
            [
              116.3500893,
              40.01845
            ],
            [
              116.3503403,
              40.01845
            ],
            [
              116.3505914,
              40.01845
            ],
            [
              116.3507169,
              40.01845
            ],
            [
              116.3506694,
              40.01755
            ],
            [
              116.3505439,
              40.01755
            ],
            [
              116.350293,
              40.01755
            ],
            [
              116.350042,
              40.01755
            ],
            [
              116.3497911,
              40.01755
            ],
            [
              116.3495402,
              40.01755
            ],
            [
              116.3495872,
              40.01845
            ]
          ]
        ]
      }
    },
    {
      "type": "Feature",
      "id": "BLDG-005",
      "properties": {
        "id": "BLDG-005",
        "layer": "BUILDING_FOOTPRINT",
        "source_type": "agent_generated_design",
        "confidence": "medium",
        "geometry_role": "design_proposal",
        "building_type": "ai_r_and_d",
        "name_zh": "全栈创新研发组团",
        "name_en": "Full-stack R&D cluster",
        "key_area": "zhongzhiyuan",
        "retain_renovate_demolish": "pending_survey",
        "provisional_note": "Derived inside the provisional corridor boundary; recompute when the organiser publishes the official redline.",
        "area_sqm_declared": 9658.734
      },
      "geometry": {
        "type": "Polygon",
        "coordinates": [
          [
            [
              116.3518616,
              40.02345
            ],
            [
              116.3521133,
              40.02345
            ],
            [
              116.3523649,
              40.02345
            ],
            [
              116.3526165,
              40.02345
            ],
            [
              116.3528682,
              40.02345
            ],
            [
              116.352994,
              40.02345
            ],
            [
              116.3529456,
              40.02255
            ],
            [
              116.3528198,
              40.02255
            ],
            [
              116.3525683,
              40.02255
            ],
            [
              116.3523168,
              40.02255
            ],
            [
              116.3520653,
              40.02255
            ],
            [
              116.3518137,
              40.02255
            ],
            [
              116.3518616,
              40.02345
            ]
          ]
        ]
      }
    },
    {
      "type": "Feature",
      "id": "BLDG-006",
      "properties": {
        "id": "BLDG-006",
        "layer": "BUILDING_FOOTPRINT",
        "source_type": "agent_generated_design",
        "confidence": "medium",
        "geometry_role": "design_proposal",
        "building_type": "ai_r_and_d",
        "name_zh": "近校转化组团",
        "name_en": "Campus conversion cluster",
        "key_area": "ai_origin",
        "retain_renovate_demolish": "pending_survey",
        "provisional_note": "Derived inside the provisional corridor boundary; recompute when the organiser publishes the official redline.",
        "area_sqm_declared": 10203.882
      },
      "geometry": {
        "type": "Polygon",
        "coordinates": [
          [
            [
              116.3409352,
              39.98595
            ],
            [
              116.3411995,
              39.98595
            ],
            [
              116.3414639,
              39.98595
            ],
            [
              116.3417282,
              39.98595
            ],
            [
              116.3419926,
              39.98595
            ],
            [
              116.3421247,
              39.98595
            ],
            [
              116.3420836,
              39.98505
            ],
            [
              116.3419501,
              39.98505
            ],
            [
              116.3416831,
              39.98505
            ],
            [
              116.3414162,
              39.98505
            ],
            [
              116.3411492,
              39.98505
            ],
            [
              116.3408823,
              39.98505
            ],
            [
              116.3409352,
              39.98595
            ]
          ]
        ]
      }
    },
    {
      "type": "Feature",
      "id": "BLDG-007",
      "properties": {
        "id": "BLDG-007",
        "layer": "BUILDING_FOOTPRINT",
        "source_type": "agent_generated_design",
        "confidence": "medium",
        "geometry_role": "design_proposal",
        "building_type": "ai_r_and_d",
        "name_zh": "近校转化组团",
        "name_en": "Campus conversion cluster",
        "key_area": "ai_origin",
        "retain_renovate_demolish": "pending_survey",
        "provisional_note": "Derived inside the provisional corridor boundary; recompute when the organiser publishes the official redline.",
        "area_sqm_declared": 10204.291
      },
      "geometry": {
        "type": "Polygon",
        "coordinates": [
          [
            [
              116.3480726,
              39.98595
            ],
            [
              116.348337,
              39.98595
            ],
            [
              116.3486013,
              39.98595
            ],
            [
              116.3488657,
              39.98595
            ],
            [
              116.34913,
              39.98595
            ],
            [
              116.3492622,
              39.98595
            ],
            [
              116.3492913,
              39.98505
            ],
            [
              116.3491578,
              39.98505
            ],
            [
              116.3488909,
              39.98505
            ],
            [
              116.3486239,
              39.98505
            ],
            [
              116.348357,
              39.98505
            ],
            [
              116.34809,
              39.98505
            ],
            [
              116.3480726,
              39.98595
            ]
          ]
        ]
      }
    },
    {
      "type": "Feature",
      "id": "BLDG-008",
      "properties": {
        "id": "BLDG-008",
        "layer": "BUILDING_FOOTPRINT",
        "source_type": "agent_generated_design",
        "confidence": "medium",
        "geometry_role": "design_proposal",
        "building_type": "ai_r_and_d",
        "name_zh": "近校转化组团",
        "name_en": "Campus conversion cluster",
        "key_area": "ai_origin",
        "retain_renovate_demolish": "pending_survey",
        "provisional_note": "Derived inside the provisional corridor boundary; recompute when the organiser publishes the official redline.",
        "area_sqm_declared": 9699.987
      },
      "geometry": {
        "type": "Polygon",
        "coordinates": [
          [
            [
              116.341234,
              39.99095
            ],
            [
              116.3414864,
              39.99095
            ],
            [
              116.3417389,
              39.99095
            ],
            [
              116.3419913,
              39.99095
            ],
            [
              116.3422438,
              39.99095
            ],
            [
              116.34237,
              39.99095
            ],
            [
              116.3423131,
              39.99005
            ],
            [
              116.3421868,
              39.99005
            ],
            [
              116.3419341,
              39.99005
            ],
            [
              116.3416815,
              39.99005
            ],
            [
              116.3414289,
              39.99005
            ],
            [
              116.3411762,
              39.99005
            ],
            [
              116.341234,
              39.99095
            ]
          ]
        ]
      }
    },
    {
      "type": "Feature",
      "id": "BLDG-009",
      "properties": {
        "id": "BLDG-009",
        "layer": "BUILDING_FOOTPRINT",
        "source_type": "agent_generated_design",
        "confidence": "medium",
        "geometry_role": "design_proposal",
        "building_type": "ai_r_and_d",
        "name_zh": "近校转化组团",
        "name_en": "Campus conversion cluster",
        "key_area": "ai_origin",
        "retain_renovate_demolish": "pending_survey",
        "provisional_note": "Derived inside the provisional corridor boundary; recompute when the organiser publishes the official redline.",
        "area_sqm_declared": 9700.395
      },
      "geometry": {
        "type": "Polygon",
        "coordinates": [
          [
            [
              116.3498176,
              39.99095
            ],
            [
              116.3500701,
              39.99095
            ],
            [
              116.3503225,
              39.99095
            ],
            [
              116.350575,
              39.99095
            ],
            [
              116.3508275,
              39.99095
            ],
            [
              116.3509537,
              39.99095
            ],
            [
              116.3509027,
              39.99005
            ],
            [
              116.3507764,
              39.99005
            ],
            [
              116.3505237,
              39.99005
            ],
            [
              116.3502711,
              39.99005
            ],
            [
              116.3500185,
              39.99005
            ],
            [
              116.3497658,
              39.99005
            ],
            [
              116.3498176,
              39.99095
            ]
          ]
        ]
      }
    },
    {
      "type": "Feature",
      "id": "BLDG-010",
      "properties": {
        "id": "BLDG-010",
        "layer": "BUILDING_FOOTPRINT",
        "source_type": "agent_generated_design",
        "confidence": "medium",
        "geometry_role": "design_proposal",
        "building_type": "mixed_use",
        "name_zh": "站城一体组团",
        "name_en": "Station-integrated cluster",
        "key_area": "dazhongsi",
        "retain_renovate_demolish": "pending_survey",
        "provisional_note": "Derived inside the provisional corridor boundary; recompute when the organiser publishes the official redline.",
        "area_sqm_declared": 11350.902
      },
      "geometry": {
        "type": "Polygon",
        "coordinates": [
          [
            [
              116.341112,
              39.94545
            ],
            [
              116.3414076,
              39.94545
            ],
            [
              116.3417032,
              39.94545
            ],
            [
              116.3419988,
              39.94545
            ],
            [
              116.3422943,
              39.94545
            ],
            [
              116.3424421,
              39.94545
            ],
            [
              116.3424639,
              39.94455
            ],
            [
              116.3423163,
              39.94455
            ],
            [
              116.3420213,
              39.94455
            ],
            [
              116.3417262,
              39.94455
            ],
            [
              116.3414311,
              39.94455
            ],
            [
              116.341136,
              39.94455
            ],
            [
              116.341112,
              39.94545
            ]
          ]
        ]
      }
    },
    {
      "type": "Feature",
      "id": "BLDG-011",
      "properties": {
        "id": "BLDG-011",
        "layer": "BUILDING_FOOTPRINT",
        "source_type": "agent_generated_design",
        "confidence": "medium",
        "geometry_role": "design_proposal",
        "building_type": "mixed_use",
        "name_zh": "站城一体组团",
        "name_en": "Station-integrated cluster",
        "key_area": "dazhongsi",
        "retain_renovate_demolish": "pending_survey",
        "provisional_note": "Derived inside the provisional corridor boundary; recompute when the organiser publishes the official redline.",
        "area_sqm_declared": 11351.307
      },
      "geometry": {
        "type": "Polygon",
        "coordinates": [
          [
            [
              116.3490927,
              39.94545
            ],
            [
              116.3493883,
              39.94545
            ],
            [
              116.3496839,
              39.94545
            ],
            [
              116.3499795,
              39.94545
            ],
            [
              116.3502751,
              39.94545
            ],
            [
              116.3504229,
              39.94545
            ],
            [
              116.3504311,
              39.94455
            ],
            [
              116.3502836,
              39.94455
            ],
            [
              116.3499885,
              39.94455
            ],
            [
              116.3496934,
              39.94455
            ],
            [
              116.3493983,
              39.94455
            ],
            [
              116.3491032,
              39.94455
            ],
            [
              116.3490927,
              39.94545
            ]
          ]
        ]
      }
    },
    {
      "type": "Feature",
      "id": "BLDG-012",
      "properties": {
        "id": "BLDG-012",
        "layer": "BUILDING_FOOTPRINT",
        "source_type": "agent_generated_design",
        "confidence": "medium",
        "geometry_role": "design_proposal",
        "building_type": "mixed_use",
        "name_zh": "站城一体组团",
        "name_en": "Station-integrated cluster",
        "key_area": "dazhongsi",
        "retain_renovate_demolish": "pending_survey",
        "provisional_note": "Derived inside the provisional corridor boundary; recompute when the organiser publishes the official redline.",
        "area_sqm_declared": 11414.466
      },
      "geometry": {
        "type": "Polygon",
        "coordinates": [
          [
            [
              116.341032,
              39.94845
            ],
            [
              116.3413292,
              39.94845
            ],
            [
              116.3416265,
              39.94845
            ],
            [
              116.3419237,
              39.94845
            ],
            [
              116.342221,
              39.94845
            ],
            [
              116.3423696,
              39.94845
            ],
            [
              116.3423914,
              39.94755
            ],
            [
              116.342243,
              39.94755
            ],
            [
              116.3419463,
              39.94755
            ],
            [
              116.3416495,
              39.94755
            ],
            [
              116.3413527,
              39.94755
            ],
            [
              116.341056,
              39.94755
            ],
            [
              116.341032,
              39.94845
            ]
          ]
        ]
      }
    },
    {
      "type": "Feature",
      "id": "BLDG-013",
      "properties": {
        "id": "BLDG-013",
        "layer": "BUILDING_FOOTPRINT",
        "source_type": "agent_generated_design",
        "confidence": "medium",
        "geometry_role": "design_proposal",
        "building_type": "mixed_use",
        "name_zh": "站城一体组团",
        "name_en": "Station-integrated cluster",
        "key_area": "dazhongsi",
        "retain_renovate_demolish": "pending_survey",
        "provisional_note": "Derived inside the provisional corridor boundary; recompute when the organiser publishes the official redline.",
        "area_sqm_declared": 11414.439
      },
      "geometry": {
        "type": "Polygon",
        "coordinates": [
          [
            [
              116.3511385,
              39.94845
            ],
            [
              116.3514357,
              39.94845
            ],
            [
              116.351733,
              39.94845
            ],
            [
              116.3520302,
              39.94845
            ],
            [
              116.3523275,
              39.94845
            ],
            [
              116.3524761,
              39.94845
            ],
            [
              116.3524809,
              39.94755
            ],
            [
              116.3523325,
              39.94755
            ],
            [
              116.3520357,
              39.94755
            ],
            [
              116.351739,
              39.94755
            ],
            [
              116.3514423,
              39.94755
            ],
            [
              116.3511455,
              39.94755
            ],
            [
              116.3511385,
              39.94845
            ]
          ]
        ]
      }
    }
  ]
}
