{
 "type": "FeatureCollection",
 "features": [
  {
   "type": "Feature",
   "id": "PH-near-01",
   "properties": {
    "id": "PH-near-01",
    "layer": "PHASE",
    "phase": "phase_1_near",
    "source_type": "agent_generated_design",
    "confidence": "medium",
    "geometry_role": "design_proposal"
   },
   "geometry": {
    "type": "Polygon",
    "coordinates": [
     [
      [
       116.3407,
       39.939
      ],
      [
       116.34059111111111,
       39.94292000000001
      ],
      [
       116.3553,
       39.94292000000001
      ],
      [
       116.3553,
       39.939
      ],
      [
       116.3407,
       39.939
      ]
     ]
    ]
   }
  },
  {
   "type": "Feature",
   "id": "PH-mid-02",
   "properties": {
    "id": "PH-mid-02",
    "layer": "PHASE",
    "phase": "phase_2_mid",
    "source_type": "agent_generated_design",
    "confidence": "medium",
    "geometry_role": "design_proposal"
   },
   "geometry": {
    "type": "Polygon",
    "coordinates": [
     [
      [
       116.34059111111111,
       39.94292000000001
      ],
      [
       116.3399025,
       39.967710000000004
      ],
      [
       116.3550832,
       39.967710000000004
      ],
      [
       116.3553,
       39.965
      ],
      [
       116.3553,
       39.94292000000001
      ],
      [
       116.34059111111111,
       39.94292000000001
      ]
     ]
    ]
   }
  },
  {
   "type": "Feature",
   "id": "PH-long-03",
   "properties": {
    "id": "PH-long-03",
    "layer": "PHASE",
    "phase": "phase_3_long",
    "source_type": "agent_generated_design",
    "confidence": "medium",
    "geometry_role": "design_proposal"
   },
   "geometry": {
    "type": "Polygon",
    "coordinates": [
     [
      [
       116.3399025,
       39.967710000000004
      ],
      [
       116.3397,
       39.975
      ],
      [
       116.34079677419355,
       39.992000000000004
      ],
      [
       116.3534095890411,
       39.992000000000004
      ],
      [
       116.3533,
       39.99
      ],
      [
       116.3550832,
       39.967710000000004
      ],
      [
       116.3399025,
       39.967710000000004
      ]
     ]
    ]
   }
  },
  {
   "type": "Feature",
   "id": "PH-mid-04",
   "properties": {
    "id": "PH-mid-04",
    "layer": "PHASE",
    "phase": "phase_2_mid",
    "source_type": "agent_generated_design",
    "confidence": "medium",
    "geometry_role": "design_proposal"
   },
   "geometry": {
    "type": "Polygon",
    "coordinates": [
     [
      [
       116.34079677419355,
       39.992000000000004
      ],
      [
       116.34148225806452,
       40.002625
      ],
      [
       116.35399178082191,
       40.002625
      ],
      [
       116.3534095890411,
       39.992000000000004
      ],
      [
       116.34079677419355,
       39.992000000000004
      ]
     ]
    ]
   }
  },
  {
   "type": "Feature",
   "id": "PH-near-05",
   "properties": {
    "id": "PH-near-05",
    "layer": "PHASE",
    "phase": "phase_1_near",
    "source_type": "agent_generated_design",
    "confidence": "medium",
    "geometry_role": "design_proposal"
   },
   "geometry": {
    "type": "Polygon",
    "coordinates": [
     [
      [
       116.34148225806452,
       40.002625
      ],
      [
       116.3417,
       40.006
      ],
      [
       116.34241951219512,
       40.02075
      ],
      [
       116.35498493150685,
       40.02075
      ],
      [
       116.35399178082191,
       40.002625
      ],
      [
       116.34148225806452,
       40.002625
      ]
     ]
    ]
   }
  }
 ]
}