{
 "type": "FeatureCollection",
 "name": "green_space_design",
 "features": [
  {
   "type": "Feature",
   "id": "GS-001",
   "properties": {
    "id": "GS-001",
    "layer": "GREEN_SPACE",
    "source_type": "agent_generated_design",
    "confidence": "medium",
    "geometry_role": "design_proposal",
    "name_zh": "京张遗址公园·南门户·西直门外大街段",
    "land_use_code": "1401",
    "area_sqm_declared": 96377.0,
    "design_note_zh": "概念绿地布局，非绿线划定"
   },
   "geometry": {
    "type": "Polygon",
    "coordinates": [
     [
      [
       116.3448525,
       39.944
      ],
      [
       116.3448529,
       39.943988
      ],
      [
       116.3448482,
       39.9439224
      ],
      [
       116.3442481,
       39.9391224
      ],
      [
       116.3421519,
       39.9392776
      ],
      [
       116.3427421,
       39.944
      ],
      [
       116.3448525,
       39.944
      ]
     ]
    ]
   }
  },
  {
   "type": "Feature",
   "id": "GS-002",
   "properties": {
    "id": "GS-002",
    "layer": "GREEN_SPACE",
    "source_type": "agent_generated_design",
    "confidence": "medium",
    "geometry_role": "design_proposal",
    "name_zh": "京张遗址公园·大钟寺重点区段",
    "land_use_code": "1401",
    "area_sqm_declared": 116980.846,
    "design_note_zh": "概念绿地布局，非绿线划定"
   },
   "geometry": {
    "type": "Polygon",
    "coordinates": [
     [
      [
       116.3427421,
       39.944
      ],
      [
       116.3427436,
       39.9440121
      ],
      [
       116.342251,
       39.9497258
      ],
      [
       116.3422336,
       39.94984
      ],
      [
       116.344352,
       39.94984
      ],
      [
       116.3448507,
       39.9440537
      ],
      [
       116.3448525,
       39.944
      ],
      [
       116.3427421,
       39.944
      ]
     ]
    ]
   }
  },
  {
   "type": "Feature",
   "id": "GS-003",
   "properties": {
    "id": "GS-003",
    "layer": "GREEN_SPACE",
    "source_type": "agent_generated_design",
    "confidence": "medium",
    "geometry_role": "design_proposal",
    "name_zh": "京张遗址公园·皂君庙社区段",
    "land_use_code": "1401",
    "area_sqm_declared": 144085.881,
    "design_note_zh": "概念绿地布局，非绿线划定"
   },
   "geometry": {
    "type": "Polygon",
    "coordinates": [
     [
      [
       116.3422336,
       39.94984
      ],
      [
       116.341154,
       39.9569053
      ],
      [
       116.3411485,
       39.9569533
      ],
      [
       116.341145,
       39.957
      ],
      [
       116.3432605,
       39.957
      ],
      [
       116.3443459,
       39.9498946
      ],
      [
       116.3443508,
       39.9498537
      ],
      [
       116.344352,
       39.94984
      ],
      [
       116.3422336,
       39.94984
      ]
     ]
    ]
   }
  },
  {
   "type": "Feature",
   "id": "GS-004",
   "properties": {
    "id": "GS-004",
    "layer": "GREEN_SPACE",
    "source_type": "agent_generated_design",
    "confidence": "medium",
    "geometry_role": "design_proposal",
    "name_zh": "京张遗址公园·学院路南段",
    "land_use_code": "1401",
    "area_sqm_declared": 160164.514,
    "design_note_zh": "概念绿地布局，非绿线划定"
   },
   "geometry": {
    "type": "Polygon",
    "coordinates": [
     [
      [
       116.341145,
       39.957
      ],
      [
       116.3405484,
       39.9649533
      ],
      [
       116.3405478,
       39.9649626
      ],
      [
       116.3405456,
       39.965
      ],
      [
       116.3426551,
       39.965
      ],
      [
       116.3432497,
       39.9570707
      ],
      [
       116.3432605,
       39.957
      ],
      [
       116.341145,
       39.957
      ]
     ]
    ]
   }
  },
  {
   "type": "Feature",
   "id": "GS-005",
   "properties": {
    "id": "GS-005",
    "layer": "GREEN_SPACE",
    "source_type": "agent_generated_design",
    "confidence": "medium",
    "geometry_role": "design_proposal",
    "name_zh": "京张遗址公园·高校科创带段",
    "land_use_code": "1401",
    "area_sqm_declared": 200082.144,
    "design_note_zh": "概念绿地布局，非绿线划定"
   },
   "geometry": {
    "type": "Polygon",
    "coordinates": [
     [
      [
       116.3405456,
       39.965
      ],
      [
       116.3399476,
       39.9749626
      ],
      [
       116.3399474,
       39.975
      ],
      [
       116.3420546,
       39.975
      ],
      [
       116.342652,
       39.965042
      ],
      [
       116.3426551,
       39.965
      ],
      [
       116.3405456,
       39.965
      ]
     ]
    ]
   }
  },
  {
   "type": "Feature",
   "id": "GS-006",
   "properties": {
    "id": "GS-006",
    "layer": "GREEN_SPACE",
    "source_type": "agent_generated_design",
    "confidence": "medium",
    "geometry_role": "design_proposal",
    "name_zh": "京张遗址公园·北四环-成府段",
    "land_use_code": "1401",
    "area_sqm_declared": 169999.269,
    "design_note_zh": "概念绿地布局，非绿线划定"
   },
   "geometry": {
    "type": "Polygon",
    "coordinates": [
     [
      [
       116.3399474,
       39.975
      ],
      [
       116.3399472,
       39.9750293
      ],
      [
       116.3403456,
       39.9835
      ],
      [
       116.3424548,
       39.9835
      ],
      [
       116.3424527,
       39.9834662
      ],
      [
       116.3420544,
       39.975004
      ],
      [
       116.3420546,
       39.975
      ],
      [
       116.3399474,
       39.975
      ]
     ]
    ]
   }
  },
  {
   "type": "Feature",
   "id": "GS-007",
   "properties": {
    "id": "GS-007",
    "layer": "GREEN_SPACE",
    "source_type": "agent_generated_design",
    "confidence": "medium",
    "geometry_role": "design_proposal",
    "name_zh": "京张遗址公园·AI原点社区重点区段",
    "land_use_code": "1401",
    "area_sqm_declared": 200089.951,
    "design_note_zh": "概念绿地布局，非绿线划定"
   },
   "geometry": {
    "type": "Polygon",
    "coordinates": [
     [
      [
       116.3403456,
       39.9835
      ],
      [
       116.340347,
       39.9835293
      ],
      [
       116.3403475,
       39.9835383
      ],
      [
       116.3407474,
       39.9900378
      ],
      [
       116.3409551,
       39.9935
      ],
      [
       116.3430649,
       39.9935
      ],
      [
       116.3428526,
       39.9899626
      ],
      [
       116.3428526,
       39.9899617
      ],
      [
       116.3424548,
       39.9835
      ],
      [
       116.3403456,
       39.9835
      ]
     ]
    ]
   }
  },
  {
   "type": "Feature",
   "id": "GS-008",
   "properties": {
    "id": "GS-008",
    "layer": "GREEN_SPACE",
    "source_type": "agent_generated_design",
    "confidence": "medium",
    "geometry_role": "design_proposal",
    "name_zh": "京张遗址公园·清华东路段",
    "land_use_code": "1401",
    "area_sqm_declared": 160163.903,
    "design_note_zh": "概念绿地布局，非绿线划定"
   },
   "geometry": {
    "type": "Polygon",
    "coordinates": [
     [
      [
       116.3409551,
       39.9935
      ],
      [
       116.3413472,
       40.0000374
      ],
      [
       116.3413506,
       40.0000745
      ],
      [
       116.3415216,
       40.0015
      ],
      [
       116.3436384,
       40.0015
      ],
      [
       116.3434517,
       39.999944
      ],
      [
       116.3430649,
       39.9935
      ],
      [
       116.3409551,
       39.9935
      ]
     ]
    ]
   }
  },
  {
   "type": "Feature",
   "id": "GS-009",
   "properties": {
    "id": "GS-009",
    "layer": "GREEN_SPACE",
    "source_type": "agent_generated_design",
    "confidence": "medium",
    "geometry_role": "design_proposal",
    "name_zh": "京张遗址公园·双清路战略留白段",
    "land_use_code": "1401",
    "area_sqm_declared": 120432.566,
    "design_note_zh": "概念绿地布局，非绿线划定"
   },
   "geometry": {
    "type": "Polygon",
    "coordinates": [
     [
      [
       116.3415216,
       40.0015
      ],
      [
       116.3422415,
       40.0075
      ],
      [
       116.3443585,
       40.0075
      ],
      [
       116.3436384,
       40.0015
      ],
      [
       116.3415216,
       40.0015
      ]
     ]
    ]
   }
  },
  {
   "type": "Feature",
   "id": "GS-010",
   "properties": {
    "id": "GS-010",
    "layer": "GREEN_SPACE",
    "source_type": "agent_generated_design",
    "confidence": "medium",
    "geometry_role": "design_proposal",
    "name_zh": "京张遗址公园·众智园重点区段",
    "land_use_code": "1401",
    "area_sqm_declared": 290509.871,
    "design_note_zh": "概念绿地布局，非绿线划定"
   },
   "geometry": {
    "type": "Polygon",
    "coordinates": [
     [
      [
       116.3422415,
       40.0075
      ],
      [
       116.3425489,
       40.0100621
      ],
      [
       116.3433478,
       40.0200498
      ],
      [
       116.3433486,
       40.0200592
      ],
      [
       116.3435334,
       40.022
      ],
      [
       116.3456475,
       40.022
      ],
      [
       116.3454518,
       40.0199455
      ],
      [
       116.3446521,
       40.0099502
      ],
      [
       116.3446496,
       40.0099255
      ],
      [
       116.3443585,
       40.0075
      ],
      [
       116.3422415,
       40.0075
      ]
     ]
    ]
   }
  },
  {
   "type": "Feature",
   "id": "GS-011",
   "properties": {
    "id": "GS-011",
    "layer": "GREEN_SPACE",
    "source_type": "agent_generated_design",
    "confidence": "medium",
    "geometry_role": "design_proposal",
    "name_zh": "京张遗址公园·清河滨水绿廊段",
    "land_use_code": "1401",
    "area_sqm_declared": 80162.535,
    "design_note_zh": "概念绿地布局，非绿线划定"
   },
   "geometry": {
    "type": "Polygon",
    "coordinates": [
     [
      [
       116.3435334,
       40.022
      ],
      [
       116.3439143,
       40.026
      ],
      [
       116.3460286,
       40.026
      ],
      [
       116.3456475,
       40.022
      ],
      [
       116.3435334,
       40.022
      ]
     ]
    ]
   }
  },
  {
   "type": "Feature",
   "id": "GS-012",
   "properties": {
    "id": "GS-012",
    "layer": "GREEN_SPACE",
    "source_type": "agent_generated_design",
    "confidence": "medium",
    "geometry_role": "design_proposal",
    "name_zh": "公园绿地·清河滨水绿廊段",
    "land_use_code": "1401",
    "area_sqm_declared": 353569.748,
    "design_note_zh": "概念绿地布局，非绿线划定"
   },
   "geometry": {
    "type": "Polygon",
    "coordinates": [
     [
      [
       116.3550534,
       40.022
      ],
      [
       116.3456475,
       40.022
      ],
      [
       116.3460286,
       40.026
      ],
      [
       116.3552726,
       40.026
      ],
      [
       116.3550534,
       40.022
      ]
     ]
    ]
   }
  },
  {
   "type": "Feature",
   "id": "GS-013",
   "properties": {
    "id": "GS-013",
    "layer": "GREEN_SPACE",
    "source_type": "agent_generated_design",
    "confidence": "medium",
    "geometry_role": "design_proposal",
    "name_zh": "公园绿地·清河滨水绿廊段",
    "land_use_code": "1401",
    "area_sqm_declared": 43444.753,
    "design_note_zh": "概念绿地布局，非绿线划定"
   },
   "geometry": {
    "type": "Polygon",
    "coordinates": [
     [
      [
       116.3424805,
       40.022
      ],
      [
       116.3426756,
       40.026
      ],
      [
       116.3439143,
       40.026
      ],
      [
       116.3435334,
       40.022
      ],
      [
       116.3424805,
       40.022
      ]
     ]
    ]
   }
  },
  {
   "type": "Feature",
   "id": "GS-014",
   "properties": {
    "id": "GS-014",
    "layer": "GREEN_SPACE",
    "source_type": "agent_generated_design",
    "confidence": "medium",
    "geometry_role": "design_proposal",
    "name_zh": "京张遗址公园·北五环防护绿地段",
    "land_use_code": "1401",
    "area_sqm_declared": 6012.243,
    "design_note_zh": "概念绿地布局，非绿线划定"
   },
   "geometry": {
    "type": "Polygon",
    "coordinates": [
     [
      [
       116.3439143,
       40.026
      ],
      [
       116.3439485,
       40.0263592
      ],
      [
       116.3460515,
       40.0262408
      ],
      [
       116.3460286,
       40.026
      ],
      [
       116.3439143,
       40.026
      ]
     ]
    ]
   }
  },
  {
   "type": "Feature",
   "id": "GS-015",
   "properties": {
    "id": "GS-015",
    "layer": "GREEN_SPACE",
    "source_type": "agent_generated_design",
    "confidence": "medium",
    "geometry_role": "design_proposal",
    "name_zh": "防护绿地·北五环防护绿地段",
    "land_use_code": "1402",
    "area_sqm_declared": 53705.291,
    "design_note_zh": "概念绿地布局，非绿线划定"
   },
   "geometry": {
    "type": "Polygon",
    "coordinates": [
     [
      [
       116.3552726,
       40.026
      ],
      [
       116.3460286,
       40.026
      ],
      [
       116.3460515,
       40.0262408
      ],
      [
       116.3439485,
       40.0263592
      ],
      [
       116.3439143,
       40.026
      ],
      [
       116.3426756,
       40.026
      ],
      [
       116.3427,
       40.0265
      ],
      [
       116.3553,
       40.0265
      ],
      [
       116.3552726,
       40.026
      ]
     ]
    ]
   }
  }
 ]
}