{
  "type": "FeatureCollection",
  "name": "land_use",
  "crs": {
    "type": "name",
    "properties": {
      "name": "urn:ogc:def:crs:OGC:1.3:CRS84"
    }
  },
  "features": [
    {
      "type": "Feature",
      "id": "LU-001",
      "properties": {
        "id": "LU-001",
        "layer": "LAND_USE",
        "land_use_code": "0702",
        "name_zh": "创新社区用地",
        "name_en": "Innovation Community Land",
        "source_type": "agent_generated_design",
        "confidence": "medium",
        "geometry_role": "analysis_helper",
        "area_sqm_declared": 489206.544
      },
      "geometry": {
        "type": "Polygon",
        "coordinates": [
          [
            [
              116.34219979518664,
              39.96498032113165
            ],
            [
              116.34244862883105,
              39.93900009691761
            ],
            [
              116.34070000000001,
              39.93899999999999
            ],
            [
              116.33997880725929,
              39.964967696670065
            ],
            [
              116.34219979518664,
              39.96498032113165
            ]
          ]
        ]
      }
    },
    {
      "type": "Feature",
      "id": "LU-002",
      "properties": {
        "id": "LU-002",
        "layer": "LAND_USE",
        "land_use_code": "1401",
        "name_zh": "遗址公园绿地（南段）",
        "name_en": "Heritage Park Green Belt (South)",
        "source_type": "agent_generated_design",
        "confidence": "medium",
        "geometry_role": "analysis_helper",
        "area_sqm_declared": 690558.85
      },
      "geometry": {
        "type": "Polygon",
        "coordinates": [
          [
            [
              116.34219979518664,
              39.96498032113165
            ],
            [
              116.34500049029732,
              39.964996180077264
            ],
            [
              116.34524841473046,
              39.939000197174224
            ],
            [
              116.34244862883105,
              39.93900009691761
            ],
            [
              116.34219979518664,
              39.96498032113165
            ]
          ]
        ]
      }
    },
    {
      "type": "Feature",
      "id": "LU-003",
      "properties": {
        "id": "LU-003",
        "layer": "LAND_USE",
        "land_use_code": "16",
        "name_zh": "混合功能用地（南）",
        "name_en": "Mixed-Use Land (South)",
        "source_type": "agent_generated_design",
        "confidence": "medium",
        "geometry_role": "analysis_helper",
        "area_sqm_declared": 740080.511
      },
      "geometry": {
        "type": "Polygon",
        "coordinates": [
          [
            [
              116.34500049029732,
              39.964996180077264
            ],
            [
              116.34800015074259,
              39.9650130906123
            ],
            [
              116.34824709994693,
              39.93900022956374
            ],
            [
              116.34524841473046,
              39.939000197174224
            ],
            [
              116.34500049029732,
              39.964996180077264
            ]
          ]
        ]
      }
    },
    {
      "type": "Feature",
      "id": "LU-004",
      "properties": {
        "id": "LU-004",
        "layer": "LAND_USE",
        "land_use_code": "0701",
        "name_zh": "产业融合用地（南）",
        "name_en": "Industry Integration Land (South)",
        "source_type": "agent_generated_design",
        "confidence": "medium",
        "geometry_role": "analysis_helper",
        "area_sqm_declared": 789986.716
      },
      "geometry": {
        "type": "Polygon",
        "coordinates": [
          [
            [
              116.34800015074259,
              39.9650130906123
            ],
            [
              116.35119994738734,
              39.96503104384328
            ],
            [
              116.35144585467039,
              39.93900017861768
            ],
            [
              116.34824709994693,
              39.93900022956374
            ],
            [
              116.34800015074259,
              39.9650130906123
            ]
          ]
        ]
      }
    },
    {
      "type": "Feature",
      "id": "LU-005",
      "properties": {
        "id": "LU-005",
        "layer": "LAND_USE",
        "land_use_code": "05",
        "name_zh": "商业服务用地",
        "name_en": "Commercial Service Land",
        "source_type": "agent_generated_design",
        "confidence": "medium",
        "geometry_role": "analysis_helper",
        "area_sqm_declared": 982806.3
      },
      "geometry": {
        "type": "Polygon",
        "coordinates": [
          [
            [
              116.35119994738734,
              39.96503104384328
            ],
            [
              116.35529569010349,
              39.96505389510338
            ],
            [
              116.3553,
              39.965
            ],
            [
              116.3553,
              39.939
            ],
            [
              116.35144585467039,
              39.93900017861768
            ],
            [
              116.35119994738734,
              39.96503104384328
            ]
          ]
        ]
      }
    },
    {
      "type": "Feature",
      "id": "LU-006",
      "properties": {
        "id": "LU-006",
        "layer": "LAND_USE",
        "land_use_code": "0701",
        "name_zh": "产业融合用地（中）",
        "name_en": "Industry Integration Land (Central)",
        "source_type": "agent_generated_design",
        "confidence": "medium",
        "geometry_role": "analysis_helper",
        "area_sqm_declared": 373437.612
      },
      "geometry": {
        "type": "Polygon",
        "coordinates": [
          [
            [
              116.34149998494175,
              39.989971045494734
            ],
            [
              116.34173984003814,
              39.96497771016474
            ],
            [
              116.33997880725929,
              39.964967696670065
            ],
            [
              116.33970075269463,
              39.9749729207882
            ],
            [
              116.33970042818828,
              39.97500663961988
            ],
            [
              116.34066536445823,
              39.989966300606994
            ],
            [
              116.34149998494175,
              39.989971045494734
            ]
          ]
        ]
      }
    },
    {
      "type": "Feature",
      "id": "LU-007",
      "properties": {
        "id": "LU-007",
        "layer": "LAND_USE",
        "land_use_code": "1401",
        "name_zh": "遗址公园绿地（中段）",
        "name_en": "Heritage Park Green Belt (Central)",
        "source_type": "agent_generated_design",
        "confidence": "medium",
        "geometry_role": "analysis_helper",
        "area_sqm_declared": 663851.434
      },
      "geometry": {
        "type": "Polygon",
        "coordinates": [
          [
            [
              116.34173984003814,
              39.96497771016474
            ],
            [
              116.34149998494175,
              39.989971045494734
            ],
            [
              116.34430052922247,
              39.98998692290392
            ],
            [
              116.34453936441409,
              39.96499357360403
            ],
            [
              116.34173984003814,
              39.96497771016474
            ]
          ]
        ]
      }
    },
    {
      "type": "Feature",
      "id": "LU-008",
      "properties": {
        "id": "LU-008",
        "layer": "LAND_USE",
        "land_use_code": "16",
        "name_zh": "混合功能用地（中）",
        "name_en": "Mixed-Use Land (Central)",
        "source_type": "agent_generated_design",
        "confidence": "medium",
        "geometry_role": "analysis_helper",
        "area_sqm_declared": 2341599.465
      },
      "geometry": {
        "type": "Polygon",
        "coordinates": [
          [
            [
              116.34453936441409,
              39.96499357360403
            ],
            [
              116.34430052922247,
              39.98998692290392
            ],
            [
              116.35330205370948,
              39.990037497828
            ],
            [
              116.3533,
              39.989999999999995
            ],
            [
              116.35529569010349,
              39.96505389510338
            ],
            [
              116.34453936441409,
              39.96499357360403
            ]
          ]
        ]
      }
    },
    {
      "type": "Feature",
      "id": "LU-009",
      "properties": {
        "id": "LU-009",
        "layer": "LAND_USE",
        "land_use_code": "0802",
        "name_zh": "教育科研用地",
        "name_en": "Education and Research Land",
        "source_type": "agent_generated_design",
        "confidence": "medium",
        "geometry_role": "analysis_helper",
        "area_sqm_declared": 44545.016
      },
      "geometry": {
        "type": "Polygon",
        "coordinates": [
          [
            [
              116.34149998494175,
              39.989971045494734
            ],
            [
              116.34066536445823,
              39.989966300606994
            ],
            [
              116.34139187798286,
              40.00122575361243
            ],
            [
              116.34149998494175,
              39.989971045494734
            ]
          ]
        ]
      }
    },
    {
      "type": "Feature",
      "id": "LU-010",
      "properties": {
        "id": "LU-010",
        "layer": "LAND_USE",
        "land_use_code": "0701",
        "name_zh": "研发办公用地（西）",
        "name_en": "R&D Office Land (West)",
        "source_type": "agent_generated_design",
        "confidence": "medium",
        "geometry_role": "analysis_helper",
        "area_sqm_declared": 776926.221
      },
      "geometry": {
        "type": "Polygon",
        "coordinates": [
          [
            [
              116.34430052922247,
              39.98998692290392
            ],
            [
              116.34149998494175,
              39.989971045494734
            ],
            [
              116.34139187798286,
              40.00122575361243
            ],
            [
              116.34169999999999,
              40.00600000000001
            ],
            [
              116.34270000000001,
              40.0265
            ],
            [
              116.34395107295931,
              40.02650006126652
            ],
            [
              116.34430052922247,
              39.98998692290392
            ]
          ]
        ]
      }
    },
    {
      "type": "Feature",
      "id": "LU-011",
      "properties": {
        "id": "LU-011",
        "layer": "LAND_USE",
        "land_use_code": "0701",
        "name_zh": "研发办公用地（东）",
        "name_en": "R&D Office Land (East)",
        "source_type": "agent_generated_design",
        "confidence": "medium",
        "geometry_role": "analysis_helper",
        "area_sqm_declared": 934772.235
      },
      "geometry": {
        "type": "Polygon",
        "coordinates": [
          [
            [
              116.34700038713751,
              39.990002165413934
            ],
            [
              116.34430052922247,
              39.98998692290392
            ],
            [
              116.34395107295931,
              40.02650006126652
            ],
            [
              116.34665251429715,
              40.02650014748538
            ],
            [
              116.34700038713751,
              39.990002165413934
            ]
          ]
        ]
      }
    },
    {
      "type": "Feature",
      "id": "LU-012",
      "properties": {
        "id": "LU-012",
        "layer": "LAND_USE",
        "land_use_code": "1401",
        "name_zh": "遗址公园绿地（北段）",
        "name_en": "Heritage Park Green Belt (North)",
        "source_type": "agent_generated_design",
        "confidence": "medium",
        "geometry_role": "analysis_helper",
        "area_sqm_declared": 692113.317
      },
      "geometry": {
        "type": "Polygon",
        "coordinates": [
          [
            [
              116.34900010976138,
              39.99001341464574
            ],
            [
              116.34700038713751,
              39.990002165413934
            ],
            [
              116.34665251429715,
              40.02650014748538
            ],
            [
              116.34865340895611,
              40.02650017074591
            ],
            [
              116.34900010976138,
              39.99001341464574
            ]
          ]
        ]
      }
    },
    {
      "type": "Feature",
      "id": "LU-013",
      "properties": {
        "id": "LU-013",
        "layer": "LAND_USE",
        "land_use_code": "16",
        "name_zh": "混合功能用地（北）",
        "name_en": "Mixed-Use Land (North)",
        "source_type": "agent_generated_design",
        "confidence": "medium",
        "geometry_role": "analysis_helper",
        "area_sqm_declared": 1892941.086
      },
      "geometry": {
        "type": "Polygon",
        "coordinates": [
          [
            [
              116.34900010976138,
              39.99001341464574
            ],
            [
              116.34865340895611,
              40.02650017074591
            ],
            [
              116.3553,
              40.0265
            ],
            [
              116.35330205370948,
              39.990037497828
            ],
            [
              116.34900010976138,
              39.99001341464574
            ]
          ]
        ]
      }
    }
  ]
}