{
  "type": "FeatureCollection",
  "name": "wg01_buildings",
  "metadata": {
    "generated_by": "wg01",
    "generated_at": "2026-08-08T05:30:00+08:00",
    "boundary_status": "provisional",
    "note": "建筑轮廓为概念建议，须正式建筑设计确定，非施工图"
  },
  "features": [
    {
      "type": "Feature",
      "id": "BLD-A01",
      "properties": {
        "id": "BLD-A01",
        "layer": "BUILDING_FOOTPRINT",
        "name_zh": "众智园算力综合体A座",
        "building_type": "technology_office_building",
        "floors_approx": 8,
        "footprint_area_sqm": 12000,
        "structure_type": "钢结构",
        "load_capacity": "重型（≥10kN/m²）",
        "confidence": "low",
        "geometry_role": "proposed_landmark",
        "official_boundary": false,
        "generated_by": "wg01",
        "note": "既有厂房改建+3层钢结构加层，概念建议，非施工图",
        "source_type": "proposal_design"
      },
      "geometry": {
        "type": "Polygon",
        "coordinates": [
          [
            [
              116.303,
              40.053
            ],
            [
              116.311,
              40.053
            ],
            [
              116.311,
              40.061
            ],
            [
              116.303,
              40.061
            ],
            [
              116.303,
              40.053
            ]
          ]
        ]
      }
    },
    {
      "type": "Feature",
      "id": "BLD-B01",
      "properties": {
        "id": "BLD-B01",
        "layer": "BUILDING_FOOTPRINT",
        "name_zh": "AI原点社区研发楼",
        "building_type": "technology_office_building",
        "floors_approx": 15,
        "footprint_area_sqm": 8000,
        "structure_type": "框架-核心筒结构",
        "load_capacity": "标准（3.5kN/m²）",
        "confidence": "low",
        "geometry_role": "proposed_landmark",
        "official_boundary": false,
        "generated_by": "wg01",
        "note": "框架-核心筒可变空间，概念建议，非施工图",
        "source_type": "proposal_design"
      },
      "geometry": {
        "type": "Polygon",
        "coordinates": [
          [
            [
              116.317,
              40.051
            ],
            [
              116.323,
              40.051
            ],
            [
              116.323,
              40.057
            ],
            [
              116.317,
              40.057
            ],
            [
              116.317,
              40.051
            ]
          ]
        ]
      }
    },
    {
      "type": "Feature",
      "id": "BLD-C01",
      "properties": {
        "id": "BLD-C01",
        "layer": "BUILDING_FOOTPRINT",
        "name_zh": "大钟寺AI商业商务楼",
        "building_type": "mixed_use_building",
        "floors_approx": 8,
        "footprint_area_sqm": 6000,
        "structure_type": "框架结构",
        "load_capacity": "标准+商业首层（5kN/m²）",
        "confidence": "low",
        "geometry_role": "proposed_landmark",
        "official_boundary": false,
        "generated_by": "wg01",
        "note": "框架结构首层大空间，概念建议，非施工图",
        "source_type": "proposal_design"
      },
      "geometry": {
        "type": "Polygon",
        "coordinates": [
          [
            [
              116.327,
              40.054
            ],
            [
              116.333,
              40.054
            ],
            [
              116.333,
              40.058
            ],
            [
              116.327,
              40.058
            ],
            [
              116.327,
              40.054
            ]
          ]
        ]
      }
    }
  ]
}