{
    "name":  "wg01_key_areas",
    "features":  [
                     {
                         "properties":  {
                                            "area_ha":  null,
                                            "id":  "PROV-KEY-001",
                                            "source_id":  "DATA-SRC-PROVISIONAL-BOUNDARIES-20260605",
                                            "official_boundary":  false,
                                            "layer":  "KEY_AREA",
                                            "source_type":  "agent_inferred_from_public_data",
                                            "generated_by":  "wg01",
                                            "wg01_struct_strategy":  "重型钢结构大跨厂房+独立柱基础+钢结构加层",
                                            "confidence":  "medium",
                                            "name_zh":  "众智园AI自主创新加速区粗略范围",
                                            "provisional_note":  "此边界为临时粗略替代边界，非官方精确红线，结构方案为概念建议。",
                                            "boundary_precision":  "provisional_rough",
                                            "geometry_role":  "provisional_constraint"
                                        },
                         "id":  "PROV-KEY-001",
                         "type":  "Feature",
                         "geometry":  {
                                          "type":  "Polygon",
                                          "coordinates":  [
                                                              [
                                                                  [
                                                                      116.343,
                                                                      40.0075
                                                                  ],
                                                                  [
                                                                      116.354,
                                                                      40.0075
                                                                  ],
                                                                  [
                                                                      116.354,
                                                                      40.026
                                                                  ],
                                                                  [
                                                                      116.343,
                                                                      40.026
                                                                  ],
                                                                  [
                                                                      116.343,
                                                                      40.0075
                                                                  ]
                                                              ]
                                                          ]
                                      }
                     },
                     {
                         "properties":  {
                                            "area_ha":  null,
                                            "id":  "PROV-KEY-002",
                                            "source_id":  "DATA-SRC-PROVISIONAL-BOUNDARIES-20260605",
                                            "official_boundary":  false,
                                            "layer":  "KEY_AREA",
                                            "source_type":  "agent_inferred_from_public_data",
                                            "generated_by":  "wg01",
                                            "wg01_struct_strategy":  "框架-核心筒结构+大板楼可变空间+灵活隔断",
                                            "confidence":  "medium",
                                            "name_zh":  "北京AI原点社区粗略范围",
                                            "provisional_note":  "此边界为临时粗略替代边界，非官方精确红线，结构方案为概念建议。",
                                            "boundary_precision":  "provisional_rough",
                                            "geometry_role":  "provisional_constraint"
                                        },
                         "id":  "PROV-KEY-002",
                         "type":  "Feature",
                         "geometry":  {
                                          "type":  "Polygon",
                                          "coordinates":  [
                                                              [
                                                                  [
                                                                      116.342,
                                                                      39.9835
                                                                  ],
                                                                  [
                                                                      116.353,
                                                                      39.9835
                                                                  ],
                                                                  [
                                                                      116.353,
                                                                      39.9935
                                                                  ],
                                                                  [
                                                                      116.342,
                                                                      39.9935
                                                                  ],
                                                                  [
                                                                      116.342,
                                                                      39.9835
                                                                  ]
                                                              ]
                                                          ]
                                      }
                     },
                     {
                         "properties":  {
                                            "area_ha":  null,
                                            "id":  "PROV-KEY-003",
                                            "source_id":  "DATA-SRC-PROVISIONAL-BOUNDARIES-20260605",
                                            "official_boundary":  false,
                                            "layer":  "KEY_AREA",
                                            "source_type":  "agent_inferred_from_public_data",
                                            "generated_by":  "wg01",
                                            "wg01_struct_strategy":  "框架结构多层+首层大空间+模块化AI商铺",
                                            "confidence":  "medium",
                                            "name_zh":  "大钟寺AI产业聚集区粗略范围",
                                            "provisional_note":  "此边界为临时粗略替代边界，非官方精确红线，结构方案为概念建议。",
                                            "boundary_precision":  "provisional_rough",
                                            "geometry_role":  "provisional_constraint"
                                        },
                         "id":  "PROV-KEY-003",
                         "type":  "Feature",
                         "geometry":  {
                                          "type":  "Polygon",
                                          "coordinates":  [
                                                              [
                                                                  [
                                                                      116.342,
                                                                      39.944
                                                                  ],
                                                                  [
                                                                      116.355,
                                                                      39.944
                                                                  ],
                                                                  [
                                                                      116.355,
                                                                      39.94984
                                                                  ],
                                                                  [
                                                                      116.342,
                                                                      39.94984
                                                                  ],
                                                                  [
                                                                      116.342,
                                                                      39.944
                                                                  ]
                                                              ]
                                                          ]
                                      }
                     }
                 ],
    "type":  "FeatureCollection",
    "metadata":  {
                     "source_id":  "SRC-PROVISIONAL-BOUNDARIES-2026",
                     "generated_at":  "2026-08-08T05:30:00+08:00",
                     "generated_by":  "wg01",
                     "boundary_status":  "provisional",
                     "official_boundary":  false
                 }
}
