{
  "type": "FeatureCollection",
  "features": [
    {
      "type": "Feature",
      "id": "BF-001",
      "properties": {
        "id": "BF-001",
        "layer": "BUILDING_FOOTPRINT",
        "building_type": "ai_r_and_d",
        "name_zh": "国产算力中心",
        "source_type": "agent_generated_design",
        "confidence": "medium",
        "geometry_role": "design_proposal",
        "area_id": "zhongzhiyuan_ai_acceleration_area",
        "note": "概念建筑基底，规模待官方控规"
      },
      "geometry": {
        "type": "Polygon",
        "coordinates": [
          [
            [
              116.3474,
              40.0139
            ],
            [
              116.34889999999999,
              40.0139
            ],
            [
              116.34889999999999,
              40.0148
            ],
            [
              116.3474,
              40.0148
            ],
            [
              116.3474,
              40.0139
            ]
          ]
        ]
      }
    },
    {
      "type": "Feature",
      "id": "BF-002",
      "properties": {
        "id": "BF-002",
        "layer": "BUILDING_FOOTPRINT",
        "building_type": "lab",
        "name_zh": "大模型研发",
        "source_type": "agent_generated_design",
        "confidence": "medium",
        "geometry_role": "design_proposal",
        "area_id": "zhongzhiyuan_ai_acceleration_area",
        "note": "概念建筑基底，规模待官方控规"
      },
      "geometry": {
        "type": "Polygon",
        "coordinates": [
          [
            [
              116.3504,
              40.0139
            ],
            [
              116.35189999999999,
              40.0139
            ],
            [
              116.35189999999999,
              40.0148
            ],
            [
              116.3504,
              40.0148
            ],
            [
              116.3504,
              40.0139
            ]
          ]
        ]
      }
    },
    {
      "type": "Feature",
      "id": "BF-003",
      "properties": {
        "id": "BF-003",
        "layer": "BUILDING_FOOTPRINT",
        "building_type": "incubator",
        "name_zh": "具身智能测试",
        "source_type": "agent_generated_design",
        "confidence": "medium",
        "geometry_role": "design_proposal",
        "area_id": "zhongzhiyuan_ai_acceleration_area",
        "note": "概念建筑基底，规模待官方控规"
      },
      "geometry": {
        "type": "Polygon",
        "coordinates": [
          [
            [
              116.3444,
              40.0154
            ],
            [
              116.34589999999999,
              40.0154
            ],
            [
              116.34589999999999,
              40.0163
            ],
            [
              116.3444,
              40.0163
            ],
            [
              116.3444,
              40.0154
            ]
          ]
        ]
      }
    },
    {
      "type": "Feature",
      "id": "BF-004",
      "properties": {
        "id": "BF-004",
        "layer": "BUILDING_FOOTPRINT",
        "building_type": "office",
        "name_zh": "治理标准研讨",
        "source_type": "agent_generated_design",
        "confidence": "medium",
        "geometry_role": "design_proposal",
        "area_id": "zhongzhiyuan_ai_acceleration_area",
        "note": "概念建筑基底，规模待官方控规"
      },
      "geometry": {
        "type": "Polygon",
        "coordinates": [
          [
            [
              116.3474,
              40.0154
            ],
            [
              116.34889999999999,
              40.0154
            ],
            [
              116.34889999999999,
              40.0163
            ],
            [
              116.3474,
              40.0163
            ],
            [
              116.3474,
              40.0154
            ]
          ]
        ]
      }
    },
    {
      "type": "Feature",
      "id": "BF-005",
      "properties": {
        "id": "BF-005",
        "layer": "BUILDING_FOOTPRINT",
        "building_type": "talent_apartment",
        "name_zh": "人才公寓",
        "source_type": "agent_generated_design",
        "confidence": "medium",
        "geometry_role": "design_proposal",
        "area_id": "beijing_ai_origin_community",
        "note": "概念建筑基底，规模待官方控规"
      },
      "geometry": {
        "type": "Polygon",
        "coordinates": [
          [
            [
              116.34939999999999,
              39.988
            ],
            [
              116.35089999999998,
              39.988
            ],
            [
              116.35089999999998,
              39.9889
            ],
            [
              116.34939999999999,
              39.9889
            ],
            [
              116.34939999999999,
              39.988
            ]
          ]
        ]
      }
    },
    {
      "type": "Feature",
      "id": "BF-006",
      "properties": {
        "id": "BF-006",
        "layer": "BUILDING_FOOTPRINT",
        "building_type": "mixed_use",
        "name_zh": "开发者社区",
        "source_type": "agent_generated_design",
        "confidence": "medium",
        "geometry_role": "design_proposal",
        "area_id": "beijing_ai_origin_community",
        "note": "概念建筑基底，规模待官方控规"
      },
      "geometry": {
        "type": "Polygon",
        "coordinates": [
          [
            [
              116.34339999999999,
              39.9895
            ],
            [
              116.34489999999998,
              39.9895
            ],
            [
              116.34489999999998,
              39.9904
            ],
            [
              116.34339999999999,
              39.9904
            ],
            [
              116.34339999999999,
              39.9895
            ]
          ]
        ]
      }
    },
    {
      "type": "Feature",
      "id": "BF-007",
      "properties": {
        "id": "BF-007",
        "layer": "BUILDING_FOOTPRINT",
        "building_type": "education",
        "name_zh": "AI原生教育",
        "source_type": "agent_generated_design",
        "confidence": "medium",
        "geometry_role": "design_proposal",
        "area_id": "beijing_ai_origin_community",
        "note": "概念建筑基底，规模待官方控规"
      },
      "geometry": {
        "type": "Polygon",
        "coordinates": [
          [
            [
              116.34639999999999,
              39.9895
            ],
            [
              116.34789999999998,
              39.9895
            ],
            [
              116.34789999999998,
              39.9904
            ],
            [
              116.34639999999999,
              39.9904
            ],
            [
              116.34639999999999,
              39.9895
            ]
          ]
        ]
      }
    },
    {
      "type": "Feature",
      "id": "BF-008",
      "properties": {
        "id": "BF-008",
        "layer": "BUILDING_FOOTPRINT",
        "building_type": "community_service",
        "name_zh": "生活配套",
        "source_type": "agent_generated_design",
        "confidence": "medium",
        "geometry_role": "design_proposal",
        "area_id": "beijing_ai_origin_community",
        "note": "概念建筑基底，规模待官方控规"
      },
      "geometry": {
        "type": "Polygon",
        "coordinates": [
          [
            [
              116.34939999999999,
              39.9895
            ],
            [
              116.35089999999998,
              39.9895
            ],
            [
              116.35089999999998,
              39.9904
            ],
            [
              116.34939999999999,
              39.9904
            ],
            [
              116.34939999999999,
              39.9895
            ]
          ]
        ]
      }
    },
    {
      "type": "Feature",
      "id": "BF-009",
      "properties": {
        "id": "BF-009",
        "layer": "BUILDING_FOOTPRINT",
        "building_type": "retail",
        "name_zh": "智能原生商业",
        "source_type": "agent_generated_design",
        "confidence": "medium",
        "geometry_role": "design_proposal",
        "area_id": "dazhongsi_ai_industry_cluster",
        "note": "概念建筑基底，规模待官方控规"
      },
      "geometry": {
        "type": "Polygon",
        "coordinates": [
          [
            [
              116.3442,
              39.949836000000005
            ],
            [
              116.3457,
              39.949836000000005
            ],
            [
              116.3457,
              39.950736000000006
            ],
            [
              116.3442,
              39.950736000000006
            ],
            [
              116.3442,
              39.949836000000005
            ]
          ]
        ]
      }
    },
    {
      "type": "Feature",
      "id": "BF-010",
      "properties": {
        "id": "BF-010",
        "layer": "BUILDING_FOOTPRINT",
        "building_type": "cultural",
        "name_zh": "会展发布",
        "source_type": "agent_generated_design",
        "confidence": "medium",
        "geometry_role": "design_proposal",
        "area_id": "dazhongsi_ai_industry_cluster",
        "note": "概念建筑基底，规模待官方控规"
      },
      "geometry": {
        "type": "Polygon",
        "coordinates": [
          [
            [
              116.3472,
              39.949836000000005
            ],
            [
              116.3487,
              39.949836000000005
            ],
            [
              116.3487,
              39.950736000000006
            ],
            [
              116.3472,
              39.950736000000006
            ],
            [
              116.3472,
              39.949836000000005
            ]
          ]
        ]
      }
    },
    {
      "type": "Feature",
      "id": "BF-011",
      "properties": {
        "id": "BF-011",
        "layer": "BUILDING_FOOTPRINT",
        "building_type": "office",
        "name_zh": "产业服务",
        "source_type": "agent_generated_design",
        "confidence": "medium",
        "geometry_role": "design_proposal",
        "area_id": "dazhongsi_ai_industry_cluster",
        "note": "概念建筑基底，规模待官方控规"
      },
      "geometry": {
        "type": "Polygon",
        "coordinates": [
          [
            [
              116.3502,
              39.949836000000005
            ],
            [
              116.3517,
              39.949836000000005
            ],
            [
              116.3517,
              39.950736000000006
            ],
            [
              116.3502,
              39.950736000000006
            ],
            [
              116.3502,
              39.949836000000005
            ]
          ]
        ]
      }
    },
    {
      "type": "Feature",
      "id": "BF-012",
      "properties": {
        "id": "BF-012",
        "layer": "BUILDING_FOOTPRINT",
        "building_type": "mixed_use",
        "name_zh": "TOD协同综合体",
        "source_type": "agent_generated_design",
        "confidence": "medium",
        "geometry_role": "design_proposal",
        "area_id": "dazhongsi_ai_industry_cluster",
        "note": "概念建筑基底，规模待官方控规"
      },
      "geometry": {
        "type": "Polygon",
        "coordinates": [
          [
            [
              116.3442,
              39.951336000000005
            ],
            [
              116.3457,
              39.951336000000005
            ],
            [
              116.3457,
              39.952236000000006
            ],
            [
              116.3442,
              39.952236000000006
            ],
            [
              116.3442,
              39.951336000000005
            ]
          ]
        ]
      }
    }
  ]
}