{
  "type": "FeatureCollection",
  "features": [
    {
      "type": "Feature",
      "id": "LU-001",
      "properties": {
        "id": "LU-001",
        "layer": "LAND_USE",
        "source_type": "agent_generated_design",
        "confidence": "low",
        "geometry_role": "design_proposal",
        "land_use_code": "0902",
        "name_zh": "城市创新服务与大钟寺营城共生单元",
        "name_en": "Urban innovation services and Dazhongsi city-making symbiosis unit",
        "area_sqm_declared": 562313.406,
        "design_note_zh": "概念性功能分区；不替代现状用地或法定控规。",
        "design_note_en": "Conceptual functional zone; not an existing-land-use survey or statutory plan."
      },
      "geometry": {
        "type": "Polygon",
        "coordinates": [
          [
            [
              116.3499181,
              39.94621169999999
            ],
            [
              116.34990075697685,
              39.94251112965674
            ],
            [
              116.347160495267,
              39.937732359745894
            ],
            [
              116.34413780380866,
              39.94277147107653
            ],
            [
              116.34221877097794,
              39.94949330570692
            ],
            [
              116.3492767180462,
              39.94953313682965
            ],
            [
              116.3499181,
              39.94621169999999
            ]
          ]
        ]
      }
    },
    {
      "type": "Feature",
      "id": "LU-002",
      "properties": {
        "id": "LU-002",
        "layer": "LAND_USE",
        "source_type": "agent_generated_design",
        "confidence": "low",
        "geometry_role": "design_proposal",
        "land_use_code": "0702",
        "name_zh": "社区公共服务与全龄生活",
        "name_en": "Community services and all-age daily life",
        "area_sqm_declared": 1162884.122,
        "design_note_zh": "概念性功能分区；不替代现状用地或法定控规。",
        "design_note_en": "Conceptual functional zone; not an existing-land-use survey or statutory plan."
      },
      "geometry": {
        "type": "Polygon",
        "coordinates": [
          [
            [
              116.34908240521014,
              39.95053933132518
            ],
            [
              116.3492767180462,
              39.94953313682965
            ],
            [
              116.34221877097794,
              39.94949330570692
            ],
            [
              116.34173539999895,
              39.95118619999985
            ],
            [
              116.33960490000001,
              39.9515616
            ],
            [
              116.3389041687122,
              39.95339868013435
            ],
            [
              116.33862382901958,
              39.9568926324142
            ],
            [
              116.33996487577262,
              39.95695988083525
            ],
            [
              116.33865369999997,
              39.95958600000004
            ],
            [
              116.33612557700441,
              39.96159441046218
            ],
            [
              116.33598186301484,
              39.962088661423856
            ],
            [
              116.34849144296646,
              39.96215964288043
            ],
            [
              116.34908240521014,
              39.95053933132518
            ]
          ]
        ]
      }
    },
    {
      "type": "Feature",
      "id": "LU-003",
      "properties": {
        "id": "LU-003",
        "layer": "LAND_USE",
        "source_type": "agent_generated_design",
        "confidence": "low",
        "geometry_role": "design_proposal",
        "land_use_code": "1401",
        "name_zh": "京张遗产公园与共作主线",
        "name_en": "Jing-Zhang heritage park and co-production spine",
        "area_sqm_declared": 1755954.405,
        "design_note_zh": "概念性功能分区；不替代现状用地或法定控规。",
        "design_note_en": "Conceptual functional zone; not an existing-land-use survey or statutory plan."
      },
      "geometry": {
        "type": "Polygon",
        "coordinates": [
          [
            [
              116.33027336844863,
              39.97468670310928
            ],
            [
              116.34784901181371,
              39.97478691943678
            ],
            [
              116.34849144296646,
              39.96215964288043
            ],
            [
              116.33598186301484,
              39.962088661423856
            ],
            [
              116.33382679999998,
              39.969499299999995
            ],
            [
              116.33247520049281,
              39.969417069669966
            ],
            [
              116.33210649235222,
              39.97267548128995
            ],
            [
              116.33049650000001,
              39.972656599999986
            ],
            [
              116.33027336844863,
              39.97468670310928
            ]
          ]
        ]
      }
    },
    {
      "type": "Feature",
      "id": "LU-004",
      "properties": {
        "id": "LU-004",
        "layer": "LAND_USE",
        "source_type": "agent_generated_design",
        "confidence": "low",
        "geometry_role": "design_proposal",
        "land_use_code": "0804",
        "name_zh": "原点社区译用共生单元与近校协作",
        "name_en": "Origin Community translation symbiosis unit and university links",
        "area_sqm_declared": 2012575.693,
        "design_note_zh": "概念性功能分区；不替代现状用地或法定控规。",
        "design_note_en": "Conceptual functional zone; not an existing-land-use survey or statutory plan."
      },
      "geometry": {
        "type": "Polygon",
        "coordinates": [
          [
            [
              116.32961844877724,
              39.98064457102072
            ],
            [
              116.33264816489131,
              39.98132193522475
            ],
            [
              116.33205663860556,
              39.98455813057341
            ],
            [
              116.33048241721035,
              39.98447999536225
            ],
            [
              116.33039581350826,
              39.9873182645707
            ],
            [
              116.34720631263424,
              39.98741416311728
            ],
            [
              116.34784901181371,
              39.97478691943678
            ],
            [
              116.33027336844863,
              39.97468670310928
            ],
            [
              116.32961844877724,
              39.98064457102072
            ]
          ]
        ]
      }
    },
    {
      "type": "Feature",
      "id": "LU-005",
      "properties": {
        "id": "LU-005",
        "layer": "LAND_USE",
        "source_type": "agent_generated_design",
        "confidence": "low",
        "geometry_role": "design_proposal",
        "land_use_code": "0802",
        "name_zh": "研发、测试与开放实验",
        "name_en": "R&D, testing and open experimentation",
        "area_sqm_declared": 1982860.999,
        "design_note_zh": "概念性功能分区；不替代现状用地或法定控规。",
        "design_note_en": "Conceptual functional zone; not an existing-land-use survey or statutory plan."
      },
      "geometry": {
        "type": "Polygon",
        "coordinates": [
          [
            [
              116.33039190959178,
              39.98744620106745
            ],
            [
              116.32869033696736,
              39.98815193695873
            ],
            [
              116.32822607774935,
              39.9911052880919
            ],
            [
              116.33074996017235,
              39.991608791809654
            ],
            [
              116.3312659,
              39.9934613
            ],
            [
              116.33101413092433,
              39.99995266216756
            ],
            [
              116.3465633451927,
              40.00004137391499
            ],
            [
              116.34720631263424,
              39.98741416311728
            ],
            [
              116.33039581350826,
              39.9873182645707
            ],
            [
              116.33039190959178,
              39.98744620106745
            ]
          ]
        ]
      }
    },
    {
      "type": "Feature",
      "id": "LU-006",
      "properties": {
        "id": "LU-006",
        "layer": "LAND_USE",
        "source_type": "agent_generated_design",
        "confidence": "low",
        "geometry_role": "design_proposal",
        "land_use_code": "0901",
        "name_zh": "创新成果首用与公共市场",
        "name_en": "First-use market for innovation",
        "area_sqm_declared": 1517608.783,
        "design_note_zh": "概念性功能分区；不替代现状用地或法定控规。",
        "design_note_en": "Conceptual functional zone; not an existing-land-use survey or statutory plan."
      },
      "geometry": {
        "type": "Polygon",
        "coordinates": [
          [
            [
              116.33091762478745,
              40.00244049346803
            ],
            [
              116.33161876815464,
              40.00247345141406
            ],
            [
              116.3321219645236,
              40.0109057468429
            ],
            [
              116.34600588956714,
              40.010984930002564
            ],
            [
              116.3465633451927,
              40.00004137391499
            ],
            [
              116.33101413092433,
              39.99995266216756
            ],
            [
              116.33091762478745,
              40.00244049346803
            ]
          ]
        ]
      }
    },
    {
      "type": "Feature",
      "id": "LU-007",
      "properties": {
        "id": "LU-007",
        "layer": "LAND_USE",
        "source_type": "agent_generated_design",
        "confidence": "low",
        "geometry_role": "design_proposal",
        "land_use_code": "0802",
        "name_zh": "众智园造模共生单元与全栈研发",
        "name_en": "Zhongzhiyuan model-building symbiosis unit and full-stack R&D",
        "area_sqm_declared": 1404134.456,
        "design_note_zh": "概念性功能分区；不替代现状用地或法定控规。",
        "design_note_en": "Conceptual functional zone; not an existing-land-use survey or statutory plan."
      },
      "geometry": {
        "type": "Polygon",
        "coordinates": [
          [
            [
              116.33218217683711,
              40.01191462880646
            ],
            [
              116.33163622669677,
              40.01559546791432
            ],
            [
              116.33322199400257,
              40.01560198661072
            ],
            [
              116.33158464186921,
              40.017737430711755
            ],
            [
              116.33270935106557,
              40.01854948649498
            ],
            [
              116.33095290590036,
              40.02184567781269
            ],
            [
              116.34546166227622,
              40.02166495329643
            ],
            [
              116.34600588956714,
              40.010984930002564
            ],
            [
              116.3321219645236,
              40.0109057468429
            ],
            [
              116.33218217683711,
              40.01191462880646
            ]
          ]
        ]
      }
    }
  ]
}