{
  "type": "FeatureCollection",
  "name": "roads_jingzhang_mileposts",
  "features": [
    {
      "type": "Feature",
      "id": "ROAD-001",
      "properties": {
        "id": "ROAD-001",
        "layer": "ROAD_CENTERLINE",
        "road_class": "arterial",
        "name_zh": "北五环路",
        "source_type": "agent_generated_design",
        "confidence": "medium",
        "geometry_role": "design_proposal",
        "length_m": 1398.1
      },
      "geometry": {
        "type": "LineString",
        "coordinates": [
          [
            116.34266585365853,
            40.0258
          ],
          [
            116.35526164383562,
            40.0258
          ]
        ]
      }
    },
    {
      "type": "Feature",
      "id": "ROAD-002",
      "properties": {
        "id": "ROAD-002",
        "layer": "ROAD_CENTERLINE",
        "road_class": "arterial",
        "name_zh": "西直门外大街",
        "source_type": "agent_generated_design",
        "confidence": "medium",
        "geometry_role": "design_proposal",
        "length_m": 1621.2
      },
      "geometry": {
        "type": "LineString",
        "coordinates": [
          [
            116.34069444444444,
            39.9392
          ],
          [
            116.3553,
            39.9392
          ]
        ]
      }
    },
    {
      "type": "Feature",
      "id": "ROAD-003",
      "properties": {
        "id": "ROAD-003",
        "layer": "ROAD_CENTERLINE",
        "road_class": "arterial",
        "name_zh": "学院路-西土城路",
        "source_type": "agent_generated_design",
        "confidence": "medium",
        "geometry_role": "design_proposal",
        "length_m": 7770.0
      },
      "geometry": {
        "type": "LineString",
        "coordinates": [
          [
            116.3522,
            39.95
          ],
          [
            116.3522,
            40.02
          ]
        ]
      }
    },
    {
      "type": "Feature",
      "id": "ROAD-004",
      "properties": {
        "id": "ROAD-004",
        "layer": "ROAD_CENTERLINE",
        "road_class": "arterial",
        "name_zh": "大钟寺东路",
        "source_type": "agent_generated_design",
        "confidence": "medium",
        "geometry_role": "design_proposal",
        "length_m": 2220.0
      },
      "geometry": {
        "type": "LineString",
        "coordinates": [
          [
            116.3418,
            39.94
          ],
          [
            116.3418,
            39.96
          ]
        ]
      }
    },
    {
      "type": "Feature",
      "id": "ROAD-005",
      "properties": {
        "id": "ROAD-005",
        "layer": "ROAD_CENTERLINE",
        "road_class": "arterial",
        "name_zh": "清华东路",
        "source_type": "agent_generated_design",
        "confidence": "medium",
        "geometry_role": "design_proposal",
        "length_m": 1398.9
      },
      "geometry": {
        "type": "LineString",
        "coordinates": [
          [
            116.34086129032258,
            39.993
          ],
          [
            116.35346438356164,
            39.993
          ]
        ]
      }
    },
    {
      "type": "Feature",
      "id": "ROAD-006",
      "properties": {
        "id": "ROAD-006",
        "layer": "ROAD_CENTERLINE",
        "road_class": "arterial",
        "name_zh": "知春路",
        "source_type": "agent_generated_design",
        "confidence": "medium",
        "geometry_role": "design_proposal",
        "length_m": 1609.5
      },
      "geometry": {
        "type": "LineString",
        "coordinates": [
          [
            116.34,
            39.975
          ],
          [
            116.3545,
            39.975
          ]
        ]
      }
    },
    {
      "type": "Feature",
      "id": "ROAD-007",
      "properties": {
        "id": "ROAD-007",
        "layer": "ROAD_CENTERLINE",
        "road_class": "secondary",
        "name_zh": "成府路",
        "source_type": "agent_generated_design",
        "confidence": "medium",
        "geometry_role": "design_proposal",
        "length_m": 924.3
      },
      "geometry": {
        "type": "LineString",
        "coordinates": [
          [
            116.345,
            39.9905
          ],
          [
            116.35332739726027,
            39.9905
          ]
        ]
      }
    },
    {
      "type": "Feature",
      "id": "ROAD-008",
      "properties": {
        "id": "ROAD-008",
        "layer": "ROAD_CENTERLINE",
        "road_class": "secondary",
        "name_zh": "双清路",
        "source_type": "agent_generated_design",
        "confidence": "medium",
        "geometry_role": "design_proposal",
        "length_m": 1998.0
      },
      "geometry": {
        "type": "LineString",
        "coordinates": [
          [
            116.348,
            39.99
          ],
          [
            116.348,
            40.008
          ]
        ]
      }
    },
    {
      "type": "Feature",
      "id": "ROAD-009",
      "properties": {
        "id": "ROAD-009",
        "layer": "ROAD_CENTERLINE",
        "road_class": "secondary",
        "name_zh": "五道口接驳道",
        "source_type": "agent_generated_design",
        "confidence": "medium",
        "geometry_role": "design_proposal",
        "length_m": 688.2
      },
      "geometry": {
        "type": "LineString",
        "coordinates": [
          [
            116.346,
            39.988
          ],
          [
            116.3522,
            39.988
          ]
        ]
      }
    },
    {
      "type": "Feature",
      "id": "ROAD-010",
      "properties": {
        "id": "ROAD-010",
        "layer": "ROAD_CENTERLINE",
        "road_class": "secondary",
        "name_zh": "大钟寺站北路",
        "source_type": "agent_generated_design",
        "confidence": "medium",
        "geometry_role": "design_proposal",
        "length_m": 1476.3
      },
      "geometry": {
        "type": "LineString",
        "coordinates": [
          [
            116.342,
            39.94984
          ],
          [
            116.3553,
            39.94984
          ]
        ]
      }
    },
    {
      "type": "Feature",
      "id": "ROAD-011",
      "properties": {
        "id": "ROAD-011",
        "layer": "ROAD_CENTERLINE",
        "road_class": "branch",
        "name_zh": "主轴东联络一",
        "source_type": "agent_generated_design",
        "confidence": "medium",
        "geometry_role": "design_proposal",
        "length_m": 854.7
      },
      "geometry": {
        "type": "LineString",
        "coordinates": [
          [
            116.3445,
            39.996
          ],
          [
            116.3522,
            39.996
          ]
        ]
      }
    },
    {
      "type": "Feature",
      "id": "ROAD-012",
      "properties": {
        "id": "ROAD-012",
        "layer": "ROAD_CENTERLINE",
        "road_class": "branch",
        "name_zh": "主轴东联络二",
        "source_type": "agent_generated_design",
        "confidence": "medium",
        "geometry_role": "design_proposal",
        "length_m": 854.7
      },
      "geometry": {
        "type": "LineString",
        "coordinates": [
          [
            116.3445,
            40.002
          ],
          [
            116.3522,
            40.002
          ]
        ]
      }
    },
    {
      "type": "Feature",
      "id": "ROAD-013",
      "properties": {
        "id": "ROAD-013",
        "layer": "ROAD_CENTERLINE",
        "road_class": "branch",
        "name_zh": "主轴东联络三",
        "source_type": "agent_generated_design",
        "confidence": "medium",
        "geometry_role": "design_proposal",
        "length_m": 854.7
      },
      "geometry": {
        "type": "LineString",
        "coordinates": [
          [
            116.3445,
            40.012
          ],
          [
            116.3522,
            40.012
          ]
        ]
      }
    },
    {
      "type": "Feature",
      "id": "ROAD-014",
      "properties": {
        "id": "ROAD-014",
        "layer": "ROAD_CENTERLINE",
        "road_class": "branch",
        "name_zh": "主轴东联络四",
        "source_type": "agent_generated_design",
        "confidence": "medium",
        "geometry_role": "design_proposal",
        "length_m": 854.7
      },
      "geometry": {
        "type": "LineString",
        "coordinates": [
          [
            116.3445,
            40.02
          ],
          [
            116.3522,
            40.02
          ]
        ]
      }
    },
    {
      "type": "Feature",
      "id": "ROAD-015",
      "properties": {
        "id": "ROAD-015",
        "layer": "ROAD_CENTERLINE",
        "road_class": "branch",
        "name_zh": "西侧支路一",
        "source_type": "agent_generated_design",
        "confidence": "medium",
        "geometry_role": "design_proposal",
        "length_m": 477.3
      },
      "geometry": {
        "type": "LineString",
        "coordinates": [
          [
            116.3407,
            39.958
          ],
          [
            116.345,
            39.958
          ]
        ]
      }
    },
    {
      "type": "Feature",
      "id": "ROAD-016",
      "properties": {
        "id": "ROAD-016",
        "layer": "ROAD_CENTERLINE",
        "road_class": "branch",
        "name_zh": "西侧支路二",
        "source_type": "agent_generated_design",
        "confidence": "medium",
        "geometry_role": "design_proposal",
        "length_m": 477.3
      },
      "geometry": {
        "type": "LineString",
        "coordinates": [
          [
            116.3407,
            39.968
          ],
          [
            116.345,
            39.968
          ]
        ]
      }
    },
    {
      "type": "Feature",
      "id": "ROAD-017",
      "properties": {
        "id": "ROAD-017",
        "layer": "ROAD_CENTERLINE",
        "road_class": "branch",
        "name_zh": "西侧支路三",
        "source_type": "agent_generated_design",
        "confidence": "medium",
        "geometry_role": "design_proposal",
        "length_m": 373.5
      },
      "geometry": {
        "type": "LineString",
        "coordinates": [
          [
            116.34163548387097,
            40.005
          ],
          [
            116.345,
            40.005
          ]
        ]
      }
    },
    {
      "type": "Feature",
      "id": "ROAD-018",
      "properties": {
        "id": "ROAD-018",
        "layer": "ROAD_CENTERLINE",
        "road_class": "branch",
        "name_zh": "西侧支路四",
        "source_type": "agent_generated_design",
        "confidence": "medium",
        "geometry_role": "design_proposal",
        "length_m": 317.6
      },
      "geometry": {
        "type": "LineString",
        "coordinates": [
          [
            116.34213902439025,
            40.015
          ],
          [
            116.345,
            40.015
          ]
        ]
      }
    },
    {
      "type": "Feature",
      "id": "ROAD-019",
      "properties": {
        "id": "ROAD-019",
        "layer": "ROAD_CENTERLINE",
        "road_class": "branch",
        "name_zh": "北区支路",
        "source_type": "agent_generated_design",
        "confidence": "medium",
        "geometry_role": "design_proposal",
        "length_m": 1021.2
      },
      "geometry": {
        "type": "LineString",
        "coordinates": [
          [
            116.343,
            40.022
          ],
          [
            116.3522,
            40.022
          ]
        ]
      }
    },
    {
      "type": "Feature",
      "id": "ROAD-020",
      "properties": {
        "id": "ROAD-020",
        "layer": "ROAD_CENTERLINE",
        "road_class": "branch",
        "name_zh": "南区支路",
        "source_type": "agent_generated_design",
        "confidence": "medium",
        "geometry_role": "design_proposal",
        "length_m": 1476.3
      },
      "geometry": {
        "type": "LineString",
        "coordinates": [
          [
            116.342,
            39.942
          ],
          [
            116.3553,
            39.942
          ]
        ]
      }
    }
  ]
}