{
  "type": "FeatureCollection",
  "name": "constraints",
  "metadata": {
    "coordinate_reference_system": "EPSG:4326",
    "area_calculation_crs": "EPSG:4548",
    "source": "Derived from provisional boundaries in brief/site-package/geometry/provisional_boundaries.geojson",
    "boundary_status": "provisional_constraint",
    "official_boundary": false,
    "usage_note": "All geometries are derived from provisional boundaries. Do not use as official redline, approval basis, or precise area calculation basis."
  },
  "features": [
    {
      "type": "Feature",
      "id": "CON-001",
      "properties": {
        "id": "CON-001",
        "layer": "HERITAGE_PROTECTION",
        "source_type": "agent_inferred_from_public_data",
        "confidence": "medium",
        "geometry_role": "provisional_constraint",
        "name_zh": "京张铁路遗产保护范围",
        "constraint_type": "heritage_protection",
        "area_sqm_calculated": 1659831.34,
        "official_boundary": false,
        "boundary_precision": "provisional_rough",
        "area_sqm_declared": 1659831.34
      },
      "geometry": {
        "type": "Polygon",
        "coordinates": [
          [
            [
              116.3485,
              39.939
            ],
            [
              116.3505,
              39.939
            ],
            [
              116.3505,
              40.0265
            ],
            [
              116.3485,
              40.0265
            ],
            [
              116.3485,
              39.939
            ]
          ]
        ]
      }
    }
  ]
}