{
 "type": "FeatureCollection",
 "name": "land_use_dual_track_partition",
 "features": [
  {
   "type": "Feature",
   "id": "LU-000",
   "properties": {
    "id": "LU-000",
    "layer": "LAND_USE",
    "source_type": "agent_inferred_from_public_data",
    "confidence": "medium",
    "geometry_role": "design_proposal",
    "land_use_code": "0701",
    "land_use_label_zh": "城镇住宅用地",
    "name_zh": "城镇住宅用地-00",
    "band": "west_flank",
    "row": 0,
    "key_area_id": "dazhongsi_ai_industry_cluster",
    "area_sqm_declared": 305293.48
   },
   "geometry": {
    "type": "Polygon",
    "coordinates": [
     [
      [
       116.3435,
       39.9499
      ],
      [
       116.3435,
       39.939
      ],
      [
       116.3407,
       39.939
      ],
      [
       116.34039722222222,
       39.9499
      ],
      [
       116.3435,
       39.9499
      ]
     ]
    ]
   }
  },
  {
   "type": "Feature",
   "id": "LU-001",
   "properties": {
    "id": "LU-001",
    "layer": "LAND_USE",
    "source_type": "agent_inferred_from_public_data",
    "confidence": "medium",
    "geometry_role": "design_proposal",
    "land_use_code": "1403",
    "land_use_label_zh": "广场用地",
    "name_zh": "广场用地-10",
    "band": "culture_rail",
    "row": 0,
    "key_area_id": "dazhongsi_ai_industry_cluster",
    "area_sqm_declared": 413763.729
   },
   "geometry": {
    "type": "Polygon",
    "coordinates": [
     [
      [
       116.3435,
       39.9499
      ],
      [
       116.3475,
       39.9499
      ],
      [
       116.3475,
       39.939
      ],
      [
       116.3435,
       39.939
      ],
      [
       116.3435,
       39.9499
      ]
     ]
    ]
   }
  },
  {
   "type": "Feature",
   "id": "LU-002",
   "properties": {
    "id": "LU-002",
    "layer": "LAND_USE",
    "source_type": "agent_inferred_from_public_data",
    "confidence": "medium",
    "geometry_role": "design_proposal",
    "land_use_code": "05",
    "land_use_label_zh": "商业服务业用地",
    "name_zh": "商业服务业用地-20",
    "band": "innovation_rail",
    "row": 0,
    "key_area_id": "dazhongsi_ai_industry_cluster",
    "area_sqm_declared": 413763.341
   },
   "geometry": {
    "type": "Polygon",
    "coordinates": [
     [
      [
       116.3475,
       39.9499
      ],
      [
       116.3515,
       39.9499
      ],
      [
       116.3515,
       39.939
      ],
      [
       116.3475,
       39.939
      ],
      [
       116.3475,
       39.9499
      ]
     ]
    ]
   }
  },
  {
   "type": "Feature",
   "id": "LU-003",
   "properties": {
    "id": "LU-003",
    "layer": "LAND_USE",
    "source_type": "agent_inferred_from_public_data",
    "confidence": "medium",
    "geometry_role": "design_proposal",
    "land_use_code": "05",
    "land_use_label_zh": "商业服务业用地",
    "name_zh": "商业服务业用地-30",
    "band": "east_flank",
    "row": 0,
    "key_area_id": "dazhongsi_ai_industry_cluster",
    "area_sqm_declared": 393074.816
   },
   "geometry": {
    "type": "Polygon",
    "coordinates": [
     [
      [
       116.3515,
       39.9499
      ],
      [
       116.3553,
       39.9499
      ],
      [
       116.3553,
       39.939
      ],
      [
       116.3515,
       39.939
      ],
      [
       116.3515,
       39.9499
      ]
     ]
    ]
   }
  },
  {
   "type": "Feature",
   "id": "LU-004",
   "properties": {
    "id": "LU-004",
    "layer": "LAND_USE",
    "source_type": "agent_inferred_from_public_data",
    "confidence": "medium",
    "geometry_role": "design_proposal",
    "land_use_code": "0701",
    "land_use_label_zh": "城镇住宅用地",
    "name_zh": "城镇住宅用地-01",
    "band": "west_flank",
    "row": 1,
    "key_area_id": null,
    "area_sqm_declared": 228223.738
   },
   "geometry": {
    "type": "Polygon",
    "coordinates": [
     [
      [
       116.3435,
       39.9574
      ],
      [
       116.3435,
       39.9499
      ],
      [
       116.34039722222222,
       39.9499
      ],
      [
       116.34018888888889,
       39.9574
      ],
      [
       116.3435,
       39.9574
      ]
     ]
    ]
   }
  },
  {
   "type": "Feature",
   "id": "LU-005",
   "properties": {
    "id": "LU-005",
    "layer": "LAND_USE",
    "source_type": "agent_inferred_from_public_data",
    "confidence": "medium",
    "geometry_role": "design_proposal",
    "land_use_code": "1401",
    "land_use_label_zh": "公园绿地",
    "name_zh": "公园绿地-11",
    "band": "culture_rail",
    "row": 1,
    "key_area_id": null,
    "area_sqm_declared": 284662.125
   },
   "geometry": {
    "type": "Polygon",
    "coordinates": [
     [
      [
       116.3435,
       39.9499
      ],
      [
       116.3435,
       39.9574
      ],
      [
       116.3475,
       39.9574
      ],
      [
       116.3475,
       39.9499
      ],
      [
       116.3435,
       39.9499
      ]
     ]
    ]
   }
  },
  {
   "type": "Feature",
   "id": "LU-006",
   "properties": {
    "id": "LU-006",
    "layer": "LAND_USE",
    "source_type": "agent_inferred_from_public_data",
    "confidence": "medium",
    "geometry_role": "design_proposal",
    "land_use_code": "05",
    "land_use_label_zh": "商业服务业用地",
    "name_zh": "商业服务业用地-21",
    "band": "innovation_rail",
    "row": 1,
    "key_area_id": null,
    "area_sqm_declared": 284661.858
   },
   "geometry": {
    "type": "Polygon",
    "coordinates": [
     [
      [
       116.3475,
       39.9499
      ],
      [
       116.3475,
       39.9574
      ],
      [
       116.3515,
       39.9574
      ],
      [
       116.3515,
       39.9499
      ],
      [
       116.3475,
       39.9499
      ]
     ]
    ]
   }
  },
  {
   "type": "Feature",
   "id": "LU-007",
   "properties": {
    "id": "LU-007",
    "layer": "LAND_USE",
    "source_type": "agent_inferred_from_public_data",
    "confidence": "medium",
    "geometry_role": "design_proposal",
    "land_use_code": "0804",
    "land_use_label_zh": "教育用地",
    "name_zh": "教育用地-31",
    "band": "east_flank",
    "row": 1,
    "key_area_id": null,
    "area_sqm_declared": 270428.52
   },
   "geometry": {
    "type": "Polygon",
    "coordinates": [
     [
      [
       116.3515,
       39.9499
      ],
      [
       116.3515,
       39.9574
      ],
      [
       116.3553,
       39.9574
      ],
      [
       116.3553,
       39.9499
      ],
      [
       116.3515,
       39.9499
      ]
     ]
    ]
   }
  },
  {
   "type": "Feature",
   "id": "LU-008",
   "properties": {
    "id": "LU-008",
    "layer": "LAND_USE",
    "source_type": "agent_inferred_from_public_data",
    "confidence": "medium",
    "geometry_role": "design_proposal",
    "land_use_code": "0701",
    "land_use_label_zh": "城镇住宅用地",
    "name_zh": "城镇住宅用地-02",
    "band": "west_flank",
    "row": 2,
    "key_area_id": null,
    "area_sqm_declared": 300166.065
   },
   "geometry": {
    "type": "Polygon",
    "coordinates": [
     [
      [
       116.3435,
       39.9666
      ],
      [
       116.3435,
       39.9574
      ],
      [
       116.34018888888889,
       39.9574
      ],
      [
       116.33993333333333,
       39.9666
      ],
      [
       116.3435,
       39.9666
      ]
     ]
    ]
   }
  },
  {
   "type": "Feature",
   "id": "LU-009",
   "properties": {
    "id": "LU-009",
    "layer": "LAND_USE",
    "source_type": "agent_inferred_from_public_data",
    "confidence": "medium",
    "geometry_role": "design_proposal",
    "land_use_code": "1401",
    "land_use_label_zh": "公园绿地",
    "name_zh": "公园绿地-12",
    "band": "culture_rail",
    "row": 2,
    "key_area_id": null,
    "area_sqm_declared": 349143.572
   },
   "geometry": {
    "type": "Polygon",
    "coordinates": [
     [
      [
       116.3435,
       39.9574
      ],
      [
       116.3435,
       39.9666
      ],
      [
       116.3475,
       39.9666
      ],
      [
       116.3475,
       39.9574
      ],
      [
       116.3435,
       39.9574
      ]
     ]
    ]
   }
  },
  {
   "type": "Feature",
   "id": "LU-010",
   "properties": {
    "id": "LU-010",
    "layer": "LAND_USE",
    "source_type": "agent_inferred_from_public_data",
    "confidence": "medium",
    "geometry_role": "design_proposal",
    "land_use_code": "05",
    "land_use_label_zh": "商业服务业用地",
    "name_zh": "商业服务业用地-22",
    "band": "innovation_rail",
    "row": 2,
    "key_area_id": null,
    "area_sqm_declared": 349143.244
   },
   "geometry": {
    "type": "Polygon",
    "coordinates": [
     [
      [
       116.3475,
       39.9574
      ],
      [
       116.3475,
       39.9666
      ],
      [
       116.3515,
       39.9666
      ],
      [
       116.3515,
       39.9574
      ],
      [
       116.3475,
       39.9574
      ]
     ]
    ]
   }
  },
  {
   "type": "Feature",
   "id": "LU-011",
   "properties": {
    "id": "LU-011",
    "layer": "LAND_USE",
    "source_type": "agent_inferred_from_public_data",
    "confidence": "medium",
    "geometry_role": "design_proposal",
    "land_use_code": "0804",
    "land_use_label_zh": "教育用地",
    "name_zh": "教育用地-32",
    "band": "east_flank",
    "row": 2,
    "key_area_id": null,
    "area_sqm_declared": 330714.229
   },
   "geometry": {
    "type": "Polygon",
    "coordinates": [
     [
      [
       116.3515,
       39.9574
      ],
      [
       116.3515,
       39.9666
      ],
      [
       116.355172,
       39.9666
      ],
      [
       116.3553,
       39.965
      ],
      [
       116.3553,
       39.9574
      ],
      [
       116.3515,
       39.9574
      ]
     ]
    ]
   }
  },
  {
   "type": "Feature",
   "id": "LU-012",
   "properties": {
    "id": "LU-012",
    "layer": "LAND_USE",
    "source_type": "agent_inferred_from_public_data",
    "confidence": "medium",
    "geometry_role": "design_proposal",
    "land_use_code": "0701",
    "land_use_label_zh": "城镇住宅用地",
    "name_zh": "城镇住宅用地-03",
    "band": "west_flank",
    "row": 3,
    "key_area_id": null,
    "area_sqm_declared": 322149.758
   },
   "geometry": {
    "type": "Polygon",
    "coordinates": [
     [
      [
       116.3435,
       39.9758
      ],
      [
       116.3435,
       39.9666
      ],
      [
       116.33993333333333,
       39.9666
      ],
      [
       116.3397,
       39.975
      ],
      [
       116.33975161290321,
       39.9758
      ],
      [
       116.3435,
       39.9758
      ]
     ]
    ]
   }
  },
  {
   "type": "Feature",
   "id": "LU-013",
   "properties": {
    "id": "LU-013",
    "layer": "LAND_USE",
    "source_type": "agent_inferred_from_public_data",
    "confidence": "medium",
    "geometry_role": "design_proposal",
    "land_use_code": "1401",
    "land_use_label_zh": "公园绿地",
    "name_zh": "公园绿地-13",
    "band": "culture_rail",
    "row": 3,
    "key_area_id": null,
    "area_sqm_declared": 349097.323
   },
   "geometry": {
    "type": "Polygon",
    "coordinates": [
     [
      [
       116.3435,
       39.9666
      ],
      [
       116.3435,
       39.9758
      ],
      [
       116.3475,
       39.9758
      ],
      [
       116.3475,
       39.9666
      ],
      [
       116.3435,
       39.9666
      ]
     ]
    ]
   }
  },
  {
   "type": "Feature",
   "id": "LU-014",
   "properties": {
    "id": "LU-014",
    "layer": "LAND_USE",
    "source_type": "agent_inferred_from_public_data",
    "confidence": "medium",
    "geometry_role": "design_proposal",
    "land_use_code": "0803",
    "land_use_label_zh": "文化用地",
    "name_zh": "文化用地-23",
    "band": "innovation_rail",
    "row": 3,
    "key_area_id": null,
    "area_sqm_declared": 349096.995
   },
   "geometry": {
    "type": "Polygon",
    "coordinates": [
     [
      [
       116.3475,
       39.9666
      ],
      [
       116.3475,
       39.9758
      ],
      [
       116.3515,
       39.9758
      ],
      [
       116.3515,
       39.9666
      ],
      [
       116.3475,
       39.9666
      ]
     ]
    ]
   }
  },
  {
   "type": "Feature",
   "id": "LU-015",
   "properties": {
    "id": "LU-015",
    "layer": "LAND_USE",
    "source_type": "agent_inferred_from_public_data",
    "confidence": "medium",
    "geometry_role": "design_proposal",
    "land_use_code": "16",
    "land_use_label_zh": "留白用地",
    "name_zh": "留白用地-33",
    "band": "east_flank",
    "row": 3,
    "key_area_id": null,
    "area_sqm_declared": 288355.864
   },
   "geometry": {
    "type": "Polygon",
    "coordinates": [
     [
      [
       116.3515,
       39.9666
      ],
      [
       116.3515,
       39.9758
      ],
      [
       116.354436,
       39.9758
      ],
      [
       116.355172,
       39.9666
      ],
      [
       116.3515,
       39.9666
      ]
     ]
    ]
   }
  },
  {
   "type": "Feature",
   "id": "LU-016",
   "properties": {
    "id": "LU-016",
    "layer": "LAND_USE",
    "source_type": "agent_inferred_from_public_data",
    "confidence": "medium",
    "geometry_role": "design_proposal",
    "land_use_code": "0701",
    "land_use_label_zh": "城镇住宅用地",
    "name_zh": "城镇住宅用地-04",
    "band": "west_flank",
    "row": 4,
    "key_area_id": null,
    "area_sqm_declared": 267914.182
   },
   "geometry": {
    "type": "Polygon",
    "coordinates": [
     [
      [
       116.3435,
       39.9839
      ],
      [
       116.3435,
       39.9758
      ],
      [
       116.33975161290321,
       39.9758
      ],
      [
       116.34027419354838,
       39.9839
      ],
      [
       116.3435,
       39.9839
      ]
     ]
    ]
   }
  },
  {
   "type": "Feature",
   "id": "LU-017",
   "properties": {
    "id": "LU-017",
    "layer": "LAND_USE",
    "source_type": "agent_inferred_from_public_data",
    "confidence": "medium",
    "geometry_role": "design_proposal",
    "land_use_code": "1401",
    "land_use_label_zh": "公园绿地",
    "name_zh": "公园绿地-14",
    "band": "culture_rail",
    "row": 4,
    "key_area_id": null,
    "area_sqm_declared": 307319.133
   },
   "geometry": {
    "type": "Polygon",
    "coordinates": [
     [
      [
       116.3435,
       39.9758
      ],
      [
       116.3435,
       39.9839
      ],
      [
       116.3475,
       39.9839
      ],
      [
       116.3475,
       39.9758
      ],
      [
       116.3435,
       39.9758
      ]
     ]
    ]
   }
  },
  {
   "type": "Feature",
   "id": "LU-018",
   "properties": {
    "id": "LU-018",
    "layer": "LAND_USE",
    "source_type": "agent_inferred_from_public_data",
    "confidence": "medium",
    "geometry_role": "design_proposal",
    "land_use_code": "0803",
    "land_use_label_zh": "文化用地",
    "name_zh": "文化用地-24",
    "band": "innovation_rail",
    "row": 4,
    "key_area_id": null,
    "area_sqm_declared": 307318.845
   },
   "geometry": {
    "type": "Polygon",
    "coordinates": [
     [
      [
       116.3475,
       39.9758
      ],
      [
       116.3475,
       39.9839
      ],
      [
       116.3515,
       39.9839
      ],
      [
       116.3515,
       39.9758
      ],
      [
       116.3475,
       39.9758
      ]
     ]
    ]
   }
  },
  {
   "type": "Feature",
   "id": "LU-019",
   "properties": {
    "id": "LU-019",
    "layer": "LAND_USE",
    "source_type": "agent_inferred_from_public_data",
    "confidence": "medium",
    "geometry_role": "design_proposal",
    "land_use_code": "0805",
    "land_use_label_zh": "体育用地",
    "name_zh": "体育用地-34",
    "band": "east_flank",
    "row": 4,
    "key_area_id": null,
    "area_sqm_declared": 200680.432
   },
   "geometry": {
    "type": "Polygon",
    "coordinates": [
     [
      [
       116.3515,
       39.9758
      ],
      [
       116.3515,
       39.9839
      ],
      [
       116.35378800000001,
       39.9839
      ],
      [
       116.354436,
       39.9758
      ],
      [
       116.3515,
       39.9758
      ]
     ]
    ]
   }
  },
  {
   "type": "Feature",
   "id": "LU-020",
   "properties": {
    "id": "LU-020",
    "layer": "LAND_USE",
    "source_type": "agent_inferred_from_public_data",
    "confidence": "medium",
    "geometry_role": "design_proposal",
    "land_use_code": "0806",
    "land_use_label_zh": "医疗卫生用地",
    "name_zh": "医疗卫生用地-05",
    "band": "west_flank",
    "row": 5,
    "key_area_id": "beijing_ai_origin_community",
    "area_sqm_declared": 265503.706
   },
   "geometry": {
    "type": "Polygon",
    "coordinates": [
     [
      [
       116.3435,
       39.9935
      ],
      [
       116.3435,
       39.9839
      ],
      [
       116.34027419354838,
       39.9839
      ],
      [
       116.3408935483871,
       39.9935
      ],
      [
       116.3435,
       39.9935
      ]
     ]
    ]
   }
  },
  {
   "type": "Feature",
   "id": "LU-021",
   "properties": {
    "id": "LU-021",
    "layer": "LAND_USE",
    "source_type": "agent_inferred_from_public_data",
    "confidence": "medium",
    "geometry_role": "design_proposal",
    "land_use_code": "1401",
    "land_use_label_zh": "公园绿地",
    "name_zh": "公园绿地-15",
    "band": "culture_rail",
    "row": 5,
    "key_area_id": "beijing_ai_origin_community",
    "area_sqm_declared": 364183.642
   },
   "geometry": {
    "type": "Polygon",
    "coordinates": [
     [
      [
       116.3435,
       39.9839
      ],
      [
       116.3435,
       39.9935
      ],
      [
       116.3475,
       39.9935
      ],
      [
       116.3475,
       39.9839
      ],
      [
       116.3435,
       39.9839
      ]
     ]
    ]
   }
  },
  {
   "type": "Feature",
   "id": "LU-022",
   "properties": {
    "id": "LU-022",
    "layer": "LAND_USE",
    "source_type": "agent_inferred_from_public_data",
    "confidence": "medium",
    "geometry_role": "design_proposal",
    "land_use_code": "0803",
    "land_use_label_zh": "文化用地",
    "name_zh": "文化用地-25",
    "band": "innovation_rail",
    "row": 5,
    "key_area_id": "beijing_ai_origin_community",
    "area_sqm_declared": 364183.301
   },
   "geometry": {
    "type": "Polygon",
    "coordinates": [
     [
      [
       116.3475,
       39.9839
      ],
      [
       116.3475,
       39.9935
      ],
      [
       116.3515,
       39.9935
      ],
      [
       116.3515,
       39.9839
      ],
      [
       116.3475,
       39.9839
      ]
     ]
    ]
   }
  },
  {
   "type": "Feature",
   "id": "LU-023",
   "properties": {
    "id": "LU-023",
    "layer": "LAND_USE",
    "source_type": "agent_inferred_from_public_data",
    "confidence": "medium",
    "geometry_role": "design_proposal",
    "land_use_code": "0804",
    "land_use_label_zh": "教育用地",
    "name_zh": "教育用地-35",
    "band": "east_flank",
    "row": 5,
    "key_area_id": "beijing_ai_origin_community",
    "area_sqm_declared": 181181.862
   },
   "geometry": {
    "type": "Polygon",
    "coordinates": [
     [
      [
       116.3515,
       39.9839
      ],
      [
       116.3515,
       39.9935
      ],
      [
       116.35349178082193,
       39.9935
      ],
      [
       116.3533,
       39.99
      ],
      [
       116.35378800000001,
       39.9839
      ],
      [
       116.3515,
       39.9839
      ]
     ]
    ]
   }
  },
  {
   "type": "Feature",
   "id": "LU-024",
   "properties": {
    "id": "LU-024",
    "layer": "LAND_USE",
    "source_type": "agent_inferred_from_public_data",
    "confidence": "medium",
    "geometry_role": "design_proposal",
    "land_use_code": "0701",
    "land_use_label_zh": "城镇住宅用地",
    "name_zh": "城镇住宅用地-06",
    "band": "west_flank",
    "row": 6,
    "key_area_id": null,
    "area_sqm_declared": 214710.103
   },
   "geometry": {
    "type": "Polygon",
    "coordinates": [
     [
      [
       116.3435,
       40.0034
      ],
      [
       116.3435,
       39.9935
      ],
      [
       116.3408935483871,
       39.9935
      ],
      [
       116.34153225806452,
       40.0034
      ],
      [
       116.3435,
       40.0034
      ]
     ]
    ]
   }
  },
  {
   "type": "Feature",
   "id": "LU-025",
   "properties": {
    "id": "LU-025",
    "layer": "LAND_USE",
    "source_type": "agent_inferred_from_public_data",
    "confidence": "medium",
    "geometry_role": "design_proposal",
    "land_use_code": "1401",
    "land_use_label_zh": "公园绿地",
    "name_zh": "公园绿地-16",
    "band": "culture_rail",
    "row": 6,
    "key_area_id": null,
    "area_sqm_declared": 375511.607
   },
   "geometry": {
    "type": "Polygon",
    "coordinates": [
     [
      [
       116.3435,
       39.9935
      ],
      [
       116.3435,
       40.0034
      ],
      [
       116.3475,
       40.0034
      ],
      [
       116.3475,
       39.9935
      ],
      [
       116.3435,
       39.9935
      ]
     ]
    ]
   }
  },
  {
   "type": "Feature",
   "id": "LU-026",
   "properties": {
    "id": "LU-026",
    "layer": "LAND_USE",
    "source_type": "agent_inferred_from_public_data",
    "confidence": "medium",
    "geometry_role": "design_proposal",
    "land_use_code": "0802",
    "land_use_label_zh": "科研用地",
    "name_zh": "科研用地-26",
    "band": "innovation_rail",
    "row": 6,
    "key_area_id": null,
    "area_sqm_declared": 375511.255
   },
   "geometry": {
    "type": "Polygon",
    "coordinates": [
     [
      [
       116.3475,
       39.9935
      ],
      [
       116.3475,
       40.0034
      ],
      [
       116.3515,
       40.0034
      ],
      [
       116.3515,
       39.9935
      ],
      [
       116.3475,
       39.9935
      ]
     ]
    ]
   }
  },
  {
   "type": "Feature",
   "id": "LU-027",
   "properties": {
    "id": "LU-027",
    "layer": "LAND_USE",
    "source_type": "agent_inferred_from_public_data",
    "confidence": "medium",
    "geometry_role": "design_proposal",
    "land_use_code": "0701",
    "land_use_label_zh": "城镇住宅用地",
    "name_zh": "城镇住宅用地-36",
    "band": "east_flank",
    "row": 6,
    "key_area_id": null,
    "area_sqm_declared": 212444.841
   },
   "geometry": {
    "type": "Polygon",
    "coordinates": [
     [
      [
       116.3515,
       39.9935
      ],
      [
       116.3515,
       40.0034
      ],
      [
       116.35403424657534,
       40.0034
      ],
      [
       116.35349178082193,
       39.9935
      ],
      [
       116.3515,
       39.9935
      ]
     ]
    ]
   }
  },
  {
   "type": "Feature",
   "id": "LU-028",
   "properties": {
    "id": "LU-028",
    "layer": "LAND_USE",
    "source_type": "agent_inferred_from_public_data",
    "confidence": "medium",
    "geometry_role": "design_proposal",
    "land_use_code": "0701",
    "land_use_label_zh": "城镇住宅用地",
    "name_zh": "城镇住宅用地-07",
    "band": "west_flank",
    "row": 7,
    "key_area_id": null,
    "area_sqm_declared": 149005.685
   },
   "geometry": {
    "type": "Polygon",
    "coordinates": [
     [
      [
       116.3435,
       40.0126
      ],
      [
       116.3435,
       40.0034
      ],
      [
       116.34153225806452,
       40.0034
      ],
      [
       116.3417,
       40.006
      ],
      [
       116.34202195121951,
       40.0126
      ],
      [
       116.3435,
       40.0126
      ]
     ]
    ]
   }
  },
  {
   "type": "Feature",
   "id": "LU-029",
   "properties": {
    "id": "LU-029",
    "layer": "LAND_USE",
    "source_type": "agent_inferred_from_public_data",
    "confidence": "medium",
    "geometry_role": "design_proposal",
    "land_use_code": "1402",
    "land_use_label_zh": "防护绿地",
    "name_zh": "防护绿地-17",
    "band": "culture_rail",
    "row": 7,
    "key_area_id": "zhongzhiyuan_ai_acceleration_area",
    "area_sqm_declared": 348912.235
   },
   "geometry": {
    "type": "Polygon",
    "coordinates": [
     [
      [
       116.3435,
       40.0034
      ],
      [
       116.3435,
       40.0126
      ],
      [
       116.3475,
       40.0126
      ],
      [
       116.3475,
       40.0034
      ],
      [
       116.3435,
       40.0034
      ]
     ]
    ]
   }
  },
  {
   "type": "Feature",
   "id": "LU-030",
   "properties": {
    "id": "LU-030",
    "layer": "LAND_USE",
    "source_type": "agent_inferred_from_public_data",
    "confidence": "medium",
    "geometry_role": "design_proposal",
    "land_use_code": "0802",
    "land_use_label_zh": "科研用地",
    "name_zh": "科研用地-27",
    "band": "innovation_rail",
    "row": 7,
    "key_area_id": "zhongzhiyuan_ai_acceleration_area",
    "area_sqm_declared": 348911.908
   },
   "geometry": {
    "type": "Polygon",
    "coordinates": [
     [
      [
       116.3475,
       40.0034
      ],
      [
       116.3475,
       40.0126
      ],
      [
       116.3515,
       40.0126
      ],
      [
       116.3515,
       40.0034
      ],
      [
       116.3475,
       40.0034
      ]
     ]
    ]
   }
  },
  {
   "type": "Feature",
   "id": "LU-031",
   "properties": {
    "id": "LU-031",
    "layer": "LAND_USE",
    "source_type": "agent_inferred_from_public_data",
    "confidence": "medium",
    "geometry_role": "design_proposal",
    "land_use_code": "0802",
    "land_use_label_zh": "科研用地",
    "name_zh": "科研用地-37",
    "band": "east_flank",
    "row": 7,
    "key_area_id": "zhongzhiyuan_ai_acceleration_area",
    "area_sqm_declared": 243041.843
   },
   "geometry": {
    "type": "Polygon",
    "coordinates": [
     [
      [
       116.3515,
       40.0034
      ],
      [
       116.3515,
       40.0126
      ],
      [
       116.35453835616438,
       40.0126
      ],
      [
       116.35403424657534,
       40.0034
      ],
      [
       116.3515,
       40.0034
      ]
     ]
    ]
   }
  },
  {
   "type": "Feature",
   "id": "LU-032",
   "properties": {
    "id": "LU-032",
    "layer": "LAND_USE",
    "source_type": "agent_inferred_from_public_data",
    "confidence": "medium",
    "geometry_role": "design_proposal",
    "land_use_code": "0702",
    "land_use_label_zh": "城镇社区服务设施用地",
    "name_zh": "城镇社区服务设施用地-08",
    "band": "west_flank",
    "row": 8,
    "key_area_id": "zhongzhiyuan_ai_acceleration_area",
    "area_sqm_declared": 109341.059
   },
   "geometry": {
    "type": "Polygon",
    "coordinates": [
     [
      [
       116.3435,
       40.0218
      ],
      [
       116.3435,
       40.0126
      ],
      [
       116.34202195121951,
       40.0126
      ],
      [
       116.34247073170731,
       40.0218
      ],
      [
       116.3435,
       40.0218
      ]
     ]
    ]
   }
  },
  {
   "type": "Feature",
   "id": "LU-033",
   "properties": {
    "id": "LU-033",
    "layer": "LAND_USE",
    "source_type": "agent_inferred_from_public_data",
    "confidence": "medium",
    "geometry_role": "design_proposal",
    "land_use_code": "1402",
    "land_use_label_zh": "防护绿地",
    "name_zh": "防护绿地-18",
    "band": "culture_rail",
    "row": 8,
    "key_area_id": "zhongzhiyuan_ai_acceleration_area",
    "area_sqm_declared": 348865.94
   },
   "geometry": {
    "type": "Polygon",
    "coordinates": [
     [
      [
       116.3435,
       40.0126
      ],
      [
       116.3435,
       40.0218
      ],
      [
       116.3475,
       40.0218
      ],
      [
       116.3475,
       40.0126
      ],
      [
       116.3435,
       40.0126
      ]
     ]
    ]
   }
  },
  {
   "type": "Feature",
   "id": "LU-034",
   "properties": {
    "id": "LU-034",
    "layer": "LAND_USE",
    "source_type": "agent_inferred_from_public_data",
    "confidence": "medium",
    "geometry_role": "design_proposal",
    "land_use_code": "0802",
    "land_use_label_zh": "科研用地",
    "name_zh": "科研用地-28",
    "band": "innovation_rail",
    "row": 8,
    "key_area_id": "zhongzhiyuan_ai_acceleration_area",
    "area_sqm_declared": 348865.613
   },
   "geometry": {
    "type": "Polygon",
    "coordinates": [
     [
      [
       116.3475,
       40.0126
      ],
      [
       116.3475,
       40.0218
      ],
      [
       116.3515,
       40.0218
      ],
      [
       116.3515,
       40.0126
      ],
      [
       116.3475,
       40.0126
      ]
     ]
    ]
   }
  },
  {
   "type": "Feature",
   "id": "LU-035",
   "properties": {
    "id": "LU-035",
    "layer": "LAND_USE",
    "source_type": "agent_inferred_from_public_data",
    "confidence": "medium",
    "geometry_role": "design_proposal",
    "land_use_code": "0802",
    "land_use_label_zh": "科研用地",
    "name_zh": "科研用地-38",
    "band": "east_flank",
    "row": 8,
    "key_area_id": "zhongzhiyuan_ai_acceleration_area",
    "area_sqm_declared": 286976.201
   },
   "geometry": {
    "type": "Polygon",
    "coordinates": [
     [
      [
       116.3515,
       40.0126
      ],
      [
       116.3515,
       40.0218
      ],
      [
       116.35504246575343,
       40.0218
      ],
      [
       116.35453835616438,
       40.0126
      ],
      [
       116.3515,
       40.0126
      ]
     ]
    ]
   }
  },
  {
   "type": "Feature",
   "id": "LU-036",
   "properties": {
    "id": "LU-036",
    "layer": "LAND_USE",
    "source_type": "agent_inferred_from_public_data",
    "confidence": "medium",
    "geometry_role": "design_proposal",
    "land_use_code": "0701",
    "land_use_label_zh": "城镇住宅用地",
    "name_zh": "城镇住宅用地-09",
    "band": "west_flank",
    "row": 9,
    "key_area_id": "zhongzhiyuan_ai_acceleration_area",
    "area_sqm_declared": 40748.775
   },
   "geometry": {
    "type": "Polygon",
    "coordinates": [
     [
      [
       116.3435,
       40.0218
      ],
      [
       116.34247073170731,
       40.0218
      ],
      [
       116.3427,
       40.0265
      ],
      [
       116.3435,
       40.0265
      ],
      [
       116.3435,
       40.0218
      ]
     ]
    ]
   }
  },
  {
   "type": "Feature",
   "id": "LU-037",
   "properties": {
    "id": "LU-037",
    "layer": "LAND_USE",
    "source_type": "agent_inferred_from_public_data",
    "confidence": "medium",
    "geometry_role": "design_proposal",
    "land_use_code": "1402",
    "land_use_label_zh": "防护绿地",
    "name_zh": "防护绿地-19",
    "band": "culture_rail",
    "row": 9,
    "key_area_id": "zhongzhiyuan_ai_acceleration_area",
    "area_sqm_declared": 178207.122
   },
   "geometry": {
    "type": "Polygon",
    "coordinates": [
     [
      [
       116.3475,
       40.0218
      ],
      [
       116.3435,
       40.0218
      ],
      [
       116.3435,
       40.0265
      ],
      [
       116.3475,
       40.0265
      ],
      [
       116.3475,
       40.0218
      ]
     ]
    ]
   }
  },
  {
   "type": "Feature",
   "id": "LU-038",
   "properties": {
    "id": "LU-038",
    "layer": "LAND_USE",
    "source_type": "agent_inferred_from_public_data",
    "confidence": "medium",
    "geometry_role": "design_proposal",
    "land_use_code": "0802",
    "land_use_label_zh": "科研用地",
    "name_zh": "科研用地-29",
    "band": "innovation_rail",
    "row": 9,
    "key_area_id": "zhongzhiyuan_ai_acceleration_area",
    "area_sqm_declared": 178206.955
   },
   "geometry": {
    "type": "Polygon",
    "coordinates": [
     [
      [
       116.3515,
       40.0218
      ],
      [
       116.3475,
       40.0218
      ],
      [
       116.3475,
       40.0265
      ],
      [
       116.3515,
       40.0265
      ],
      [
       116.3515,
       40.0218
      ]
     ]
    ]
   }
  },
  {
   "type": "Feature",
   "id": "LU-039",
   "properties": {
    "id": "LU-039",
    "layer": "LAND_USE",
    "source_type": "agent_inferred_from_public_data",
    "confidence": "medium",
    "geometry_role": "design_proposal",
    "land_use_code": "0802",
    "land_use_label_zh": "科研用地",
    "name_zh": "科研用地-39",
    "band": "east_flank",
    "row": 9,
    "key_area_id": "zhongzhiyuan_ai_acceleration_area",
    "area_sqm_declared": 163559.536
   },
   "geometry": {
    "type": "Polygon",
    "coordinates": [
     [
      [
       116.3553,
       40.0265
      ],
      [
       116.35504246575343,
       40.0218
      ],
      [
       116.3515,
       40.0218
      ],
      [
       116.3515,
       40.0265
      ],
      [
       116.3553,
       40.0265
      ]
     ]
    ]
   }
  }
 ]
}