{"type": "FeatureCollection", "name": "buildings_jingzhang_ai_for_all", "features": [{"type": "Feature", "id": "BLDG-001", "properties": {"id": "BLDG-001", "layer": "BUILDING_FOOTPRINT", "source_type": "agent_generated_design", "confidence": "medium", "geometry_role": "design_proposal", "building_type": "ai_r_and_d", "name_zh": "AI研发示范建筑", "area_sqm_declared": 77173.3, "version": "v5"}, "geometry": {"type": "Polygon", "coordinates": [[[116.3441, 40.010275], [116.3441, 40.013975], [116.3463, 40.013975], [116.3463, 40.010275], [116.3441, 40.010275]]]}}, {"type": "Feature", "id": "BLDG-002", "properties": {"id": "BLDG-002", "layer": "BUILDING_FOOTPRINT", "source_type": "agent_generated_design", "confidence": "medium", "geometry_role": "design_proposal", "building_type": "lab", "name_zh": "开源实验室街区建筑", "area_sqm_declared": 77167.0, "version": "v5"}, "geometry": {"type": "Polygon", "coordinates": [[[116.34740000000001, 40.015825], [116.34740000000001, 40.019525], [116.3496, 40.019525], [116.3496, 40.015825], [116.34740000000001, 40.015825]]]}}, {"type": "Feature", "id": "BLDG-003", "properties": {"id": "BLDG-003", "layer": "BUILDING_FOOTPRINT", "source_type": "agent_generated_design", "confidence": "medium", "geometry_role": "design_proposal", "building_type": "education", "name_zh": "AI原生学校旗舰", "area_sqm_declared": 43408.5, "version": "v5"}, "geometry": {"type": "Polygon", "coordinates": [[[116.35015, 40.01305], [116.35015, 40.015825], [116.3518, 40.015825], [116.3518, 40.01305], [116.35015, 40.01305]]]}}, {"type": "Feature", "id": "BLDG-004", "properties": {"id": "BLDG-004", "layer": "BUILDING_FOOTPRINT", "source_type": "agent_generated_design", "confidence": "medium", "geometry_role": "design_proposal", "building_type": "incubator", "name_zh": "AI孵化器建筑", "area_sqm_declared": 37616.3, "version": "v5"}, "geometry": {"type": "Polygon", "coordinates": [[[116.3496, 40.021375000000006], [116.3496, 40.02378], [116.35125, 40.02378], [116.35125, 40.021375000000006], [116.3496, 40.021375000000006]]]}}, {"type": "Feature", "id": "BLDG-005", "properties": {"id": "BLDG-005", "layer": "BUILDING_FOOTPRINT", "source_type": "agent_generated_design", "confidence": "medium", "geometry_role": "design_proposal", "building_type": "residential", "name_zh": "成长社区住宅组团", "area_sqm_declared": 41731.0, "version": "v5"}, "geometry": {"type": "Polygon", "coordinates": [[[116.34365, 39.985], [116.34365, 39.987], [116.34585, 39.987], [116.34585, 39.985], [116.34365, 39.985]]]}}, {"type": "Feature", "id": "BLDG-006", "properties": {"id": "BLDG-006", "layer": "BUILDING_FOOTPRINT", "source_type": "agent_generated_design", "confidence": "medium", "geometry_role": "design_proposal", "building_type": "community_service", "name_zh": "社区伙伴驿站", "area_sqm_declared": 23472.6, "version": "v5"}, "geometry": {"type": "Polygon", "coordinates": [[[116.3453, 39.9885], [116.3453, 39.989999999999995], [116.34694999999999, 39.989999999999995], [116.34694999999999, 39.9885], [116.3453, 39.9885]]]}}, {"type": "Feature", "id": "BLDG-007", "properties": {"id": "BLDG-007", "layer": "BUILDING_FOOTPRINT", "source_type": "agent_generated_design", "confidence": "medium", "geometry_role": "design_proposal", "building_type": "talent_apartment", "name_zh": "人才公寓组团", "area_sqm_declared": 41730.7, "version": "v5"}, "geometry": {"type": "Polygon", "coordinates": [[[116.34805, 39.9855], [116.34805, 39.9875], [116.35024999999999, 39.9875], [116.35024999999999, 39.9855], [116.34805, 39.9855]]]}}, {"type": "Feature", "id": "BLDG-008", "properties": {"id": "BLDG-008", "layer": "BUILDING_FOOTPRINT", "source_type": "agent_generated_design", "confidence": "medium", "geometry_role": "design_proposal", "building_type": "mixed_use", "name_zh": "伙伴经济混合建筑", "area_sqm_declared": 28166.7, "version": "v5"}, "geometry": {"type": "Polygon", "coordinates": [[[116.34859999999999, 39.9895], [116.34859999999999, 39.991], [116.35058, 39.991], [116.35058, 39.9895], [116.34859999999999, 39.9895]]]}}, {"type": "Feature", "id": "BLDG-009", "properties": {"id": "BLDG-009", "layer": "BUILDING_FOOTPRINT", "source_type": "agent_generated_design", "confidence": "medium", "geometry_role": "design_proposal", "building_type": "retail", "name_zh": "伙伴直连商业建筑", "area_sqm_declared": 28818.7, "version": "v5"}, "geometry": {"type": "Polygon", "coordinates": [[[116.34395, 39.945168], [116.34395, 39.946336], [116.34655000000001, 39.946336], [116.34655000000001, 39.945168], [116.34395, 39.945168]]]}}, {"type": "Feature", "id": "BLDG-010", "properties": {"id": "BLDG-010", "layer": "BUILDING_FOOTPRINT", "source_type": "agent_generated_design", "confidence": "medium", "geometry_role": "design_proposal", "building_type": "mixed_use", "name_zh": "智能新业态混合建筑", "area_sqm_declared": 24495.6, "version": "v5"}, "geometry": {"type": "Polygon", "coordinates": [[[116.34785, 39.945752], [116.34785, 39.946920000000006], [116.35006, 39.946920000000006], [116.35006, 39.945752], [116.34785, 39.945752]]]}}, {"type": "Feature", "id": "BLDG-011", "properties": {"id": "BLDG-011", "layer": "BUILDING_FOOTPRINT", "source_type": "agent_generated_design", "confidence": "medium", "geometry_role": "design_proposal", "building_type": "mobility_hub", "name_zh": "AI出行接驳中心", "area_sqm_declared": 14048.6, "version": "v5"}, "geometry": {"type": "Polygon", "coordinates": [[[116.3485, 39.947796000000004], [116.3485, 39.9485552], [116.35045, 39.9485552], [116.35045, 39.947796000000004], [116.3485, 39.947796000000004]]]}}, {"type": "Feature", "id": "BLDG-012", "properties": {"id": "BLDG-012", "layer": "BUILDING_FOOTPRINT", "source_type": "agent_generated_design", "confidence": "medium", "geometry_role": "design_proposal", "building_type": "cultural", "name_zh": "AI文化展示馆", "area_sqm_declared": 17291.3, "version": "v5"}, "geometry": {"type": "Polygon", "coordinates": [[[116.35136, 39.944876], [116.35136, 39.945752], [116.35344, 39.945752], [116.35344, 39.944876], [116.35136, 39.944876]]]}}]}