{"type": "FeatureCollection", "name": "green_space_jingzhang_ai_for_all", "features": [{"type": "Feature", "id": "GREEN-001", "properties": {"id": "GREEN-001", "layer": "GREEN_SPACE", "source_type": "agent_generated_design", "confidence": "medium", "geometry_role": "design_proposal", "land_use_code": "1401", "name_zh": "京张AI成长主轴绿带（遗址公园概念线）", "area_sqm_declared": 1493848.7, "version": "v5"}, "geometry": {"type": "Polygon", "coordinates": [[[116.3491, 39.939], [116.3473, 39.939], [116.3473, 40.0265], [116.3491, 40.0265], [116.3491, 39.939]]]}}]}