{
  "type": "FeatureCollection",
  "name": "roads_opentrunk",
  "features": [
    {
      "type": "Feature",
      "id": "ROAD-001",
      "properties": {
        "id": "ROAD-001",
        "layer": "ROAD_CENTERLINE",
        "source_type": "agent_generated_design",
        "confidence": "medium",
        "geometry_role": "design_proposal",
        "name_zh": "开源干线慢行主轴(公园复合路)",
        "road_class_code": "primary",
        "conceptual_length_m": 9801.0
      },
      "geometry": {
        "type": "LineString",
        "coordinates": [
          [
            116.3486,
            39.9385
          ],
          [
            116.3486,
            40.0268
          ]
        ]
      }
    },
    {
      "type": "Feature",
      "id": "ROAD-002",
      "properties": {
        "id": "ROAD-002",
        "layer": "ROAD_CENTERLINE",
        "source_type": "agent_generated_design",
        "confidence": "medium",
        "geometry_role": "design_proposal",
        "name_zh": "知春路横向联系道",
        "road_class_code": "secondary",
        "conceptual_length_m": 1709.0
      },
      "geometry": {
        "type": "LineString",
        "coordinates": [
          [
            116.3396,
            39.991
          ],
          [
            116.355,
            39.991
          ]
        ]
      }
    },
    {
      "type": "Feature",
      "id": "ROAD-003",
      "properties": {
        "id": "ROAD-003",
        "layer": "ROAD_CENTERLINE",
        "source_type": "agent_generated_design",
        "confidence": "medium",
        "geometry_role": "design_proposal",
        "name_zh": "北五环南侧横向联系道",
        "road_class_code": "secondary",
        "conceptual_length_m": 1709.0
      },
      "geometry": {
        "type": "LineString",
        "coordinates": [
          [
            116.3396,
            40.0025
          ],
          [
            116.355,
            40.0025
          ]
        ]
      }
    },
    {
      "type": "Feature",
      "id": "ROAD-004",
      "properties": {
        "id": "ROAD-004",
        "layer": "ROAD_CENTERLINE",
        "source_type": "agent_generated_design",
        "confidence": "medium",
        "geometry_role": "design_proposal",
        "name_zh": "大钟寺横向联系道",
        "road_class_code": "secondary",
        "conceptual_length_m": 1709.0
      },
      "geometry": {
        "type": "LineString",
        "coordinates": [
          [
            116.3396,
            39.9465
          ],
          [
            116.355,
            39.9465
          ]
        ]
      }
    }
  ]
}
