{
  "type": "FeatureCollection",
  "name": "concept_reversible_components",
  "metadata": {
    "coordinate_reference_system": "EPSG:4326",
    "area_check_crs": "EPSG:4548",
    "design_status": "concept_proposal",
    "generated_by": "Jingzhang In Progress deterministic build"
  },
  "features": [
    {
      "type": "Feature",
      "id": "BLDG-001",
      "properties": {
        "id": "BLDG-001",
        "layer": "BUILDING_FOOTPRINT",
        "source_type": "agent_generated_design",
        "confidence": "low",
        "geometry_role": "design_proposal",
        "conceptual_geometry_role": "prototype_envelope",
        "prototype_type": "full_scale_test_cell",
        "pilot_id": "P1",
        "name_zh": "约20×20米1:1隔离试验格概念包络",
        "name_en": "Approx. 20 × 20 m full-scale isolated test-cell concept envelope",
        "candidate_only": true,
        "concept_only": true,
        "existing_building": false,
        "proposed_building": false,
        "capacity_metric_eligible": false,
        "retain_renovate_demolish": "not_applicable_to_prototype_pending_survey",
        "area_sqm_declared": 400.0
      },
      "geometry": {
        "type": "Polygon",
        "coordinates": [
          [
            [
              116.348617255,
              40.016660738
            ],
            [
              116.348615543,
              40.01684085
            ],
            [
              116.348381291,
              40.016839533
            ],
            [
              116.348383005,
              40.016659421
            ],
            [
              116.348617255,
              40.016660738
            ]
          ]
        ]
      }
    },
    {
      "type": "Feature",
      "id": "BLDG-P2-MODEL-001",
      "properties": {
        "id": "BLDG-P2-MODEL-001",
        "layer": "BUILDING_FOOTPRINT",
        "source_type": "agent_generated_design",
        "confidence": "low",
        "geometry_role": "design_proposal",
        "conceptual_geometry_role": "prototype_envelope",
        "prototype_type": "public_model_room",
        "pilot_id": "P2",
        "name_zh": "约100平方米公共模型室候选包络",
        "name_en": "Approx. 100 sqm Public Model Room candidate envelope",
        "candidate_only": true,
        "concept_only": true,
        "existing_building": false,
        "proposed_building": false,
        "capacity_metric_eligible": false,
        "retain_renovate_demolish": "not_applicable_to_prototype_pending_survey",
        "area_sqm_declared": 100.0
      },
      "geometry": {
        "type": "Polygon",
        "coordinates": [
          [
            [
              116.347558571,
              39.988455433
            ],
            [
              116.347557715,
              39.988545489
            ],
            [
              116.347440637,
              39.98854483
            ],
            [
              116.347441494,
              39.988454774
            ],
            [
              116.347558571,
              39.988455433
            ]
          ]
        ]
      }
    },
    {
      "type": "Feature",
      "id": "BLDG-P3-POD-001",
      "properties": {
        "id": "BLDG-P3-POD-001",
        "layer": "BUILDING_FOOTPRINT",
        "source_type": "agent_generated_design",
        "confidence": "low",
        "geometry_role": "design_proposal",
        "conceptual_geometry_role": "prototype_envelope",
        "prototype_type": "merchant_service_pod",
        "pilot_id": "P3",
        "name_zh": "可拆商户/服务舱候选包络 1",
        "name_en": "Demountable merchant/service-pod candidate envelope 1",
        "candidate_only": true,
        "concept_only": true,
        "existing_building": false,
        "proposed_building": false,
        "capacity_metric_eligible": false,
        "retain_renovate_demolish": "not_applicable_to_prototype_pending_survey",
        "area_sqm_declared": 24.0
      },
      "geometry": {
        "type": "Polygon",
        "coordinates": [
          [
            [
              116.346967851,
              39.946884545
            ],
            [
              116.346967337,
              39.946938579
            ],
            [
              116.346920535,
              39.946938315
            ],
            [
              116.346921048,
              39.946884281
            ],
            [
              116.346967851,
              39.946884545
            ]
          ]
        ]
      }
    },
    {
      "type": "Feature",
      "id": "BLDG-P3-POD-002",
      "properties": {
        "id": "BLDG-P3-POD-002",
        "layer": "BUILDING_FOOTPRINT",
        "source_type": "agent_generated_design",
        "confidence": "low",
        "geometry_role": "design_proposal",
        "conceptual_geometry_role": "prototype_envelope",
        "prototype_type": "merchant_service_pod",
        "pilot_id": "P3",
        "name_zh": "可拆商户/服务舱候选包络 2",
        "name_en": "Demountable merchant/service-pod candidate envelope 2",
        "candidate_only": true,
        "concept_only": true,
        "existing_building": false,
        "proposed_building": false,
        "capacity_metric_eligible": false,
        "retain_renovate_demolish": "not_applicable_to_prototype_pending_survey",
        "area_sqm_declared": 24.0
      },
      "geometry": {
        "type": "Polygon",
        "coordinates": [
          [
            [
              116.348523383,
              39.946893297
            ],
            [
              116.34852287,
              39.946947331
            ],
            [
              116.348476068,
              39.946947068
            ],
            [
              116.34847658,
              39.946893033
            ],
            [
              116.348523383,
              39.946893297
            ]
          ]
        ]
      }
    },
    {
      "type": "Feature",
      "id": "BLDG-P3-POD-003",
      "properties": {
        "id": "BLDG-P3-POD-003",
        "layer": "BUILDING_FOOTPRINT",
        "source_type": "agent_generated_design",
        "confidence": "low",
        "geometry_role": "design_proposal",
        "conceptual_geometry_role": "prototype_envelope",
        "prototype_type": "merchant_service_pod",
        "pilot_id": "P3",
        "name_zh": "可拆商户/服务舱候选包络 3",
        "name_en": "Demountable merchant/service-pod candidate envelope 3",
        "candidate_only": true,
        "concept_only": true,
        "existing_building": false,
        "proposed_building": false,
        "capacity_metric_eligible": false,
        "retain_renovate_demolish": "not_applicable_to_prototype_pending_survey",
        "area_sqm_declared": 24.0
      },
      "geometry": {
        "type": "Polygon",
        "coordinates": [
          [
            [
              116.350078916,
              39.946902027
            ],
            [
              116.350078404,
              39.946956061
            ],
            [
              116.350031602,
              39.946955799
            ],
            [
              116.350032113,
              39.946901765
            ],
            [
              116.350078916,
              39.946902027
            ]
          ]
        ]
      }
    }
  ]
}
