{
  "type": "FeatureCollection",
  "name": "京张智脉·道路与慢行",
  "features": [
    {
      "type": "Feature",
      "id": "ROAD-001",
      "properties": {
        "id": "ROAD-001",
        "layer": "ROAD_CENTERLINE",
        "source_type": "agent_generated_design",
        "confidence": "medium",
        "geometry_role": "design_proposal",
        "road_class": "greenway",
        "name_zh": "京张遗址公园开发者散步道（南北贯通·绿道慢行主轴）"
      },
      "geometry": {
        "type": "LineString",
        "coordinates": [
          [
            116.348,
            39.94
          ],
          [
            116.348,
            40.0255
          ]
        ]
      }
    },
    {
      "type": "Feature",
      "id": "ROAD-002",
      "properties": {
        "id": "ROAD-002",
        "layer": "ROAD_CENTERLINE",
        "source_type": "agent_generated_design",
        "confidence": "low",
        "geometry_role": "design_proposal",
        "road_class": "pedestrian",
        "name_zh": "东西缝合慢行道-1（步行通道·概念）"
      },
      "geometry": {
        "type": "LineString",
        "coordinates": [
          [
            116.34223658536585,
            40.017
          ],
          [
            116.3543,
            40.017
          ]
        ]
      }
    },
    {
      "type": "Feature",
      "id": "ROAD-003",
      "properties": {
        "id": "ROAD-003",
        "layer": "ROAD_CENTERLINE",
        "source_type": "agent_generated_design",
        "confidence": "low",
        "geometry_role": "design_proposal",
        "road_class": "pedestrian",
        "name_zh": "东西缝合慢行道-2（步行通道·概念）"
      },
      "geometry": {
        "type": "LineString",
        "coordinates": [
          [
            116.3407,
            39.988
          ],
          [
            116.35346,
            39.988
          ]
        ]
      }
    },
    {
      "type": "Feature",
      "id": "ROAD-004",
      "properties": {
        "id": "ROAD-004",
        "layer": "ROAD_CENTERLINE",
        "source_type": "agent_generated_design",
        "confidence": "low",
        "geometry_role": "design_proposal",
        "road_class": "pedestrian",
        "name_zh": "东西缝合慢行道-3（步行通道·概念）"
      },
      "geometry": {
        "type": "LineString",
        "coordinates": [
          [
            116.3407,
            39.947
          ],
          [
            116.3543,
            39.947
          ]
        ]
      }
    }
  ]
}