{
 "type": "FeatureCollection",
 "name": "GREEN_SPACE-Kylanfang",
 "features": [
  {
   "type": "Feature",
   "id": "GRN-SPINE",
   "properties": {
    "id": "GRN-SPINE",
    "layer": "GREEN_SPACE",
    "source_type": "agent_generated_design",
    "confidence": "low",
    "geometry_role": "design_proposal",
    "area_sqm_declared": 2936471.3,
    "source_id": "DATA-SRC-AGENT-TASKBOOK-20260518",
    "green_code": "1401"
   },
   "geometry": {
    "type": "Polygon",
    "coordinates": [
     [
      [
       116.3432,
       40.026
      ],
      [
       116.3468,
       40.026
      ],
      [
       116.3468,
       39.94
      ],
      [
       116.3432,
       39.94
      ],
      [
       116.3432,
       40.026
      ]
     ]
    ]
   }
  },
  {
   "type": "Feature",
   "id": "GRN-P1",
   "properties": {
    "id": "GRN-P1",
    "layer": "GREEN_SPACE",
    "source_type": "agent_generated_design",
    "confidence": "low",
    "geometry_role": "design_proposal",
    "area_sqm_declared": 455050.0,
    "source_id": "DATA-SRC-AGENT-TASKBOOK-20260518",
    "green_code": "1401"
   },
   "geometry": {
    "type": "Polygon",
    "coordinates": [
     [
      [
       116.346,
       40.02
      ],
      [
       116.352,
       40.02
      ],
      [
       116.352,
       40.012
      ],
      [
       116.346,
       40.012
      ],
      [
       116.346,
       40.02
      ]
     ]
    ]
   }
  },
  {
   "type": "Feature",
   "id": "GRN-P2",
   "properties": {
    "id": "GRN-P2",
    "layer": "GREEN_SPACE",
    "source_type": "agent_generated_design",
    "confidence": "low",
    "geometry_role": "design_proposal",
    "area_sqm_declared": 341420.6,
    "source_id": "DATA-SRC-AGENT-TASKBOOK-20260518",
    "green_code": "1401"
   },
   "geometry": {
    "type": "Polygon",
    "coordinates": [
     [
      [
       116.344,
       39.992
      ],
      [
       116.35,
       39.992
      ],
      [
       116.35,
       39.986
      ],
      [
       116.344,
       39.986
      ],
      [
       116.344,
       39.992
      ]
     ]
    ]
   }
  },
  {
   "type": "Feature",
   "id": "GRN-P3",
   "properties": {
    "id": "GRN-P3",
    "layer": "GREEN_SPACE",
    "source_type": "agent_generated_design",
    "confidence": "low",
    "geometry_role": "design_proposal",
    "area_sqm_declared": 265709.8,
    "source_id": "DATA-SRC-AGENT-TASKBOOK-20260518",
    "green_code": "1401"
   },
   "geometry": {
    "type": "Polygon",
    "coordinates": [
     [
      [
       116.346,
       39.949
      ],
      [
       116.353,
       39.949
      ],
      [
       116.353,
       39.945
      ],
      [
       116.346,
       39.945
      ],
      [
       116.346,
       39.949
      ]
     ]
    ]
   }
  }
 ]
}