{
  "type": "FeatureCollection",
  "name": "public_space",
  "features": [
    {
      "type": "Feature",
      "id": "PUBLIC-001",
      "properties": {
        "source_type": "agent_generated_design",
        "confidence": "medium",
        "geometry_role": "design_proposal",
        "source_id": "DATA-SRC-AGENT-DESIGN-JZ-HUMANLOOP",
        "id": "PUBLIC-001",
        "layer": "PUBLIC_SPACE",
        "land_use_code": "1403",
        "name_zh": "智脉公共活动界面带·西",
        "band_id": "B0",
        "column_id": "WI",
        "public_space_type_zh": "公共活动界面",
        "always_open_24h": true,
        "barrier_free": true,
        "linked_land_use_id": "LU-004",
        "area_sqm_declared": 20316.401
      },
      "geometry": {
        "type": "Polygon",
        "coordinates": [
          [
            [
              116.3463356,
              39.939
            ],
            [
              116.3467736,
              39.939
            ],
            [
              116.346694679,
              39.943865
            ],
            [
              116.346252625,
              39.943865
            ],
            [
              116.3463356,
              39.939
            ]
          ]
        ]
      }
    },
    {
      "type": "Feature",
      "id": "PUBLIC-002",
      "properties": {
        "source_type": "agent_generated_design",
        "confidence": "medium",
        "geometry_role": "design_proposal",
        "source_id": "DATA-SRC-AGENT-DESIGN-JZ-HUMANLOOP",
        "id": "PUBLIC-002",
        "layer": "PUBLIC_SPACE",
        "land_use_code": "1403",
        "name_zh": "智脉公共活动界面带·东",
        "band_id": "B0",
        "column_id": "EI",
        "public_space_type_zh": "公共活动界面",
        "always_open_24h": true,
        "barrier_free": true,
        "linked_land_use_id": "LU-006",
        "area_sqm_declared": 20316.387
      },
      "geometry": {
        "type": "Polygon",
        "coordinates": [
          [
            [
              116.3492264,
              39.939
            ],
            [
              116.3496644,
              39.939
            ],
            [
              116.349612236,
              39.943865
            ],
            [
              116.349170182,
              39.943865
            ],
            [
              116.3492264,
              39.939
            ]
          ]
        ]
      }
    },
    {
      "type": "Feature",
      "id": "PUBLIC-003",
      "properties": {
        "source_type": "agent_generated_design",
        "confidence": "medium",
        "geometry_role": "design_proposal",
        "source_id": "DATA-SRC-AGENT-DESIGN-JZ-HUMANLOOP",
        "id": "PUBLIC-003",
        "layer": "PUBLIC_SPACE",
        "land_use_code": "1403",
        "name_zh": "智脉公共活动界面带·西",
        "band_id": "B1",
        "column_id": "WI",
        "public_space_type_zh": "公共活动界面",
        "always_open_24h": true,
        "barrier_free": true,
        "linked_land_use_id": "LU-013",
        "area_sqm_declared": 23500.384
      },
      "geometry": {
        "type": "Polygon",
        "coordinates": [
          [
            [
              116.34624802,
              39.944135
            ],
            [
              116.346690299,
              39.944135
            ],
            [
              116.346599941,
              39.949705
            ],
            [
              116.34615302,
              39.949705
            ],
            [
              116.34624802,
              39.944135
            ]
          ]
        ]
      }
    },
    {
      "type": "Feature",
      "id": "PUBLIC-004",
      "properties": {
        "source_type": "agent_generated_design",
        "confidence": "medium",
        "geometry_role": "design_proposal",
        "source_id": "DATA-SRC-AGENT-DESIGN-JZ-HUMANLOOP",
        "id": "PUBLIC-004",
        "layer": "PUBLIC_SPACE",
        "land_use_code": "1403",
        "name_zh": "京张智脉AI客厅",
        "band_id": "B1",
        "column_id": "SP",
        "public_space_type_zh": "AI客厅广场",
        "always_open_24h": true,
        "barrier_free": true,
        "linked_land_use_id": "LU-014",
        "area_sqm_declared": 131602.109
      },
      "geometry": {
        "type": "Polygon",
        "coordinates": [
          [
            [
              116.346690299,
              39.944135
            ],
            [
              116.349167062,
              39.944135
            ],
            [
              116.349102698,
              39.949705
            ],
            [
              116.346599941,
              39.949705
            ],
            [
              116.346690299,
              39.944135
            ]
          ]
        ]
      }
    },
    {
      "type": "Feature",
      "id": "PUBLIC-005",
      "properties": {
        "source_type": "agent_generated_design",
        "confidence": "medium",
        "geometry_role": "design_proposal",
        "source_id": "DATA-SRC-AGENT-DESIGN-JZ-HUMANLOOP",
        "id": "PUBLIC-005",
        "layer": "PUBLIC_SPACE",
        "land_use_code": "1403",
        "name_zh": "智脉公共活动界面带·东",
        "band_id": "B1",
        "column_id": "EI",
        "public_space_type_zh": "公共活动界面",
        "always_open_24h": true,
        "barrier_free": true,
        "linked_land_use_id": "LU-015",
        "area_sqm_declared": 23500.368
      },
      "geometry": {
        "type": "Polygon",
        "coordinates": [
          [
            [
              116.349167062,
              39.944135
            ],
            [
              116.349609341,
              39.944135
            ],
            [
              116.349549619,
              39.949705
            ],
            [
              116.349102698,
              39.949705
            ],
            [
              116.349167062,
              39.944135
            ]
          ]
        ]
      }
    },
    {
      "type": "Feature",
      "id": "PUBLIC-006",
      "properties": {
        "source_type": "agent_generated_design",
        "confidence": "medium",
        "geometry_role": "design_proposal",
        "source_id": "DATA-SRC-AGENT-DESIGN-JZ-HUMANLOOP",
        "id": "PUBLIC-006",
        "layer": "PUBLIC_SPACE",
        "land_use_code": "1403",
        "name_zh": "智脉公共活动界面带·西",
        "band_id": "B3",
        "column_id": "WI",
        "public_space_type_zh": "公共活动界面",
        "always_open_24h": true,
        "barrier_free": true,
        "linked_land_use_id": "LU-031",
        "area_sqm_declared": 54865.698
      },
      "geometry": {
        "type": "Polygon",
        "coordinates": [
          [
            [
              116.346111575,
              39.952135
            ],
            [
              116.346560521,
              39.952135
            ],
            [
              116.346354012,
              39.964865
            ],
            [
              116.345894458,
              39.964865
            ],
            [
              116.346111575,
              39.952135
            ]
          ]
        ]
      }
    },
    {
      "type": "Feature",
      "id": "PUBLIC-007",
      "properties": {
        "source_type": "agent_generated_design",
        "confidence": "medium",
        "geometry_role": "design_proposal",
        "source_id": "DATA-SRC-AGENT-DESIGN-JZ-HUMANLOOP",
        "id": "PUBLIC-007",
        "layer": "PUBLIC_SPACE",
        "land_use_code": "1403",
        "name_zh": "智脉公共活动界面带·东",
        "band_id": "B3",
        "column_id": "EI",
        "public_space_type_zh": "公共活动界面",
        "always_open_24h": true,
        "barrier_free": true,
        "linked_land_use_id": "LU-033",
        "area_sqm_declared": 54865.659
      },
      "geometry": {
        "type": "Polygon",
        "coordinates": [
          [
            [
              116.349074618,
              39.952135
            ],
            [
              116.349523564,
              39.952135
            ],
            [
              116.34938707,
              39.964865
            ],
            [
              116.348927516,
              39.964865
            ],
            [
              116.349074618,
              39.952135
            ]
          ]
        ]
      }
    },
    {
      "type": "Feature",
      "id": "PUBLIC-008",
      "properties": {
        "source_type": "agent_generated_design",
        "confidence": "medium",
        "geometry_role": "design_proposal",
        "source_id": "DATA-SRC-AGENT-DESIGN-JZ-HUMANLOOP",
        "id": "PUBLIC-008",
        "layer": "PUBLIC_SPACE",
        "land_use_code": "1403",
        "name_zh": "智脉公共活动界面带·西",
        "band_id": "B5",
        "column_id": "WI",
        "public_space_type_zh": "公共活动界面",
        "always_open_24h": true,
        "barrier_free": true,
        "linked_land_use_id": "LU-049",
        "area_sqm_declared": 33221.89
      },
      "geometry": {
        "type": "Polygon",
        "coordinates": [
          [
            [
              116.345413979,
              39.975135
            ],
            [
              116.345857394,
              39.975135
            ],
            [
              116.345893584,
              39.983365
            ],
            [
              116.345485851,
              39.983365
            ],
            [
              116.345413979,
              39.975135
            ]
          ]
        ]
      }
    },
    {
      "type": "Feature",
      "id": "PUBLIC-009",
      "properties": {
        "source_type": "agent_generated_design",
        "confidence": "medium",
        "geometry_role": "design_proposal",
        "source_id": "DATA-SRC-AGENT-DESIGN-JZ-HUMANLOOP",
        "id": "PUBLIC-009",
        "layer": "PUBLIC_SPACE",
        "land_use_code": "1403",
        "name_zh": "智脉公共活动界面带·东",
        "band_id": "B5",
        "column_id": "EI",
        "public_space_type_zh": "公共活动界面",
        "always_open_24h": true,
        "barrier_free": true,
        "linked_land_use_id": "LU-051",
        "area_sqm_declared": 33221.907
      },
      "geometry": {
        "type": "Polygon",
        "coordinates": [
          [
            [
              116.348340516,
              39.975135
            ],
            [
              116.348783931,
              39.975135
            ],
            [
              116.348584627,
              39.983365
            ],
            [
              116.348176893,
              39.983365
            ],
            [
              116.348340516,
              39.975135
            ]
          ]
        ]
      }
    },
    {
      "type": "Feature",
      "id": "PUBLIC-010",
      "properties": {
        "source_type": "agent_generated_design",
        "confidence": "medium",
        "geometry_role": "design_proposal",
        "source_id": "DATA-SRC-AGENT-DESIGN-JZ-HUMANLOOP",
        "id": "PUBLIC-010",
        "layer": "PUBLIC_SPACE",
        "land_use_code": "1403",
        "name_zh": "智脉公共活动界面带·西",
        "band_id": "B6",
        "column_id": "WI",
        "public_space_type_zh": "公共活动界面",
        "always_open_24h": true,
        "barrier_free": true,
        "linked_land_use_id": "LU-058",
        "area_sqm_declared": 23224.52
      },
      "geometry": {
        "type": "Polygon",
        "coordinates": [
          [
            [
              116.345488209,
              39.983635
            ],
            [
              116.345894772,
              39.983635
            ],
            [
              116.345922168,
              39.989865
            ],
            [
              116.345542615,
              39.989865
            ],
            [
              116.345488209,
              39.983635
            ]
          ]
        ]
      }
    },
    {
      "type": "Feature",
      "id": "PUBLIC-011",
      "properties": {
        "source_type": "agent_generated_design",
        "confidence": "medium",
        "geometry_role": "design_proposal",
        "source_id": "DATA-SRC-AGENT-DESIGN-JZ-HUMANLOOP",
        "id": "PUBLIC-011",
        "layer": "PUBLIC_SPACE",
        "land_use_code": "1403",
        "name_zh": "智脉公共活动界面带·东",
        "band_id": "B6",
        "column_id": "EI",
        "public_space_type_zh": "公共活动界面",
        "always_open_24h": true,
        "barrier_free": true,
        "linked_land_use_id": "LU-060",
        "area_sqm_declared": 23224.506
      },
      "geometry": {
        "type": "Polygon",
        "coordinates": [
          [
            [
              116.348171525,
              39.983635
            ],
            [
              116.348578088,
              39.983635
            ],
            [
              116.348427218,
              39.989865
            ],
            [
              116.348047665,
              39.989865
            ],
            [
              116.348171525,
              39.983635
            ]
          ]
        ]
      }
    },
    {
      "type": "Feature",
      "id": "PUBLIC-012",
      "properties": {
        "source_type": "agent_generated_design",
        "confidence": "medium",
        "geometry_role": "design_proposal",
        "source_id": "DATA-SRC-AGENT-DESIGN-JZ-HUMANLOOP",
        "id": "PUBLIC-012",
        "layer": "PUBLIC_SPACE",
        "land_use_code": "1403",
        "name_zh": "智脉公共活动界面带·西",
        "band_id": "B7",
        "column_id": "WI",
        "public_space_type_zh": "公共活动界面",
        "always_open_24h": true,
        "barrier_free": true,
        "linked_land_use_id": "LU-067",
        "area_sqm_declared": 11592.822
      },
      "geometry": {
        "type": "Polygon",
        "coordinates": [
          [
            [
              116.345551997,
              39.990135
            ],
            [
              116.345930925,
              39.990135
            ],
            [
              116.346126249,
              39.993365
            ],
            [
              116.345748263,
              39.993365
            ],
            [
              116.345551997,
              39.990135
            ]
          ]
        ]
      }
    },
    {
      "type": "Feature",
      "id": "PUBLIC-013",
      "properties": {
        "source_type": "agent_generated_design",
        "confidence": "medium",
        "geometry_role": "design_proposal",
        "source_id": "DATA-SRC-AGENT-DESIGN-JZ-HUMANLOOP",
        "id": "PUBLIC-013",
        "layer": "PUBLIC_SPACE",
        "land_use_code": "1403",
        "name_zh": "京张智脉AI客厅",
        "band_id": "B7",
        "column_id": "SP",
        "public_space_type_zh": "AI客厅广场",
        "always_open_24h": true,
        "barrier_free": true,
        "linked_land_use_id": "LU-068",
        "area_sqm_declared": 64919.854
      },
      "geometry": {
        "type": "Polygon",
        "coordinates": [
          [
            [
              116.345930925,
              39.990135
            ],
            [
              116.348052924,
              39.990135
            ],
            [
              116.348242973,
              39.993365
            ],
            [
              116.346126249,
              39.993365
            ],
            [
              116.345930925,
              39.990135
            ]
          ]
        ]
      }
    },
    {
      "type": "Feature",
      "id": "PUBLIC-014",
      "properties": {
        "source_type": "agent_generated_design",
        "confidence": "medium",
        "geometry_role": "design_proposal",
        "source_id": "DATA-SRC-AGENT-DESIGN-JZ-HUMANLOOP",
        "id": "PUBLIC-014",
        "layer": "PUBLIC_SPACE",
        "land_use_code": "1403",
        "name_zh": "智脉公共活动界面带·东",
        "band_id": "B7",
        "column_id": "EI",
        "public_space_type_zh": "公共活动界面",
        "always_open_24h": true,
        "barrier_free": true,
        "linked_land_use_id": "LU-069",
        "area_sqm_declared": 11592.815
      },
      "geometry": {
        "type": "Polygon",
        "coordinates": [
          [
            [
              116.348052924,
              39.990135
            ],
            [
              116.348431852,
              39.990135
            ],
            [
              116.348620959,
              39.993365
            ],
            [
              116.348242973,
              39.993365
            ],
            [
              116.348052924,
              39.990135
            ]
          ]
        ]
      }
    },
    {
      "type": "Feature",
      "id": "PUBLIC-015",
      "properties": {
        "source_type": "agent_generated_design",
        "confidence": "medium",
        "geometry_role": "design_proposal",
        "source_id": "DATA-SRC-AGENT-DESIGN-JZ-HUMANLOOP",
        "id": "PUBLIC-015",
        "layer": "PUBLIC_SPACE",
        "land_use_code": "1403",
        "name_zh": "智脉公共活动界面带·西",
        "band_id": "B9",
        "column_id": "WI",
        "public_space_type_zh": "公共活动界面",
        "always_open_24h": true,
        "barrier_free": true,
        "linked_land_use_id": "LU-085",
        "area_sqm_declared": 29306.55
      },
      "geometry": {
        "type": "Polygon",
        "coordinates": [
          [
            [
              116.346007724,
              39.997635
            ],
            [
              116.346384465,
              39.997635
            ],
            [
              116.346882149,
              40.005865
            ],
            [
              116.346507808,
              40.005865
            ],
            [
              116.346007724,
              39.997635
            ]
          ]
        ]
      }
    },
    {
      "type": "Feature",
      "id": "PUBLIC-016",
      "properties": {
        "source_type": "agent_generated_design",
        "confidence": "medium",
        "geometry_role": "design_proposal",
        "source_id": "DATA-SRC-AGENT-DESIGN-JZ-HUMANLOOP",
        "id": "PUBLIC-016",
        "layer": "PUBLIC_SPACE",
        "land_use_code": "1403",
        "name_zh": "智脉公共活动界面带·东",
        "band_id": "B9",
        "column_id": "EI",
        "public_space_type_zh": "公共活动界面",
        "always_open_24h": true,
        "barrier_free": true,
        "linked_land_use_id": "LU-087",
        "area_sqm_declared": 29306.533
      },
      "geometry": {
        "type": "Polygon",
        "coordinates": [
          [
            [
              116.348494214,
              39.997635
            ],
            [
              116.348870955,
              39.997635
            ],
            [
              116.349352798,
              40.005865
            ],
            [
              116.348978457,
              40.005865
            ],
            [
              116.348494214,
              39.997635
            ]
          ]
        ]
      }
    },
    {
      "type": "Feature",
      "id": "PUBLIC-017",
      "properties": {
        "source_type": "agent_generated_design",
        "confidence": "medium",
        "geometry_role": "design_proposal",
        "source_id": "DATA-SRC-AGENT-DESIGN-JZ-HUMANLOOP",
        "id": "PUBLIC-017",
        "layer": "PUBLIC_SPACE",
        "land_use_code": "1403",
        "name_zh": "智脉公共活动界面带·西",
        "band_id": "B11",
        "column_id": "WI",
        "public_space_type_zh": "公共活动界面",
        "always_open_24h": true,
        "barrier_free": true,
        "linked_land_use_id": "LU-103",
        "area_sqm_declared": 18597.957
      },
      "geometry": {
        "type": "Polygon",
        "coordinates": [
          [
            [
              116.346599563,
              40.007635
            ],
            [
              116.346974159,
              40.007635
            ],
            [
              116.347242365,
              40.012865
            ],
            [
              116.346866826,
              40.012865
            ],
            [
              116.346599563,
              40.007635
            ]
          ]
        ]
      }
    },
    {
      "type": "Feature",
      "id": "PUBLIC-018",
      "properties": {
        "source_type": "agent_generated_design",
        "confidence": "medium",
        "geometry_role": "design_proposal",
        "source_id": "DATA-SRC-AGENT-DESIGN-JZ-HUMANLOOP",
        "id": "PUBLIC-018",
        "layer": "PUBLIC_SPACE",
        "land_use_code": "1403",
        "name_zh": "智脉公共活动界面带·东",
        "band_id": "B11",
        "column_id": "EI",
        "public_space_type_zh": "公共活动界面",
        "always_open_24h": true,
        "barrier_free": true,
        "linked_land_use_id": "LU-105",
        "area_sqm_declared": 18597.971
      },
      "geometry": {
        "type": "Polygon",
        "coordinates": [
          [
            [
              116.349071899,
              40.007635
            ],
            [
              116.349446495,
              40.007635
            ],
            [
              116.349720929,
              40.012865
            ],
            [
              116.349345389,
              40.012865
            ],
            [
              116.349071899,
              40.007635
            ]
          ]
        ]
      }
    },
    {
      "type": "Feature",
      "id": "PUBLIC-019",
      "properties": {
        "source_type": "agent_generated_design",
        "confidence": "medium",
        "geometry_role": "design_proposal",
        "source_id": "DATA-SRC-AGENT-DESIGN-JZ-HUMANLOOP",
        "id": "PUBLIC-019",
        "layer": "PUBLIC_SPACE",
        "land_use_code": "1403",
        "name_zh": "智脉公共活动界面带·西",
        "band_id": "B12",
        "column_id": "WI",
        "public_space_type_zh": "公共活动界面",
        "always_open_24h": true,
        "barrier_free": true,
        "linked_land_use_id": "LU-112",
        "area_sqm_declared": 24001.819
      },
      "geometry": {
        "type": "Polygon",
        "coordinates": [
          [
            [
              116.346880623,
              40.013135
            ],
            [
              116.347256212,
              40.013135
            ],
            [
              116.347601342,
              40.019865
            ],
            [
              116.347224539,
              40.019865
            ],
            [
              116.346880623,
              40.013135
            ]
          ]
        ]
      }
    },
    {
      "type": "Feature",
      "id": "PUBLIC-020",
      "properties": {
        "source_type": "agent_generated_design",
        "confidence": "medium",
        "geometry_role": "design_proposal",
        "source_id": "DATA-SRC-AGENT-DESIGN-JZ-HUMANLOOP",
        "id": "PUBLIC-020",
        "layer": "PUBLIC_SPACE",
        "land_use_code": "1403",
        "name_zh": "京张智脉AI客厅",
        "band_id": "B12",
        "column_id": "SP",
        "public_space_type_zh": "AI客厅广场",
        "always_open_24h": true,
        "barrier_free": true,
        "linked_land_use_id": "LU-113",
        "area_sqm_declared": 134410.048
      },
      "geometry": {
        "type": "Polygon",
        "coordinates": [
          [
            [
              116.347256212,
              40.013135
            ],
            [
              116.349359508,
              40.013135
            ],
            [
              116.349711438,
              40.019865
            ],
            [
              116.347601342,
              40.019865
            ],
            [
              116.347256212,
              40.013135
            ]
          ]
        ]
      }
    },
    {
      "type": "Feature",
      "id": "PUBLIC-021",
      "properties": {
        "source_type": "agent_generated_design",
        "confidence": "medium",
        "geometry_role": "design_proposal",
        "source_id": "DATA-SRC-AGENT-DESIGN-JZ-HUMANLOOP",
        "id": "PUBLIC-021",
        "layer": "PUBLIC_SPACE",
        "land_use_code": "1403",
        "name_zh": "智脉公共活动界面带·东",
        "band_id": "B12",
        "column_id": "EI",
        "public_space_type_zh": "公共活动界面",
        "always_open_24h": true,
        "barrier_free": true,
        "linked_land_use_id": "LU-114",
        "area_sqm_declared": 24001.806
      },
      "geometry": {
        "type": "Polygon",
        "coordinates": [
          [
            [
              116.349359508,
              40.013135
            ],
            [
              116.349735097,
              40.013135
            ],
            [
              116.350088241,
              40.019865
            ],
            [
              116.349711438,
              40.019865
            ],
            [
              116.349359508,
              40.013135
            ]
          ]
        ]
      }
    },
    {
      "type": "Feature",
      "id": "PUBLIC-022",
      "properties": {
        "source_type": "agent_generated_design",
        "confidence": "medium",
        "geometry_role": "design_proposal",
        "source_id": "DATA-SRC-AGENT-DESIGN-JZ-HUMANLOOP",
        "id": "PUBLIC-022",
        "layer": "PUBLIC_SPACE",
        "land_use_code": "1403",
        "name_zh": "智脉公共活动界面带·西",
        "band_id": "B13",
        "column_id": "WI",
        "public_space_type_zh": "公共活动界面",
        "always_open_24h": true,
        "barrier_free": true,
        "linked_land_use_id": "LU-121",
        "area_sqm_declared": 22772.064
      },
      "geometry": {
        "type": "Polygon",
        "coordinates": [
          [
            [
              116.347238336,
              40.020135
            ],
            [
              116.347615188,
              40.020135
            ],
            [
              116.3479416,
              40.0265
            ],
            [
              116.3475636,
              40.0265
            ],
            [
              116.347238336,
              40.020135
            ]
          ]
        ]
      }
    },
    {
      "type": "Feature",
      "id": "PUBLIC-023",
      "properties": {
        "source_type": "agent_generated_design",
        "confidence": "medium",
        "geometry_role": "design_proposal",
        "source_id": "DATA-SRC-AGENT-DESIGN-JZ-HUMANLOOP",
        "id": "PUBLIC-023",
        "layer": "PUBLIC_SPACE",
        "land_use_code": "1403",
        "name_zh": "智脉公共活动界面带·东",
        "band_id": "B13",
        "column_id": "EI",
        "public_space_type_zh": "公共活动界面",
        "always_open_24h": true,
        "barrier_free": true,
        "linked_land_use_id": "LU-123",
        "area_sqm_declared": 22772.051
      },
      "geometry": {
        "type": "Polygon",
        "coordinates": [
          [
            [
              116.349725557,
              40.020135
            ],
            [
              116.350102409,
              40.020135
            ],
            [
              116.3504364,
              40.0265
            ],
            [
              116.3500584,
              40.0265
            ],
            [
              116.349725557,
              40.020135
            ]
          ]
        ]
      }
    },
    {
      "type": "Feature",
      "id": "PUBLIC-024",
      "properties": {
        "source_type": "agent_generated_design",
        "confidence": "medium",
        "geometry_role": "design_proposal",
        "source_id": "DATA-SRC-AGENT-DESIGN-JZ-HUMANLOOP",
        "id": "PUBLIC-024",
        "layer": "PUBLIC_SPACE",
        "land_use_code": "1403",
        "name_zh": "北门户会客广场",
        "band_id": "B13",
        "column_id": "E3",
        "public_space_type_zh": "公共活动界面",
        "always_open_24h": true,
        "barrier_free": true,
        "linked_land_use_id": "LU-126",
        "area_sqm_declared": 91088.084
      },
      "geometry": {
        "type": "Polygon",
        "coordinates": [
          [
            [
              116.353443826,
              40.020135
            ],
            [
              116.354951233,
              40.020135
            ],
            [
              116.3553,
              40.0265
            ],
            [
              116.353788,
              40.0265
            ],
            [
              116.353443826,
              40.020135
            ]
          ]
        ]
      }
    }
  ]
}
