{
  "type": "FeatureCollection",
  "name": "green_space_scaffold",
  "features": [
    {
      "type": "Feature",
      "id": "GREEN-001",
      "properties": {
        "id": "GREEN-001",
        "layer": "GREEN_SPACE",
        "source_type": "agent_generated_design",
        "confidence": "medium",
        "geometry_role": "design_proposal",
        "land_use_code": "1401",
        "name_zh": "工具房共享绿荫（概念）",
        "area_sqm_declared": 1408600.768,
        "proposal_system": "jingzhang_toolroom",
        "proposal_role": "test",
        "design_status": "conceptual_subject_to_official_data_and_professional_review"
      },
      "geometry": {
        "type": "Polygon",
        "coordinates": [
          [
            [
              116.34438,
              39.953
            ],
            [
              116.34438,
              40.012499999999996
            ],
            [
              116.346876,
              40.012499999999996
            ],
            [
              116.346876,
              39.953
            ],
            [
              116.34438,
              39.953
            ]
          ]
        ]
      }
    }
  ],
  "properties": {
    "narrative_version": "v5",
    "provisional_note": "V5 Jingzhang Toolroom. Provisional only; not for statutory use."
  }
}
