{
  "type": "FeatureCollection",
  "name": "civic_proving_line_concept_interfaces",
  "iteration": "v0.1.1",
  "revision_note": "Public-interest interface names and design-intent annotations refined after the first deterministic self-check.",
  "features": [
    {
      "type": "Feature",
      "id": "LU-001",
      "properties": {
        "id": "LU-001",
        "layer": "LAND_USE",
        "source_type": "agent_generated_design",
        "confidence": "medium",
        "geometry_role": "design_proposal",
        "land_use_code": "0802",
        "name_zh": "研发学习与可信评测界面",
        "name_en": "Research, Learning and Trust-Evaluation Interface",
        "design_intent": "Shared research, open-source evaluation and public-facing learning; concept interface only, not a statutory land-use determination.",
        "area_sqm_declared": 2674562.492
      },
      "geometry": {
        "type": "Polygon",
        "coordinates": [
          [
            [
              116.3407,
              39.939
            ],
            [
              116.3397,
              39.975
            ],
            [
              116.3417,
              40.006
            ],
            [
              116.3427,
              40.0265
            ],
            [
              116.344068,
              40.0265
            ],
            [
              116.344068,
              39.939
            ],
            [
              116.3407,
              39.939
            ]
          ]
        ]
      }
    },
    {
      "type": "Feature",
      "id": "LU-002",
      "properties": {
        "id": "LU-002",
        "layer": "LAND_USE",
        "source_type": "agent_generated_design",
        "confidence": "medium",
        "geometry_role": "design_proposal",
        "land_use_code": "1401",
        "name_zh": "京张遗产公园与文化界面",
        "name_en": "Jing-Zhang Heritage Park and Culture Interface",
        "design_intent": "Continuous accessible open space, rail-memory interpretation and blue-green resilience.",
        "area_sqm_declared": 2589339.239
      },
      "geometry": {
        "type": "Polygon",
        "coordinates": [
          [
            [
              116.344068,
              39.939
            ],
            [
              116.344068,
              40.0265
            ],
            [
              116.347188,
              40.0265
            ],
            [
              116.347188,
              39.939
            ],
            [
              116.344068,
              39.939
            ]
          ]
        ]
      }
    },
    {
      "type": "Feature",
      "id": "LU-003",
      "properties": {
        "id": "LU-003",
        "layer": "LAND_USE",
        "source_type": "agent_generated_design",
        "confidence": "medium",
        "geometry_role": "design_proposal",
        "land_use_code": "05",
        "name_zh": "产业验证与公共服务界面",
        "name_en": "Industry Validation and Civic Service Interface",
        "design_intent": "Supervised testing, enterprise compliance support, staffed public service and international exchange.",
        "area_sqm_declared": 3366138.181
      },
      "geometry": {
        "type": "Polygon",
        "coordinates": [
          [
            [
              116.347188,
              39.939
            ],
            [
              116.347188,
              40.0265
            ],
            [
              116.351244,
              40.0265
            ],
            [
              116.351244,
              39.939
            ],
            [
              116.347188,
              39.939
            ]
          ]
        ]
      }
    },
    {
      "type": "Feature",
      "id": "LU-004",
      "properties": {
        "id": "LU-004",
        "layer": "LAND_USE",
        "source_type": "agent_generated_design",
        "confidence": "medium",
        "geometry_role": "design_proposal",
        "land_use_code": "0702",
        "name_zh": "社区生活与非数字兜底界面",
        "name_en": "Community Life and Non-Digital Fallback Interface",
        "design_intent": "Everyday services, accessible rest, human assistance and low-threshold local commerce.",
        "area_sqm_declared": 2782792.823
      },
      "geometry": {
        "type": "Polygon",
        "coordinates": [
          [
            [
              116.3553,
              40.0265
            ],
            [
              116.3533,
              39.99
            ],
            [
              116.3553,
              39.965
            ],
            [
              116.3553,
              39.939
            ],
            [
              116.351244,
              39.939
            ],
            [
              116.351244,
              40.0265
            ],
            [
              116.3553,
              40.0265
            ]
          ]
        ]
      }
    }
  ]
}
