{
  "type": "FeatureCollection",
  "features": [
    {
      "type": "Feature",
      "id": "PHASE-001",
      "properties": {
        "id": "PHASE-001",
        "layer": "PHASE",
        "source_type": "agent_generated_design",
        "confidence": "low",
        "geometry_role": "design_proposal",
        "phase": 1,
        "label_zh": "公共地面与轻量试点",
        "label_en": "Civic Ground and lightweight pilots",
        "horizon": "0-2 years conceptual sequence",
        "trigger": "official_boundary_controls_ownership_and_professional_review",
        "area_sqm_declared": 4145970.725
      },
      "geometry": {
        "type": "Polygon",
        "coordinates": [
          [
            [
              116.34070000000001,
              39.93899999999999
            ],
            [
              116.33989166606412,
              39.968103687635235
            ],
            [
              116.3550449694261,
              39.968188989207874
            ],
            [
              116.3553,
              39.965
            ],
            [
              116.3553,
              39.939
            ],
            [
              116.34070000000001,
              39.93899999999999
            ]
          ]
        ]
      }
    },
    {
      "type": "Feature",
      "id": "PHASE-002",
      "properties": {
        "id": "PHASE-002",
        "layer": "PHASE",
        "source_type": "agent_generated_design",
        "confidence": "low",
        "geometry_role": "design_proposal",
        "phase": 2,
        "label_zh": "三院更新与九台开放",
        "label_en": "Three courtyards and nine terraces",
        "horizon": "3-5 years conceptual sequence",
        "trigger": "official_boundary_controls_ownership_and_professional_review",
        "area_sqm_declared": 3801720.759
      },
      "geometry": {
        "type": "Polygon",
        "coordinates": [
          [
            [
              116.3533,
              39.989999999999995
            ],
            [
              116.3550449694261,
              39.968188989207874
            ],
            [
              116.33989166606412,
              39.968103687635235
            ],
            [
              116.3397,
              39.975
            ],
            [
              116.34113861172393,
              39.99730103000567
            ],
            [
              116.35370378140554,
              39.99737177997888
            ],
            [
              116.3533,
              39.989999999999995
            ]
          ]
        ]
      }
    },
    {
      "type": "Feature",
      "id": "PHASE-003",
      "properties": {
        "id": "PHASE-003",
        "layer": "PHASE",
        "source_type": "agent_generated_design",
        "confidence": "low",
        "geometry_role": "design_proposal",
        "phase": 3,
        "label_zh": "立体混合与长期运营",
        "label_en": "Vertical mix and long-term operations",
        "horizon": "6+ years conceptual sequence",
        "trigger": "official_boundary_controls_ownership_and_professional_review",
        "area_sqm_declared": 3465133.902
      },
      "geometry": {
        "type": "Polygon",
        "coordinates": [
          [
            [
              116.3553,
              40.0265
            ],
            [
              116.35370378140554,
              39.99737177997888
            ],
            [
              116.34113861172393,
              39.99730103000567
            ],
            [
              116.34169999999999,
              40.00600000000001
            ],
            [
              116.34270000000001,
              40.0265
            ],
            [
              116.3553,
              40.0265
            ]
          ]
        ]
      }
    }
  ]
}
