{
  "type": "FeatureCollection",
  "name": "phasing_silver_elderly",
  "features": [
    {
      "type": "Feature",
      "id": "PH-001",
      "properties": {
        "id": "PH-001",
        "layer": "PHASE",
        "source_type": "agent_generated_design",
        "confidence": "medium",
        "geometry_role": "design_proposal",
        "phase": 1,
        "name_zh": "一期：AI原点社区银龄智慧生活示范（概念建议）",
        "phasing_zh": "先期落地社区适老服务中心、AI导诊驿站与无障碍主廊道中段"
      },
      "geometry": {
        "type": "Polygon",
        "coordinates": [
          [
            [
              116.342,
              39.9835
            ],
            [
              116.353,
              39.9835
            ],
            [
              116.353,
              39.9935
            ],
            [
              116.342,
              39.9935
            ],
            [
              116.342,
              39.9835
            ]
          ]
        ]
      }
    },
    {
      "type": "Feature",
      "id": "PH-002",
      "properties": {
        "id": "PH-002",
        "layer": "PHASE",
        "source_type": "agent_generated_design",
        "confidence": "medium",
        "geometry_role": "design_proposal",
        "phase": 2,
        "name_zh": "二期：大钟寺适老服务产业转化（概念建议）",
        "phasing_zh": "接续大钟寺适老服务集市、政务办事适老服务厅与出行接驳厅"
      },
      "geometry": {
        "type": "Polygon",
        "coordinates": [
          [
            [
              116.342,
              39.944
            ],
            [
              116.355,
              39.944
            ],
            [
              116.355,
              39.94984
            ],
            [
              116.342,
              39.94984
            ],
            [
              116.342,
              39.944
            ]
          ]
        ]
      }
    },
    {
      "type": "Feature",
      "id": "PH-003",
      "properties": {
        "id": "PH-003",
        "layer": "PHASE",
        "source_type": "agent_generated_design",
        "confidence": "medium",
        "geometry_role": "design_proposal",
        "phase": 3,
        "name_zh": "三期：众智园适老AI技术验证与全带贯通（概念建议）",
        "phasing_zh": "众智园技术中试、代际记忆广场与无障碍主廊道南北全程贯通"
      },
      "geometry": {
        "type": "Polygon",
        "coordinates": [
          [
            [
              116.343,
              40.0075
            ],
            [
              116.354,
              40.0075
            ],
            [
              116.354,
              40.026
            ],
            [
              116.343,
              40.026
            ],
            [
              116.343,
              40.0075
            ]
          ]
        ]
      }
    }
  ]
}