{
  "type": "FeatureCollection",
  "name": "y-line green spine",
  "features": [
    {
      "type": "Feature",
      "id": "GREEN-001",
      "properties": {
        "id": "GREEN-001",
        "layer": "GREEN_SPACE",
        "source_type": "agent_generated_design",
        "confidence": "medium",
        "geometry_role": "design_proposal",
        "land_use_code": "1401",
        "name_zh": "京张遗址公园·大钟寺段",
        "note_zh": "遗址公园活力带主脊绿地，概念建议。",
        "area_sqm_declared": 138548.929
      },
      "geometry": {
        "type": "Polygon",
        "coordinates": [
          [
            [
              116.346,
              39.944
            ],
            [
              116.346,
              39.94984
            ],
            [
              116.3485,
              39.94984
            ],
            [
              116.3485,
              39.944
            ],
            [
              116.346,
              39.944
            ]
          ]
        ]
      }
    },
    {
      "type": "Feature",
      "id": "GREEN-002",
      "properties": {
        "id": "GREEN-002",
        "layer": "GREEN_SPACE",
        "source_type": "agent_generated_design",
        "confidence": "medium",
        "geometry_role": "design_proposal",
        "land_use_code": "1401",
        "name_zh": "京张遗址公园·过渡段",
        "note_zh": "遗址公园活力带主脊绿地，概念建议。",
        "area_sqm_declared": 193569.413
      },
      "geometry": {
        "type": "Polygon",
        "coordinates": [
          [
            [
              116.346,
              39.94984
            ],
            [
              116.346,
              39.958
            ],
            [
              116.3485,
              39.958
            ],
            [
              116.3485,
              39.94984
            ],
            [
              116.346,
              39.94984
            ]
          ]
        ]
      }
    },
    {
      "type": "Feature",
      "id": "GREEN-003",
      "properties": {
        "id": "GREEN-003",
        "layer": "GREEN_SPACE",
        "source_type": "agent_generated_design",
        "confidence": "medium",
        "geometry_role": "design_proposal",
        "land_use_code": "1401",
        "name_zh": "京张遗址公园·高校段",
        "note_zh": "遗址公园活力带主脊绿地，概念建议。",
        "area_sqm_declared": 604757.851
      },
      "geometry": {
        "type": "Polygon",
        "coordinates": [
          [
            [
              116.346,
              39.958
            ],
            [
              116.346,
              39.9835
            ],
            [
              116.3485,
              39.9835
            ],
            [
              116.3485,
              39.958
            ],
            [
              116.346,
              39.958
            ]
          ]
        ]
      }
    },
    {
      "type": "Feature",
      "id": "GREEN-004",
      "properties": {
        "id": "GREEN-004",
        "layer": "GREEN_SPACE",
        "source_type": "agent_generated_design",
        "confidence": "medium",
        "geometry_role": "design_proposal",
        "land_use_code": "1401",
        "name_zh": "京张遗址公园·原点南段",
        "note_zh": "遗址公园活力带主脊绿地，概念建议。",
        "area_sqm_declared": 94843.825
      },
      "geometry": {
        "type": "Polygon",
        "coordinates": [
          [
            [
              116.346,
              39.9835
            ],
            [
              116.346,
              39.9875
            ],
            [
              116.3485,
              39.9875
            ],
            [
              116.3485,
              39.9835
            ],
            [
              116.346,
              39.9835
            ]
          ]
        ]
      }
    },
    {
      "type": "Feature",
      "id": "GREEN-005",
      "properties": {
        "id": "GREEN-005",
        "layer": "GREEN_SPACE",
        "source_type": "agent_generated_design",
        "confidence": "medium",
        "geometry_role": "design_proposal",
        "land_use_code": "1401",
        "name_zh": "京张遗址公园·原点北段",
        "note_zh": "遗址公园活力带主脊绿地，概念建议。",
        "area_sqm_declared": 94835.625
      },
      "geometry": {
        "type": "Polygon",
        "coordinates": [
          [
            [
              116.346,
              39.9895
            ],
            [
              116.346,
              39.9935
            ],
            [
              116.3485,
              39.9935
            ],
            [
              116.3485,
              39.9895
            ],
            [
              116.346,
              39.9895
            ]
          ]
        ]
      }
    },
    {
      "type": "Feature",
      "id": "GREEN-006",
      "properties": {
        "id": "GREEN-006",
        "layer": "GREEN_SPACE",
        "source_type": "agent_generated_design",
        "confidence": "medium",
        "geometry_role": "design_proposal",
        "land_use_code": "1401",
        "name_zh": "京张遗址公园·科教段",
        "note_zh": "遗址公园活力带主脊绿地，概念建议。",
        "area_sqm_declared": 331881.626
      },
      "geometry": {
        "type": "Polygon",
        "coordinates": [
          [
            [
              116.346,
              39.9935
            ],
            [
              116.346,
              40.0075
            ],
            [
              116.3485,
              40.0075
            ],
            [
              116.3485,
              39.9935
            ],
            [
              116.346,
              39.9935
            ]
          ]
        ]
      }
    },
    {
      "type": "Feature",
      "id": "GREEN-007",
      "properties": {
        "id": "GREEN-007",
        "layer": "GREEN_SPACE",
        "source_type": "agent_generated_design",
        "confidence": "medium",
        "geometry_role": "design_proposal",
        "land_use_code": "1401",
        "name_zh": "清河绿谷·公园北延段",
        "note_zh": "遗址公园活力带主脊绿地，概念建议。",
        "area_sqm_declared": 450303.613
      },
      "geometry": {
        "type": "Polygon",
        "coordinates": [
          [
            [
              116.3485,
              40.0265
            ],
            [
              116.3485,
              40.0075
            ],
            [
              116.346,
              40.0075
            ],
            [
              116.346,
              40.0265
            ],
            [
              116.3485,
              40.0265
            ]
          ]
        ]
      }
    }
  ]
}
