{
  "type": "FeatureCollection",
  "name": "origin_jingzhang_land_use",
  "features": [
    {
      "type": "Feature",
      "id": "LU-001",
      "properties": {
        "id": "LU-001",
        "layer": "LAND_USE",
        "source_type": "agent_generated_design",
        "confidence": "medium",
        "geometry_role": "design_proposal",
        "land_use_code": "0804",
        "name_zh": "高校科研协同用地",
        "area_sqm_declared": 5000.3,
        "building_density_hint": 0.2,
        "origin_node_level": 1,
        "haidian_ecological_anchor": "清华/中科院"
      },
      "geometry": {
        "type": "Polygon",
        "coordinates": [
          [
            [
              116.342,
              40.0075
            ],
            [
              116.34177317073171,
              40.0075
            ],
            [
              116.342,
              40.01214999999997
            ],
            [
              116.342,
              40.0075
            ]
          ]
        ]
      }
    },
    {
      "type": "Feature",
      "id": "LU-002",
      "properties": {
        "id": "LU-002",
        "layer": "LAND_USE",
        "source_type": "agent_generated_design",
        "confidence": "medium",
        "geometry_role": "design_proposal",
        "land_use_code": "0804",
        "name_zh": "原点北高校教育用地",
        "area_sqm_declared": 46080.7,
        "building_density_hint": 0.2,
        "origin_node_level": 1,
        "haidian_ecological_anchor": "北航/北邮"
      },
      "geometry": {
        "type": "Polygon",
        "coordinates": [
          [
            [
              116.342,
              40.0075
            ],
            [
              116.342,
              39.998
            ],
            [
              116.34118387096774,
              39.998
            ],
            [
              116.3417,
              40.006
            ],
            [
              116.34177317073171,
              40.0075
            ],
            [
              116.342,
              40.0075
            ]
          ]
        ]
      }
    },
    {
      "type": "Feature",
      "id": "LU-003",
      "properties": {
        "id": "LU-003",
        "layer": "LAND_USE",
        "source_type": "agent_generated_design",
        "confidence": "medium",
        "geometry_role": "design_proposal",
        "land_use_code": "0804",
        "name_zh": "原点高校科研用地",
        "area_sqm_declared": 75254.7,
        "building_density_hint": 0.2,
        "origin_node_level": 1,
        "haidian_ecological_anchor": "清华/北大"
      },
      "geometry": {
        "type": "Polygon",
        "coordinates": [
          [
            [
              116.342,
              39.998
            ],
            [
              116.342,
              39.9905
            ],
            [
              116.3407,
              39.9905
            ],
            [
              116.34118387096774,
              39.998
            ],
            [
              116.342,
              39.998
            ]
          ]
        ]
      }
    },
    {
      "type": "Feature",
      "id": "LU-004",
      "properties": {
        "id": "LU-004",
        "layer": "LAND_USE",
        "source_type": "agent_generated_design",
        "confidence": "medium",
        "geometry_role": "design_proposal",
        "land_use_code": "0804",
        "name_zh": "近校教育科研用地",
        "area_sqm_declared": 101298.0,
        "building_density_hint": 0.2,
        "origin_node_level": 1,
        "haidian_ecological_anchor": "北大/北航"
      },
      "geometry": {
        "type": "Polygon",
        "coordinates": [
          [
            [
              116.342,
              39.9905
            ],
            [
              116.342,
              39.9835
            ],
            [
              116.34024838709676,
              39.9835
            ],
            [
              116.3407,
              39.9905
            ],
            [
              116.342,
              39.9905
            ]
          ]
        ]
      }
    },
    {
      "type": "Feature",
      "id": "LU-005",
      "properties": {
        "id": "LU-005",
        "layer": "LAND_USE",
        "source_type": "agent_generated_design",
        "confidence": "medium",
        "geometry_role": "design_proposal",
        "land_use_code": "0701",
        "name_zh": "城镇住宅用地",
        "area_sqm_declared": 368345.1,
        "building_density_hint": 0.3,
        "origin_node_level": 1,
        "haidian_ecological_anchor": null
      },
      "geometry": {
        "type": "Polygon",
        "coordinates": [
          [
            [
              116.342,
              39.9835
            ],
            [
              116.342,
              39.965
            ],
            [
              116.33997777777778,
              39.965
            ],
            [
              116.3397,
              39.975
            ],
            [
              116.34024838709676,
              39.9835
            ],
            [
              116.342,
              39.9835
            ]
          ]
        ]
      }
    },
    {
      "type": "Feature",
      "id": "LU-006",
      "properties": {
        "id": "LU-006",
        "layer": "LAND_USE",
        "source_type": "agent_generated_design",
        "confidence": "medium",
        "geometry_role": "design_proposal",
        "land_use_code": "08",
        "name_zh": "公共管理与公共服务用地",
        "area_sqm_declared": 409801.3,
        "building_density_hint": 0.25,
        "origin_node_level": 1,
        "haidian_ecological_anchor": "北下关街道"
      },
      "geometry": {
        "type": "Polygon",
        "coordinates": [
          [
            [
              116.342,
              39.965
            ],
            [
              116.342,
              39.939
            ],
            [
              116.3407,
              39.939
            ],
            [
              116.33997777777778,
              39.965
            ],
            [
              116.342,
              39.965
            ]
          ]
        ]
      }
    },
    {
      "type": "Feature",
      "id": "LU-007",
      "properties": {
        "id": "LU-007",
        "layer": "LAND_USE",
        "source_type": "agent_generated_design",
        "confidence": "medium",
        "geometry_role": "design_proposal",
        "land_use_code": "0802",
        "name_zh": "众智园算力研发用地",
        "area_sqm_declared": 167574.0,
        "building_density_hint": 0.3,
        "origin_node_level": 3,
        "haidian_ecological_anchor": "北京人工智能公共算力平台"
      },
      "geometry": {
        "type": "Polygon",
        "coordinates": [
          [
            [
              116.3455,
              40.0205
            ],
            [
              116.34240731707317,
              40.0205
            ],
            [
              116.3427,
              40.0265
            ],
            [
              116.3455,
              40.0265
            ],
            [
              116.3455,
              40.0205
            ]
          ]
        ]
      }
    },
    {
      "type": "Feature",
      "id": "LU-008",
      "properties": {
        "id": "LU-008",
        "layer": "LAND_USE",
        "source_type": "agent_generated_design",
        "confidence": "medium",
        "geometry_role": "design_proposal",
        "land_use_code": "0802",
        "name_zh": "众智园核心研发用地",
        "area_sqm_declared": 200341.6,
        "building_density_hint": 0.35,
        "origin_node_level": 3,
        "haidian_ecological_anchor": "智源研究院/BAAI"
      },
      "geometry": {
        "type": "Polygon",
        "coordinates": [
          [
            [
              116.3455,
              40.0205
            ],
            [
              116.3455,
              40.014
            ],
            [
              116.34209024390243,
              40.014
            ],
            [
              116.34240731707317,
              40.0205
            ],
            [
              116.3455,
              40.0205
            ]
          ]
        ]
      }
    },
    {
      "type": "Feature",
      "id": "LU-009",
      "properties": {
        "id": "LU-009",
        "layer": "LAND_USE",
        "source_type": "agent_generated_design",
        "confidence": "medium",
        "geometry_role": "design_proposal",
        "land_use_code": "0802",
        "name_zh": "众智园加速研发用地",
        "area_sqm_declared": 214900.0,
        "building_density_hint": 0.3,
        "origin_node_level": 2,
        "haidian_ecological_anchor": "智源研究院"
      },
      "geometry": {
        "type": "Polygon",
        "coordinates": [
          [
            [
              116.3455,
              40.014
            ],
            [
              116.3455,
              40.0075
            ],
            [
              116.342,
              40.0075
            ],
            [
              116.342,
              40.01214999999997
            ],
            [
              116.34209024390243,
              40.014
            ],
            [
              116.3455,
              40.014
            ]
          ]
        ]
      }
    },
    {
      "type": "Feature",
      "id": "LU-010",
      "properties": {
        "id": "LU-010",
        "layer": "LAND_USE",
        "source_type": "agent_generated_design",
        "confidence": "medium",
        "geometry_role": "design_proposal",
        "land_use_code": "0804",
        "name_zh": "原点近校教育用地",
        "area_sqm_declared": 315277.6,
        "building_density_hint": 0.3,
        "origin_node_level": 2,
        "haidian_ecological_anchor": "清华/北大"
      },
      "geometry": {
        "type": "Polygon",
        "coordinates": [
          [
            [
              116.342,
              39.998
            ],
            [
              116.342,
              40.0075
            ],
            [
              116.3455,
              40.0075
            ],
            [
              116.3455,
              39.998
            ],
            [
              116.342,
              39.998
            ]
          ]
        ]
      }
    },
    {
      "type": "Feature",
      "id": "LU-011",
      "properties": {
        "id": "LU-011",
        "layer": "LAND_USE",
        "source_type": "agent_generated_design",
        "confidence": "medium",
        "geometry_role": "design_proposal",
        "land_use_code": "0802",
        "name_zh": "原点核心孵化用地",
        "area_sqm_declared": 248933.9,
        "building_density_hint": 0.35,
        "origin_node_level": 3,
        "haidian_ecological_anchor": "海淀数据特区"
      },
      "geometry": {
        "type": "Polygon",
        "coordinates": [
          [
            [
              116.342,
              39.9905
            ],
            [
              116.342,
              39.998
            ],
            [
              116.3455,
              39.998
            ],
            [
              116.3455,
              39.9905
            ],
            [
              116.342,
              39.9905
            ]
          ]
        ]
      }
    },
    {
      "type": "Feature",
      "id": "LU-012",
      "properties": {
        "id": "LU-012",
        "layer": "LAND_USE",
        "source_type": "agent_generated_design",
        "confidence": "medium",
        "geometry_role": "design_proposal",
        "land_use_code": "0802",
        "name_zh": "原点孵化转化用地",
        "area_sqm_declared": 232362.5,
        "building_density_hint": 0.3,
        "origin_node_level": 2,
        "haidian_ecological_anchor": "海淀数据特区"
      },
      "geometry": {
        "type": "Polygon",
        "coordinates": [
          [
            [
              116.342,
              39.9835
            ],
            [
              116.342,
              39.9905
            ],
            [
              116.3455,
              39.9905
            ],
            [
              116.3455,
              39.9835
            ],
            [
              116.342,
              39.9835
            ]
          ]
        ]
      }
    },
    {
      "type": "Feature",
      "id": "LU-013",
      "properties": {
        "id": "LU-013",
        "layer": "LAND_USE",
        "source_type": "agent_generated_design",
        "confidence": "medium",
        "geometry_role": "design_proposal",
        "land_use_code": "05",
        "name_zh": "产业服务与商业用地",
        "area_sqm_declared": 614213.8,
        "building_density_hint": 0.2,
        "origin_node_level": 1,
        "haidian_ecological_anchor": null
      },
      "geometry": {
        "type": "Polygon",
        "coordinates": [
          [
            [
              116.342,
              39.965
            ],
            [
              116.342,
              39.9835
            ],
            [
              116.3455,
              39.9835
            ],
            [
              116.3455,
              39.965
            ],
            [
              116.342,
              39.965
            ]
          ]
        ]
      }
    },
    {
      "type": "Feature",
      "id": "LU-014",
      "properties": {
        "id": "LU-014",
        "layer": "LAND_USE",
        "source_type": "agent_generated_design",
        "confidence": "medium",
        "geometry_role": "design_proposal",
        "land_use_code": "05",
        "name_zh": "大钟寺商业服务业用地",
        "area_sqm_declared": 863496.0,
        "building_density_hint": 0.35,
        "origin_node_level": 3,
        "haidian_ecological_anchor": "字节跳动/大模型商业化"
      },
      "geometry": {
        "type": "Polygon",
        "coordinates": [
          [
            [
              116.342,
              39.965
            ],
            [
              116.3455,
              39.965
            ],
            [
              116.3455,
              39.939
            ],
            [
              116.342,
              39.939
            ],
            [
              116.342,
              39.965
            ]
          ]
        ]
      }
    },
    {
      "type": "Feature",
      "id": "LU-015",
      "properties": {
        "id": "LU-015",
        "layer": "LAND_USE",
        "source_type": "agent_generated_design",
        "confidence": "medium",
        "geometry_role": "design_proposal",
        "land_use_code": "1401",
        "name_zh": "京张遗址公园北段绿地",
        "area_sqm_declared": 113750.3,
        "building_density_hint": 0.0,
        "origin_node_level": 1,
        "haidian_ecological_anchor": null
      },
      "geometry": {
        "type": "Polygon",
        "coordinates": [
          [
            [
              116.3475,
              40.0205
            ],
            [
              116.3455,
              40.0205
            ],
            [
              116.3455,
              40.0265
            ],
            [
              116.3475,
              40.0265
            ],
            [
              116.3475,
              40.0205
            ]
          ]
        ]
      }
    },
    {
      "type": "Feature",
      "id": "LU-016",
      "properties": {
        "id": "LU-016",
        "layer": "LAND_USE",
        "source_type": "agent_generated_design",
        "confidence": "medium",
        "geometry_role": "design_proposal",
        "land_use_code": "1401",
        "name_zh": "京张遗址公园北中段绿地",
        "area_sqm_declared": 123240.6,
        "building_density_hint": 0.0,
        "origin_node_level": 1,
        "haidian_ecological_anchor": null
      },
      "geometry": {
        "type": "Polygon",
        "coordinates": [
          [
            [
              116.3455,
              40.014
            ],
            [
              116.3455,
              40.0205
            ],
            [
              116.3475,
              40.0205
            ],
            [
              116.3475,
              40.014
            ],
            [
              116.3455,
              40.014
            ]
          ]
        ]
      }
    },
    {
      "type": "Feature",
      "id": "LU-017",
      "properties": {
        "id": "LU-017",
        "layer": "LAND_USE",
        "source_type": "agent_generated_design",
        "confidence": "medium",
        "geometry_role": "design_proposal",
        "land_use_code": "1401",
        "name_zh": "京张遗址公园中北段绿地",
        "area_sqm_declared": 123252.1,
        "building_density_hint": 0.0,
        "origin_node_level": 1,
        "haidian_ecological_anchor": null
      },
      "geometry": {
        "type": "Polygon",
        "coordinates": [
          [
            [
              116.3455,
              40.0075
            ],
            [
              116.3455,
              40.014
            ],
            [
              116.3475,
              40.014
            ],
            [
              116.3475,
              40.0075
            ],
            [
              116.3455,
              40.0075
            ]
          ]
        ]
      }
    },
    {
      "type": "Feature",
      "id": "LU-018",
      "properties": {
        "id": "LU-018",
        "layer": "LAND_USE",
        "source_type": "agent_generated_design",
        "confidence": "medium",
        "geometry_role": "design_proposal",
        "land_use_code": "1401",
        "name_zh": "京张遗址公园上中段绿地",
        "area_sqm_declared": 180158.5,
        "building_density_hint": 0.0,
        "origin_node_level": 1,
        "haidian_ecological_anchor": null
      },
      "geometry": {
        "type": "Polygon",
        "coordinates": [
          [
            [
              116.3455,
              39.998
            ],
            [
              116.3455,
              40.0075
            ],
            [
              116.3475,
              40.0075
            ],
            [
              116.3475,
              39.998
            ],
            [
              116.3455,
              39.998
            ]
          ]
        ]
      }
    },
    {
      "type": "Feature",
      "id": "LU-019",
      "properties": {
        "id": "LU-019",
        "layer": "LAND_USE",
        "source_type": "agent_generated_design",
        "confidence": "medium",
        "geometry_role": "design_proposal",
        "land_use_code": "1401",
        "name_zh": "京张遗址公园中段绿地",
        "area_sqm_declared": 142247.8,
        "building_density_hint": 0.0,
        "origin_node_level": 1,
        "haidian_ecological_anchor": null
      },
      "geometry": {
        "type": "Polygon",
        "coordinates": [
          [
            [
              116.3455,
              39.9905
            ],
            [
              116.3455,
              39.998
            ],
            [
              116.3475,
              39.998
            ],
            [
              116.3475,
              39.9905
            ],
            [
              116.3455,
              39.9905
            ]
          ]
        ]
      }
    },
    {
      "type": "Feature",
      "id": "LU-020",
      "properties": {
        "id": "LU-020",
        "layer": "LAND_USE",
        "source_type": "agent_generated_design",
        "confidence": "medium",
        "geometry_role": "design_proposal",
        "land_use_code": "1401",
        "name_zh": "京张遗址公园下中段绿地",
        "area_sqm_declared": 132778.5,
        "building_density_hint": 0.0,
        "origin_node_level": 1,
        "haidian_ecological_anchor": null
      },
      "geometry": {
        "type": "Polygon",
        "coordinates": [
          [
            [
              116.3455,
              39.9835
            ],
            [
              116.3455,
              39.9905
            ],
            [
              116.3475,
              39.9905
            ],
            [
              116.3475,
              39.9835
            ],
            [
              116.3455,
              39.9835
            ]
          ]
        ]
      }
    },
    {
      "type": "Feature",
      "id": "LU-021",
      "properties": {
        "id": "LU-021",
        "layer": "LAND_USE",
        "source_type": "agent_generated_design",
        "confidence": "medium",
        "geometry_role": "design_proposal",
        "land_use_code": "1401",
        "name_zh": "京张遗址公园中南段绿地",
        "area_sqm_declared": 350979.1,
        "building_density_hint": 0.0,
        "origin_node_level": 1,
        "haidian_ecological_anchor": null
      },
      "geometry": {
        "type": "Polygon",
        "coordinates": [
          [
            [
              116.3455,
              39.965
            ],
            [
              116.3455,
              39.9835
            ],
            [
              116.3475,
              39.9835
            ],
            [
              116.3475,
              39.965
            ],
            [
              116.3455,
              39.965
            ]
          ]
        ]
      }
    },
    {
      "type": "Feature",
      "id": "LU-022",
      "properties": {
        "id": "LU-022",
        "layer": "LAND_USE",
        "source_type": "agent_generated_design",
        "confidence": "medium",
        "geometry_role": "design_proposal",
        "land_use_code": "1401",
        "name_zh": "京张遗址公园南段绿地",
        "area_sqm_declared": 493425.9,
        "building_density_hint": 0.0,
        "origin_node_level": 1,
        "haidian_ecological_anchor": null
      },
      "geometry": {
        "type": "Polygon",
        "coordinates": [
          [
            [
              116.3455,
              39.965
            ],
            [
              116.3475,
              39.965
            ],
            [
              116.3475,
              39.939
            ],
            [
              116.3455,
              39.939
            ],
            [
              116.3455,
              39.965
            ]
          ]
        ]
      }
    },
    {
      "type": "Feature",
      "id": "LU-023",
      "properties": {
        "id": "LU-023",
        "layer": "LAND_USE",
        "source_type": "agent_generated_design",
        "confidence": "medium",
        "geometry_role": "design_proposal",
        "land_use_code": "0802",
        "name_zh": "众智园东研发用地",
        "area_sqm_declared": 170625.3,
        "building_density_hint": 0.3,
        "origin_node_level": 2,
        "haidian_ecological_anchor": "国家人工智能平台"
      },
      "geometry": {
        "type": "Polygon",
        "coordinates": [
          [
            [
              116.3505,
              40.0205
            ],
            [
              116.3475,
              40.0205
            ],
            [
              116.3475,
              40.0265
            ],
            [
              116.3505,
              40.0265
            ],
            [
              116.3505,
              40.0205
            ]
          ]
        ]
      }
    },
    {
      "type": "Feature",
      "id": "LU-024",
      "properties": {
        "id": "LU-024",
        "layer": "LAND_USE",
        "source_type": "agent_generated_design",
        "confidence": "medium",
        "geometry_role": "design_proposal",
        "land_use_code": "0802",
        "name_zh": "众智园测试研发用地",
        "area_sqm_declared": 184860.7,
        "building_density_hint": 0.35,
        "origin_node_level": 3,
        "haidian_ecological_anchor": "开源大模型评测"
      },
      "geometry": {
        "type": "Polygon",
        "coordinates": [
          [
            [
              116.3475,
              40.014
            ],
            [
              116.3475,
              40.0205
            ],
            [
              116.3505,
              40.0205
            ],
            [
              116.3505,
              40.014
            ],
            [
              116.3475,
              40.014
            ]
          ]
        ]
      }
    },
    {
      "type": "Feature",
      "id": "LU-025",
      "properties": {
        "id": "LU-025",
        "layer": "LAND_USE",
        "source_type": "agent_generated_design",
        "confidence": "medium",
        "geometry_role": "design_proposal",
        "land_use_code": "0802",
        "name_zh": "众智园展示研发用地",
        "area_sqm_declared": 184878.1,
        "building_density_hint": 0.25,
        "origin_node_level": 2,
        "haidian_ecological_anchor": "开源成果展示"
      },
      "geometry": {
        "type": "Polygon",
        "coordinates": [
          [
            [
              116.3475,
              40.0075
            ],
            [
              116.3475,
              40.014
            ],
            [
              116.3505,
              40.014
            ],
            [
              116.3505,
              40.0075
            ],
            [
              116.3475,
              40.0075
            ]
          ]
        ]
      }
    },
    {
      "type": "Feature",
      "id": "LU-026",
      "properties": {
        "id": "LU-026",
        "layer": "LAND_USE",
        "source_type": "agent_generated_design",
        "confidence": "medium",
        "geometry_role": "design_proposal",
        "land_use_code": "0804",
        "name_zh": "原点北转化用地",
        "area_sqm_declared": 270237.6,
        "building_density_hint": 0.25,
        "origin_node_level": 2,
        "haidian_ecological_anchor": "清华x-lab"
      },
      "geometry": {
        "type": "Polygon",
        "coordinates": [
          [
            [
              116.3475,
              39.998
            ],
            [
              116.3475,
              40.0075
            ],
            [
              116.3505,
              40.0075
            ],
            [
              116.3505,
              39.998
            ],
            [
              116.3475,
              39.998
            ]
          ]
        ]
      }
    },
    {
      "type": "Feature",
      "id": "LU-027",
      "properties": {
        "id": "LU-027",
        "layer": "LAND_USE",
        "source_type": "agent_generated_design",
        "confidence": "medium",
        "geometry_role": "design_proposal",
        "land_use_code": "0802",
        "name_zh": "原点开源协作用地",
        "area_sqm_declared": 213371.6,
        "building_density_hint": 0.35,
        "origin_node_level": 3,
        "haidian_ecological_anchor": "智谱AI/开源社区"
      },
      "geometry": {
        "type": "Polygon",
        "coordinates": [
          [
            [
              116.3475,
              39.9905
            ],
            [
              116.3475,
              39.998
            ],
            [
              116.3505,
              39.998
            ],
            [
              116.3505,
              39.9905
            ],
            [
              116.3475,
              39.9905
            ]
          ]
        ]
      }
    },
    {
      "type": "Feature",
      "id": "LU-028",
      "properties": {
        "id": "LU-028",
        "layer": "LAND_USE",
        "source_type": "agent_generated_design",
        "confidence": "medium",
        "geometry_role": "design_proposal",
        "land_use_code": "0802",
        "name_zh": "原点企业服务用地",
        "area_sqm_declared": 199167.6,
        "building_density_hint": 0.3,
        "origin_node_level": 2,
        "haidian_ecological_anchor": "智谱AI"
      },
      "geometry": {
        "type": "Polygon",
        "coordinates": [
          [
            [
              116.3475,
              39.9835
            ],
            [
              116.3475,
              39.9905
            ],
            [
              116.3505,
              39.9905
            ],
            [
              116.3505,
              39.9835
            ],
            [
              116.3475,
              39.9835
            ]
          ]
        ]
      }
    },
    {
      "type": "Feature",
      "id": "LU-029",
      "properties": {
        "id": "LU-029",
        "layer": "LAND_USE",
        "source_type": "agent_generated_design",
        "confidence": "medium",
        "geometry_role": "design_proposal",
        "land_use_code": "16",
        "name_zh": "留白发展备用地",
        "area_sqm_declared": 526468.3,
        "building_density_hint": 0.0,
        "origin_node_level": 1,
        "haidian_ecological_anchor": null
      },
      "geometry": {
        "type": "Polygon",
        "coordinates": [
          [
            [
              116.3475,
              39.965
            ],
            [
              116.3475,
              39.9835
            ],
            [
              116.3505,
              39.9835
            ],
            [
              116.3505,
              39.965
            ],
            [
              116.3475,
              39.965
            ]
          ]
        ]
      }
    },
    {
      "type": "Feature",
      "id": "LU-030",
      "properties": {
        "id": "LU-030",
        "layer": "LAND_USE",
        "source_type": "agent_generated_design",
        "confidence": "medium",
        "geometry_role": "design_proposal",
        "land_use_code": "0803",
        "name_zh": "大钟寺文化创意用地",
        "area_sqm_declared": 740138.5,
        "building_density_hint": 0.25,
        "origin_node_level": 2,
        "haidian_ecological_anchor": "数据要素会客厅"
      },
      "geometry": {
        "type": "Polygon",
        "coordinates": [
          [
            [
              116.3475,
              39.965
            ],
            [
              116.3505,
              39.965
            ],
            [
              116.3505,
              39.939
            ],
            [
              116.3475,
              39.939
            ],
            [
              116.3475,
              39.965
            ]
          ]
        ]
      }
    },
    {
      "type": "Feature",
      "id": "LU-031",
      "properties": {
        "id": "LU-031",
        "layer": "LAND_USE",
        "source_type": "agent_generated_design",
        "confidence": "medium",
        "geometry_role": "design_proposal",
        "land_use_code": "0802",
        "name_zh": "北部AI加速产业用地",
        "area_sqm_declared": 142187.7,
        "building_density_hint": 0.25,
        "origin_node_level": 2,
        "haidian_ecological_anchor": "海淀园管委会"
      },
      "geometry": {
        "type": "Polygon",
        "coordinates": [
          [
            [
              116.353,
              40.0205
            ],
            [
              116.3505,
              40.0205
            ],
            [
              116.3505,
              40.0265
            ],
            [
              116.353,
              40.0265
            ],
            [
              116.353,
              40.0205
            ]
          ]
        ]
      }
    },
    {
      "type": "Feature",
      "id": "LU-032",
      "properties": {
        "id": "LU-032",
        "layer": "LAND_USE",
        "source_type": "agent_generated_design",
        "confidence": "medium",
        "geometry_role": "design_proposal",
        "land_use_code": "05",
        "name_zh": "科技商务服务用地",
        "area_sqm_declared": 154050.5,
        "building_density_hint": 0.25,
        "origin_node_level": 1,
        "haidian_ecological_anchor": "海淀园管委会"
      },
      "geometry": {
        "type": "Polygon",
        "coordinates": [
          [
            [
              116.3505,
              40.014
            ],
            [
              116.3505,
              40.0205
            ],
            [
              116.353,
              40.0205
            ],
            [
              116.353,
              40.014
            ],
            [
              116.3505,
              40.014
            ]
          ]
        ]
      }
    },
    {
      "type": "Feature",
      "id": "LU-033",
      "properties": {
        "id": "LU-033",
        "layer": "LAND_USE",
        "source_type": "agent_generated_design",
        "confidence": "medium",
        "geometry_role": "design_proposal",
        "land_use_code": "0802",
        "name_zh": "众智园产业服务用地",
        "area_sqm_declared": 154065.0,
        "building_density_hint": 0.25,
        "origin_node_level": 2,
        "haidian_ecological_anchor": "国家人工智能平台"
      },
      "geometry": {
        "type": "Polygon",
        "coordinates": [
          [
            [
              116.3505,
              40.0075
            ],
            [
              116.3505,
              40.014
            ],
            [
              116.353,
              40.014
            ],
            [
              116.353,
              40.0075
            ],
            [
              116.3505,
              40.0075
            ]
          ]
        ]
      }
    },
    {
      "type": "Feature",
      "id": "LU-034",
      "properties": {
        "id": "LU-034",
        "layer": "LAND_USE",
        "source_type": "agent_generated_design",
        "confidence": "medium",
        "geometry_role": "design_proposal",
        "land_use_code": "05",
        "name_zh": "五道口科技商务用地",
        "area_sqm_declared": 225197.8,
        "building_density_hint": 0.3,
        "origin_node_level": 2,
        "haidian_ecological_anchor": "五道口商业更新"
      },
      "geometry": {
        "type": "Polygon",
        "coordinates": [
          [
            [
              116.3505,
              39.998
            ],
            [
              116.3505,
              40.0075
            ],
            [
              116.353,
              40.0075
            ],
            [
              116.353,
              39.998
            ],
            [
              116.3505,
              39.998
            ]
          ]
        ]
      }
    },
    {
      "type": "Feature",
      "id": "LU-035",
      "properties": {
        "id": "LU-035",
        "layer": "LAND_USE",
        "source_type": "agent_generated_design",
        "confidence": "medium",
        "geometry_role": "design_proposal",
        "land_use_code": "0802",
        "name_zh": "原点企业研发用地",
        "area_sqm_declared": 177809.6,
        "building_density_hint": 0.3,
        "origin_node_level": 2,
        "haidian_ecological_anchor": "智谱AI/月之暗面"
      },
      "geometry": {
        "type": "Polygon",
        "coordinates": [
          [
            [
              116.3505,
              39.9905
            ],
            [
              116.3505,
              39.998
            ],
            [
              116.353,
              39.998
            ],
            [
              116.353,
              39.9905
            ],
            [
              116.3505,
              39.9905
            ]
          ]
        ]
      }
    },
    {
      "type": "Feature",
      "id": "LU-036",
      "properties": {
        "id": "LU-036",
        "layer": "LAND_USE",
        "source_type": "agent_generated_design",
        "confidence": "medium",
        "geometry_role": "design_proposal",
        "land_use_code": "0802",
        "name_zh": "原点成果转化用地",
        "area_sqm_declared": 165972.9,
        "building_density_hint": 0.25,
        "origin_node_level": 2,
        "haidian_ecological_anchor": "高校技术转移"
      },
      "geometry": {
        "type": "Polygon",
        "coordinates": [
          [
            [
              116.3505,
              39.9835
            ],
            [
              116.3505,
              39.9905
            ],
            [
              116.353,
              39.9905
            ],
            [
              116.353,
              39.9835
            ],
            [
              116.3505,
              39.9835
            ]
          ]
        ]
      }
    },
    {
      "type": "Feature",
      "id": "LU-037",
      "properties": {
        "id": "LU-037",
        "layer": "LAND_USE",
        "source_type": "agent_generated_design",
        "confidence": "medium",
        "geometry_role": "design_proposal",
        "land_use_code": "16",
        "name_zh": "东部留白发展用地",
        "area_sqm_declared": 438723.3,
        "building_density_hint": 0.0,
        "origin_node_level": 1,
        "haidian_ecological_anchor": null
      },
      "geometry": {
        "type": "Polygon",
        "coordinates": [
          [
            [
              116.3505,
              39.965
            ],
            [
              116.3505,
              39.9835
            ],
            [
              116.353,
              39.9835
            ],
            [
              116.353,
              39.965
            ],
            [
              116.3505,
              39.965
            ]
          ]
        ]
      }
    },
    {
      "type": "Feature",
      "id": "LU-038",
      "properties": {
        "id": "LU-038",
        "layer": "LAND_USE",
        "source_type": "agent_generated_design",
        "confidence": "medium",
        "geometry_role": "design_proposal",
        "land_use_code": "0803",
        "name_zh": "大钟寺文化博览用地",
        "area_sqm_declared": 616781.7,
        "building_density_hint": 0.2,
        "origin_node_level": 2,
        "haidian_ecological_anchor": "大钟寺文创"
      },
      "geometry": {
        "type": "Polygon",
        "coordinates": [
          [
            [
              116.3505,
              39.965
            ],
            [
              116.353,
              39.965
            ],
            [
              116.353,
              39.939
            ],
            [
              116.3505,
              39.939
            ],
            [
              116.3505,
              39.965
            ]
          ]
        ]
      }
    },
    {
      "type": "Feature",
      "id": "LU-039",
      "properties": {
        "id": "LU-039",
        "layer": "LAND_USE",
        "source_type": "agent_generated_design",
        "confidence": "medium",
        "geometry_role": "design_proposal",
        "land_use_code": "0802",
        "name_zh": "北翼AI产业服务用地",
        "area_sqm_declared": 121462.9,
        "building_density_hint": 0.2,
        "origin_node_level": 1,
        "haidian_ecological_anchor": "海淀园管委会"
      },
      "geometry": {
        "type": "Polygon",
        "coordinates": [
          [
            [
              116.3553,
              40.0265
            ],
            [
              116.35497123287671,
              40.0205
            ],
            [
              116.353,
              40.0205
            ],
            [
              116.353,
              40.0265
            ],
            [
              116.3553,
              40.0265
            ]
          ]
        ]
      }
    },
    {
      "type": "Feature",
      "id": "LU-040",
      "properties": {
        "id": "LU-040",
        "layer": "LAND_USE",
        "source_type": "agent_generated_design",
        "confidence": "medium",
        "geometry_role": "design_proposal",
        "land_use_code": "0802",
        "name_zh": "北翼企业服务用地",
        "area_sqm_declared": 110493.8,
        "building_density_hint": 0.2,
        "origin_node_level": 1,
        "haidian_ecological_anchor": "中关村软件园"
      },
      "geometry": {
        "type": "Polygon",
        "coordinates": [
          [
            [
              116.353,
              40.014
            ],
            [
              116.353,
              40.0205
            ],
            [
              116.35497123287671,
              40.0205
            ],
            [
              116.35461506849315,
              40.014
            ],
            [
              116.353,
              40.014
            ]
          ]
        ]
      }
    },
    {
      "type": "Feature",
      "id": "LU-041",
      "properties": {
        "id": "LU-041",
        "layer": "LAND_USE",
        "source_type": "agent_generated_design",
        "confidence": "medium",
        "geometry_role": "design_proposal",
        "land_use_code": "05",
        "name_zh": "北翼商务配套用地",
        "area_sqm_declared": 88555.2,
        "building_density_hint": 0.2,
        "origin_node_level": 1,
        "haidian_ecological_anchor": "中关村软件园"
      },
      "geometry": {
        "type": "Polygon",
        "coordinates": [
          [
            [
              116.353,
              40.0075
            ],
            [
              116.353,
              40.014
            ],
            [
              116.35461506849315,
              40.014
            ],
            [
              116.35425890410959,
              40.0075
            ],
            [
              116.353,
              40.0075
            ]
          ]
        ]
      }
    },
    {
      "type": "Feature",
      "id": "LU-042",
      "properties": {
        "id": "LU-042",
        "layer": "LAND_USE",
        "source_type": "agent_generated_design",
        "confidence": "medium",
        "geometry_role": "design_proposal",
        "land_use_code": "05",
        "name_zh": "中翼科技商务用地",
        "area_sqm_declared": 89954.1,
        "building_density_hint": 0.25,
        "origin_node_level": 1,
        "haidian_ecological_anchor": "中关村创业大街"
      },
      "geometry": {
        "type": "Polygon",
        "coordinates": [
          [
            [
              116.353,
              39.998
            ],
            [
              116.353,
              40.0075
            ],
            [
              116.35425890410959,
              40.0075
            ],
            [
              116.35373835616438,
              39.998
            ],
            [
              116.353,
              39.998
            ]
          ]
        ]
      }
    },
    {
      "type": "Feature",
      "id": "LU-043",
      "properties": {
        "id": "LU-043",
        "layer": "LAND_USE",
        "source_type": "agent_generated_design",
        "confidence": "medium",
        "geometry_role": "design_proposal",
        "land_use_code": "0802",
        "name_zh": "中翼企业服务用地",
        "area_sqm_declared": 37899.4,
        "building_density_hint": 0.25,
        "origin_node_level": 1,
        "haidian_ecological_anchor": "中关村创业大街"
      },
      "geometry": {
        "type": "Polygon",
        "coordinates": [
          [
            [
              116.353,
              39.9905
            ],
            [
              116.353,
              39.998
            ],
            [
              116.35373835616438,
              39.998
            ],
            [
              116.35332739726027,
              39.9905
            ],
            [
              116.353,
              39.9905
            ]
          ]
        ]
      }
    },
    {
      "type": "Feature",
      "id": "LU-044",
      "properties": {
        "id": "LU-044",
        "layer": "LAND_USE",
        "source_type": "agent_generated_design",
        "confidence": "medium",
        "geometry_role": "design_proposal",
        "land_use_code": "05",
        "name_zh": "中翼商业服务用地",
        "area_sqm_declared": 36010.7,
        "building_density_hint": 0.2,
        "origin_node_level": 1,
        "haidian_ecological_anchor": "中关村科技服务翼"
      },
      "geometry": {
        "type": "Polygon",
        "coordinates": [
          [
            [
              116.353,
              39.9835
            ],
            [
              116.353,
              39.9905
            ],
            [
              116.35332739726027,
              39.9905
            ],
            [
              116.3533,
              39.99
            ],
            [
              116.35382,
              39.9835
            ],
            [
              116.353,
              39.9835
            ]
          ]
        ]
      }
    },
    {
      "type": "Feature",
      "id": "LU-045",
      "properties": {
        "id": "LU-045",
        "layer": "LAND_USE",
        "source_type": "agent_generated_design",
        "confidence": "medium",
        "geometry_role": "design_proposal",
        "land_use_code": "16",
        "name_zh": "东翼留白用地",
        "area_sqm_declared": 273780.7,
        "building_density_hint": 0.0,
        "origin_node_level": 1,
        "haidian_ecological_anchor": null
      },
      "geometry": {
        "type": "Polygon",
        "coordinates": [
          [
            [
              116.353,
              39.965
            ],
            [
              116.353,
              39.9835
            ],
            [
              116.35382,
              39.9835
            ],
            [
              116.3553,
              39.965
            ],
            [
              116.353,
              39.965
            ]
          ]
        ]
      }
    },
    {
      "type": "Feature",
      "id": "LU-046",
      "properties": {
        "id": "LU-046",
        "layer": "LAND_USE",
        "source_type": "agent_generated_design",
        "confidence": "medium",
        "geometry_role": "design_proposal",
        "land_use_code": "0803",
        "name_zh": "南部文化博览用地",
        "area_sqm_declared": 567438.8,
        "building_density_hint": 0.15,
        "origin_node_level": 1,
        "haidian_ecological_anchor": null
      },
      "geometry": {
        "type": "Polygon",
        "coordinates": [
          [
            [
              116.3553,
              39.939
            ],
            [
              116.353,
              39.939
            ],
            [
              116.353,
              39.965
            ],
            [
              116.3553,
              39.965
            ],
            [
              116.3553,
              39.939
            ]
          ]
        ]
      }
    }
  ]
}