{
  "type": "FeatureCollection",
  "name": "phasing_design",
  "features": [
    {
      "type": "Feature",
      "id": "PHASE-001",
      "properties": {
        "source_type": "agent_generated_design",
        "confidence": "medium",
        "geometry_role": "design_proposal",
        "id": "PHASE-001",
        "layer": "PHASE",
        "phase": "phase_1",
        "name_zh": "近期（0-3年）场景快闪与慢行贯通",
        "area_sqm_declared": 6263592.295
      },
      "geometry": {
        "type": "Polygon",
        "coordinates": [
          [
            [
              116.34040833333333,
              39.9495
            ],
            [
              116.34039888888888,
              39.94984
            ],
            [
              116.3397,
              39.975
            ],
            [
              116.34024838709676,
              39.9835
            ],
            [
              116.343,
              39.9835
            ],
            [
              116.346,
              39.9835
            ],
            [
              116.349,
              39.9835
            ],
            [
              116.352,
              39.9835
            ],
            [
              116.35382,
              39.9835
            ],
            [
              116.3553,
              39.965
            ],
            [
              116.3553,
              39.94984
            ],
            [
              116.3553,
              39.9495
            ],
            [
              116.3553,
              39.9465
            ],
            [
              116.3553,
              39.944
            ],
            [
              116.3553,
              39.939
            ],
            [
              116.352,
              39.939
            ],
            [
              116.349,
              39.939
            ],
            [
              116.346,
              39.939
            ],
            [
              116.343,
              39.939
            ],
            [
              116.3407,
              39.939
            ],
            [
              116.34056111111111,
              39.944
            ],
            [
              116.34049166666667,
              39.9465
            ],
            [
              116.34040833333333,
              39.9495
            ]
          ]
        ]
      }
    },
    {
      "type": "Feature",
      "id": "PHASE-002",
      "properties": {
        "source_type": "agent_generated_design",
        "confidence": "medium",
        "geometry_role": "design_proposal",
        "id": "PHASE-002",
        "layer": "PHASE",
        "phase": "phase_2",
        "name_zh": "中期（3-5年）示范织点与缝合带试点",
        "area_sqm_declared": 2890012.789
      },
      "geometry": {
        "type": "Polygon",
        "coordinates": [
          [
            [
              116.34057096774194,
              39.9885
            ],
            [
              116.34076451612903,
              39.9915
            ],
            [
              116.3408935483871,
              39.9935
            ],
            [
              116.3417,
              40.006
            ],
            [
              116.34177317073171,
              40.0075
            ],
            [
              116.343,
              40.0075
            ],
            [
              116.346,
              40.0075
            ],
            [
              116.349,
              40.0075
            ],
            [
              116.352,
              40.0075
            ],
            [
              116.35425890410959,
              40.0075
            ],
            [
              116.35349178082193,
              39.9935
            ],
            [
              116.35338219178082,
              39.9915
            ],
            [
              116.3533,
              39.99
            ],
            [
              116.35342,
              39.9885
            ],
            [
              116.35382,
              39.9835
            ],
            [
              116.352,
              39.9835
            ],
            [
              116.349,
              39.9835
            ],
            [
              116.346,
              39.9835
            ],
            [
              116.343,
              39.9835
            ],
            [
              116.34024838709676,
              39.9835
            ],
            [
              116.34057096774194,
              39.9885
            ]
          ]
        ]
      }
    },
    {
      "type": "Feature",
      "id": "PHASE-003",
      "properties": {
        "source_type": "agent_generated_design",
        "confidence": "medium",
        "geometry_role": "design_proposal",
        "id": "PHASE-003",
        "layer": "PHASE",
        "phase": "phase_3",
        "name_zh": "远期（5-10年）全带成网与产业成规模",
        "area_sqm_declared": 2259237.836
      },
      "geometry": {
        "type": "Polygon",
        "coordinates": [
          [
            [
              116.346,
              40.0075
            ],
            [
              116.343,
              40.0075
            ],
            [
              116.34177317073171,
              40.0075
            ],
            [
              116.34182195121952,
              40.0085
            ],
            [
              116.34196829268292,
              40.0115
            ],
            [
              116.3427,
              40.0265
            ],
            [
              116.343,
              40.0265
            ],
            [
              116.346,
              40.0265
            ],
            [
              116.349,
              40.0265
            ],
            [
              116.352,
              40.0265
            ],
            [
              116.3553,
              40.0265
            ],
            [
              116.35447808219178,
              40.0115
            ],
            [
              116.35431369863014,
              40.0085
            ],
            [
              116.35425890410959,
              40.0075
            ],
            [
              116.352,
              40.0075
            ],
            [
              116.349,
              40.0075
            ],
            [
              116.346,
              40.0075
            ]
          ]
        ]
      }
    }
  ]
}
