{
  "type": "FeatureCollection",
  "metadata": {
    "crs": "EPSG:4326",
    "boundary_status": "agent_provisional"
  },
  "features": [
    {
      "type": "Feature",
      "id": "RD-SPINE",
      "properties": {
        "id": "RD-SPINE",
        "layer": "ROAD_CENTERLINE",
        "name_zh": "京张遗址公园慢行主廊道（示意）",
        "source_type": "agent_inferred_from_public_data",
        "confidence": "medium",
        "geometry_role": "provisional_constraint",
        "official_boundary": false,
        "boundary_precision": "provisional_rough",
        "source_id": "DATA-SRC-PROVISIONAL-BOUNDARIES-20260605",
        "derived_from_source_ids": [
          "DATA-SRC-OFFICIAL-ANNOUNCEMENT-20260509"
        ],
        "usage_note": "仅用于 AI agent 生成、展示和临时自检；不得作为 official redline、审批依据或精确面积复算依据。坐标依据维护方临时边界，精度 provisional_rough。",
        "scope_id": "overall_design_area",
        "road_class": "greenway",
        "road_role_zh": "慢行主廊道"
      },
      "geometry": {
        "type": "LineString",
        "coordinates": [
          [
            116.3475,
            39.94
          ],
          [
            116.3475,
            39.97
          ],
          [
            116.3472,
            40.0
          ],
          [
            116.3475,
            40.025
          ]
        ]
      }
    },
    {
      "type": "Feature",
      "id": "RD-X1",
      "properties": {
        "id": "RD-X1",
        "layer": "ROAD_CENTERLINE",
        "name_zh": "东西缝合街道（示意）",
        "source_type": "agent_inferred_from_public_data",
        "confidence": "medium",
        "geometry_role": "provisional_constraint",
        "official_boundary": false,
        "boundary_precision": "provisional_rough",
        "source_id": "DATA-SRC-PROVISIONAL-BOUNDARIES-20260605",
        "derived_from_source_ids": [
          "DATA-SRC-OFFICIAL-ANNOUNCEMENT-20260509"
        ],
        "usage_note": "仅用于 AI agent 生成、展示和临时自检；不得作为 official redline、审批依据或精确面积复算依据。坐标依据维护方临时边界，精度 provisional_rough。",
        "scope_id": "overall_design_area",
        "road_class": "branch",
        "road_role_zh": "东西缝合街道"
      },
      "geometry": {
        "type": "LineString",
        "coordinates": [
          [
            116.34,
            40.012
          ],
          [
            116.355,
            40.012
          ]
        ]
      }
    },
    {
      "type": "Feature",
      "id": "RD-X2",
      "properties": {
        "id": "RD-X2",
        "layer": "ROAD_CENTERLINE",
        "name_zh": "东西缝合街道（示意）",
        "source_type": "agent_inferred_from_public_data",
        "confidence": "medium",
        "geometry_role": "provisional_constraint",
        "official_boundary": false,
        "boundary_precision": "provisional_rough",
        "source_id": "DATA-SRC-PROVISIONAL-BOUNDARIES-20260605",
        "derived_from_source_ids": [
          "DATA-SRC-OFFICIAL-ANNOUNCEMENT-20260509"
        ],
        "usage_note": "仅用于 AI agent 生成、展示和临时自检；不得作为 official redline、审批依据或精确面积复算依据。坐标依据维护方临时边界，精度 provisional_rough。",
        "scope_id": "overall_design_area",
        "road_class": "branch",
        "road_role_zh": "东西缝合街道"
      },
      "geometry": {
        "type": "LineString",
        "coordinates": [
          [
            116.34,
            39.947
          ],
          [
            116.355,
            39.947
          ]
        ]
      }
    }
  ]
}