{
  "type": "FeatureCollection",
  "name": "civic_gauge_low_tech_ground_plane",
  "features": [
    {
      "type": "Feature",
      "id": "GREEN-001",
      "properties": {
        "id": "GREEN-001",
        "layer": "GREEN_SPACE",
        "source_type": "agent_generated_design",
        "confidence": "low",
        "geometry_role": "design_proposal",
        "land_use_code": "1401",
        "name_zh": "低技术蓝绿与遗产底盘（示意）",
        "name_en": "Schematic low-tech blue-green and heritage ground plane",
        "precision": "schematic_area_not_official_greenline",
        "design_intent": "遮阴、雨洪、生境、休憩、无障碍与文化解释在无 AI 时仍可运行。",
        "area_sqm_declared": 1408600.768
      },
      "geometry": {
        "type": "Polygon",
        "coordinates": [
          [
            [
              116.34438,
              39.953
            ],
            [
              116.34438,
              40.012499999999996
            ],
            [
              116.346876,
              40.012499999999996
            ],
            [
              116.346876,
              39.953
            ],
            [
              116.34438,
              39.953
            ]
          ]
        ]
      }
    }
  ]
}
