{
  "type": "FeatureCollection",
  "name": "participant_proposed_green_space_metric_universe",
  "metadata": {
    "phase": "20.8",
    "status": "formal_participant_design_model_output",
    "metric_scope": "Complete set of participant-submitted provisional metric-bearing green-space polygons asserted by this proposal.",
    "not_an_inventory_of": "All existing green space in the 11.4 km2 study area or a continuous belt-wide green corridor.",
    "crs": "EPSG:4326",
    "area_recalculation_crs": "EPSG:4548",
    "official_planning_geometry": false,
    "confidence": "low",
    "recalculation_trigger": "Recompute after any authorized layer or SITE-001 change and when cleared official boundary geometry becomes available."
  },
  "features": [
    {
      "type": "Feature",
      "id": "GREEN-D02-XIAOYUE",
      "properties": {
        "id": "GREEN-D02-XIAOYUE",
        "layer": "GREEN_SPACE",
        "source_type": "agent_generated_design",
        "confidence": "low",
        "geometry_role": "design_proposal",
        "area_sqm_declared": 24204.428,
        "design_status": "proposed_design_intent",
        "design_role": "GREEN-D02 Xiaoyue River Ecological Interface",
        "area_group": "zhongzhiyuan",
        "public_access_status": "not_applicable",
        "ai_relationship": "ordinary_first_optional_ai",
        "source_id": "PHASE20-6-PARTICIPANT-DESIGN-20260815",
        "derived_from_source_ids": [
          "openstreetmap-context-20260811",
          "PHASE20-6-PARTICIPANT-DESIGN-20260815"
        ],
        "derived_from_geometry_ids": [
          "OSM-GREEN-W919970121"
        ],
        "derivation_method": "Adapted from the named OSM host boundary as a provisional qualifying-green candidate; water is excluded. Existing public access remains unknown.",
        "ordinary_use_when_ai_off": true,
        "official_geometry": false,
        "coordinate_status": "participant_authored_provisional_design_geometry",
        "metric_status": "formal_submission_design_model_output",
        "shared_space_id": "SH-XIAOYUE",
        "reference_osm_ids": [
          919970121
        ]
      },
      "geometry": {
        "type": "Polygon",
        "coordinates": [
          [
            [
              116.34420550000002,
              40.02026259999998
            ],
            [
              116.3442902,
              40.020085599999994
            ],
            [
              116.34433179999999,
              40.01991319999999
            ],
            [
              116.34434640000002,
              40.01964929999999
            ],
            [
              116.34428469999999,
              40.01938749999999
            ],
            [
              116.34235361810556,
              40.01939917116452
            ],
            [
              116.34237694409968,
              40.019877354043885
            ],
            [
              116.34238603565693,
              40.02006373096695
            ],
            [
              116.34239510183454,
              40.02024958760789
            ],
            [
              116.342406252439,
              40.020478174999894
            ],
            [
              116.34258560000002,
              40.020612600000014
            ],
            [
              116.3432131,
              40.02082219999999
            ],
            [
              116.3438866,
              40.02095729999999
            ],
            [
              116.3441042,
              40.02049600000001
            ],
            [
              116.34420550000002,
              40.02026259999998
            ]
          ]
        ]
      }
    },
    {
      "type": "Feature",
      "id": "GREEN-D05-HERITAGE",
      "properties": {
        "id": "GREEN-D05-HERITAGE",
        "layer": "GREEN_SPACE",
        "source_type": "agent_generated_design",
        "confidence": "low",
        "geometry_role": "design_proposal",
        "area_sqm_declared": 129908.803,
        "design_status": "proposed_design_intent",
        "design_role": "GREEN-D05 Jingzhang Heritage Green Continuity",
        "area_group": "belt_wide",
        "public_access_status": "not_applicable",
        "ai_relationship": "ordinary_first_optional_ai",
        "source_id": "PHASE20-6-PARTICIPANT-DESIGN-20260815",
        "derived_from_source_ids": [
          "openstreetmap-context-20260811",
          "PHASE20-6-PARTICIPANT-DESIGN-20260815"
        ],
        "derived_from_geometry_ids": [
          "OSM-GREEN-W232724492"
        ],
        "derivation_method": "Adapted from the named heritage-park OSM host as provisional qualifying green ground; mapped water is explicitly subtracted and Public eligibility is assessed independently.",
        "ordinary_use_when_ai_off": true,
        "official_geometry": false,
        "coordinate_status": "participant_authored_provisional_design_geometry",
        "metric_status": "formal_submission_design_model_output",
        "shared_space_id": "SH-HERITAGE",
        "reference_osm_ids": [
          232724492
        ]
      },
      "geometry": {
        "type": "Polygon",
        "coordinates": [
          [
            [
              116.3474963,
              39.9589893
            ],
            [
              116.34748900000001,
              39.9593731
            ],
            [
              116.34743529999999,
              39.960106
            ],
            [
              116.3475097,
              39.9601156
            ],
            [
              116.3474756,
              39.96059170000001
            ],
            [
              116.3474006,
              39.9606226
            ],
            [
              116.3472743,
              39.9636296
            ],
            [
              116.34729819999998,
              39.963770700000005
            ],
            [
              116.3474255,
              39.9637803
            ],
            [
              116.34749285452276,
              39.963808680916834
            ],
            [
              116.34750070000001,
              39.9634867
            ],
            [
              116.34755890000001,
              39.9625419
            ],
            [
              116.34759820000001,
              39.96173309999998
            ],
            [
              116.347654,
              39.9608053
            ],
            [
              116.3476361,
              39.960747
            ],
            [
              116.3476399,
              39.96066119999999
            ],
            [
              116.34765455000002,
              39.96065149999999
            ],
            [
              116.3476692,
              39.960641800000005
            ],
            [
              116.34769470000002,
              39.96000459999999
            ],
            [
              116.34770291296273,
              39.95980674675931
            ],
            [
              116.34771129999999,
              39.9596047
            ],
            [
              116.34777248605337,
              39.95844489302669
            ],
            [
              116.3477741,
              39.95841430000001
            ],
            [
              116.34782170000001,
              39.9583293
            ],
            [
              116.34782170000001,
              39.9583293
            ],
            [
              116.347854,
              39.95833429999999
            ],
            [
              116.34788739999999,
              39.958342699999996
            ],
            [
              116.34788739999999,
              39.958342699999996
            ],
            [
              116.34788739999999,
              39.958342699999996
            ],
            [
              116.34789754105059,
              39.95836144999999
            ],
            [
              116.34791520000002,
              39.95839409999999
            ],
            [
              116.3478777,
              39.959305
            ],
            [
              116.3478401,
              39.960006699999994
            ],
            [
              116.34783947377272,
              39.960020436886346
            ],
            [
              116.34781200000002,
              39.9606231
            ],
            [
              116.34776590000001,
              39.96152039999998
            ],
            [
              116.34772546238581,
              39.96226421880708
            ],
            [
              116.3477243,
              39.962285599999994
            ],
            [
              116.34770745,
              39.96263664999999
            ],
            [
              116.3476906,
              39.962987700000006
            ],
            [
              116.34763560000002,
              39.9635801
            ],
            [
              116.347628,
              39.9637749
            ],
            [
              116.34762455780334,
              39.963864176222934
            ],
            [
              116.34767730000002,
              39.96388639999999
            ],
            [
              116.34766650000002,
              39.96435929999999
            ],
            [
              116.3477363,
              39.964902
            ],
            [
              116.34770409999999,
              39.96567490000001
            ],
            [
              116.34762360000002,
              39.9660655
            ],
            [
              116.34757530000002,
              39.96688779999998
            ],
            [
              116.3476142,
              39.967250199999995
            ],
            [
              116.347664,
              39.96756769999999
            ],
            [
              116.3476535,
              39.9678822
            ],
            [
              116.3475248,
              39.9685862
            ],
            [
              116.3474064,
              39.9705874
            ],
            [
              116.34737979999998,
              39.97090989999999
            ],
            [
              116.3472803,
              39.9721173
            ],
            [
              116.34719040000002,
              39.97299349999999
            ],
            [
              116.3471408,
              39.97398779999999
            ],
            [
              116.3471825,
              39.97409939999999
            ],
            [
              116.34725439999998,
              39.9741881
            ],
            [
              116.3473358,
              39.9742804
            ],
            [
              116.34743460000001,
              39.9743624
            ],
            [
              116.34759750000002,
              39.9744087
            ],
            [
              116.34789190000001,
              39.9744297
            ],
            [
              116.34796249999998,
              39.9727521
            ],
            [
              116.34802639999998,
              39.971377600000004
            ],
            [
              116.34797539999998,
              39.971272299999995
            ],
            [
              116.34798739999998,
              39.97083150000001
            ],
            [
              116.34806089999998,
              39.970803100000005
            ],
            [
              116.3482491,
              39.9677953
            ],
            [
              116.34819850000001,
              39.9677607
            ],
            [
              116.34820620000002,
              39.96748650000001
            ],
            [
              116.3482452,
              39.967460900000006
            ],
            [
              116.3483138,
              39.966077999999996
            ],
            [
              116.3483847,
              39.96521529999998
            ],
            [
              116.3483478,
              39.96518809999999
            ],
            [
              116.3483625,
              39.964893799999984
            ],
            [
              116.3483987,
              39.96486780000001
            ],
            [
              116.34844120000001,
              39.96376519999998
            ],
            [
              116.3487798,
              39.95721669999999
            ],
            [
              116.3487682,
              39.9568931
            ],
            [
              116.348532,
              39.956896600000015
            ],
            [
              116.34788169999999,
              39.95807129999999
            ],
            [
              116.34762129999999,
              39.9585902
            ],
            [
              116.3474963,
              39.9589893
            ]
          ]
        ]
      }
    },
    {
      "type": "Feature",
      "id": "GREEN-D04-MORNING",
      "properties": {
        "id": "GREEN-D04-MORNING",
        "layer": "GREEN_SPACE",
        "source_type": "agent_generated_design",
        "confidence": "low",
        "geometry_role": "design_proposal",
        "area_sqm_declared": 6751.761,
        "design_status": "proposed_design_intent",
        "design_role": "GREEN-D04 Community Rest / Shade Greens",
        "area_group": "belt_wide",
        "public_access_status": "not_applicable",
        "ai_relationship": "ordinary_first_optional_ai",
        "source_id": "PHASE20-6-PARTICIPANT-DESIGN-20260815",
        "derived_from_source_ids": [
          "openstreetmap-context-20260811",
          "PHASE20-6-PARTICIPANT-DESIGN-20260815"
        ],
        "derived_from_geometry_ids": [
          "OSM-GREEN-W1390953504"
        ],
        "derivation_method": "Selective adaptation of the named Morning Reading Garden host for ordinary rest and shade; not generalized to other OSM parks.",
        "ordinary_use_when_ai_off": true,
        "official_geometry": false,
        "coordinate_status": "participant_authored_provisional_design_geometry",
        "metric_status": "formal_submission_design_model_output",
        "shared_space_id": "SH-MORNING",
        "reference_osm_ids": [
          1390953504
        ]
      },
      "geometry": {
        "type": "Polygon",
        "coordinates": [
          [
            [
              116.3438249,
              39.9833141
            ],
            [
              116.3438808,
              39.98205049999998
            ],
            [
              116.34331829999999,
              39.9820358
            ],
            [
              116.34326199999998,
              39.98329939999999
            ],
            [
              116.3438249,
              39.9833141
            ]
          ]
        ]
      }
    },
    {
      "type": "Feature",
      "id": "GREEN-D04-DONGSHENG",
      "properties": {
        "id": "GREEN-D04-DONGSHENG",
        "layer": "GREEN_SPACE",
        "source_type": "agent_generated_design",
        "confidence": "low",
        "geometry_role": "design_proposal",
        "area_sqm_declared": 8884.355,
        "design_status": "proposed_design_intent",
        "design_role": "GREEN-D04 Community Rest / Shade Greens",
        "area_group": "zhongzhiyuan",
        "public_access_status": "not_applicable",
        "ai_relationship": "ordinary_first_optional_ai",
        "source_id": "PHASE20-6-PARTICIPANT-DESIGN-20260815",
        "derived_from_source_ids": [
          "openstreetmap-context-20260811",
          "PHASE20-6-PARTICIPANT-DESIGN-20260815"
        ],
        "derived_from_geometry_ids": [
          "OSM-GREEN-W994926042"
        ],
        "derivation_method": "Selective adaptation of the named Dongsheng Qinghe Peili Park host for ordinary rest and shade; not generalized to other OSM parks.",
        "ordinary_use_when_ai_off": true,
        "official_geometry": false,
        "coordinate_status": "participant_authored_provisional_design_geometry",
        "metric_status": "formal_submission_design_model_output",
        "shared_space_id": "SH-DONGSHENG",
        "reference_osm_ids": [
          994926042
        ]
      },
      "geometry": {
        "type": "Polygon",
        "coordinates": [
          [
            [
              116.3429422,
              40.02089729999999
            ],
            [
              116.3425774,
              40.02074609999998
            ],
            [
              116.34241414647767,
              40.02064000279213
            ],
            [
              116.34243588329863,
              40.02108560762172
            ],
            [
              116.34246116585366,
              40.0216039
            ],
            [
              116.3427148,
              40.0216039
            ],
            [
              116.34309239999999,
              40.02156119999998
            ],
            [
              116.3437576,
              40.02153160000001
            ],
            [
              116.344028,
              40.021117499999995
            ],
            [
              116.3429422,
              40.02089729999999
            ]
          ]
        ]
      }
    },
    {
      "type": "Feature",
      "id": "GREEN-D01-AI-ENTRY",
      "properties": {
        "id": "GREEN-D01-AI-ENTRY",
        "layer": "GREEN_SPACE",
        "source_type": "agent_generated_design",
        "confidence": "low",
        "geometry_role": "design_proposal",
        "area_sqm_declared": 529.329,
        "design_status": "proposed_design_intent",
        "design_role": "GREEN-D01 Ordinary Green Continuity Stepping Node — AI Origin",
        "area_group": "ai_origin",
        "public_access_status": "not_applicable",
        "ai_relationship": "ordinary_first_optional_ai",
        "source_id": "PHASE20-6-PARTICIPANT-DESIGN-20260815",
        "derived_from_source_ids": [
          "openstreetmap-context-20260811",
          "PHASE20-6-PARTICIPANT-DESIGN-20260815"
        ],
        "derived_from_geometry_ids": [
          "OSM-GREEN-W543828493"
        ],
        "derivation_method": "Participant-authored normalized band clipped to the approved OSM reference host; fractions encode the approved spatial-depth relationship only, not a surveyed dimension or target area. Water removed and SITE-001 clipping applied.",
        "ordinary_use_when_ai_off": true,
        "official_geometry": false,
        "coordinate_status": "participant_authored_provisional_design_geometry",
        "metric_status": "formal_submission_design_model_output",
        "shared_space_id": "SH-AI-ENTRY",
        "reference_osm_ids": [
          543828493
        ]
      },
      "geometry": {
        "type": "Polygon",
        "coordinates": [
          [
            [
              116.3508908,
              39.98368809999999
            ],
            [
              116.35089568393444,
              39.983509348
            ],
            [
              116.35057990033884,
              39.98350934799999
            ],
            [
              116.3505725,
              39.9836819
            ],
            [
              116.3506888,
              39.9836848
            ],
            [
              116.3508908,
              39.98368809999999
            ]
          ]
        ]
      }
    },
    {
      "type": "Feature",
      "id": "GREEN-D01-ZH-ENTRY",
      "properties": {
        "id": "GREEN-D01-ZH-ENTRY",
        "layer": "GREEN_SPACE",
        "source_type": "agent_generated_design",
        "confidence": "low",
        "geometry_role": "design_proposal",
        "area_sqm_declared": 2282.158,
        "design_status": "proposed_design_intent",
        "design_role": "GREEN-D01 Ordinary Green Continuity Stepping Node — Zhongzhiyuan",
        "area_group": "zhongzhiyuan",
        "public_access_status": "not_applicable",
        "ai_relationship": "ordinary_first_optional_ai",
        "source_id": "PHASE20-6-PARTICIPANT-DESIGN-20260815",
        "derived_from_source_ids": [
          "openstreetmap-context-20260811",
          "PHASE20-6-PARTICIPANT-DESIGN-20260815"
        ],
        "derived_from_geometry_ids": [
          "OSM-GREEN-W930946272"
        ],
        "derivation_method": "Participant-authored normalized band clipped to the approved OSM reference host; fractions encode the approved spatial-depth relationship only, not a surveyed dimension or target area. Water removed and SITE-001 clipping applied.",
        "ordinary_use_when_ai_off": true,
        "official_geometry": false,
        "coordinate_status": "participant_authored_provisional_design_geometry",
        "metric_status": "formal_submission_design_model_output",
        "shared_space_id": "SH-ZH-ENTRY",
        "reference_osm_ids": [
          930946272
        ]
      },
      "geometry": {
        "type": "Polygon",
        "coordinates": [
          [
            [
              116.35077048488345,
              40.02063124511724
            ],
            [
              116.35077048488345,
              40.01984580919484
            ],
            [
              116.3501925,
              40.02005059999998
            ],
            [
              116.3506472,
              40.020555
            ],
            [
              116.35077048488345,
              40.02063124511724
            ]
          ]
        ]
      }
    },
    {
      "type": "Feature",
      "id": "GREEN-D01-DZ-ENTRY",
      "properties": {
        "id": "GREEN-D01-DZ-ENTRY",
        "layer": "GREEN_SPACE",
        "source_type": "agent_generated_design",
        "confidence": "low",
        "geometry_role": "design_proposal",
        "area_sqm_declared": 11021.628,
        "design_status": "proposed_design_intent",
        "design_role": "GREEN-D01 Ordinary Green Continuity Stepping Node — Dazhongsi",
        "area_group": "dazhongsi",
        "public_access_status": "not_applicable",
        "ai_relationship": "ordinary_first_optional_ai",
        "source_id": "PHASE20-6-PARTICIPANT-DESIGN-20260815",
        "derived_from_source_ids": [
          "openstreetmap-context-20260811",
          "PHASE20-6-PARTICIPANT-DESIGN-20260815"
        ],
        "derived_from_geometry_ids": [
          "OSM-GREEN-W232724486"
        ],
        "derivation_method": "Participant-authored normalized band clipped to the approved OSM reference host; fractions encode the approved spatial-depth relationship only, not a surveyed dimension or target area. Water removed and SITE-001 clipping applied.",
        "ordinary_use_when_ai_off": true,
        "official_geometry": false,
        "coordinate_status": "participant_authored_provisional_design_geometry",
        "metric_status": "formal_submission_design_model_output",
        "shared_space_id": "SH-DZ-ENTRY",
        "reference_osm_ids": [
          232724486
        ]
      },
      "geometry": {
        "type": "Polygon",
        "coordinates": [
          [
            [
              116.35067730000002,
              39.9431288
            ],
            [
              116.35058610000002,
              39.9432316
            ],
            [
              116.35047750000001,
              39.9433667
            ],
            [
              116.35047209999999,
              39.943420200000006
            ],
            [
              116.35049370000002,
              39.94357019999999
            ],
            [
              116.35047710000002,
              39.9447369
            ],
            [
              116.3504803,
              39.9453069
            ],
            [
              116.35054710000001,
              39.945505
            ],
            [
              116.3505382,
              39.94615730000001
            ],
            [
              116.3504999,
              39.9462323
            ],
            [
              116.3504882,
              39.946554
            ],
            [
              116.35065449999999,
              39.946554
            ],
            [
              116.3508507,
              39.94662509999999
            ],
            [
              116.351051448,
              39.94661509597261
            ],
            [
              116.351051448,
              39.94653006930464
            ],
            [
              116.35097655800296,
              39.94654532933767
            ],
            [
              116.35092369999998,
              39.9465561
            ],
            [
              116.35092369999998,
              39.9465561
            ],
            [
              116.35084179999998,
              39.9464374
            ],
            [
              116.35094711755637,
              39.94641288973233
            ],
            [
              116.351051448,
              39.94638860919273
            ],
            [
              116.351051448,
              39.94619931290639
            ],
            [
              116.3507891,
              39.9462139
            ],
            [
              116.35073340000001,
              39.943991399999994
            ],
            [
              116.35099380000001,
              39.943564699999996
            ],
            [
              116.351051448,
              39.94353894945246
            ],
            [
              116.351051448,
              39.94308620045224
            ],
            [
              116.351026,
              39.9430794
            ],
            [
              116.35083690000002,
              39.943078799999995
            ],
            [
              116.35067730000002,
              39.9431288
            ]
          ]
        ]
      }
    },
    {
      "type": "Feature",
      "id": "GREEN-D12-DAILY-SHADE",
      "properties": {
        "id": "GREEN-D12-DAILY-SHADE",
        "layer": "GREEN_SPACE",
        "source_type": "agent_generated_design",
        "confidence": "low",
        "geometry_role": "design_proposal",
        "area_sqm_declared": 8448.039,
        "design_status": "proposed_design_intent",
        "design_role": "GREEN-D12 Dazhongsi Daily-Life Shade Greens",
        "area_group": "dazhongsi",
        "public_access_status": "not_applicable",
        "ai_relationship": "ordinary_first_optional_ai",
        "source_id": "PHASE20-6-PARTICIPANT-DESIGN-20260815",
        "derived_from_source_ids": [
          "openstreetmap-context-20260811",
          "PHASE20-6-PARTICIPANT-DESIGN-20260815"
        ],
        "derived_from_geometry_ids": [
          "OSM-GREEN-W232724486"
        ],
        "derivation_method": "Participant-authored normalized band clipped to the approved OSM reference host; fractions encode the approved spatial-depth relationship only, not a surveyed dimension or target area. Water removed and SITE-001 clipping applied.",
        "ordinary_use_when_ai_off": true,
        "official_geometry": false,
        "coordinate_status": "participant_authored_provisional_design_geometry",
        "metric_status": "formal_submission_design_model_output",
        "shared_space_id": "SH-DZ-NETWORK",
        "reference_osm_ids": [
          232724486
        ],
        "host_family": "N-H08"
      },
      "geometry": {
        "type": "MultiPolygon",
        "coordinates": [
          [
            [
              [
                116.35127139999999,
                39.9434407
              ],
              [
                116.35264465499998,
                39.94385187374517
              ],
              [
                116.35264465499998,
                39.94351195210728
              ],
              [
                116.351051448,
                39.94308620045224
              ],
              [
                116.351051448,
                39.94353894945246
              ],
              [
                116.35127139999999,
                39.9434407
              ]
            ]
          ],
          [
            [
              [
                116.35107240000002,
                39.9465258
              ],
              [
                116.351051448,
                39.94653006930464
              ],
              [
                116.351051448,
                39.94661509597261
              ],
              [
                116.35264465499998,
                39.94653570047958
              ],
              [
                116.35264465499998,
                39.94645429974278
              ],
              [
                116.35120208447468,
                39.946519902436755
              ],
              [
                116.35107240000002,
                39.9465258
              ]
            ]
          ],
          [
            [
              [
                116.351051448,
                39.94638860919273
              ],
              [
                116.3512818,
                39.946335000000005
              ],
              [
                116.35264465499998,
                39.94625182871272
              ],
              [
                116.35264465499998,
                39.94611070114637
              ],
              [
                116.3513862,
                39.946180700000006
              ],
              [
                116.351051448,
                39.94619931290639
              ],
              [
                116.351051448,
                39.94638860919273
              ]
            ]
          ]
        ]
      }
    },
    {
      "type": "Feature",
      "id": "GREEN-D13-LM03",
      "properties": {
        "id": "GREEN-D13-LM03",
        "layer": "GREEN_SPACE",
        "source_type": "agent_generated_design",
        "confidence": "low",
        "geometry_role": "design_proposal",
        "area_sqm_declared": 2661.927,
        "design_status": "proposed_design_intent",
        "design_role": "GREEN-D13 LM03 Branch Court Planting",
        "area_group": "dazhongsi",
        "public_access_status": "not_applicable",
        "ai_relationship": "ordinary_first_optional_ai",
        "source_id": "PHASE20-6-PARTICIPANT-DESIGN-20260815",
        "derived_from_source_ids": [
          "openstreetmap-context-20260811",
          "PHASE20-6-PARTICIPANT-DESIGN-20260815"
        ],
        "derived_from_geometry_ids": [
          "OSM-GREEN-W232724486"
        ],
        "derivation_method": "Participant-authored normalized band clipped to the approved OSM reference host; fractions encode the approved spatial-depth relationship only, not a surveyed dimension or target area. Water removed and SITE-001 clipping applied.",
        "ordinary_use_when_ai_off": true,
        "official_geometry": false,
        "coordinate_status": "participant_authored_provisional_design_geometry",
        "metric_status": "formal_submission_design_model_output",
        "shared_space_id": "SH-LM03",
        "reference_osm_ids": [
          232724486
        ],
        "host_family": "N-H03",
        "landmark_id": "LM03"
      },
      "geometry": {
        "type": "Polygon",
        "coordinates": [
          [
            [
              116.35264465499998,
              39.94385187374517
            ],
            [
              116.35329,
              39.944045100000004
            ],
            [
              116.353610235,
              39.94413425116721
            ],
            [
              116.353610235,
              39.94382436219785
            ],
            [
              116.35272649999999,
              39.943614099999984
            ],
            [
              116.3526729,
              39.94351949999999
            ],
            [
              116.35264465499998,
              39.94351195210728
            ],
            [
              116.35264465499998,
              39.94385187374517
            ]
          ]
        ]
      }
    },
    {
      "type": "Feature",
      "id": "GREEN-D06-AI-EDGE-PLANTING",
      "properties": {
        "id": "GREEN-D06-AI-EDGE-PLANTING",
        "layer": "GREEN_SPACE",
        "source_type": "agent_generated_design",
        "confidence": "low",
        "geometry_role": "design_proposal",
        "area_sqm_declared": 247.358,
        "design_status": "proposed_design_intent",
        "design_role": "GREEN-D06 AI Origin Public-Edge Long-Term Planting",
        "area_group": "ai_origin",
        "public_access_status": "not_applicable",
        "ai_relationship": "ordinary_first_optional_ai",
        "source_id": "PHASE20-6R-HUMAN-GEOMETRY-REFINEMENT-20260815",
        "derived_from_source_ids": [
          "openstreetmap-context-20260811",
          "PHASE20-6-PARTICIPANT-DESIGN-20260815",
          "PHASE20-6R-HUMAN-GEOMETRY-REFINEMENT-20260815"
        ],
        "derived_from_geometry_ids": [
          "OSM-GREEN-W543828493",
          "GREEN-D06-AI-EDGE"
        ],
        "derivation_method": "Long-term public-edge planting footprint retained only in the residual of the Phase 20.6 edge after subtracting the convex envelope of mapped internal pedestrian topology. No route buffer and no area expansion.",
        "ordinary_use_when_ai_off": true,
        "official_geometry": false,
        "coordinate_status": "participant_authored_provisional_design_geometry",
        "metric_status": "formal_submission_design_model_output",
        "shared_space_id": null,
        "reference_osm_ids": [
          543828493
        ],
        "host_family": "N-H04"
      },
      "geometry": {
        "type": "MultiPolygon",
        "coordinates": [
          [
            [
              [
                116.34982306437173,
                39.98310201279933
              ],
              [
                116.34989129246401,
                39.98306246799999
              ],
              [
                116.34982476784,
                39.98306246799999
              ],
              [
                116.34982306437173,
                39.98310201279933
              ]
            ]
          ],
          [
            [
              [
                116.35086346930142,
                39.98306246799999
              ],
              [
                116.35095626733911,
                39.983234131590855
              ],
              [
                116.35095822760847,
                39.98306246799999
              ],
              [
                116.35086346930142,
                39.98306246799999
              ]
            ]
          ],
          [
            [
              [
                116.34981509999999,
                39.98328689999998
              ],
              [
                116.35006552495443,
                39.98329324560969
              ],
              [
                116.34986990000002,
                39.983218499999985
              ],
              [
                116.34982233165304,
                39.98311902233971
              ],
              [
                116.34981509999999,
                39.98328689999998
              ]
            ]
          ],
          [
            [
              [
                116.35084369815002,
                39.98350934799999
              ],
              [
                116.35089568393444,
                39.983509348000005
              ],
              [
                116.35089940513757,
                39.98337315196627
              ],
              [
                116.35084369815002,
                39.98350934799999
              ]
            ]
          ]
        ]
      }
    },
    {
      "type": "Feature",
      "id": "GREEN-D07-LM01-PLANTING",
      "properties": {
        "id": "GREEN-D07-LM01-PLANTING",
        "layer": "GREEN_SPACE",
        "source_type": "agent_generated_design",
        "confidence": "low",
        "geometry_role": "design_proposal",
        "area_sqm_declared": 319.426,
        "design_status": "proposed_design_intent",
        "design_role": "GREEN-D07 LM01 Long-Term Forecourt Planting",
        "area_group": "ai_origin",
        "public_access_status": "not_applicable",
        "ai_relationship": "ordinary_first_optional_ai",
        "source_id": "PHASE20-6R-HUMAN-GEOMETRY-REFINEMENT-20260815",
        "derived_from_source_ids": [
          "openstreetmap-context-20260811",
          "PHASE20-6-PARTICIPANT-DESIGN-20260815",
          "PHASE20-6R-HUMAN-GEOMETRY-REFINEMENT-20260815"
        ],
        "derived_from_geometry_ids": [
          "OSM-GREEN-W543828493",
          "GREEN-D07-LM01"
        ],
        "derivation_method": "Long-term planting retained only in the public-side LM01 residual outside the convex envelope of mapped pedestrian topology; the whole forecourt is not counted as Green.",
        "ordinary_use_when_ai_off": true,
        "official_geometry": false,
        "coordinate_status": "participant_authored_provisional_design_geometry",
        "metric_status": "formal_submission_design_model_output",
        "shared_space_id": "SH-LM01-PLANTING",
        "reference_osm_ids": [
          543828493
        ],
        "host_family": "N-H01",
        "landmark_id": "LM01"
      },
      "geometry": {
        "type": "MultiPolygon",
        "coordinates": [
          [
            [
              [
                116.34994230000001,
                39.98300259999999
              ],
              [
                116.3499934,
                39.98296669999999
              ],
              [
                116.3501725541088,
                39.98292322118189
              ],
              [
                116.34983076616449,
                39.9829232211819
              ],
              [
                116.34982476784,
                39.98306246799999
              ],
              [
                116.34989129246401,
                39.98306246799999
              ],
              [
                116.34994230000001,
                39.98300259999999
              ]
            ]
          ],
          [
            [
              [
                116.35095822760847,
                39.98306246799999
              ],
              [
                116.35095869999999,
                39.983021099999995
              ],
              [
                116.35117320000002,
                39.983017200000035
              ],
              [
                116.35117497765735,
                39.982923221181885
              ],
              [
                116.35086346930142,
                39.98306246799999
              ],
              [
                116.35095822760847,
                39.98306246799999
              ]
            ]
          ]
        ]
      }
    },
    {
      "type": "Feature",
      "id": "GREEN-D08-ZH-ECOLOGICAL-EDGE",
      "properties": {
        "id": "GREEN-D08-ZH-ECOLOGICAL-EDGE",
        "layer": "GREEN_SPACE",
        "source_type": "agent_generated_design",
        "confidence": "low",
        "geometry_role": "design_proposal",
        "area_sqm_declared": 13603.446,
        "design_status": "proposed_design_intent",
        "design_role": "GREEN-D08 Zhongzhiyuan Ecological-Urban Edge",
        "area_group": "zhongzhiyuan",
        "public_access_status": "not_applicable",
        "ai_relationship": "ordinary_first_optional_ai",
        "source_id": "PHASE20-6R-HUMAN-GEOMETRY-REFINEMENT-20260815",
        "derived_from_source_ids": [
          "openstreetmap-context-20260811",
          "PHASE20-6-PARTICIPANT-DESIGN-20260815",
          "PHASE20-6R-HUMAN-GEOMETRY-REFINEMENT-20260815"
        ],
        "derived_from_geometry_ids": [
          "OSM-GREEN-W930946272",
          "GREEN-D08-ZH-EDGE"
        ],
        "derivation_method": "Phase 20.6 ecological-urban edge footprint retained without expansion; Public is now read as two fields and Green remains the ecological ground system.",
        "ordinary_use_when_ai_off": true,
        "official_geometry": false,
        "coordinate_status": "participant_authored_provisional_design_geometry",
        "metric_status": "formal_submission_design_model_output",
        "shared_space_id": "SH-ZH-EDGE",
        "reference_osm_ids": [
          930946272
        ],
        "host_family": "N-H05",
        "ecological_edge": true
      },
      "geometry": {
        "type": "Polygon",
        "coordinates": [
          [
            [
              116.35077048488345,
              40.02063124511724
            ],
            [
              116.3511622,
              40.02087350000001
            ],
            [
              116.3515683,
              40.02098729999999
            ],
            [
              116.3519307,
              40.02106549999999
            ],
            [
              116.35221544709209,
              40.021082892027266
            ],
            [
              116.35221544709209,
              40.020265134910346
            ],
            [
              116.35182810000002,
              40.02026839999999
            ],
            [
              116.3510615,
              40.01943279999999
            ],
            [
              116.350974,
              40.0197737
            ],
            [
              116.35077048488345,
              40.01984580919484
            ],
            [
              116.35077048488345,
              40.02063124511724
            ]
          ]
        ]
      }
    },
    {
      "type": "Feature",
      "id": "GREEN-D09-LM02-PLANTING",
      "properties": {
        "id": "GREEN-D09-LM02-PLANTING",
        "layer": "GREEN_SPACE",
        "source_type": "agent_generated_design",
        "confidence": "low",
        "geometry_role": "design_proposal",
        "area_sqm_declared": 642.208,
        "design_status": "proposed_design_intent",
        "design_role": "GREEN-D09 LM02 Public-Side Long-Term Planting",
        "area_group": "zhongzhiyuan",
        "public_access_status": "not_applicable",
        "ai_relationship": "ordinary_first_optional_ai",
        "source_id": "PHASE20-6R-HUMAN-GEOMETRY-REFINEMENT-20260815",
        "derived_from_source_ids": [
          "openstreetmap-context-20260811",
          "PHASE20-6-PARTICIPANT-DESIGN-20260815",
          "PHASE20-6R-HUMAN-GEOMETRY-REFINEMENT-20260815"
        ],
        "derived_from_geometry_ids": [
          "OSM-GREEN-W930946272",
          "GREEN-D09-LM02"
        ],
        "derivation_method": "Public-side long-term planting strip placed immediately behind the optional LM02 window, with the same data-derived approach-gap depth. The whole former threshold band is not counted as Green.",
        "ordinary_use_when_ai_off": true,
        "official_geometry": false,
        "coordinate_status": "participant_authored_provisional_design_geometry",
        "metric_status": "formal_submission_design_model_output",
        "shared_space_id": "SH-LM02-R",
        "reference_osm_ids": [
          930946272
        ],
        "host_family": "N-H02",
        "landmark_id": "LM02"
      },
      "geometry": {
        "type": "Polygon",
        "coordinates": [
          [
            [
              116.35298609361521,
              40.02094384235582
            ],
            [
              116.35221544710159,
              40.020939536952405
            ],
            [
              116.35221544709624,
              40.02102744614869
            ],
            [
              116.35298609361006,
              40.02103175155441
            ],
            [
              116.35298609361521,
              40.02094384235582
            ]
          ]
        ]
      }
    }
  ]
}
