{
 "type": "FeatureCollection",
 "name": "green_space_design",
 "features": [
  {
   "type": "Feature",
   "properties": {
    "id": "GREEN-001",
    "layer": "GREEN_SPACE",
    "source_type": "agent_generated_design",
    "confidence": "low",
    "geometry_role": "design_proposal",
    "land_use_code": "1401",
    "name_zh": "大钟寺北绿楔",
    "segment_zh": "大钟寺北段",
    "area_sqm_calculated": 163663.487,
    "linked_land_use_id": "LU-005",
    "usage_note": "概念性绿地建议，面积由 EPSG:4548 复算；不表达法定绿线。"
   },
   "geometry": {
    "type": "Polygon",
    "coordinates": [
     [
      [
       116.3435,
       39.956
      ],
      [
       116.3463,
       39.956
      ],
      [
       116.3463,
       39.94984
      ],
      [
       116.3435,
       39.94984
      ],
      [
       116.3435,
       39.956
      ]
     ]
    ]
   },
   "id": "GREEN-001"
  },
  {
   "type": "Feature",
   "properties": {
    "id": "GREEN-002",
    "layer": "GREEN_SPACE",
    "source_type": "agent_generated_design",
    "confidence": "low",
    "geometry_role": "design_proposal",
    "land_use_code": "1403",
    "name_zh": "小月河场景赋能广场",
    "segment_zh": "小月河南段",
    "area_sqm_calculated": 239092.643,
    "linked_land_use_id": "LU-007",
    "usage_note": "概念性绿地建议，面积由 EPSG:4548 复算；不表达法定绿线。"
   },
   "geometry": {
    "type": "Polygon",
    "coordinates": [
     [
      [
       116.3435,
       39.965
      ],
      [
       116.3463,
       39.965
      ],
      [
       116.3463,
       39.956
      ],
      [
       116.3435,
       39.956
      ],
      [
       116.3435,
       39.965
      ]
     ]
    ]
   },
   "id": "GREEN-002"
  },
  {
   "type": "Feature",
   "properties": {
    "id": "GREEN-003",
    "layer": "GREEN_SPACE",
    "source_type": "agent_generated_design",
    "confidence": "low",
    "geometry_role": "design_proposal",
    "land_use_code": "1401",
    "name_zh": "众智园南门户公园",
    "segment_zh": "众智园南门户段",
    "area_sqm_calculated": 172569.211,
    "linked_land_use_id": "LU-017",
    "usage_note": "概念性绿地建议，面积由 EPSG:4548 复算；不表达法定绿线。"
   },
   "geometry": {
    "type": "Polygon",
    "coordinates": [
     [
      [
       116.3435,
       40.0075
      ],
      [
       116.3463,
       40.0075
      ],
      [
       116.3463,
       40.001
      ],
      [
       116.3435,
       40.001
      ],
      [
       116.3435,
       40.0075
      ]
     ]
    ]
   },
   "id": "GREEN-003"
  },
  {
   "type": "Feature",
   "properties": {
    "id": "GREEN-004",
    "layer": "GREEN_SPACE",
    "source_type": "agent_generated_design",
    "confidence": "low",
    "geometry_role": "design_proposal",
    "land_use_code": "1401",
    "name_zh": "花园型创新街区中央公园",
    "segment_zh": "众智园中段",
    "area_sqm_calculated": 159265.368,
    "linked_land_use_id": "LU-021",
    "usage_note": "概念性绿地建议，面积由 EPSG:4548 复算；不表达法定绿线。"
   },
   "geometry": {
    "type": "Polygon",
    "coordinates": [
     [
      [
       116.3435,
       40.02
      ],
      [
       116.3463,
       40.02
      ],
      [
       116.3463,
       40.014
      ],
      [
       116.3435,
       40.014
      ],
      [
       116.3435,
       40.02
      ]
     ]
    ]
   },
   "id": "GREEN-004"
  },
  {
   "type": "Feature",
   "properties": {
    "id": "GREEN-005",
    "layer": "GREEN_SPACE",
    "source_type": "agent_generated_design",
    "confidence": "low",
    "geometry_role": "design_proposal",
    "land_use_code": "1402",
    "name_zh": "北五环防护绿地",
    "segment_zh": "北五环防护段",
    "area_sqm_calculated": 39811.316,
    "linked_land_use_id": "LU-025",
    "usage_note": "概念性绿地建议，面积由 EPSG:4548 复算；不表达法定绿线。"
   },
   "geometry": {
    "type": "Polygon",
    "coordinates": [
     [
      [
       116.3435,
       40.0265
      ],
      [
       116.3463,
       40.0265
      ],
      [
       116.3463,
       40.025
      ],
      [
       116.3435,
       40.025
      ],
      [
       116.3435,
       40.0265
      ]
     ]
    ]
   },
   "id": "GREEN-005"
  },
  {
   "type": "Feature",
   "properties": {
    "id": "GREEN-006",
    "layer": "GREEN_SPACE",
    "source_type": "agent_generated_design",
    "confidence": "low",
    "geometry_role": "design_proposal",
    "land_use_code": "1402",
    "name_zh": "北五环防护绿地",
    "segment_zh": "北五环防护段",
    "area_sqm_calculated": 11894.854,
    "linked_land_use_id": "LU-026",
    "usage_note": "概念性绿地建议，面积由 EPSG:4548 复算；不表达法定绿线。"
   },
   "geometry": {
    "type": "Polygon",
    "coordinates": [
     [
      [
       116.3435,
       40.025
      ],
      [
       116.34262682926828,
       40.025
      ],
      [
       116.3427,
       40.0265
      ],
      [
       116.3435,
       40.0265
      ],
      [
       116.3435,
       40.025
      ]
     ]
    ]
   },
   "id": "GREEN-006"
  },
  {
   "type": "Feature",
   "properties": {
    "id": "GREEN-007",
    "layer": "GREEN_SPACE",
    "source_type": "agent_generated_design",
    "confidence": "low",
    "geometry_role": "design_proposal",
    "land_use_code": "1401",
    "name_zh": "京张遗址公园活力脊·联调主线",
    "segment_zh": "南门户段",
    "area_sqm_calculated": 66432.753,
    "linked_land_use_id": "LU-027",
    "usage_note": "概念性绿地建议，面积由 EPSG:4548 复算；不表达法定绿线。"
   },
   "geometry": {
    "type": "Polygon",
    "coordinates": [
     [
      [
       116.3463,
       39.944
      ],
      [
       116.3477,
       39.944
      ],
      [
       116.3477,
       39.939
      ],
      [
       116.3463,
       39.939
      ],
      [
       116.3463,
       39.944
      ]
     ]
    ]
   },
   "id": "GREEN-007"
  },
  {
   "type": "Feature",
   "properties": {
    "id": "GREEN-008",
    "layer": "GREEN_SPACE",
    "source_type": "agent_generated_design",
    "confidence": "low",
    "geometry_role": "design_proposal",
    "land_use_code": "1401",
    "name_zh": "京张遗址公园活力脊·联调主线",
    "segment_zh": "大钟寺段",
    "area_sqm_calculated": 77587.405,
    "linked_land_use_id": "LU-028",
    "usage_note": "概念性绿地建议，面积由 EPSG:4548 复算；不表达法定绿线。"
   },
   "geometry": {
    "type": "Polygon",
    "coordinates": [
     [
      [
       116.3463,
       39.94984
      ],
      [
       116.3477,
       39.94984
      ],
      [
       116.3477,
       39.944
      ],
      [
       116.3463,
       39.944
      ],
      [
       116.3463,
       39.94984
      ]
     ]
    ]
   },
   "id": "GREEN-008"
  },
  {
   "type": "Feature",
   "properties": {
    "id": "GREEN-009",
    "layer": "GREEN_SPACE",
    "source_type": "agent_generated_design",
    "confidence": "low",
    "geometry_role": "design_proposal",
    "land_use_code": "1401",
    "name_zh": "京张遗址公园活力脊·联调主线",
    "segment_zh": "大钟寺北段",
    "area_sqm_calculated": 81831.703,
    "linked_land_use_id": "LU-029",
    "usage_note": "概念性绿地建议，面积由 EPSG:4548 复算；不表达法定绿线。"
   },
   "geometry": {
    "type": "Polygon",
    "coordinates": [
     [
      [
       116.3463,
       39.956
      ],
      [
       116.3477,
       39.956
      ],
      [
       116.3477,
       39.94984
      ],
      [
       116.3463,
       39.94984
      ],
      [
       116.3463,
       39.956
      ]
     ]
    ]
   },
   "id": "GREEN-009"
  },
  {
   "type": "Feature",
   "properties": {
    "id": "GREEN-010",
    "layer": "GREEN_SPACE",
    "source_type": "agent_generated_design",
    "confidence": "low",
    "geometry_role": "design_proposal",
    "land_use_code": "1401",
    "name_zh": "京张遗址公园活力脊·联调主线",
    "segment_zh": "小月河南段",
    "area_sqm_calculated": 119546.262,
    "linked_land_use_id": "LU-030",
    "usage_note": "概念性绿地建议，面积由 EPSG:4548 复算；不表达法定绿线。"
   },
   "geometry": {
    "type": "Polygon",
    "coordinates": [
     [
      [
       116.3463,
       39.965
      ],
      [
       116.3477,
       39.965
      ],
      [
       116.3477,
       39.956
      ],
      [
       116.3463,
       39.956
      ],
      [
       116.3463,
       39.965
      ]
     ]
    ]
   },
   "id": "GREEN-010"
  },
  {
   "type": "Feature",
   "properties": {
    "id": "GREEN-011",
    "layer": "GREEN_SPACE",
    "source_type": "agent_generated_design",
    "confidence": "low",
    "geometry_role": "design_proposal",
    "land_use_code": "1401",
    "name_zh": "京张遗址公园活力脊·联调主线",
    "segment_zh": "小月河北段",
    "area_sqm_calculated": 119530.772,
    "linked_land_use_id": "LU-031",
    "usage_note": "概念性绿地建议，面积由 EPSG:4548 复算；不表达法定绿线。"
   },
   "geometry": {
    "type": "Polygon",
    "coordinates": [
     [
      [
       116.3463,
       39.974
      ],
      [
       116.3477,
       39.974
      ],
      [
       116.3477,
       39.965
      ],
      [
       116.3463,
       39.965
      ],
      [
       116.3463,
       39.974
      ]
     ]
    ]
   },
   "id": "GREEN-011"
  },
  {
   "type": "Feature",
   "properties": {
    "id": "GREEN-012",
    "layer": "GREEN_SPACE",
    "source_type": "agent_generated_design",
    "confidence": "low",
    "geometry_role": "design_proposal",
    "land_use_code": "1401",
    "name_zh": "京张遗址公园活力脊·联调主线",
    "segment_zh": "原点南门户段",
    "area_sqm_calculated": 126154.562,
    "linked_land_use_id": "LU-032",
    "usage_note": "概念性绿地建议，面积由 EPSG:4548 复算；不表达法定绿线。"
   },
   "geometry": {
    "type": "Polygon",
    "coordinates": [
     [
      [
       116.3463,
       39.9835
      ],
      [
       116.3477,
       39.9835
      ],
      [
       116.3477,
       39.974
      ],
      [
       116.3463,
       39.974
      ],
      [
       116.3463,
       39.9835
      ]
     ]
    ]
   },
   "id": "GREEN-012"
  },
  {
   "type": "Feature",
   "properties": {
    "id": "GREEN-013",
    "layer": "GREEN_SPACE",
    "source_type": "agent_generated_design",
    "confidence": "low",
    "geometry_role": "design_proposal",
    "land_use_code": "1401",
    "name_zh": "京张遗址公园活力脊·联调主线",
    "segment_zh": "AI原点社区段",
    "area_sqm_calculated": 132775.622,
    "linked_land_use_id": "LU-033",
    "usage_note": "概念性绿地建议，面积由 EPSG:4548 复算；不表达法定绿线。"
   },
   "geometry": {
    "type": "Polygon",
    "coordinates": [
     [
      [
       116.3463,
       39.9935
      ],
      [
       116.3477,
       39.9935
      ],
      [
       116.3477,
       39.9835
      ],
      [
       116.3463,
       39.9835
      ],
      [
       116.3463,
       39.9935
      ]
     ]
    ]
   },
   "id": "GREEN-013"
  },
  {
   "type": "Feature",
   "properties": {
    "id": "GREEN-014",
    "layer": "GREEN_SPACE",
    "source_type": "agent_generated_design",
    "confidence": "low",
    "geometry_role": "design_proposal",
    "land_use_code": "1401",
    "name_zh": "京张遗址公园活力脊·联调主线",
    "segment_zh": "原点北段",
    "area_sqm_calculated": 99569.159,
    "linked_land_use_id": "LU-034",
    "usage_note": "概念性绿地建议，面积由 EPSG:4548 复算；不表达法定绿线。"
   },
   "geometry": {
    "type": "Polygon",
    "coordinates": [
     [
      [
       116.3463,
       40.001
      ],
      [
       116.3477,
       40.001
      ],
      [
       116.3477,
       39.9935
      ],
      [
       116.3463,
       39.9935
      ],
      [
       116.3463,
       40.001
      ]
     ]
    ]
   },
   "id": "GREEN-014"
  },
  {
   "type": "Feature",
   "properties": {
    "id": "GREEN-015",
    "layer": "GREEN_SPACE",
    "source_type": "agent_generated_design",
    "confidence": "low",
    "geometry_role": "design_proposal",
    "land_use_code": "1401",
    "name_zh": "京张遗址公园活力脊·联调主线",
    "segment_zh": "众智园南门户段",
    "area_sqm_calculated": 86284.563,
    "linked_land_use_id": "LU-035",
    "usage_note": "概念性绿地建议，面积由 EPSG:4548 复算；不表达法定绿线。"
   },
   "geometry": {
    "type": "Polygon",
    "coordinates": [
     [
      [
       116.3463,
       40.0075
      ],
      [
       116.3477,
       40.0075
      ],
      [
       116.3477,
       40.001
      ],
      [
       116.3463,
       40.001
      ],
      [
       116.3463,
       40.0075
      ]
     ]
    ]
   },
   "id": "GREEN-015"
  },
  {
   "type": "Feature",
   "properties": {
    "id": "GREEN-016",
    "layer": "GREEN_SPACE",
    "source_type": "agent_generated_design",
    "confidence": "low",
    "geometry_role": "design_proposal",
    "land_use_code": "1401",
    "name_zh": "京张遗址公园活力脊·联调主线",
    "segment_zh": "众智园南段",
    "area_sqm_calculated": 86276.476,
    "linked_land_use_id": "LU-036",
    "usage_note": "概念性绿地建议，面积由 EPSG:4548 复算；不表达法定绿线。"
   },
   "geometry": {
    "type": "Polygon",
    "coordinates": [
     [
      [
       116.3463,
       40.014
      ],
      [
       116.3477,
       40.014
      ],
      [
       116.3477,
       40.0075
      ],
      [
       116.3463,
       40.0075
      ],
      [
       116.3463,
       40.014
      ]
     ]
    ]
   },
   "id": "GREEN-016"
  },
  {
   "type": "Feature",
   "properties": {
    "id": "GREEN-017",
    "layer": "GREEN_SPACE",
    "source_type": "agent_generated_design",
    "confidence": "low",
    "geometry_role": "design_proposal",
    "land_use_code": "1401",
    "name_zh": "京张遗址公园活力脊·联调主线",
    "segment_zh": "众智园中段",
    "area_sqm_calculated": 79632.645,
    "linked_land_use_id": "LU-037",
    "usage_note": "概念性绿地建议，面积由 EPSG:4548 复算；不表达法定绿线。"
   },
   "geometry": {
    "type": "Polygon",
    "coordinates": [
     [
      [
       116.3463,
       40.02
      ],
      [
       116.3477,
       40.02
      ],
      [
       116.3477,
       40.014
      ],
      [
       116.3463,
       40.014
      ],
      [
       116.3463,
       40.02
      ]
     ]
    ]
   },
   "id": "GREEN-017"
  },
  {
   "type": "Feature",
   "properties": {
    "id": "GREEN-018",
    "layer": "GREEN_SPACE",
    "source_type": "agent_generated_design",
    "confidence": "low",
    "geometry_role": "design_proposal",
    "land_use_code": "1401",
    "name_zh": "京张遗址公园活力脊·联调主线",
    "segment_zh": "众智园北段",
    "area_sqm_calculated": 66355.272,
    "linked_land_use_id": "LU-038",
    "usage_note": "概念性绿地建议，面积由 EPSG:4548 复算；不表达法定绿线。"
   },
   "geometry": {
    "type": "Polygon",
    "coordinates": [
     [
      [
       116.3463,
       40.025
      ],
      [
       116.3477,
       40.025
      ],
      [
       116.3477,
       40.02
      ],
      [
       116.3463,
       40.02
      ],
      [
       116.3463,
       40.025
      ]
     ]
    ]
   },
   "id": "GREEN-018"
  },
  {
   "type": "Feature",
   "properties": {
    "id": "GREEN-019",
    "layer": "GREEN_SPACE",
    "source_type": "agent_generated_design",
    "confidence": "low",
    "geometry_role": "design_proposal",
    "land_use_code": "1402",
    "name_zh": "北五环防护绿地",
    "segment_zh": "北五环防护段",
    "area_sqm_calculated": 19905.648,
    "linked_land_use_id": "LU-039",
    "usage_note": "概念性绿地建议，面积由 EPSG:4548 复算；不表达法定绿线。"
   },
   "geometry": {
    "type": "Polygon",
    "coordinates": [
     [
      [
       116.3463,
       40.0265
      ],
      [
       116.3477,
       40.0265
      ],
      [
       116.3477,
       40.025
      ],
      [
       116.3463,
       40.025
      ],
      [
       116.3463,
       40.0265
      ]
     ]
    ]
   },
   "id": "GREEN-019"
  },
  {
   "type": "Feature",
   "properties": {
    "id": "GREEN-020",
    "layer": "GREEN_SPACE",
    "source_type": "agent_generated_design",
    "confidence": "low",
    "geometry_role": "design_proposal",
    "land_use_code": "1402",
    "name_zh": "北五环防护绿地",
    "segment_zh": "北五环防护段",
    "area_sqm_calculated": 39811.277,
    "linked_land_use_id": "LU-052",
    "usage_note": "概念性绿地建议，面积由 EPSG:4548 复算；不表达法定绿线。"
   },
   "geometry": {
    "type": "Polygon",
    "coordinates": [
     [
      [
       116.3477,
       40.0265
      ],
      [
       116.3505,
       40.0265
      ],
      [
       116.3505,
       40.025
      ],
      [
       116.3477,
       40.025
      ],
      [
       116.3477,
       40.0265
      ]
     ]
    ]
   },
   "id": "GREEN-020"
  },
  {
   "type": "Feature",
   "properties": {
    "id": "GREEN-021",
    "layer": "GREEN_SPACE",
    "source_type": "agent_generated_design",
    "confidence": "low",
    "geometry_role": "design_proposal",
    "land_use_code": "1401",
    "name_zh": "学院路侧绿带",
    "segment_zh": "小月河北段",
    "area_sqm_calculated": 379084.526,
    "linked_land_use_id": "LU-057",
    "usage_note": "概念性绿地建议，面积由 EPSG:4548 复算；不表达法定绿线。"
   },
   "geometry": {
    "type": "Polygon",
    "coordinates": [
     [
      [
       116.3505,
       39.974
      ],
      [
       116.35458,
       39.974
      ],
      [
       116.3553,
       39.965
      ],
      [
       116.3505,
       39.965
      ],
      [
       116.3505,
       39.974
      ]
     ]
    ]
   },
   "id": "GREEN-021"
  },
  {
   "type": "Feature",
   "properties": {
    "id": "GREEN-022",
    "layer": "GREEN_SPACE",
    "source_type": "agent_generated_design",
    "confidence": "low",
    "geometry_role": "design_proposal",
    "land_use_code": "1402",
    "name_zh": "北五环防护绿地",
    "segment_zh": "北五环防护段",
    "area_sqm_calculated": 67663.561,
    "linked_land_use_id": "LU-065",
    "usage_note": "概念性绿地建议，面积由 EPSG:4548 复算；不表达法定绿线。"
   },
   "geometry": {
    "type": "Polygon",
    "coordinates": [
     [
      [
       116.3505,
       40.0265
      ],
      [
       116.3553,
       40.0265
      ],
      [
       116.35521780821918,
       40.025
      ],
      [
       116.3505,
       40.025
      ],
      [
       116.3505,
       40.0265
      ]
     ]
    ]
   },
   "id": "GREEN-022"
  }
 ]
}