{
  "type": "FeatureCollection",
  "features": [
    {
      "type": "Feature",
      "id": "GREEN-001",
      "properties": {
        "id": "GREEN-001",
        "layer": "GREEN_SPACE",
        "source_type": "agent_generated_design",
        "confidence": "medium",
        "geometry_role": "design_proposal",
        "green_type": "green_wedge",
        "name_zh": "绿楔·慢行连接",
        "area_sqm_declared": 8872.354
      },
      "geometry": {
        "type": "Polygon",
        "coordinates": [
          [
            [
              116.346542852,
              39.943994609
            ],
            [
              116.346590361,
              39.939000221
            ],
            [
              116.346403163,
              39.939000219
            ],
            [
              116.34635565,
              39.943993554
            ],
            [
              116.346542852,
              39.943994609
            ]
          ]
        ]
      }
    },
    {
      "type": "Feature",
      "id": "GREEN-004",
      "properties": {
        "id": "GREEN-004",
        "layer": "GREEN_SPACE",
        "source_type": "agent_generated_design",
        "confidence": "medium",
        "geometry_role": "design_proposal",
        "green_type": "park",
        "name_zh": "京张遗址公园活力带",
        "area_sqm_declared": 97084.424
      },
      "geometry": {
        "type": "Polygon",
        "coordinates": [
          [
            [
              116.349341235,
              39.944010348
            ],
            [
              116.349388689,
              39.939000222
            ],
            [
              116.346590361,
              39.939000221
            ],
            [
              116.346542852,
              39.943994609
            ],
            [
              116.349341235,
              39.944010348
            ]
          ],
          [
            [
              116.348568666,
              39.939897488
            ],
            [
              116.348538257,
              39.943103968
            ],
            [
              116.347362952,
              39.943097358
            ],
            [
              116.347393416,
              39.939890878
            ],
            [
              116.348568666,
              39.939897488
            ]
          ]
        ]
      }
    },
    {
      "type": "Feature",
      "id": "GREEN-005",
      "properties": {
        "id": "GREEN-005",
        "layer": "GREEN_SPACE",
        "source_type": "agent_generated_design",
        "confidence": "medium",
        "geometry_role": "design_proposal",
        "green_type": "green_wedge",
        "name_zh": "绿楔·慢行连接",
        "area_sqm_declared": 8902.181
      },
      "geometry": {
        "type": "Polygon",
        "coordinates": [
          [
            [
              116.349528437,
              39.944011399
            ],
            [
              116.349575878,
              39.939001272
            ],
            [
              116.349575821,
              39.939000219
            ],
            [
              116.349388689,
              39.939000222
            ],
            [
              116.349341235,
              39.944010348
            ],
            [
              116.349528437,
              39.944011399
            ]
          ]
        ]
      }
    },
    {
      "type": "Feature",
      "id": "GREEN-009",
      "properties": {
        "id": "GREEN-009",
        "layer": "GREEN_SPACE",
        "source_type": "agent_generated_design",
        "confidence": "medium",
        "geometry_role": "design_proposal",
        "green_type": "green_wedge",
        "name_zh": "绿楔·慢行连接",
        "area_sqm_declared": 10304.038
      },
      "geometry": {
        "type": "Polygon",
        "coordinates": [
          [
            [
              116.346487668,
              39.949794298
            ],
            [
              116.346542852,
              39.943994609
            ],
            [
              116.34635565,
              39.943993554
            ],
            [
              116.34630045,
              39.949793242
            ],
            [
              116.346487668,
              39.949794298
            ]
          ]
        ]
      }
    },
    {
      "type": "Feature",
      "id": "GREEN-012",
      "properties": {
        "id": "GREEN-012",
        "layer": "GREEN_SPACE",
        "source_type": "agent_generated_design",
        "confidence": "medium",
        "geometry_role": "design_proposal",
        "green_type": "park",
        "name_zh": "京张遗址公园活力带",
        "area_sqm_declared": 112626.333
      },
      "geometry": {
        "type": "Polygon",
        "coordinates": [
          [
            [
              116.346487668,
              39.949794298
            ],
            [
              116.349286287,
              39.94981004
            ],
            [
              116.349341235,
              39.944010348
            ],
            [
              116.346542852,
              39.943994609
            ],
            [
              116.346487668,
              39.949794298
            ]
          ],
          [
            [
              116.348519802,
              39.945049736
            ],
            [
              116.348484591,
              39.948761538
            ],
            [
              116.347309189,
              39.948754926
            ],
            [
              116.347344463,
              39.945043125
            ],
            [
              116.348519802,
              39.945049736
            ]
          ]
        ]
      }
    },
    {
      "type": "Feature",
      "id": "GREEN-013",
      "properties": {
        "id": "GREEN-013",
        "layer": "GREEN_SPACE",
        "source_type": "agent_generated_design",
        "confidence": "medium",
        "geometry_role": "design_proposal",
        "green_type": "green_wedge",
        "name_zh": "绿楔·慢行连接",
        "area_sqm_declared": 10304.038
      },
      "geometry": {
        "type": "Polygon",
        "coordinates": [
          [
            [
              116.349286287,
              39.94981004
            ],
            [
              116.349473505,
              39.949811091
            ],
            [
              116.349528437,
              39.944011399
            ],
            [
              116.349341235,
              39.944010348
            ],
            [
              116.349286287,
              39.94981004
            ]
          ]
        ]
      }
    },
    {
      "type": "Feature",
      "id": "GREEN-017",
      "properties": {
        "id": "GREEN-017",
        "layer": "GREEN_SPACE",
        "source_type": "agent_generated_design",
        "confidence": "medium",
        "geometry_role": "design_proposal",
        "green_type": "green_wedge",
        "name_zh": "绿楔·慢行连接",
        "area_sqm_declared": 21674.044
      },
      "geometry": {
        "type": "Polygon",
        "coordinates": [
          [
            [
              116.346371538,
              39.961993643
            ],
            [
              116.346487668,
              39.949794298
            ],
            [
              116.34630045,
              39.949793242
            ],
            [
              116.346184287,
              39.961992587
            ],
            [
              116.346371538,
              39.961993643
            ]
          ]
        ]
      }
    },
    {
      "type": "Feature",
      "id": "GREEN-019",
      "properties": {
        "id": "GREEN-019",
        "layer": "GREEN_SPACE",
        "source_type": "agent_generated_design",
        "confidence": "medium",
        "geometry_role": "design_proposal",
        "green_type": "park",
        "name_zh": "京张遗址公园活力带",
        "area_sqm_declared": 323993.477
      },
      "geometry": {
        "type": "Polygon",
        "coordinates": [
          [
            [
              116.346487668,
              39.949794298
            ],
            [
              116.346371538,
              39.961993643
            ],
            [
              116.349170654,
              39.962009392
            ],
            [
              116.349286287,
              39.94981004
            ],
            [
              116.346487668,
              39.949794298
            ]
          ]
        ]
      }
    },
    {
      "type": "Feature",
      "id": "GREEN-020",
      "properties": {
        "id": "GREEN-020",
        "layer": "GREEN_SPACE",
        "source_type": "agent_generated_design",
        "confidence": "medium",
        "geometry_role": "design_proposal",
        "green_type": "green_wedge",
        "name_zh": "绿楔·慢行连接",
        "area_sqm_declared": 21674.044
      },
      "geometry": {
        "type": "Polygon",
        "coordinates": [
          [
            [
              116.349170654,
              39.962009392
            ],
            [
              116.349357906,
              39.962010443
            ],
            [
              116.349473505,
              39.949811091
            ],
            [
              116.349286287,
              39.94981004
            ],
            [
              116.349170654,
              39.962009392
            ]
          ]
        ]
      }
    },
    {
      "type": "Feature",
      "id": "GREEN-024",
      "properties": {
        "id": "GREEN-024",
        "layer": "GREEN_SPACE",
        "source_type": "agent_generated_design",
        "confidence": "medium",
        "geometry_role": "design_proposal",
        "green_type": "green_wedge",
        "name_zh": "绿楔·慢行连接",
        "area_sqm_declared": 38196.172
      },
      "geometry": {
        "type": "Polygon",
        "coordinates": [
          [
            [
              116.346166711,
              39.983492487
            ],
            [
              116.346371538,
              39.961993643
            ],
            [
              116.346184287,
              39.961992587
            ],
            [
              116.345979401,
              39.98349143
            ],
            [
              116.346166711,
              39.983492487
            ]
          ]
        ]
      }
    },
    {
      "type": "Feature",
      "id": "GREEN-027",
      "properties": {
        "id": "GREEN-027",
        "layer": "GREEN_SPACE",
        "source_type": "agent_generated_design",
        "confidence": "medium",
        "geometry_role": "design_proposal",
        "green_type": "park",
        "name_zh": "京张遗址公园活力带",
        "area_sqm_declared": 417496.009
      },
      "geometry": {
        "type": "Polygon",
        "coordinates": [
          [
            [
              116.346166711,
              39.983492487
            ],
            [
              116.348966704,
              39.983508248
            ],
            [
              116.349170654,
              39.962009392
            ],
            [
              116.346371538,
              39.961993643
            ],
            [
              116.346166711,
              39.983492487
            ]
          ],
          [
            [
              116.34832217,
              39.965874631
            ],
            [
              116.348191479,
              39.979633896
            ],
            [
              116.347015548,
              39.979627278
            ],
            [
              116.347146475,
              39.965868015
            ],
            [
              116.34832217,
              39.965874631
            ]
          ]
        ]
      }
    },
    {
      "type": "Feature",
      "id": "GREEN-028",
      "properties": {
        "id": "GREEN-028",
        "layer": "GREEN_SPACE",
        "source_type": "agent_generated_design",
        "confidence": "medium",
        "geometry_role": "design_proposal",
        "green_type": "green_wedge",
        "name_zh": "绿楔·慢行连接",
        "area_sqm_declared": 38196.172
      },
      "geometry": {
        "type": "Polygon",
        "coordinates": [
          [
            [
              116.348966704,
              39.983508248
            ],
            [
              116.349154014,
              39.983509299
            ],
            [
              116.349357906,
              39.962010443
            ],
            [
              116.349170654,
              39.962009392
            ],
            [
              116.348966704,
              39.983508248
            ]
          ]
        ]
      }
    },
    {
      "type": "Feature",
      "id": "GREEN-032",
      "properties": {
        "id": "GREEN-032",
        "layer": "GREEN_SPACE",
        "source_type": "agent_generated_design",
        "confidence": "medium",
        "geometry_role": "design_proposal",
        "green_type": "green_wedge",
        "name_zh": "绿楔·慢行连接",
        "area_sqm_declared": 17765.709
      },
      "geometry": {
        "type": "Polygon",
        "coordinates": [
          [
            [
              116.346071367,
              39.993491948
            ],
            [
              116.346166711,
              39.983492487
            ],
            [
              116.345979401,
              39.98349143
            ],
            [
              116.34588403,
              39.993490891
            ],
            [
              116.346071367,
              39.993491948
            ]
          ]
        ]
      }
    },
    {
      "type": "Feature",
      "id": "GREEN-034",
      "properties": {
        "id": "GREEN-034",
        "layer": "GREEN_SPACE",
        "source_type": "agent_generated_design",
        "confidence": "medium",
        "geometry_role": "design_proposal",
        "green_type": "park",
        "name_zh": "京张遗址公园活力带",
        "area_sqm_declared": 265569.903
      },
      "geometry": {
        "type": "Polygon",
        "coordinates": [
          [
            [
              116.346166711,
              39.983492487
            ],
            [
              116.346071367,
              39.993491948
            ],
            [
              116.348871768,
              39.993507715
            ],
            [
              116.348966704,
              39.983508248
            ],
            [
              116.346166711,
              39.983492487
            ]
          ]
        ]
      }
    },
    {
      "type": "Feature",
      "id": "GREEN-035",
      "properties": {
        "id": "GREEN-035",
        "layer": "GREEN_SPACE",
        "source_type": "agent_generated_design",
        "confidence": "medium",
        "geometry_role": "design_proposal",
        "green_type": "green_wedge",
        "name_zh": "绿楔·慢行连接",
        "area_sqm_declared": 17765.709
      },
      "geometry": {
        "type": "Polygon",
        "coordinates": [
          [
            [
              116.348871768,
              39.993507715
            ],
            [
              116.349059105,
              39.993508767
            ],
            [
              116.349154014,
              39.983509299
            ],
            [
              116.348966704,
              39.983508248
            ],
            [
              116.348871768,
              39.993507715
            ]
          ]
        ]
      }
    },
    {
      "type": "Feature",
      "id": "GREEN-039",
      "properties": {
        "id": "GREEN-039",
        "layer": "GREEN_SPACE",
        "source_type": "agent_generated_design",
        "confidence": "medium",
        "geometry_role": "design_proposal",
        "green_type": "green_wedge",
        "name_zh": "绿楔·慢行连接",
        "area_sqm_declared": 24872.044
      },
      "geometry": {
        "type": "Polygon",
        "coordinates": [
          [
            [
              116.345937805,
              40.007491194
            ],
            [
              116.346071367,
              39.993491948
            ],
            [
              116.34588403,
              39.993490891
            ],
            [
              116.345750429,
              40.007490136
            ],
            [
              116.345937805,
              40.007491194
            ]
          ]
        ]
      }
    },
    {
      "type": "Feature",
      "id": "GREEN-041",
      "properties": {
        "id": "GREEN-041",
        "layer": "GREEN_SPACE",
        "source_type": "agent_generated_design",
        "confidence": "medium",
        "geometry_role": "design_proposal",
        "green_type": "park",
        "name_zh": "京张遗址公园活力带",
        "area_sqm_declared": 371798.626
      },
      "geometry": {
        "type": "Polygon",
        "coordinates": [
          [
            [
              116.346071367,
              39.993491948
            ],
            [
              116.345937805,
              40.007491194
            ],
            [
              116.348738778,
              40.007506968
            ],
            [
              116.348871768,
              39.993507715
            ],
            [
              116.346071367,
              39.993491948
            ]
          ]
        ]
      }
    },
    {
      "type": "Feature",
      "id": "GREEN-042",
      "properties": {
        "id": "GREEN-042",
        "layer": "GREEN_SPACE",
        "source_type": "agent_generated_design",
        "confidence": "medium",
        "geometry_role": "design_proposal",
        "green_type": "green_wedge",
        "name_zh": "绿楔·慢行连接",
        "area_sqm_declared": 24872.044
      },
      "geometry": {
        "type": "Polygon",
        "coordinates": [
          [
            [
              116.348738778,
              40.007506968
            ],
            [
              116.348926153,
              40.007508021
            ],
            [
              116.349059105,
              39.993508767
            ],
            [
              116.348871768,
              39.993507715
            ],
            [
              116.348738778,
              40.007506968
            ]
          ]
        ]
      }
    },
    {
      "type": "Feature",
      "id": "GREEN-046",
      "properties": {
        "id": "GREEN-046",
        "layer": "GREEN_SPACE",
        "source_type": "agent_generated_design",
        "confidence": "medium",
        "geometry_role": "design_proposal",
        "green_type": "green_wedge",
        "name_zh": "绿楔·慢行连接",
        "area_sqm_declared": 20430.652
      },
      "geometry": {
        "type": "Polygon",
        "coordinates": [
          [
            [
              116.345828023,
              40.018990574
            ],
            [
              116.345937805,
              40.007491194
            ],
            [
              116.345750429,
              40.007490136
            ],
            [
              116.345640616,
              40.018989515
            ],
            [
              116.345828023,
              40.018990574
            ]
          ]
        ]
      }
    },
    {
      "type": "Feature",
      "id": "GREEN-049",
      "properties": {
        "id": "GREEN-049",
        "layer": "GREEN_SPACE",
        "source_type": "agent_generated_design",
        "confidence": "medium",
        "geometry_role": "design_proposal",
        "green_type": "park",
        "name_zh": "京张遗址公园活力带",
        "area_sqm_declared": 223313.364
      },
      "geometry": {
        "type": "Polygon",
        "coordinates": [
          [
            [
              116.345828023,
              40.018990574
            ],
            [
              116.348629466,
              40.019006354
            ],
            [
              116.348738778,
              40.007506968
            ],
            [
              116.345937805,
              40.007491194
            ],
            [
              116.345828023,
              40.018990574
            ]
          ],
          [
            [
              116.347906799,
              40.009572291
            ],
            [
              116.347836753,
              40.016931897
            ],
            [
              116.346660182,
              40.01692527
            ],
            [
              116.346730355,
              40.009565666
            ],
            [
              116.347906799,
              40.009572291
            ]
          ]
        ]
      }
    },
    {
      "type": "Feature",
      "id": "GREEN-050",
      "properties": {
        "id": "GREEN-050",
        "layer": "GREEN_SPACE",
        "source_type": "agent_generated_design",
        "confidence": "medium",
        "geometry_role": "design_proposal",
        "green_type": "green_wedge",
        "name_zh": "绿楔·慢行连接",
        "area_sqm_declared": 20430.652
      },
      "geometry": {
        "type": "Polygon",
        "coordinates": [
          [
            [
              116.348629466,
              40.019006354
            ],
            [
              116.348816873,
              40.019007407
            ],
            [
              116.348926153,
              40.007508021
            ],
            [
              116.348738778,
              40.007506968
            ],
            [
              116.348629466,
              40.019006354
            ]
          ]
        ]
      }
    },
    {
      "type": "Feature",
      "id": "GREEN-054",
      "properties": {
        "id": "GREEN-054",
        "layer": "GREEN_SPACE",
        "source_type": "agent_generated_design",
        "confidence": "medium",
        "geometry_role": "design_proposal",
        "green_type": "green_wedge",
        "name_zh": "绿楔·慢行连接",
        "area_sqm_declared": 13342.985
      },
      "geometry": {
        "type": "Polygon",
        "coordinates": [
          [
            [
              116.345640616,
              40.018989515
            ],
            [
              116.34556887,
              40.026499067
            ],
            [
              116.345568927,
              40.02650012
            ],
            [
              116.345756297,
              40.026500126
            ],
            [
              116.345828023,
              40.018990574
            ],
            [
              116.345640616,
              40.018989515
            ]
          ]
        ]
      }
    },
    {
      "type": "Feature",
      "id": "GREEN-057",
      "properties": {
        "id": "GREEN-057",
        "layer": "GREEN_SPACE",
        "source_type": "agent_generated_design",
        "confidence": "medium",
        "geometry_role": "design_proposal",
        "green_type": "park",
        "name_zh": "京张遗址公园活力带",
        "area_sqm_declared": 145623.732
      },
      "geometry": {
        "type": "Polygon",
        "coordinates": [
          [
            [
              116.345828023,
              40.018990574
            ],
            [
              116.345756297,
              40.026500126
            ],
            [
              116.348558197,
              40.02650017
            ],
            [
              116.348629466,
              40.019006354
            ],
            [
              116.345828023,
              40.018990574
            ]
          ],
          [
            [
              116.347804178,
              40.020353505
            ],
            [
              116.347758413,
              40.025159621
            ],
            [
              116.346581701,
              40.025152992
            ],
            [
              116.346627549,
              40.020346877
            ],
            [
              116.347804178,
              40.020353505
            ]
          ]
        ]
      }
    },
    {
      "type": "Feature",
      "id": "GREEN-058",
      "properties": {
        "id": "GREEN-058",
        "layer": "GREEN_SPACE",
        "source_type": "agent_generated_design",
        "confidence": "medium",
        "geometry_role": "design_proposal",
        "green_type": "green_wedge",
        "name_zh": "绿楔·慢行连接",
        "area_sqm_declared": 13313.15
      },
      "geometry": {
        "type": "Polygon",
        "coordinates": [
          [
            [
              116.348629466,
              40.019006354
            ],
            [
              116.348558197,
              40.02650017
            ],
            [
              116.348745635,
              40.026500171
            ],
            [
              116.348816873,
              40.019007407
            ],
            [
              116.348629466,
              40.019006354
            ]
          ]
        ]
      }
    }
  ]
}
