{
  "type": "FeatureCollection",
  "name": "jingzhang_new_path_building_prototypes",
  "features": [
    {
      "type": "Feature",
      "id": "BLDG-N-P",
      "properties": {
        "id": "BLDG-N-P",
        "layer": "BUILDING_FOOTPRINT",
        "source_type": "agent_generated_design",
        "confidence": "low",
        "geometry_role": "design_proposal",
        "building_type": "community_service",
        "key_area_role": "north",
        "access_level": "P",
        "name_zh": "北部开放前厅原型",
        "name_en": "North open-foyer prototype",
        "precision": "schematic_module_not_existing_or_committed_building",
        "design_intent": "面向全部用户的资源入口与公开说明，不进入保密研发。",
        "renewal_action": "professional_confirmation_required",
        "area_sqm_declared": 3990.0
      },
      "geometry": {
        "type": "Polygon",
        "coordinates": [
          [
            [
              116.34544543258403,
              40.02010774151262
            ],
            [
              116.3465581786557,
              40.020114021478534
            ],
            [
              116.3465545705578,
              40.020492255851956
            ],
            [
              116.34544181834298,
              40.02048597580242
            ],
            [
              116.34544543258403,
              40.02010774151262
            ]
          ]
        ]
      }
    },
    {
      "type": "Feature",
      "id": "BLDG-N-T",
      "properties": {
        "id": "BLDG-N-T",
        "layer": "BUILDING_FOOTPRINT",
        "source_type": "agent_generated_design",
        "confidence": "low",
        "geometry_role": "design_proposal",
        "building_type": "mixed_use",
        "key_area_role": "north",
        "access_level": "T",
        "name_zh": "北部受控协作庭院原型",
        "name_en": "North controlled-collaboration courtyard prototype",
        "precision": "schematic_module_not_existing_or_committed_building",
        "design_intent": "预约、告知和责任确认后的跨机构协作。",
        "renewal_action": "professional_confirmation_required",
        "area_sqm_declared": 5060.0
      },
      "geometry": {
        "type": "Polygon",
        "coordinates": [
          [
            [
              116.34745778146792,
              40.01668924583341
            ],
            [
              116.3487461605452,
              40.01669649351234
            ],
            [
              116.348742222523,
              40.01711075063134
            ],
            [
              116.34745383565644,
              40.0171035028467
            ],
            [
              116.34745778146792,
              40.01668924583341
            ]
          ]
        ]
      }
    },
    {
      "type": "Feature",
      "id": "BLDG-N-C",
      "properties": {
        "id": "BLDG-N-C",
        "layer": "BUILDING_FOOTPRINT",
        "source_type": "agent_generated_design",
        "confidence": "low",
        "geometry_role": "design_proposal",
        "building_type": "lab",
        "key_area_role": "north",
        "access_level": "C",
        "name_zh": "北部共享专业平台原型",
        "name_en": "North shared professional-platform prototype",
        "precision": "schematic_module_not_existing_or_committed_building",
        "design_intent": "受控、保密、安全与专业责任明确的试验及维修物流。",
        "renewal_action": "professional_confirmation_required",
        "area_sqm_declared": 6750.0
      },
      "geometry": {
        "type": "Polygon",
        "coordinates": [
          [
            [
              116.34967030498296,
              40.01355274335136
            ],
            [
              116.35113430577523,
              40.01356094975868
            ],
            [
              116.35112970033374,
              40.01404725208537
            ],
            [
              116.34966568915225,
              40.014039045537544
            ],
            [
              116.34967030498296,
              40.01355274335136
            ]
          ]
        ]
      }
    },
    {
      "type": "Feature",
      "id": "BLDG-M-P",
      "properties": {
        "id": "BLDG-M-P",
        "layer": "BUILDING_FOOTPRINT",
        "source_type": "agent_generated_design",
        "confidence": "low",
        "geometry_role": "design_proposal",
        "building_type": "community_service",
        "key_area_role": "middle",
        "access_level": "P",
        "name_zh": "中部资源入口与公共客厅原型",
        "name_en": "Middle resource gateway and public-living-room prototype",
        "precision": "schematic_module_not_existing_or_committed_building",
        "design_intent": "低门槛双语资源入口、普通公共服务和社区生活优先。",
        "renewal_action": "professional_confirmation_required",
        "area_sqm_declared": 2652.0
      },
      "geometry": {
        "type": "Polygon",
        "coordinates": [
          [
            [
              116.34454484793577,
              39.990544323035664
            ],
            [
              116.34545807684422,
              39.990549483957096
            ],
            [
              116.34545515415043,
              39.99085567518935
            ],
            [
              116.3445419211649,
              39.99085051421227
            ],
            [
              116.34454484793577,
              39.990544323035664
            ]
          ]
        ]
      }
    },
    {
      "type": "Feature",
      "id": "BLDG-M-T1",
      "properties": {
        "id": "BLDG-M-T1",
        "layer": "BUILDING_FOOTPRINT",
        "source_type": "agent_generated_design",
        "confidence": "low",
        "geometry_role": "design_proposal",
        "building_type": "mixed_use",
        "key_area_role": "middle",
        "access_level": "T",
        "name_zh": "中部小单元联合工作原型A",
        "name_en": "Middle small-unit collaboration prototype A",
        "precision": "schematic_module_not_existing_or_committed_building",
        "design_intent": "短周期团队、共享设施和可退出的联合工作。",
        "renewal_action": "professional_confirmation_required",
        "area_sqm_declared": 1870.0
      },
      "geometry": {
        "type": "Polygon",
        "coordinates": [
          [
            [
              116.34687949580695,
              39.98834509046099
            ],
            [
              116.34752341889339,
              39.98834871718517
            ],
            [
              116.34752050564838,
              39.988654908660216
            ],
            [
              116.34687657968736,
              39.98865128189693
            ],
            [
              116.34687949580695,
              39.98834509046099
            ]
          ]
        ]
      }
    },
    {
      "type": "Feature",
      "id": "BLDG-M-T2",
      "properties": {
        "id": "BLDG-M-T2",
        "layer": "BUILDING_FOOTPRINT",
        "source_type": "agent_generated_design",
        "confidence": "low",
        "geometry_role": "design_proposal",
        "building_type": "mixed_use",
        "key_area_role": "middle",
        "access_level": "T",
        "name_zh": "中部小单元联合工作原型B",
        "name_en": "Middle small-unit collaboration prototype B",
        "precision": "schematic_module_not_existing_or_committed_building",
        "design_intent": "与可变首层相连的低门槛创业和开源协作空间。",
        "renewal_action": "professional_confirmation_required",
        "area_sqm_declared": 1870.0
      },
      "geometry": {
        "type": "Polygon",
        "coordinates": [
          [
            [
              116.34867950095925,
              39.986345095427666
            ],
            [
              116.34932340549885,
              39.986348712002844
            ],
            [
              116.34932050049588,
              39.98665490369353
            ],
            [
              116.34867659308199,
              39.98665128707934
            ],
            [
              116.34867950095925,
              39.986345095427666
            ]
          ]
        ]
      }
    },
    {
      "type": "Feature",
      "id": "BLDG-S-P",
      "properties": {
        "id": "BLDG-S-P",
        "layer": "BUILDING_FOOTPRINT",
        "source_type": "agent_generated_design",
        "confidence": "low",
        "geometry_role": "design_proposal",
        "building_type": "retail",
        "key_area_role": "south",
        "access_level": "P",
        "name_zh": "南部站点前厅原型",
        "name_en": "South station-foyer prototype",
        "precision": "schematic_module_not_existing_or_committed_building",
        "design_intent": "普通通行、产品说明、城市发布和非消费性停留并存。",
        "renewal_action": "professional_confirmation_required",
        "area_sqm_declared": 3420.0
      },
      "geometry": {
        "type": "Polygon",
        "coordinates": [
          [
            [
              116.34467509723238,
              39.94772591676417
            ],
            [
              116.3457281657058,
              39.947731864592484
            ],
            [
              116.34572490545521,
              39.94807408087545
            ],
            [
              116.34467183173524,
              39.948068132975436
            ],
            [
              116.34467509723238,
              39.94772591676417
            ]
          ]
        ]
      }
    },
    {
      "type": "Feature",
      "id": "BLDG-S-T",
      "properties": {
        "id": "BLDG-S-T",
        "layer": "BUILDING_FOOTPRINT",
        "source_type": "agent_generated_design",
        "confidence": "low",
        "geometry_role": "design_proposal",
        "building_type": "retail",
        "key_area_role": "south",
        "access_level": "T",
        "name_zh": "南部客户协作与培训原型",
        "name_en": "South customer-collaboration and training prototype",
        "precision": "schematic_module_not_existing_or_committed_building",
        "design_intent": "预约客户协作、培训售后和低风险自愿体验。",
        "renewal_action": "professional_confirmation_required",
        "area_sqm_declared": 4410.0
      },
      "geometry": {
        "type": "Polygon",
        "coordinates": [
          [
            [
              116.3474875139694,
              39.94670742459508
            ],
            [
              116.34871607635566,
              39.946714332850014
            ],
            [
              116.34871248950213,
              39.94709257219026
            ],
            [
              116.34748392035091,
              39.94708566384328
            ],
            [
              116.3474875139694,
              39.94670742459508
            ]
          ]
        ]
      }
    },
    {
      "type": "Feature",
      "id": "BLDG-S-PT",
      "properties": {
        "id": "BLDG-S-PT",
        "layer": "BUILDING_FOOTPRINT",
        "source_type": "agent_generated_design",
        "confidence": "low",
        "geometry_role": "design_proposal",
        "building_type": "retail",
        "key_area_role": "south",
        "access_level": "P_T",
        "name_zh": "南部首客与AI原生业态原型",
        "name_en": "South first-customer and AI-native-service prototype",
        "precision": "schematic_module_not_existing_or_committed_building",
        "design_intent": "以正常商业和公共生活为基础，受告知的产品体验可选择退出。",
        "renewal_action": "professional_confirmation_required",
        "area_sqm_declared": 4410.0
      },
      "geometry": {
        "type": "Polygon",
        "coordinates": [
          [
            [
              116.35068751453582,
              39.94560744147176
            ],
            [
              116.35191605802692,
              39.94561431566111
            ],
            [
              116.35191248893506,
              39.945992555313445
            ],
            [
              116.35068393867937,
              39.945985681032504
            ],
            [
              116.35068751453582,
              39.94560744147176
            ]
          ]
        ]
      }
    }
  ]
}
