{
  "type": "FeatureCollection",
  "name": "constraints",
  "description": "约束图层（Constraints Layer）",
  "crs": {
    "type": "name",
    "properties": {
      "name": "EPSG:4326"
    }
  },
  "metadata": {
    "provisional_constraint": true,
    "official_boundary": false,
    "note": "概念性约束区域，基于公开资料推断，待正式数据确认后更新"
  },
  "features": [
    {
      "type": "Feature",
      "id": "CON-HERITAGE-001",
      "properties": {
        "name": "京张铁路遗址文保范围（概念）",
        "name_en": "Jingzhang Railway Heritage Protection Zone (Conceptual)",
        "type": "文保范围",
        "level": "概念性",
        "note": "京张铁路沿线文保控制范围，具体边界待文保部门确认",
        "id": "constraints-001",
        "layer": "REGULATORY_CONTROL",
        "source_type": "agent_inferred_from_public_data",
        "confidence": "low",
        "geometry_role": "provisional_constraint"
      },
      "geometry": {
        "type": "Polygon",
        "coordinates": [
          [
            [
              116.345,
              40.006
            ],
            [
              116.352,
              40.006
            ],
            [
              116.352,
              39.998
            ],
            [
              116.3515,
              39.99
            ],
            [
              116.351,
              39.982
            ],
            [
              116.3505,
              39.974
            ],
            [
              116.35,
              39.966
            ],
            [
              116.344,
              39.966
            ],
            [
              116.3445,
              39.974
            ],
            [
              116.345,
              39.982
            ],
            [
              116.3455,
              39.99
            ],
            [
              116.346,
              39.998
            ],
            [
              116.345,
              40.006
            ]
          ]
        ]
      }
    },
    {
      "type": "Feature",
      "id": "CON-BLUE-001",
      "properties": {
        "name": "小月河蓝线（概念）",
        "name_en": "Xiaoyuehe Blue Line (Conceptual)",
        "type": "蓝线",
        "level": "概念性",
        "note": "小月河河道管理范围，具体宽度待水务部门确认",
        "id": "constraints-002",
        "layer": "REGULATORY_CONTROL",
        "source_type": "agent_inferred_from_public_data",
        "confidence": "low",
        "geometry_role": "provisional_constraint"
      },
      "geometry": {
        "type": "Polygon",
        "coordinates": [
          [
            [
              116.358,
              40.006
            ],
            [
              116.36,
              40.006
            ],
            [
              116.362,
              40.0
            ],
            [
              116.364,
              39.994
            ],
            [
              116.365,
              39.988
            ],
            [
              116.364,
              39.982
            ],
            [
              116.362,
              39.976
            ],
            [
              116.36,
              39.97
            ],
            [
              116.358,
              39.97
            ],
            [
              116.36,
              39.976
            ],
            [
              116.362,
              39.982
            ],
            [
              116.363,
              39.988
            ],
            [
              116.362,
              39.994
            ],
            [
              116.36,
              40.0
            ],
            [
              116.358,
              40.006
            ]
          ]
        ]
      }
    },
    {
      "type": "Feature",
      "id": "CON-ECO-001",
      "properties": {
        "name": "生态管控区域（概念）",
        "name_en": "Ecological Control Zone (Conceptual)",
        "type": "生态管控",
        "level": "概念性",
        "note": "小月河沿线生态敏感区域，具体范围待生态评估确认",
        "id": "constraints-003",
        "layer": "REGULATORY_CONTROL",
        "source_type": "agent_inferred_from_public_data",
        "confidence": "low",
        "geometry_role": "provisional_constraint"
      },
      "geometry": {
        "type": "Polygon",
        "coordinates": [
          [
            [
              116.356,
              40.005
            ],
            [
              116.362,
              40.005
            ],
            [
              116.365,
              39.998
            ],
            [
              116.366,
              39.99
            ],
            [
              116.366,
              39.984
            ],
            [
              116.364,
              39.978
            ],
            [
              116.361,
              39.972
            ],
            [
              116.358,
              39.972
            ],
            [
              116.361,
              39.978
            ],
            [
              116.363,
              39.984
            ],
            [
              116.363,
              39.99
            ],
            [
              116.362,
              39.998
            ],
            [
              116.359,
              40.004
            ],
            [
              116.356,
              40.005
            ]
          ]
        ]
      }
    }
  ]
}