{
  "type": "FeatureCollection",
  "name": "public_space",
  "features": [
    {
      "type": "Feature",
      "id": "PUBLIC-001",
      "properties": {
        "id": "PUBLIC-001",
        "layer": "PUBLIC_SPACE",
        "source_type": "agent_generated_design",
        "confidence": "medium",
        "geometry_role": "design_proposal",
        "land_use_code": "1403",
        "name_zh": "AI 公共交往广场",
        "name_en": "AI public exchange plaza",
        "area_sqm_declared": 138548.977
      },
      "geometry": {
        "type": "Polygon",
        "coordinates": [
          [
            [
              116.3445,
              39.94984
            ],
            [
              116.347,
              39.94984
            ],
            [
              116.347,
              39.944
            ],
            [
              116.3445,
              39.944
            ],
            [
              116.3445,
              39.94984
            ]
          ]
        ]
      }
    },
    {
      "type": "Feature",
      "id": "PUBLIC-002",
      "properties": {
        "id": "PUBLIC-002",
        "layer": "PUBLIC_SPACE",
        "source_type": "agent_generated_design",
        "confidence": "medium",
        "geometry_role": "design_proposal",
        "land_use_code": "1403",
        "name_zh": "AI 公共交往广场",
        "name_en": "AI public exchange plaza",
        "area_sqm_declared": 118545.357
      },
      "geometry": {
        "type": "Polygon",
        "coordinates": [
          [
            [
              116.3495,
              39.9935
            ],
            [
              116.3495,
              39.9885
            ],
            [
              116.347,
              39.9885
            ],
            [
              116.347,
              39.9935
            ],
            [
              116.3495,
              39.9935
            ]
          ]
        ]
      }
    },
    {
      "type": "Feature",
      "id": "PUBLIC-003",
      "properties": {
        "id": "PUBLIC-003",
        "layer": "PUBLIC_SPACE",
        "source_type": "agent_generated_design",
        "confidence": "medium",
        "geometry_role": "design_proposal",
        "land_use_code": "1403",
        "name_zh": "AI 公共交往广场",
        "name_en": "AI public exchange plaza",
        "area_sqm_declared": 177766.13
      },
      "geometry": {
        "type": "Polygon",
        "coordinates": [
          [
            [
              116.3495,
              40.015
            ],
            [
              116.3495,
              40.0075
            ],
            [
              116.347,
              40.0075
            ],
            [
              116.347,
              40.015
            ],
            [
              116.3495,
              40.015
            ]
          ]
        ]
      }
    }
  ]
}
