{
  "type": "FeatureCollection",
  "name": "candidate_building_prototype_envelopes",
  "metadata": {
    "coordinate_reference_system": "EPSG:4326",
    "area_calculation_crs": "EPSG:4548",
    "concept_only": true,
    "disclaimer_zh": "概念性参数化设计：仅用于公开征集的方案讨论与复算，不代表现状、法定用地、道路/地块红线、权属、批准项目或工程可实施性；取得正式清权数据后必须整体重算。",
    "disclaimer_en": "Parameterized concept for open-call design discussion and recomputation only; not an existing condition, statutory land use, road/parcel redline, title record, approved project, or engineering alignment. Recompute after cleared official data arrives.",
    "envelope_status": "12 concept project envelopes; not existing/approved buildings or parcel-level implementation decisions"
  },
  "features": [
    {
      "type": "Feature",
      "id": "BLDG-K1-01",
      "properties": {
        "id": "BLDG-K1-01",
        "layer": "BUILDING_FOOTPRINT",
        "source_type": "agent_generated_design",
        "confidence": "low",
        "geometry_role": "design_proposal",
        "building_type": "existing_retained",
        "name_zh": "重点区1候选原型项目包络1",
        "name_en": "Key area 1 candidate prototype envelope 1",
        "key_area_id": "zhongzhiyuan_ai_acceleration_area",
        "candidate_project_envelope": true,
        "existing_building_confirmed": false,
        "approved_project": false,
        "intervention_logic": "retain_first_pending_building_survey",
        "demolition_decision": "none_without_inventory_rights_and_community_review",
        "area_sqm_declared": 176985.343
      },
      "geometry": {
        "type": "Polygon",
        "coordinates": [
          [
            [
              116.34432013884305,
              40.009673061906135
            ],
            [
              116.34426685240123,
              40.01524131624413
            ],
            [
              116.34761937710269,
              40.015260237914745
            ],
            [
              116.34767239115753,
              40.0096919798672
            ],
            [
              116.34432013884305,
              40.009673061906135
            ]
          ]
        ]
      }
    },
    {
      "type": "Feature",
      "id": "BLDG-K1-02",
      "properties": {
        "id": "BLDG-K1-02",
        "layer": "BUILDING_FOOTPRINT",
        "source_type": "agent_generated_design",
        "confidence": "low",
        "geometry_role": "design_proposal",
        "building_type": "ai_r_and_d",
        "name_zh": "重点区1候选原型项目包络2",
        "name_en": "Key area 1 candidate prototype envelope 2",
        "key_area_id": "zhongzhiyuan_ai_acceleration_area",
        "candidate_project_envelope": true,
        "existing_building_confirmed": false,
        "approved_project": false,
        "intervention_logic": "mixed_or_specialized_prototype_pending_site_survey",
        "demolition_decision": "none_without_inventory_rights_and_community_review",
        "area_sqm_declared": 176985.343
      },
      "geometry": {
        "type": "Polygon",
        "coordinates": [
          [
            [
              116.34946026035229,
              40.00970202980177
            ],
            [
              116.34940739157086,
              40.01527028981997
            ],
            [
              116.3527599211146,
              40.01528906279378
            ],
            [
              116.35281251750753,
              40.00972079909517
            ],
            [
              116.34946026035229,
              40.00970202980177
            ]
          ]
        ]
      }
    },
    {
      "type": "Feature",
      "id": "BLDG-K1-03",
      "properties": {
        "id": "BLDG-K1-03",
        "layer": "BUILDING_FOOTPRINT",
        "source_type": "agent_generated_design",
        "confidence": "low",
        "geometry_role": "design_proposal",
        "building_type": "lab",
        "name_zh": "重点区1候选原型项目包络3",
        "name_en": "Key area 1 candidate prototype envelope 3",
        "key_area_id": "zhongzhiyuan_ai_acceleration_area",
        "candidate_project_envelope": true,
        "existing_building_confirmed": false,
        "approved_project": false,
        "intervention_logic": "mixed_or_specialized_prototype_pending_site_survey",
        "demolition_decision": "none_without_inventory_rights_and_community_review",
        "area_sqm_declared": 176985.343
      },
      "geometry": {
        "type": "Polygon",
        "coordinates": [
          [
            [
              116.34423842690143,
              40.018211049672495
            ],
            [
              116.34418511771604,
              40.02377929569069
            ],
            [
              116.34753806022472,
              40.02379822305045
            ],
            [
              116.34759109690692,
              40.01822997332178
            ],
            [
              116.34423842690143,
              40.018211049672495
            ]
          ]
        ]
      }
    },
    {
      "type": "Feature",
      "id": "BLDG-K1-04",
      "properties": {
        "id": "BLDG-K1-04",
        "layer": "BUILDING_FOOTPRINT",
        "source_type": "agent_generated_design",
        "confidence": "low",
        "geometry_role": "design_proposal",
        "building_type": "incubator",
        "name_zh": "重点区1候选原型项目包络4",
        "name_en": "Key area 1 candidate prototype envelope 4",
        "key_area_id": "zhongzhiyuan_ai_acceleration_area",
        "candidate_project_envelope": true,
        "existing_building_confirmed": false,
        "approved_project": false,
        "intervention_logic": "mixed_or_specialized_prototype_pending_site_survey",
        "demolition_decision": "none_without_inventory_rights_and_community_review",
        "area_sqm_declared": 176985.343
      },
      "geometry": {
        "type": "Polygon",
        "coordinates": [
          [
            [
              116.3493791888708,
              40.01824002627815
            ],
            [
              116.34932629752404,
              40.02380827797796
            ],
            [
              116.35267924487731,
              40.0238270565962
            ],
            [
              116.35273186371937,
              40.01825880121508
            ],
            [
              116.3493791888708,
              40.01824002627815
            ]
          ]
        ]
      }
    },
    {
      "type": "Feature",
      "id": "BLDG-K2-01",
      "properties": {
        "id": "BLDG-K2-01",
        "layer": "BUILDING_FOOTPRINT",
        "source_type": "agent_generated_design",
        "confidence": "low",
        "geometry_role": "design_proposal",
        "building_type": "existing_retained",
        "name_zh": "重点区2候选原型项目包络1",
        "name_en": "Key area 2 candidate prototype envelope 1",
        "key_area_id": "beijing_ai_origin_community",
        "candidate_project_envelope": true,
        "existing_building_confirmed": false,
        "approved_project": false,
        "intervention_logic": "retain_first_pending_building_survey",
        "demolition_decision": "none_without_inventory_rights_and_community_review",
        "area_sqm_declared": 95284.822
      },
      "geometry": {
        "type": "Polygon",
        "coordinates": [
          [
            [
              116.34332028148671,
              39.9846529951526
            ],
            [
              116.34329137973108,
              39.98767141004613
            ],
            [
              116.3466197043132,
              39.98769022036614
            ],
            [
              116.34664845961467,
              39.98467180347316
            ],
            [
              116.34332028148671,
              39.9846529951526
            ]
          ]
        ]
      }
    },
    {
      "type": "Feature",
      "id": "BLDG-K2-02",
      "properties": {
        "id": "BLDG-K2-02",
        "layer": "BUILDING_FOOTPRINT",
        "source_type": "agent_generated_design",
        "confidence": "low",
        "geometry_role": "design_proposal",
        "building_type": "mixed_use",
        "name_zh": "重点区2候选原型项目包络2",
        "name_en": "Key area 2 candidate prototype envelope 2",
        "key_area_id": "beijing_ai_origin_community",
        "candidate_project_envelope": true,
        "existing_building_confirmed": false,
        "approved_project": false,
        "intervention_logic": "mixed_or_specialized_prototype_pending_site_survey",
        "demolition_decision": "none_without_inventory_rights_and_community_review",
        "area_sqm_declared": 95284.822
      },
      "geometry": {
        "type": "Polygon",
        "coordinates": [
          [
            [
              116.34842348922636,
              39.9846817955061
            ],
            [
              116.34839481203399,
              39.98770021346129
            ],
            [
              116.35172314139452,
              39.987718877247886
            ],
            [
              116.35175167213193,
              39.98470045730883
            ],
            [
              116.34842348922636,
              39.9846817955061
            ]
          ]
        ]
      }
    },
    {
      "type": "Feature",
      "id": "BLDG-K2-03",
      "properties": {
        "id": "BLDG-K2-03",
        "layer": "BUILDING_FOOTPRINT",
        "source_type": "agent_generated_design",
        "confidence": "low",
        "geometry_role": "design_proposal",
        "building_type": "education",
        "name_zh": "重点区2候选原型项目包络3",
        "name_en": "Key area 2 candidate prototype envelope 3",
        "key_area_id": "beijing_ai_origin_community",
        "candidate_project_envelope": true,
        "existing_building_confirmed": false,
        "approved_project": false,
        "intervention_logic": "mixed_or_specialized_prototype_pending_site_survey",
        "demolition_decision": "none_without_inventory_rights_and_community_review",
        "area_sqm_declared": 95284.822
      },
      "geometry": {
        "type": "Polygon",
        "coordinates": [
          [
            [
              116.34327596367885,
              39.989281230670855
            ],
            [
              116.34324705523807,
              39.992299643120035
            ],
            [
              116.34657560442614,
              39.99231845650618
            ],
            [
              116.34660436637888,
              39.9893000420573
            ],
            [
              116.34327596367885,
              39.989281230670855
            ]
          ]
        ]
      }
    },
    {
      "type": "Feature",
      "id": "BLDG-K2-04",
      "properties": {
        "id": "BLDG-K2-04",
        "layer": "BUILDING_FOOTPRINT",
        "source_type": "agent_generated_design",
        "confidence": "low",
        "geometry_role": "design_proposal",
        "building_type": "community_service",
        "name_zh": "重点区2候选原型项目包络4",
        "name_en": "Key area 2 candidate prototype envelope 4",
        "key_area_id": "beijing_ai_origin_community",
        "candidate_project_envelope": true,
        "existing_building_confirmed": false,
        "approved_project": false,
        "intervention_logic": "mixed_or_specialized_prototype_pending_site_survey",
        "demolition_decision": "none_without_inventory_rights_and_community_review",
        "area_sqm_declared": 95284.822
      },
      "geometry": {
        "type": "Polygon",
        "coordinates": [
          [
            [
              116.34837951576266,
              39.989310035718994
            ],
            [
              116.34835083193708,
              39.992328451230236
            ],
            [
              116.35167938590477,
              39.9923471180591
            ],
            [
              116.35170792324153,
              39.98932870056373
            ],
            [
              116.34837951576266,
              39.989310035718994
            ]
          ]
        ]
      }
    },
    {
      "type": "Feature",
      "id": "BLDG-K3-01",
      "properties": {
        "id": "BLDG-K3-01",
        "layer": "BUILDING_FOOTPRINT",
        "source_type": "agent_generated_design",
        "confidence": "low",
        "geometry_role": "design_proposal",
        "building_type": "existing_retained",
        "name_zh": "重点区3候选原型项目包络1",
        "name_en": "Key area 3 candidate prototype envelope 1",
        "key_area_id": "dazhongsi_ai_industry_cluster",
        "candidate_project_envelope": true,
        "existing_building_confirmed": false,
        "approved_project": false,
        "intervention_logic": "retain_first_pending_building_survey",
        "demolition_decision": "none_without_inventory_rights_and_community_review",
        "area_sqm_declared": 65928.26
      },
      "geometry": {
        "type": "Polygon",
        "coordinates": [
          [
            [
              116.34356041317169,
              39.94464535890393
            ],
            [
              116.3435434594686,
              39.94641917950501
            ],
            [
              116.34745984015684,
              39.946441289274716
            ],
            [
              116.34747669273268,
              39.94466746729214
            ],
            [
              116.34356041317169,
              39.94464535890393
            ]
          ]
        ]
      }
    },
    {
      "type": "Feature",
      "id": "BLDG-K3-02",
      "properties": {
        "id": "BLDG-K3-02",
        "layer": "BUILDING_FOOTPRINT",
        "source_type": "agent_generated_design",
        "confidence": "low",
        "geometry_role": "design_proposal",
        "building_type": "mixed_use",
        "name_zh": "重点区3候选原型项目包络2",
        "name_en": "Key area 3 candidate prototype envelope 2",
        "key_area_id": "dazhongsi_ai_industry_cluster",
        "candidate_project_envelope": true,
        "existing_building_confirmed": false,
        "approved_project": false,
        "intervention_logic": "mixed_or_specialized_prototype_pending_site_survey",
        "demolition_decision": "none_without_inventory_rights_and_community_review",
        "area_sqm_declared": 65928.26
      },
      "geometry": {
        "type": "Polygon",
        "coordinates": [
          [
            [
              116.34956537693023,
              39.944679204346215
            ],
            [
              116.3495485782891,
              39.9464530270622
            ],
            [
              116.35346496558002,
              39.946474933995326
            ],
            [
              116.35348166309325,
              39.94470110991052
            ],
            [
              116.34956537693023,
              39.944679204346215
            ]
          ]
        ]
      }
    },
    {
      "type": "Feature",
      "id": "BLDG-K3-03",
      "properties": {
        "id": "BLDG-K3-03",
        "layer": "BUILDING_FOOTPRINT",
        "source_type": "agent_generated_design",
        "confidence": "low",
        "geometry_role": "design_proposal",
        "building_type": "cultural",
        "name_zh": "重点区3候选原型项目包络3",
        "name_en": "Key area 3 candidate prototype envelope 3",
        "key_area_id": "dazhongsi_ai_industry_cluster",
        "candidate_project_envelope": true,
        "existing_building_confirmed": false,
        "approved_project": false,
        "intervention_logic": "mixed_or_specialized_prototype_pending_site_survey",
        "demolition_decision": "none_without_inventory_rights_and_community_review",
        "area_sqm_declared": 65928.26
      },
      "geometry": {
        "type": "Polygon",
        "coordinates": [
          [
            [
              116.34353441687932,
              39.94736521693386
            ],
            [
              116.3435174608724,
              39.94913903669102
            ],
            [
              116.34743399663981,
              39.949161148579144
            ],
            [
              116.34745085150574,
              39.947387327440396
            ],
            [
              116.34353441687932,
              39.94736521693386
            ]
          ]
        ]
      }
    },
    {
      "type": "Feature",
      "id": "BLDG-K3-04",
      "properties": {
        "id": "BLDG-K3-04",
        "layer": "BUILDING_FOOTPRINT",
        "source_type": "agent_generated_design",
        "confidence": "low",
        "geometry_role": "design_proposal",
        "building_type": "retail",
        "name_zh": "重点区3候选原型项目包络4",
        "name_en": "Key area 3 candidate prototype envelope 4",
        "key_area_id": "dazhongsi_ai_industry_cluster",
        "candidate_project_envelope": true,
        "existing_building_confirmed": false,
        "approved_project": false,
        "intervention_logic": "mixed_or_specialized_prototype_pending_site_survey",
        "demolition_decision": "none_without_inventory_rights_and_community_review",
        "area_sqm_declared": 65928.26
      },
      "geometry": {
        "type": "Polygon",
        "coordinates": [
          [
            [
              116.34953961840512,
              39.94739906561906
            ],
            [
              116.34952281748122,
              39.94917288749129
            ],
            [
              116.3534393598523,
              39.9491947965234
            ],
            [
              116.35345605963458,
              39.94742097328225
            ],
            [
              116.34953961840512,
              39.94739906561906
            ]
          ]
        ]
      }
    }
  ]
}
