{
  "type": "FeatureCollection",
  "name": "mobility_stitches_concept",
  "metadata": {
    "coordinate_reference_system": "EPSG:4326",
    "area_calculation_crs": "EPSG:4548",
    "concept_only": true,
    "disclaimer_zh": "概念性参数化设计：仅用于公开征集的方案讨论与复算，不代表现状、法定用地、道路/地块红线、权属、批准项目或工程可实施性；取得正式清权数据后必须整体重算。",
    "disclaimer_en": "Parameterized concept for open-call design discussion and recomputation only; not an existing condition, statutory land use, road/parcel redline, title record, approved project, or engineering alignment. Recompute after cleared official data arrives.",
    "alignment_status": "normalized concept network; not existing or approved road/rail/station geometry"
  },
  "features": [
    {
      "type": "Feature",
      "id": "ROAD-COMMONS-WALK",
      "properties": {
        "id": "ROAD-COMMONS-WALK",
        "layer": "ROAD_CENTERLINE",
        "source_type": "agent_generated_design",
        "confidence": "low",
        "geometry_role": "design_proposal",
        "road_class": "greenway",
        "name_zh": "贯通气候共同地慢行脊",
        "name_en": "Continuous climate-commons walking spine",
        "network_role": "longitudinal_walk",
        "alignment_basis": "normalized concept line clipped to provisional site; no surveyed road/station coordinates used",
        "existing_or_approved": false
      },
      "geometry": {
        "type": "LineString",
        "coordinates": [
          [
            116.34864667062385,
            39.93900022802355
          ],
          [
            116.34781523102592,
            40.026500165207324
          ]
        ]
      }
    },
    {
      "type": "Feature",
      "id": "ROAD-COMMONS-CYCLE",
      "properties": {
        "id": "ROAD-COMMONS-CYCLE",
        "layer": "ROAD_CENTERLINE",
        "source_type": "agent_generated_design",
        "confidence": "low",
        "geometry_role": "design_proposal",
        "road_class": "cycleway",
        "name_zh": "贯通骑行脊",
        "name_en": "Continuous cycling spine",
        "network_role": "longitudinal_cycle",
        "alignment_basis": "normalized concept line clipped to provisional site; no surveyed road/station coordinates used",
        "existing_or_approved": false
      },
      "geometry": {
        "type": "LineString",
        "coordinates": [
          [
            116.3489360341397,
            39.9390002260484
          ],
          [
            116.34810496389717,
            40.02650016780752
          ]
        ]
      }
    },
    {
      "type": "Feature",
      "id": "ROAD-STITCH-01",
      "properties": {
        "id": "ROAD-STITCH-01",
        "layer": "ROAD_CENTERLINE",
        "source_type": "agent_generated_design",
        "confidence": "low",
        "geometry_role": "design_proposal",
        "road_class": "pedestrian",
        "name_zh": "横向缝合通道1",
        "name_en": "Transverse stitch 1",
        "network_role": "transverse_stitch",
        "alignment_basis": "normalized concept line clipped to provisional site; no surveyed road/station coordinates used",
        "existing_or_approved": false
      },
      "geometry": {
        "type": "LineString",
        "coordinates": [
          [
            116.34050781015375,
            39.94592250922664
          ],
          [
            116.35530001301402,
            39.946005711240495
          ]
        ]
      }
    },
    {
      "type": "Feature",
      "id": "ROAD-STITCH-02",
      "properties": {
        "id": "ROAD-STITCH-02",
        "layer": "ROAD_CENTERLINE",
        "source_type": "agent_generated_design",
        "confidence": "low",
        "geometry_role": "design_proposal",
        "road_class": "greenway",
        "name_zh": "横向缝合通道2",
        "name_en": "Transverse stitch 2",
        "network_role": "transverse_stitch",
        "alignment_basis": "normalized concept line clipped to provisional site; no surveyed road/station coordinates used",
        "existing_or_approved": false
      },
      "geometry": {
        "type": "LineString",
        "coordinates": [
          [
            116.34026465470195,
            39.954678248426255
          ],
          [
            116.35530001578292,
            39.954762838425445
          ]
        ]
      }
    },
    {
      "type": "Feature",
      "id": "ROAD-STITCH-03",
      "properties": {
        "id": "ROAD-STITCH-03",
        "layer": "ROAD_CENTERLINE",
        "source_type": "agent_generated_design",
        "confidence": "low",
        "geometry_role": "design_proposal",
        "road_class": "pedestrian",
        "name_zh": "横向缝合通道3",
        "name_en": "Transverse stitch 3",
        "network_role": "transverse_stitch",
        "alignment_basis": "normalized concept line clipped to provisional site; no surveyed road/station coordinates used",
        "existing_or_approved": false
      },
      "geometry": {
        "type": "LineString",
        "coordinates": [
          [
            116.3399970943449,
            39.96430954515443
          ],
          [
            116.35530000150125,
            39.96439566310049
          ]
        ]
      }
    },
    {
      "type": "Feature",
      "id": "ROAD-STITCH-04",
      "properties": {
        "id": "ROAD-STITCH-04",
        "layer": "ROAD_CENTERLINE",
        "source_type": "agent_generated_design",
        "confidence": "low",
        "geometry_role": "design_proposal",
        "road_class": "greenway",
        "name_zh": "横向缝合通道4",
        "name_en": "Transverse stitch 4",
        "network_role": "transverse_stitch",
        "alignment_basis": "normalized concept line clipped to provisional site; no surveyed road/station coordinates used",
        "existing_or_approved": false
      },
      "geometry": {
        "type": "LineString",
        "coordinates": [
          [
            116.33972944031498,
            39.97394082470908
          ],
          [
            116.35457822716728,
            39.97402445533892
          ]
        ]
      }
    },
    {
      "type": "Feature",
      "id": "ROAD-STITCH-05",
      "properties": {
        "id": "ROAD-STITCH-05",
        "layer": "ROAD_CENTERLINE",
        "source_type": "agent_generated_design",
        "confidence": "low",
        "geometry_role": "design_proposal",
        "road_class": "pedestrian",
        "name_zh": "横向缝合通道5",
        "name_en": "Transverse stitch 5",
        "network_role": "transverse_stitch",
        "alignment_basis": "normalized concept line clipped to provisional site; no surveyed road/station coordinates used",
        "existing_or_approved": false
      },
      "geometry": {
        "type": "LineString",
        "coordinates": [
          [
            116.34030967414019,
            39.98445262373172
          ],
          [
            116.35373787424362,
            39.9845282732902
          ]
        ]
      }
    },
    {
      "type": "Feature",
      "id": "ROAD-STITCH-06",
      "properties": {
        "id": "ROAD-STITCH-06",
        "layer": "ROAD_CENTERLINE",
        "source_type": "agent_generated_design",
        "confidence": "low",
        "geometry_role": "design_proposal",
        "road_class": "greenway",
        "name_zh": "横向缝合通道6",
        "name_en": "Transverse stitch 6",
        "network_role": "transverse_stitch",
        "alignment_basis": "normalized concept line clipped to provisional site; no surveyed road/station coordinates used",
        "existing_or_approved": false
      },
      "geometry": {
        "type": "LineString",
        "coordinates": [
          [
            116.34098787514128,
            39.994964958502194
          ],
          [
            116.35357582506833,
            39.99503585087792
          ]
        ]
      }
    },
    {
      "type": "Feature",
      "id": "ROAD-STITCH-07",
      "properties": {
        "id": "ROAD-STITCH-07",
        "layer": "ROAD_CENTERLINE",
        "source_type": "agent_generated_design",
        "confidence": "low",
        "geometry_role": "design_proposal",
        "road_class": "pedestrian",
        "name_zh": "横向缝合通道7",
        "name_en": "Transverse stitch 7",
        "network_role": "transverse_stitch",
        "alignment_basis": "normalized concept line clipped to provisional site; no surveyed road/station coordinates used",
        "existing_or_approved": false
      },
      "geometry": {
        "type": "LineString",
        "coordinates": [
          [
            116.34166626210805,
            40.005477271990664
          ],
          [
            116.35415168885669,
            40.00554752387584
          ]
        ]
      }
    },
    {
      "type": "Feature",
      "id": "ROAD-STITCH-08",
      "properties": {
        "id": "ROAD-STITCH-08",
        "layer": "ROAD_CENTERLINE",
        "source_type": "agent_generated_design",
        "confidence": "low",
        "geometry_role": "design_proposal",
        "road_class": "greenway",
        "name_zh": "横向缝合通道8",
        "name_en": "Transverse stitch 8",
        "network_role": "transverse_stitch",
        "alignment_basis": "normalized concept line clipped to provisional site; no surveyed road/station coordinates used",
        "existing_or_approved": false
      },
      "geometry": {
        "type": "LineString",
        "coordinates": [
          [
            116.34218718740613,
            40.015988669419635
          ],
          [
            116.35472770770576,
            40.016059176411694
          ]
        ]
      }
    },
    {
      "type": "Feature",
      "id": "ROAD-KEY-CONNECT-01",
      "properties": {
        "id": "ROAD-KEY-CONNECT-01",
        "layer": "ROAD_CENTERLINE",
        "source_type": "agent_generated_design",
        "confidence": "low",
        "geometry_role": "design_proposal",
        "road_class": "transit_connection",
        "name_zh": "众智园AI自主创新加速区粗略范围概念接驳",
        "name_en": "Concept connection for key area 1",
        "network_role": "key_area_connection_without_station_claim",
        "alignment_basis": "normalized concept line clipped to provisional site; no surveyed road/station coordinates used",
        "existing_or_approved": false
      },
      "geometry": {
        "type": "LineString",
        "coordinates": [
          [
            116.34850000551087,
            40.01674972155628
          ],
          [
            116.34790809384714,
            40.01674639232237
          ]
        ]
      }
    },
    {
      "type": "Feature",
      "id": "ROAD-KEY-CONNECT-02",
      "properties": {
        "id": "ROAD-KEY-CONNECT-02",
        "layer": "ROAD_CENTERLINE",
        "source_type": "agent_generated_design",
        "confidence": "low",
        "geometry_role": "design_proposal",
        "road_class": "transit_connection",
        "name_zh": "北京AI原点社区粗略范围概念接驳",
        "name_en": "Concept connection for key area 2",
        "network_role": "key_area_connection_without_station_claim",
        "alignment_basis": "normalized concept line clipped to provisional site; no surveyed road/station coordinates used",
        "existing_or_approved": false
      },
      "geometry": {
        "type": "LineString",
        "coordinates": [
          [
            116.34749999952184,
            39.988500011128586
          ],
          [
            116.34817672707557,
            39.98850381889968
          ]
        ]
      }
    },
    {
      "type": "Feature",
      "id": "ROAD-KEY-CONNECT-03",
      "properties": {
        "id": "ROAD-KEY-CONNECT-03",
        "layer": "ROAD_CENTERLINE",
        "source_type": "agent_generated_design",
        "confidence": "low",
        "geometry_role": "design_proposal",
        "road_class": "transit_connection",
        "name_zh": "大钟寺AI产业聚集区粗略范围概念接驳",
        "name_en": "Concept connection for key area 3",
        "network_role": "key_area_connection_without_station_claim",
        "alignment_basis": "normalized concept line clipped to provisional site; no surveyed road/station coordinates used",
        "existing_or_approved": false
      },
      "geometry": {
        "type": "LineString",
        "coordinates": [
          [
            116.34849999671977,
            39.946920141571596
          ],
          [
            116.34857156047042,
            39.94692054371
          ]
        ]
      }
    }
  ]
}
