{
 "type": "FeatureCollection",
 "name": "land_use",
 "features": [
  {
   "type": "Feature",
   "id": "LU-001",
   "properties": {
    "id": "LU-001",
    "layer": "LAND_USE",
    "source_type": "agent_generated_design",
    "confidence": "medium",
    "geometry_role": "design_proposal",
    "area_sqm_declared": 48060.182,
    "land_use_code": "0802",
    "label_zh": "科研用地",
    "name_zh": "用地单元01·科研用地",
    "band_lat_lo": 40.0265,
    "band_lat_hi": 40.019,
    "column": 0
   },
   "geometry": {
    "type": "Polygon",
    "coordinates": [
     [
      [
       116.3427,
       40.0265
      ],
      [
       116.3423329,
       40.0189761
      ],
      [
       116.3432266,
       40.0189812
      ],
      [
       116.3431545,
       40.0265
      ],
      [
       116.3427,
       40.0265
      ]
     ]
    ]
   }
  },
  {
   "type": "Feature",
   "id": "LU-002",
   "properties": {
    "id": "LU-002",
    "layer": "LAND_USE",
    "source_type": "agent_generated_design",
    "confidence": "medium",
    "geometry_role": "design_proposal",
    "area_sqm_declared": 419845.33,
    "land_use_code": "1401",
    "label_zh": "公园绿地",
    "name_zh": "用地单元02·公园绿地",
    "band_lat_lo": 40.0265,
    "band_lat_hi": 40.019,
    "column": 1
   },
   "geometry": {
    "type": "Polygon",
    "coordinates": [
     [
      [
       116.3432266,
       40.0189812
      ],
      [
       116.3491297,
       40.0190145
      ],
      [
       116.3490585,
       40.0265002
      ],
      [
       116.3431545,
       40.0265
      ],
      [
       116.3432266,
       40.0189812
      ]
     ]
    ]
   }
  },
  {
   "type": "Feature",
   "id": "LU-003",
   "properties": {
    "id": "LU-003",
    "layer": "LAND_USE",
    "source_type": "agent_generated_design",
    "confidence": "medium",
    "geometry_role": "design_proposal",
    "area_sqm_declared": 424918.88,
    "land_use_code": "0802",
    "label_zh": "科研用地",
    "name_zh": "用地单元03·科研用地",
    "band_lat_lo": 40.0265,
    "band_lat_hi": 40.019,
    "column": 2
   },
   "geometry": {
    "type": "Polygon",
    "coordinates": [
     [
      [
       116.3491297,
       40.0190145
      ],
      [
       116.3548914,
       40.0190467
      ],
      [
       116.3553,
       40.0265
      ],
      [
       116.3490585,
       40.0265002
      ],
      [
       116.3491297,
       40.0190145
      ]
     ]
    ]
   }
  },
  {
   "type": "Feature",
   "id": "LU-004",
   "properties": {
    "id": "LU-004",
    "layer": "LAND_USE",
    "source_type": "agent_generated_design",
    "confidence": "medium",
    "geometry_role": "design_proposal",
    "area_sqm_declared": 58450.301,
    "land_use_code": "0802",
    "label_zh": "科研用地",
    "name_zh": "用地单元04·科研用地",
    "band_lat_lo": 40.019,
    "band_lat_hi": 40.0132,
    "column": 0
   },
   "geometry": {
    "type": "Polygon",
    "coordinates": [
     [
      [
       116.3423329,
       40.0189761
      ],
      [
       116.3420499,
       40.0131745
      ],
      [
       116.3432822,
       40.0131815
      ],
      [
       116.3432266,
       40.0189812
      ],
      [
       116.3423329,
       40.0189761
      ]
     ]
    ]
   }
  },
  {
   "type": "Feature",
   "id": "LU-005",
   "properties": {
    "id": "LU-005",
    "layer": "LAND_USE",
    "source_type": "agent_generated_design",
    "confidence": "medium",
    "geometry_role": "design_proposal",
    "area_sqm_declared": 324565.913,
    "land_use_code": "1403",
    "label_zh": "广场用地",
    "name_zh": "用地单元05·广场用地",
    "band_lat_lo": 40.019,
    "band_lat_hi": 40.0132,
    "column": 1
   },
   "geometry": {
    "type": "Polygon",
    "coordinates": [
     [
      [
       116.3491297,
       40.0190145
      ],
      [
       116.3432266,
       40.0189812
      ],
      [
       116.3432822,
       40.0131815
      ],
      [
       116.3491848,
       40.0132148
      ],
      [
       116.3491297,
       40.0190145
      ]
     ]
    ]
   }
  },
  {
   "type": "Feature",
   "id": "LU-006",
   "properties": {
    "id": "LU-006",
    "layer": "LAND_USE",
    "source_type": "agent_generated_design",
    "confidence": "medium",
    "geometry_role": "design_proposal",
    "area_sqm_declared": 306554.716,
    "land_use_code": "0802",
    "label_zh": "科研用地",
    "name_zh": "用地单元06·科研用地",
    "band_lat_lo": 40.019,
    "band_lat_hi": 40.0132,
    "column": 2
   },
   "geometry": {
    "type": "Polygon",
    "coordinates": [
     [
      [
       116.3491297,
       40.0190145
      ],
      [
       116.3491848,
       40.0132148
      ],
      [
       116.3545735,
       40.013245
      ],
      [
       116.3548914,
       40.0190467
      ],
      [
       116.3491297,
       40.0190145
      ]
     ]
    ]
   }
  },
  {
   "type": "Feature",
   "id": "LU-007",
   "properties": {
    "id": "LU-007",
    "layer": "LAND_USE",
    "source_type": "agent_generated_design",
    "confidence": "medium",
    "geometry_role": "design_proposal",
    "area_sqm_declared": 75586.55,
    "land_use_code": "0802",
    "label_zh": "科研用地",
    "name_zh": "用地单元07·科研用地",
    "band_lat_lo": 40.0132,
    "band_lat_hi": 40.0075,
    "column": 0
   },
   "geometry": {
    "type": "Polygon",
    "coordinates": [
     [
      [
       116.3432822,
       40.0131815
      ],
      [
       116.3420499,
       40.0131745
      ],
      [
       116.3417718,
       40.007473
      ],
      [
       116.3433369,
       40.0074818
      ],
      [
       116.3432822,
       40.0131815
      ]
     ]
    ]
   }
  },
  {
   "type": "Feature",
   "id": "LU-008",
   "properties": {
    "id": "LU-008",
    "layer": "LAND_USE",
    "source_type": "agent_generated_design",
    "confidence": "medium",
    "geometry_role": "design_proposal",
    "area_sqm_declared": 318969.635,
    "land_use_code": "1401",
    "label_zh": "公园绿地",
    "name_zh": "用地单元08·公园绿地",
    "band_lat_lo": 40.0132,
    "band_lat_hi": 40.0075,
    "column": 1
   },
   "geometry": {
    "type": "Polygon",
    "coordinates": [
     [
      [
       116.3492389,
       40.0075151
      ],
      [
       116.3491848,
       40.0132148
      ],
      [
       116.3432822,
       40.0131815
      ],
      [
       116.3433369,
       40.0074818
      ],
      [
       116.3492389,
       40.0075151
      ]
     ]
    ]
   }
  },
  {
   "type": "Feature",
   "id": "LU-009",
   "properties": {
    "id": "LU-009",
    "layer": "LAND_USE",
    "source_type": "agent_generated_design",
    "confidence": "medium",
    "geometry_role": "design_proposal",
    "area_sqm_declared": 281308.676,
    "land_use_code": "0802",
    "label_zh": "科研用地",
    "name_zh": "用地单元09·科研用地",
    "band_lat_lo": 40.0132,
    "band_lat_hi": 40.0075,
    "column": 2
   },
   "geometry": {
    "type": "Polygon",
    "coordinates": [
     [
      [
       116.3492389,
       40.0075151
      ],
      [
       116.354261,
       40.0075432
      ],
      [
       116.3545735,
       40.013245
      ],
      [
       116.3491848,
       40.0132148
      ],
      [
       116.3492389,
       40.0075151
      ]
     ]
    ]
   }
  },
  {
   "type": "Feature",
   "id": "LU-010",
   "properties": {
    "id": "LU-010",
    "layer": "LAND_USE",
    "source_type": "agent_generated_design",
    "confidence": "medium",
    "geometry_role": "design_proposal",
    "area_sqm_declared": 119719.041,
    "land_use_code": "0802",
    "label_zh": "科研用地",
    "name_zh": "用地单元10·科研用地",
    "band_lat_lo": 40.0075,
    "band_lat_hi": 40.0005,
    "column": 0
   },
   "geometry": {
    "type": "Polygon",
    "coordinates": [
     [
      [
       116.3417718,
       40.007473
      ],
      [
       116.3417,
       40.006
      ],
      [
       116.3413431,
       40.0004705
      ],
      [
       116.3434039,
       40.0004822
      ],
      [
       116.3433369,
       40.0074818
      ],
      [
       116.3417718,
       40.007473
      ]
     ]
    ]
   }
  },
  {
   "type": "Feature",
   "id": "LU-011",
   "properties": {
    "id": "LU-011",
    "layer": "LAND_USE",
    "source_type": "agent_generated_design",
    "confidence": "medium",
    "geometry_role": "design_proposal",
    "area_sqm_declared": 391716.671,
    "land_use_code": "1401",
    "label_zh": "公园绿地",
    "name_zh": "用地单元11·公园绿地",
    "band_lat_lo": 40.0075,
    "band_lat_hi": 40.0005,
    "column": 1
   },
   "geometry": {
    "type": "Polygon",
    "coordinates": [
     [
      [
       116.3492389,
       40.0075151
      ],
      [
       116.3433369,
       40.0074818
      ],
      [
       116.3434039,
       40.0004822
      ],
      [
       116.3493054,
       40.0005155
      ],
      [
       116.3492389,
       40.0075151
      ]
     ]
    ]
   }
  },
  {
   "type": "Feature",
   "id": "LU-012",
   "properties": {
    "id": "LU-012",
    "layer": "LAND_USE",
    "source_type": "agent_generated_design",
    "confidence": "medium",
    "geometry_role": "design_proposal",
    "area_sqm_declared": 318395.964,
    "land_use_code": "0802",
    "label_zh": "科研用地",
    "name_zh": "用地单元12·科研用地",
    "band_lat_lo": 40.0075,
    "band_lat_hi": 40.0005,
    "column": 2
   },
   "geometry": {
    "type": "Polygon",
    "coordinates": [
     [
      [
       116.3492389,
       40.0075151
      ],
      [
       116.3493054,
       40.0005155
      ],
      [
       116.3538774,
       40.0005411
      ],
      [
       116.354261,
       40.0075432
      ],
      [
       116.3492389,
       40.0075151
      ]
     ]
    ]
   }
  },
  {
   "type": "Feature",
   "id": "LU-013",
   "properties": {
    "id": "LU-013",
    "layer": "LAND_USE",
    "source_type": "agent_generated_design",
    "confidence": "medium",
    "geometry_role": "design_proposal",
    "area_sqm_declared": 154016.183,
    "land_use_code": "0802",
    "label_zh": "科研用地",
    "name_zh": "用地单元13·科研用地",
    "band_lat_lo": 40.0005,
    "band_lat_hi": 39.9935,
    "column": 0
   },
   "geometry": {
    "type": "Polygon",
    "coordinates": [
     [
      [
       116.3434039,
       40.0004822
      ],
      [
       116.3413431,
       40.0004705
      ],
      [
       116.3408913,
       39.993468
      ],
      [
       116.3434709,
       39.9934826
      ],
      [
       116.3434039,
       40.0004822
      ]
     ]
    ]
   }
  },
  {
   "type": "Feature",
   "id": "LU-014",
   "properties": {
    "id": "LU-014",
    "layer": "LAND_USE",
    "source_type": "agent_generated_design",
    "confidence": "medium",
    "geometry_role": "design_proposal",
    "area_sqm_declared": 391716.203,
    "land_use_code": "1401",
    "label_zh": "公园绿地",
    "name_zh": "用地单元14·公园绿地",
    "band_lat_lo": 40.0005,
    "band_lat_hi": 39.9935,
    "column": 1
   },
   "geometry": {
    "type": "Polygon",
    "coordinates": [
     [
      [
       116.3493718,
       39.9935159
      ],
      [
       116.3493054,
       40.0005155
      ],
      [
       116.3434039,
       40.0004822
      ],
      [
       116.3434709,
       39.9934826
      ],
      [
       116.3493718,
       39.9935159
      ]
     ]
    ]
   }
  },
  {
   "type": "Feature",
   "id": "LU-015",
   "properties": {
    "id": "LU-015",
    "layer": "LAND_USE",
    "source_type": "agent_generated_design",
    "confidence": "medium",
    "geometry_role": "design_proposal",
    "area_sqm_declared": 288554.203,
    "land_use_code": "0802",
    "label_zh": "科研用地",
    "name_zh": "用地单元15·科研用地",
    "band_lat_lo": 40.0005,
    "band_lat_hi": 39.9935,
    "column": 2
   },
   "geometry": {
    "type": "Polygon",
    "coordinates": [
     [
      [
       116.3493718,
       39.9935159
      ],
      [
       116.3534938,
       39.9935389
      ],
      [
       116.3538774,
       40.0005411
      ],
      [
       116.3493054,
       40.0005155
      ],
      [
       116.3493718,
       39.9935159
      ]
     ]
    ]
   }
  },
  {
   "type": "Feature",
   "id": "LU-016",
   "properties": {
    "id": "LU-016",
    "layer": "LAND_USE",
    "source_type": "agent_generated_design",
    "confidence": "medium",
    "geometry_role": "design_proposal",
    "area_sqm_declared": 131109.088,
    "land_use_code": "0804",
    "label_zh": "教育用地",
    "name_zh": "用地单元16·教育用地",
    "band_lat_lo": 39.9935,
    "band_lat_hi": 39.9885,
    "column": 0
   },
   "geometry": {
    "type": "Polygon",
    "coordinates": [
     [
      [
       116.3408913,
       39.993468
      ],
      [
       116.3405686,
       39.9884661
      ],
      [
       116.3435188,
       39.9884829
      ],
      [
       116.3434709,
       39.9934826
      ],
      [
       116.3408913,
       39.993468
      ]
     ]
    ]
   }
  },
  {
   "type": "Feature",
   "id": "LU-017",
   "properties": {
    "id": "LU-017",
    "layer": "LAND_USE",
    "source_type": "agent_generated_design",
    "confidence": "medium",
    "geometry_role": "design_proposal",
    "area_sqm_declared": 279797.001,
    "land_use_code": "1403",
    "label_zh": "广场用地",
    "name_zh": "用地单元17·广场用地",
    "band_lat_lo": 39.9935,
    "band_lat_hi": 39.9885,
    "column": 1
   },
   "geometry": {
    "type": "Polygon",
    "coordinates": [
     [
      [
       116.3435188,
       39.9884829
      ],
      [
       116.3494192,
       39.9885161
      ],
      [
       116.3493718,
       39.9935159
      ],
      [
       116.3434709,
       39.9934826
      ],
      [
       116.3435188,
       39.9884829
      ]
     ]
    ]
   }
  },
  {
   "type": "Feature",
   "id": "LU-018",
   "properties": {
    "id": "LU-018",
    "layer": "LAND_USE",
    "source_type": "agent_generated_design",
    "confidence": "medium",
    "geometry_role": "design_proposal",
    "area_sqm_declared": 189206.081,
    "land_use_code": "05",
    "label_zh": "商业服务业用地",
    "name_zh": "用地单元18·商业服务业用地",
    "band_lat_lo": 39.9935,
    "band_lat_hi": 39.9885,
    "column": 2
   },
   "geometry": {
    "type": "Polygon",
    "coordinates": [
     [
      [
       116.3494192,
       39.9885161
      ],
      [
       116.353417,
       39.9885385
      ],
      [
       116.3533,
       39.99
      ],
      [
       116.3534938,
       39.9935389
      ],
      [
       116.3493718,
       39.9935159
      ],
      [
       116.3494192,
       39.9885161
      ]
     ]
    ]
   }
  },
  {
   "type": "Feature",
   "id": "LU-019",
   "properties": {
    "id": "LU-019",
    "layer": "LAND_USE",
    "source_type": "agent_generated_design",
    "confidence": "medium",
    "geometry_role": "design_proposal",
    "area_sqm_declared": 148690.311,
    "land_use_code": "0804",
    "label_zh": "教育用地",
    "name_zh": "用地单元19·教育用地",
    "band_lat_lo": 39.9885,
    "band_lat_hi": 39.9835,
    "column": 0
   },
   "geometry": {
    "type": "Polygon",
    "coordinates": [
     [
      [
       116.3435667,
       39.9834831
      ],
      [
       116.3435188,
       39.9884829
      ],
      [
       116.3405686,
       39.9884661
      ],
      [
       116.3402459,
       39.9834643
      ],
      [
       116.3435667,
       39.9834831
      ]
     ]
    ]
   }
  },
  {
   "type": "Feature",
   "id": "LU-020",
   "properties": {
    "id": "LU-020",
    "layer": "LAND_USE",
    "source_type": "agent_generated_design",
    "confidence": "medium",
    "geometry_role": "design_proposal",
    "area_sqm_declared": 279796.762,
    "land_use_code": "1403",
    "label_zh": "广场用地",
    "name_zh": "用地单元20·广场用地",
    "band_lat_lo": 39.9885,
    "band_lat_hi": 39.9835,
    "column": 1
   },
   "geometry": {
    "type": "Polygon",
    "coordinates": [
     [
      [
       116.3494667,
       39.9835164
      ],
      [
       116.3494192,
       39.9885161
      ],
      [
       116.3435188,
       39.9884829
      ],
      [
       116.3435667,
       39.9834831
      ],
      [
       116.3494667,
       39.9835164
      ]
     ]
    ]
   }
  },
  {
   "type": "Feature",
   "id": "LU-021",
   "properties": {
    "id": "LU-021",
    "layer": "LAND_USE",
    "source_type": "agent_generated_design",
    "confidence": "medium",
    "geometry_role": "design_proposal",
    "area_sqm_declared": 197937.173,
    "land_use_code": "05",
    "label_zh": "商业服务业用地",
    "name_zh": "用地单元21·商业服务业用地",
    "band_lat_lo": 39.9885,
    "band_lat_hi": 39.9835,
    "column": 2
   },
   "geometry": {
    "type": "Polygon",
    "coordinates": [
     [
      [
       116.3494667,
       39.9835164
      ],
      [
       116.3538169,
       39.9835407
      ],
      [
       116.353417,
       39.9885385
      ],
      [
       116.3494192,
       39.9885161
      ],
      [
       116.3494667,
       39.9835164
      ]
     ]
    ]
   }
  },
  {
   "type": "Feature",
   "id": "LU-022",
   "properties": {
    "id": "LU-022",
    "layer": "LAND_USE",
    "source_type": "agent_generated_design",
    "confidence": "medium",
    "geometry_role": "design_proposal",
    "area_sqm_declared": 293121.649,
    "land_use_code": "0701",
    "label_zh": "城镇住宅用地",
    "name_zh": "用地单元22·城镇住宅用地",
    "band_lat_lo": 39.9835,
    "band_lat_hi": 39.975,
    "column": 0
   },
   "geometry": {
    "type": "Polygon",
    "coordinates": [
     [
      [
       116.3435667,
       39.9834831
      ],
      [
       116.3402459,
       39.9834643
      ],
      [
       116.3397,
       39.975
      ],
      [
       116.3397011,
       39.9749612
      ],
      [
       116.343648,
       39.9749836
      ],
      [
       116.3435667,
       39.9834831
      ]
     ]
    ]
   }
  },
  {
   "type": "Feature",
   "id": "LU-023",
   "properties": {
    "id": "LU-023",
    "layer": "LAND_USE",
    "source_type": "agent_generated_design",
    "confidence": "medium",
    "geometry_role": "design_proposal",
    "area_sqm_declared": 475653.947,
    "land_use_code": "1401",
    "label_zh": "公园绿地",
    "name_zh": "用地单元23·公园绿地",
    "band_lat_lo": 39.9835,
    "band_lat_hi": 39.975,
    "column": 1
   },
   "geometry": {
    "type": "Polygon",
    "coordinates": [
     [
      [
       116.3495472,
       39.9750169
      ],
      [
       116.3494667,
       39.9835164
      ],
      [
       116.3435667,
       39.9834831
      ],
      [
       116.343648,
       39.9749836
      ],
      [
       116.3495472,
       39.9750169
      ]
     ]
    ]
   }
  },
  {
   "type": "Feature",
   "id": "LU-024",
   "properties": {
    "id": "LU-024",
    "layer": "LAND_USE",
    "source_type": "agent_generated_design",
    "confidence": "medium",
    "geometry_role": "design_proposal",
    "area_sqm_declared": 374889.765,
    "land_use_code": "0802",
    "label_zh": "科研用地",
    "name_zh": "用地单元24·科研用地",
    "band_lat_lo": 39.9835,
    "band_lat_hi": 39.975,
    "column": 2
   },
   "geometry": {
    "type": "Polygon",
    "coordinates": [
     [
      [
       116.3495472,
       39.9750169
      ],
      [
       116.3544966,
       39.9750445
      ],
      [
       116.3538169,
       39.9835407
      ],
      [
       116.3494667,
       39.9835164
      ],
      [
       116.3495472,
       39.9750169
      ]
     ]
    ]
   }
  },
  {
   "type": "Feature",
   "id": "LU-025",
   "properties": {
    "id": "LU-025",
    "layer": "LAND_USE",
    "source_type": "agent_generated_design",
    "confidence": "medium",
    "geometry_role": "design_proposal",
    "area_sqm_declared": 365780.437,
    "land_use_code": "0701",
    "label_zh": "城镇住宅用地",
    "name_zh": "用地单元25·城镇住宅用地",
    "band_lat_lo": 39.975,
    "band_lat_hi": 39.965,
    "column": 0
   },
   "geometry": {
    "type": "Polygon",
    "coordinates": [
     [
      [
       116.3397011,
       39.9749612
      ],
      [
       116.3399789,
       39.9649628
      ],
      [
       116.3437436,
       39.9649841
      ],
      [
       116.343648,
       39.9749836
      ],
      [
       116.3397011,
       39.9749612
      ]
     ]
    ]
   }
  },
  {
   "type": "Feature",
   "id": "LU-026",
   "properties": {
    "id": "LU-026",
    "layer": "LAND_USE",
    "source_type": "agent_generated_design",
    "confidence": "medium",
    "geometry_role": "design_proposal",
    "area_sqm_declared": 559591.995,
    "land_use_code": "1401",
    "label_zh": "公园绿地",
    "name_zh": "用地单元26·公园绿地",
    "band_lat_lo": 39.975,
    "band_lat_hi": 39.965,
    "column": 1
   },
   "geometry": {
    "type": "Polygon",
    "coordinates": [
     [
      [
       116.3495472,
       39.9750169
      ],
      [
       116.343648,
       39.9749836
      ],
      [
       116.3437436,
       39.9649841
      ],
      [
       116.349642,
       39.9650174
      ],
      [
       116.3495472,
       39.9750169
      ]
     ]
    ]
   }
  },
  {
   "type": "Feature",
   "id": "LU-027",
   "properties": {
    "id": "LU-027",
    "layer": "LAND_USE",
    "source_type": "agent_generated_design",
    "confidence": "medium",
    "geometry_role": "design_proposal",
    "area_sqm_declared": 502949.502,
    "land_use_code": "0802",
    "label_zh": "科研用地",
    "name_zh": "用地单元27·科研用地",
    "band_lat_lo": 39.975,
    "band_lat_hi": 39.965,
    "column": 2
   },
   "geometry": {
    "type": "Polygon",
    "coordinates": [
     [
      [
       116.3495472,
       39.9750169
      ],
      [
       116.349642,
       39.9650174
      ],
      [
       116.3552961,
       39.965049
      ],
      [
       116.3544966,
       39.9750445
      ],
      [
       116.3495472,
       39.9750169
      ]
     ]
    ]
   }
  },
  {
   "type": "Feature",
   "id": "LU-028",
   "properties": {
    "id": "LU-028",
    "layer": "LAND_USE",
    "source_type": "agent_generated_design",
    "confidence": "medium",
    "geometry_role": "design_proposal",
    "area_sqm_declared": 314466.755,
    "land_use_code": "0701",
    "label_zh": "城镇住宅用地",
    "name_zh": "用地单元28·城镇住宅用地",
    "band_lat_lo": 39.965,
    "band_lat_hi": 39.956,
    "column": 0
   },
   "geometry": {
    "type": "Polygon",
    "coordinates": [
     [
      [
       116.3438297,
       39.9559846
      ],
      [
       116.3437436,
       39.9649841
      ],
      [
       116.3399789,
       39.9649628
      ],
      [
       116.3402289,
       39.9559642
      ],
      [
       116.3438297,
       39.9559846
      ]
     ]
    ]
   }
  },
  {
   "type": "Feature",
   "id": "LU-029",
   "properties": {
    "id": "LU-029",
    "layer": "LAND_USE",
    "source_type": "agent_generated_design",
    "confidence": "medium",
    "geometry_role": "design_proposal",
    "area_sqm_declared": 503631.978,
    "land_use_code": "1401",
    "label_zh": "公园绿地",
    "name_zh": "用地单元29·公园绿地",
    "band_lat_lo": 39.965,
    "band_lat_hi": 39.956,
    "column": 1
   },
   "geometry": {
    "type": "Polygon",
    "coordinates": [
     [
      [
       116.3497273,
       39.9560179
      ],
      [
       116.349642,
       39.9650174
      ],
      [
       116.3437436,
       39.9649841
      ],
      [
       116.3438297,
       39.9559846
      ],
      [
       116.3497273,
       39.9560179
      ]
     ]
    ]
   }
  },
  {
   "type": "Feature",
   "id": "LU-030",
   "properties": {
    "id": "LU-030",
    "layer": "LAND_USE",
    "source_type": "agent_generated_design",
    "confidence": "medium",
    "geometry_role": "design_proposal",
    "area_sqm_declared": 479494.415,
    "land_use_code": "0802",
    "label_zh": "科研用地",
    "name_zh": "用地单元30·科研用地",
    "band_lat_lo": 39.965,
    "band_lat_hi": 39.956,
    "column": 2
   },
   "geometry": {
    "type": "Polygon",
    "coordinates": [
     [
      [
       116.3497273,
       39.9560179
      ],
      [
       116.3553,
       39.956049
      ],
      [
       116.3553,
       39.965
      ],
      [
       116.3552961,
       39.965049
      ],
      [
       116.349642,
       39.9650174
      ],
      [
       116.3497273,
       39.9560179
      ]
     ]
    ]
   }
  },
  {
   "type": "Feature",
   "id": "LU-031",
   "properties": {
    "id": "LU-031",
    "layer": "LAND_USE",
    "source_type": "agent_generated_design",
    "confidence": "medium",
    "geometry_role": "design_proposal",
    "area_sqm_declared": 207187.71,
    "land_use_code": "0701",
    "label_zh": "城镇住宅用地",
    "name_zh": "用地单元31·城镇住宅用地",
    "band_lat_lo": 39.956,
    "band_lat_hi": 39.94984,
    "column": 0
   },
   "geometry": {
    "type": "Polygon",
    "coordinates": [
     [
      [
       116.3438885,
       39.949825
      ],
      [
       116.3438297,
       39.9559846
      ],
      [
       116.3402289,
       39.9559642
      ],
      [
       116.3404,
       39.9498052
      ],
      [
       116.3438885,
       39.949825
      ]
     ]
    ]
   }
  },
  {
   "type": "Feature",
   "id": "LU-032",
   "properties": {
    "id": "LU-032",
    "layer": "LAND_USE",
    "source_type": "agent_generated_design",
    "confidence": "medium",
    "geometry_role": "design_proposal",
    "area_sqm_declared": 344707.663,
    "land_use_code": "1401",
    "label_zh": "公园绿地",
    "name_zh": "用地单元32·公园绿地",
    "band_lat_lo": 39.956,
    "band_lat_hi": 39.94984,
    "column": 1
   },
   "geometry": {
    "type": "Polygon",
    "coordinates": [
     [
      [
       116.3497856,
       39.9498582
      ],
      [
       116.3497273,
       39.9560179
      ],
      [
       116.3438297,
       39.9559846
      ],
      [
       116.3438885,
       39.949825
      ],
      [
       116.3497856,
       39.9498582
      ]
     ]
    ]
   }
  },
  {
   "type": "Feature",
   "id": "LU-033",
   "properties": {
    "id": "LU-033",
    "layer": "LAND_USE",
    "source_type": "agent_generated_design",
    "confidence": "medium",
    "geometry_role": "design_proposal",
    "area_sqm_declared": 324027.833,
    "land_use_code": "0802",
    "label_zh": "科研用地",
    "name_zh": "用地单元33·科研用地",
    "band_lat_lo": 39.956,
    "band_lat_hi": 39.94984,
    "column": 2
   },
   "geometry": {
    "type": "Polygon",
    "coordinates": [
     [
      [
       116.3497856,
       39.9498582
      ],
      [
       116.3553,
       39.949889
      ],
      [
       116.3553,
       39.956049
      ],
      [
       116.3497273,
       39.9560179
      ],
      [
       116.3497856,
       39.9498582
      ]
     ]
    ]
   }
  },
  {
   "type": "Feature",
   "id": "LU-034",
   "properties": {
    "id": "LU-034",
    "layer": "LAND_USE",
    "source_type": "agent_generated_design",
    "confidence": "medium",
    "geometry_role": "design_proposal",
    "area_sqm_declared": 96579.58,
    "land_use_code": "05",
    "label_zh": "商业服务业用地",
    "name_zh": "用地单元34·商业服务业用地",
    "band_lat_lo": 39.94984,
    "band_lat_hi": 39.9469,
    "column": 0
   },
   "geometry": {
    "type": "Polygon",
    "coordinates": [
     [
      [
       116.3404,
       39.9498052
      ],
      [
       116.3404816,
       39.9468656
      ],
      [
       116.3439166,
       39.9468851
      ],
      [
       116.3438885,
       39.949825
      ],
      [
       116.3404,
       39.9498052
      ]
     ]
    ]
   }
  },
  {
   "type": "Feature",
   "id": "LU-035",
   "properties": {
    "id": "LU-035",
    "layer": "LAND_USE",
    "source_type": "agent_generated_design",
    "confidence": "medium",
    "geometry_role": "design_proposal",
    "area_sqm_declared": 164519.439,
    "land_use_code": "1401",
    "label_zh": "公园绿地",
    "name_zh": "用地单元35·公园绿地",
    "band_lat_lo": 39.94984,
    "band_lat_hi": 39.9469,
    "column": 1
   },
   "geometry": {
    "type": "Polygon",
    "coordinates": [
     [
      [
       116.3439166,
       39.9468851
      ],
      [
       116.3498134,
       39.9469183
      ],
      [
       116.3497856,
       39.9498582
      ],
      [
       116.3438885,
       39.949825
      ],
      [
       116.3439166,
       39.9468851
      ]
     ]
    ]
   }
  },
  {
   "type": "Feature",
   "id": "LU-036",
   "properties": {
    "id": "LU-036",
    "layer": "LAND_USE",
    "source_type": "agent_generated_design",
    "confidence": "medium",
    "geometry_role": "design_proposal",
    "area_sqm_declared": 153457.833,
    "land_use_code": "05",
    "label_zh": "商业服务业用地",
    "name_zh": "用地单元36·商业服务业用地",
    "band_lat_lo": 39.94984,
    "band_lat_hi": 39.9469,
    "column": 2
   },
   "geometry": {
    "type": "Polygon",
    "coordinates": [
     [
      [
       116.3498134,
       39.9469183
      ],
      [
       116.3553,
       39.946949
      ],
      [
       116.3553,
       39.949889
      ],
      [
       116.3497856,
       39.9498582
      ],
      [
       116.3498134,
       39.9469183
      ]
     ]
    ]
   }
  },
  {
   "type": "Feature",
   "id": "LU-037",
   "properties": {
    "id": "LU-037",
    "layer": "LAND_USE",
    "source_type": "agent_generated_design",
    "confidence": "medium",
    "geometry_role": "design_proposal",
    "area_sqm_declared": 93806.154,
    "land_use_code": "05",
    "label_zh": "商业服务业用地",
    "name_zh": "用地单元37·商业服务业用地",
    "band_lat_lo": 39.9469,
    "band_lat_hi": 39.944,
    "column": 0
   },
   "geometry": {
    "type": "Polygon",
    "coordinates": [
     [
      [
       116.3404816,
       39.9468656
      ],
      [
       116.3405621,
       39.9439661
      ],
      [
       116.3439443,
       39.9439853
      ],
      [
       116.3439166,
       39.9468851
      ],
      [
       116.3404816,
       39.9468656
      ]
     ]
    ]
   }
  },
  {
   "type": "Feature",
   "id": "LU-038",
   "properties": {
    "id": "LU-038",
    "layer": "LAND_USE",
    "source_type": "agent_generated_design",
    "confidence": "medium",
    "geometry_role": "design_proposal",
    "area_sqm_declared": 162280.998,
    "land_use_code": "1401",
    "label_zh": "公园绿地",
    "name_zh": "用地单元38·公园绿地",
    "band_lat_lo": 39.9469,
    "band_lat_hi": 39.944,
    "column": 1
   },
   "geometry": {
    "type": "Polygon",
    "coordinates": [
     [
      [
       116.3498134,
       39.9469183
      ],
      [
       116.3439166,
       39.9468851
      ],
      [
       116.3439443,
       39.9439853
      ],
      [
       116.3498409,
       39.9440185
      ],
      [
       116.3498134,
       39.9469183
      ]
     ]
    ]
   }
  },
  {
   "type": "Feature",
   "id": "LU-039",
   "properties": {
    "id": "LU-039",
    "layer": "LAND_USE",
    "source_type": "agent_generated_design",
    "confidence": "medium",
    "geometry_role": "design_proposal",
    "area_sqm_declared": 150615.521,
    "land_use_code": "05",
    "label_zh": "商业服务业用地",
    "name_zh": "用地单元39·商业服务业用地",
    "band_lat_lo": 39.9469,
    "band_lat_hi": 39.944,
    "column": 2
   },
   "geometry": {
    "type": "Polygon",
    "coordinates": [
     [
      [
       116.3498134,
       39.9469183
      ],
      [
       116.3498409,
       39.9440185
      ],
      [
       116.3553,
       39.944049
      ],
      [
       116.3553,
       39.946949
      ],
      [
       116.3498134,
       39.9469183
      ]
     ]
    ]
   }
  },
  {
   "type": "Feature",
   "id": "LU-040",
   "properties": {
    "id": "LU-040",
    "layer": "LAND_USE",
    "source_type": "agent_generated_design",
    "confidence": "medium",
    "geometry_role": "design_proposal",
    "area_sqm_declared": 79704.047,
    "land_use_code": "16",
    "label_zh": "留白用地",
    "name_zh": "用地单元40·留白用地",
    "band_lat_lo": 39.944,
    "band_lat_hi": 39.9415,
    "column": 0
   },
   "geometry": {
    "type": "Polygon",
    "coordinates": [
     [
      [
       116.3439443,
       39.9439853
      ],
      [
       116.3405621,
       39.9439661
      ],
      [
       116.3406315,
       39.9414665
      ],
      [
       116.3439682,
       39.9414854
      ],
      [
       116.3439443,
       39.9439853
      ]
     ]
    ]
   }
  },
  {
   "type": "Feature",
   "id": "LU-041",
   "properties": {
    "id": "LU-041",
    "layer": "LAND_USE",
    "source_type": "agent_generated_design",
    "confidence": "medium",
    "geometry_role": "design_proposal",
    "area_sqm_declared": 139897.347,
    "land_use_code": "1401",
    "label_zh": "公园绿地",
    "name_zh": "用地单元41·公园绿地",
    "band_lat_lo": 39.944,
    "band_lat_hi": 39.9415,
    "column": 1
   },
   "geometry": {
    "type": "Polygon",
    "coordinates": [
     [
      [
       116.3498646,
       39.9415186
      ],
      [
       116.3498409,
       39.9440185
      ],
      [
       116.3439443,
       39.9439853
      ],
      [
       116.3439682,
       39.9414854
      ],
      [
       116.3498646,
       39.9415186
      ]
     ]
    ]
   }
  },
  {
   "type": "Feature",
   "id": "LU-042",
   "properties": {
    "id": "LU-042",
    "layer": "LAND_USE",
    "source_type": "agent_generated_design",
    "confidence": "medium",
    "geometry_role": "design_proposal",
    "area_sqm_declared": 129239.582,
    "land_use_code": "16",
    "label_zh": "留白用地",
    "name_zh": "用地单元42·留白用地",
    "band_lat_lo": 39.944,
    "band_lat_hi": 39.9415,
    "column": 2
   },
   "geometry": {
    "type": "Polygon",
    "coordinates": [
     [
      [
       116.3498646,
       39.9415186
      ],
      [
       116.3553,
       39.941549
      ],
      [
       116.3553,
       39.944049
      ],
      [
       116.3498409,
       39.9440185
      ],
      [
       116.3498646,
       39.9415186
      ]
     ]
    ]
   }
  },
  {
   "type": "Feature",
   "id": "LU-043",
   "properties": {
    "id": "LU-043",
    "layer": "LAND_USE",
    "source_type": "agent_generated_design",
    "confidence": "medium",
    "geometry_role": "design_proposal",
    "area_sqm_declared": 77881.488,
    "land_use_code": "16",
    "label_zh": "留白用地",
    "name_zh": "用地单元43·留白用地",
    "band_lat_lo": 39.9415,
    "band_lat_hi": 39.939,
    "column": 0
   },
   "geometry": {
    "type": "Polygon",
    "coordinates": [
     [
      [
       116.3439919,
       39.9390002
      ],
      [
       116.3439682,
       39.9414854
      ],
      [
       116.3406315,
       39.9414665
      ],
      [
       116.3407,
       39.939
      ],
      [
       116.3439919,
       39.9390002
      ]
     ]
    ]
   }
  },
  {
   "type": "Feature",
   "id": "LU-044",
   "properties": {
    "id": "LU-044",
    "layer": "LAND_USE",
    "source_type": "agent_generated_design",
    "confidence": "medium",
    "geometry_role": "design_proposal",
    "area_sqm_declared": 140007.713,
    "land_use_code": "1401",
    "label_zh": "公园绿地",
    "name_zh": "用地单元44·公园绿地",
    "band_lat_lo": 39.9415,
    "band_lat_hi": 39.939,
    "column": 1
   },
   "geometry": {
    "type": "Polygon",
    "coordinates": [
     [
      [
       116.3498884,
       39.9390002
      ],
      [
       116.3498646,
       39.9415186
      ],
      [
       116.3439682,
       39.9414854
      ],
      [
       116.3439919,
       39.9390002
      ],
      [
       116.3498884,
       39.9390002
      ]
     ]
    ]
   }
  },
  {
   "type": "Feature",
   "id": "LU-045",
   "properties": {
    "id": "LU-045",
    "layer": "LAND_USE",
    "source_type": "agent_generated_design",
    "confidence": "medium",
    "geometry_role": "design_proposal",
    "area_sqm_declared": 130417.173,
    "land_use_code": "16",
    "label_zh": "留白用地",
    "name_zh": "用地单元45·留白用地",
    "band_lat_lo": 39.9415,
    "band_lat_hi": 39.939,
    "column": 2
   },
   "geometry": {
    "type": "Polygon",
    "coordinates": [
     [
      [
       116.3498884,
       39.9390002
      ],
      [
       116.3553,
       39.939
      ],
      [
       116.3553,
       39.941549
      ],
      [
       116.3498646,
       39.9415186
      ],
      [
       116.3498884,
       39.9390002
      ]
     ]
    ]
   }
  }
 ]
}
