{
  "type": "FeatureCollection",
  "name": "jingzhang_new_neighbors_neighbor_stations",
  "metadata": {
    "design_status": "conceptual_recommendation",
    "coordinate_reference_system": "EPSG:4326",
    "area_check_crs": "EPSG:4548",
    "boundary_basis": "geometry/site_boundary.geojson#SITE-001 (provisional_constraint)",
    "precision_note": "Design geometry supports open-call review and recalculation only; it is not an official redline, regulatory control, cadastral boundary, or engineering survey."
  },
  "features": [
    {
      "type": "Feature",
      "id": "PS-ZY-01",
      "properties": {
        "id": "PS-ZY-01",
        "layer": "PUBLIC_SPACE",
        "source_type": "agent_generated_design",
        "confidence": "medium",
        "geometry_role": "design_proposal",
        "name_zh": "公共问题站",
        "key_area_ref": "PROV-KEY-001",
        "scenario_card_ref": "SCN-02",
        "human_service_required": true,
        "non_ai_equivalent_required": true,
        "removable_facilities": true,
        "usage_note": "邻站概念范围；位置、开放边界、工程条件和运营主体待专业深化。",
        "area_sqm_declared": 6636.24
      },
      "geometry": {
        "type": "Polygon",
        "coordinates": [
          [
            [
              116.3458,
              40.0147175
            ],
            [
              116.3458,
              40.0154175
            ],
            [
              116.3468,
              40.0154175
            ],
            [
              116.3468,
              40.0147175
            ],
            [
              116.3458,
              40.0147175
            ]
          ]
        ]
      }
    },
    {
      "type": "Feature",
      "id": "PS-ZY-02",
      "properties": {
        "id": "PS-ZY-02",
        "layer": "PUBLIC_SPACE",
        "source_type": "agent_generated_design",
        "confidence": "medium",
        "geometry_role": "design_proposal",
        "name_zh": "技能跃迁站",
        "key_area_ref": "PROV-KEY-001",
        "scenario_card_ref": "SCN-01",
        "human_service_required": true,
        "non_ai_equivalent_required": true,
        "removable_facilities": true,
        "usage_note": "邻站概念范围；位置、开放边界、工程条件和运营主体待专业深化。",
        "area_sqm_declared": 6636.233
      },
      "geometry": {
        "type": "Polygon",
        "coordinates": [
          [
            [
              116.3502,
              40.0147175
            ],
            [
              116.3502,
              40.0154175
            ],
            [
              116.3512,
              40.0154175
            ],
            [
              116.3512,
              40.0147175
            ],
            [
              116.3502,
              40.0147175
            ]
          ]
        ]
      }
    },
    {
      "type": "Feature",
      "id": "PS-ZY-03",
      "properties": {
        "id": "PS-ZY-03",
        "layer": "PUBLIC_SPACE",
        "source_type": "agent_generated_design",
        "confidence": "medium",
        "geometry_role": "design_proposal",
        "name_zh": "受控验证站",
        "key_area_ref": "PROV-KEY-001",
        "scenario_card_ref": "SCN-09",
        "human_service_required": true,
        "non_ai_equivalent_required": true,
        "removable_facilities": true,
        "usage_note": "邻站概念范围；位置、开放边界、工程条件和运营主体待专业深化。",
        "area_sqm_declared": 6635.918
      },
      "geometry": {
        "type": "Polygon",
        "coordinates": [
          [
            [
              116.3458,
              40.018082500000006
            ],
            [
              116.3458,
              40.0187825
            ],
            [
              116.3468,
              40.0187825
            ],
            [
              116.3468,
              40.018082500000006
            ],
            [
              116.3458,
              40.018082500000006
            ]
          ]
        ]
      }
    },
    {
      "type": "Feature",
      "id": "PS-ZY-04",
      "properties": {
        "id": "PS-ZY-04",
        "layer": "PUBLIC_SPACE",
        "source_type": "agent_generated_design",
        "confidence": "medium",
        "geometry_role": "design_proposal",
        "name_zh": "清河共创站",
        "key_area_ref": "PROV-KEY-001",
        "scenario_card_ref": "SCN-03",
        "human_service_required": true,
        "non_ai_equivalent_required": true,
        "removable_facilities": true,
        "usage_note": "邻站概念范围；位置、开放边界、工程条件和运营主体待专业深化。",
        "area_sqm_declared": 6635.911
      },
      "geometry": {
        "type": "Polygon",
        "coordinates": [
          [
            [
              116.3502,
              40.018082500000006
            ],
            [
              116.3502,
              40.0187825
            ],
            [
              116.3512,
              40.0187825
            ],
            [
              116.3512,
              40.018082500000006
            ],
            [
              116.3502,
              40.018082500000006
            ]
          ]
        ]
      }
    },
    {
      "type": "Feature",
      "id": "PS-AO-01",
      "properties": {
        "id": "PS-AO-01",
        "layer": "PUBLIC_SPACE",
        "source_type": "agent_generated_design",
        "confidence": "medium",
        "geometry_role": "design_proposal",
        "name_zh": "原点共创桌",
        "key_area_ref": "PROV-KEY-002",
        "scenario_card_ref": "SCN-03",
        "human_service_required": true,
        "non_ai_equivalent_required": true,
        "removable_facilities": true,
        "usage_note": "邻站概念范围；位置、开放边界、工程条件和运营主体待专业深化。",
        "area_sqm_declared": 6638.827
      },
      "geometry": {
        "type": "Polygon",
        "coordinates": [
          [
            [
              116.34479999999999,
              39.987700000000004
            ],
            [
              116.34479999999999,
              39.9884
            ],
            [
              116.3458,
              39.9884
            ],
            [
              116.3458,
              39.987700000000004
            ],
            [
              116.34479999999999,
              39.987700000000004
            ]
          ]
        ]
      }
    },
    {
      "type": "Feature",
      "id": "PS-AO-02",
      "properties": {
        "id": "PS-AO-02",
        "layer": "PUBLIC_SPACE",
        "source_type": "agent_generated_design",
        "confidence": "medium",
        "geometry_role": "design_proposal",
        "name_zh": "百业 AI 门诊",
        "key_area_ref": "PROV-KEY-002",
        "scenario_card_ref": "SCN-04",
        "human_service_required": true,
        "non_ai_equivalent_required": true,
        "removable_facilities": true,
        "usage_note": "邻站概念范围；位置、开放边界、工程条件和运营主体待专业深化。",
        "area_sqm_declared": 6638.82
      },
      "geometry": {
        "type": "Polygon",
        "coordinates": [
          [
            [
              116.3492,
              39.987700000000004
            ],
            [
              116.3492,
              39.9884
            ],
            [
              116.3502,
              39.9884
            ],
            [
              116.3502,
              39.987700000000004
            ],
            [
              116.3492,
              39.987700000000004
            ]
          ]
        ]
      }
    },
    {
      "type": "Feature",
      "id": "PS-AO-03",
      "properties": {
        "id": "PS-AO-03",
        "layer": "PUBLIC_SPACE",
        "source_type": "agent_generated_design",
        "confidence": "medium",
        "geometry_role": "design_proposal",
        "name_zh": "新邻技能站",
        "key_area_ref": "PROV-KEY-002",
        "scenario_card_ref": "SCN-01",
        "human_service_required": true,
        "non_ai_equivalent_required": true,
        "removable_facilities": true,
        "usage_note": "邻站概念范围；位置、开放边界、工程条件和运营主体待专业深化。",
        "area_sqm_declared": 6638.741
      },
      "geometry": {
        "type": "Polygon",
        "coordinates": [
          [
            [
              116.34479999999999,
              39.9886
            ],
            [
              116.34479999999999,
              39.98929999999999
            ],
            [
              116.3458,
              39.98929999999999
            ],
            [
              116.3458,
              39.9886
            ],
            [
              116.34479999999999,
              39.9886
            ]
          ]
        ]
      }
    },
    {
      "type": "Feature",
      "id": "PS-AO-04",
      "properties": {
        "id": "PS-AO-04",
        "layer": "PUBLIC_SPACE",
        "source_type": "agent_generated_design",
        "confidence": "medium",
        "geometry_role": "design_proposal",
        "name_zh": "社区复核站",
        "key_area_ref": "PROV-KEY-002",
        "scenario_card_ref": "SCN-09",
        "human_service_required": true,
        "non_ai_equivalent_required": true,
        "removable_facilities": true,
        "usage_note": "邻站概念范围；位置、开放边界、工程条件和运营主体待专业深化。",
        "area_sqm_declared": 6638.734
      },
      "geometry": {
        "type": "Polygon",
        "coordinates": [
          [
            [
              116.3492,
              39.9886
            ],
            [
              116.3492,
              39.98929999999999
            ],
            [
              116.3502,
              39.98929999999999
            ],
            [
              116.3502,
              39.9886
            ],
            [
              116.3492,
              39.9886
            ]
          ]
        ]
      }
    },
    {
      "type": "Feature",
      "id": "PS-DZ-01",
      "properties": {
        "id": "PS-DZ-01",
        "layer": "PUBLIC_SPACE",
        "source_type": "agent_generated_design",
        "confidence": "medium",
        "geometry_role": "design_proposal",
        "name_zh": "百业试营街",
        "key_area_ref": "PROV-KEY-003",
        "scenario_card_ref": "SCN-05",
        "human_service_required": true,
        "non_ai_equivalent_required": true,
        "removable_facilities": true,
        "usage_note": "邻站概念范围；位置、开放边界、工程条件和运营主体待专业深化。",
        "area_sqm_declared": 4987.776
      },
      "geometry": {
        "type": "Polygon",
        "coordinates": [
          [
            [
              116.3454,
              39.946481999999996
            ],
            [
              116.3454,
              39.9470076
            ],
            [
              116.3464,
              39.9470076
            ],
            [
              116.3464,
              39.946481999999996
            ],
            [
              116.3454,
              39.946481999999996
            ]
          ]
        ]
      }
    },
    {
      "type": "Feature",
      "id": "PS-DZ-02",
      "properties": {
        "id": "PS-DZ-02",
        "layer": "PUBLIC_SPACE",
        "source_type": "agent_generated_design",
        "confidence": "medium",
        "geometry_role": "design_proposal",
        "name_zh": "智能原生作坊",
        "key_area_ref": "PROV-KEY-003",
        "scenario_card_ref": "SCN-06",
        "human_service_required": true,
        "non_ai_equivalent_required": true,
        "removable_facilities": true,
        "usage_note": "邻站概念范围；位置、开放边界、工程条件和运营主体待专业深化。",
        "area_sqm_declared": 4987.77
      },
      "geometry": {
        "type": "Polygon",
        "coordinates": [
          [
            [
              116.3506,
              39.946481999999996
            ],
            [
              116.3506,
              39.9470076
            ],
            [
              116.3516,
              39.9470076
            ],
            [
              116.3516,
              39.946481999999996
            ],
            [
              116.3506,
              39.946481999999996
            ]
          ]
        ]
      }
    },
    {
      "type": "Feature",
      "id": "PS-DZ-03",
      "properties": {
        "id": "PS-DZ-03",
        "layer": "PUBLIC_SPACE",
        "source_type": "agent_generated_design",
        "confidence": "medium",
        "geometry_role": "design_proposal",
        "name_zh": "全球新邻厅",
        "key_area_ref": "PROV-KEY-003",
        "scenario_card_ref": "SCN-12",
        "human_service_required": true,
        "non_ai_equivalent_required": true,
        "removable_facilities": true,
        "usage_note": "邻站概念范围；位置、开放边界、工程条件和运营主体待专业深化。",
        "area_sqm_declared": 4987.75
      },
      "geometry": {
        "type": "Polygon",
        "coordinates": [
          [
            [
              116.3454,
              39.946832400000005
            ],
            [
              116.3454,
              39.94735800000001
            ],
            [
              116.3464,
              39.94735800000001
            ],
            [
              116.3464,
              39.946832400000005
            ],
            [
              116.3454,
              39.946832400000005
            ]
          ]
        ]
      }
    },
    {
      "type": "Feature",
      "id": "PS-DZ-04",
      "properties": {
        "id": "PS-DZ-04",
        "layer": "PUBLIC_SPACE",
        "source_type": "agent_generated_design",
        "confidence": "medium",
        "geometry_role": "design_proposal",
        "name_zh": "京张发布场",
        "key_area_ref": "PROV-KEY-003",
        "scenario_card_ref": "SCN-11",
        "human_service_required": true,
        "non_ai_equivalent_required": true,
        "removable_facilities": true,
        "usage_note": "邻站概念范围；位置、开放边界、工程条件和运营主体待专业深化。",
        "area_sqm_declared": 4987.744
      },
      "geometry": {
        "type": "Polygon",
        "coordinates": [
          [
            [
              116.3506,
              39.946832400000005
            ],
            [
              116.3506,
              39.94735800000001
            ],
            [
              116.3516,
              39.94735800000001
            ],
            [
              116.3516,
              39.946832400000005
            ],
            [
              116.3506,
              39.946832400000005
            ]
          ]
        ]
      }
    }
  ]
}
