{
 "type": "FeatureCollection",
 "name": "buildings_design",
 "features": [
  {
   "type": "Feature",
   "id": "BLDG-001-01",
   "properties": {
    "id": "BLDG-001-01",
    "layer": "BUILDING_FOOTPRINT",
    "source_type": "agent_generated_design",
    "confidence": "medium",
    "geometry_role": "design_proposal",
    "building_type": "mixed_use",
    "action": "renovate",
    "name_zh": "混合功能建筑"
   },
   "geometry": {
    "type": "Polygon",
    "coordinates": [
     [
      [
       116.34405552659845,
       40.01038143523421
      ],
      [
       116.34405552659845,
       40.01070143523421
      ],
      [
       116.34373552659846,
       40.01070143523421
      ],
      [
       116.34373552659846,
       40.01038143523421
      ],
      [
       116.34405552659845,
       40.01038143523421
      ]
     ]
    ]
   }
  },
  {
   "type": "Feature",
   "id": "BLDG-001-02",
   "properties": {
    "id": "BLDG-001-02",
    "layer": "BUILDING_FOOTPRINT",
    "source_type": "agent_generated_design",
    "confidence": "medium",
    "geometry_role": "design_proposal",
    "building_type": "mixed_use",
    "action": "renovate",
    "name_zh": "混合功能建筑"
   },
   "geometry": {
    "type": "Polygon",
    "coordinates": [
     [
      [
       116.34409477880344,
       40.0165386923544
      ],
      [
       116.34409477880344,
       40.016858692354404
      ],
      [
       116.34377477880345,
       40.016858692354404
      ],
      [
       116.34377477880345,
       40.0165386923544
      ],
      [
       116.34409477880344,
       40.0165386923544
      ]
     ]
    ]
   }
  },
  {
   "type": "Feature",
   "id": "BLDG-001-03",
   "properties": {
    "id": "BLDG-001-03",
    "layer": "BUILDING_FOOTPRINT",
    "source_type": "agent_generated_design",
    "confidence": "medium",
    "geometry_role": "design_proposal",
    "building_type": "mixed_use",
    "action": "renovate",
    "name_zh": "混合功能建筑"
   },
   "geometry": {
    "type": "Polygon",
    "coordinates": [
     [
      [
       116.34408097250719,
       40.022740549336696
      ],
      [
       116.34408097250719,
       40.0230605493367
      ],
      [
       116.3437609725072,
       40.0230605493367
      ],
      [
       116.3437609725072,
       40.022740549336696
      ],
      [
       116.34408097250719,
       40.022740549336696
      ]
     ]
    ]
   }
  },
  {
   "type": "Feature",
   "id": "BLDG-001-04",
   "properties": {
    "id": "BLDG-001-04",
    "layer": "BUILDING_FOOTPRINT",
    "source_type": "agent_generated_design",
    "confidence": "medium",
    "geometry_role": "design_proposal",
    "building_type": "mixed_use",
    "action": "renovate",
    "name_zh": "混合功能建筑"
   },
   "geometry": {
    "type": "Polygon",
    "coordinates": [
     [
      [
       116.34585695987097,
       40.01042422562132
      ],
      [
       116.34585695987097,
       40.01074422562132
      ],
      [
       116.34553695987098,
       40.01074422562132
      ],
      [
       116.34553695987098,
       40.01042422562132
      ],
      [
       116.34585695987097,
       40.01042422562132
      ]
     ]
    ]
   }
  },
  {
   "type": "Feature",
   "id": "BLDG-001-05",
   "properties": {
    "id": "BLDG-001-05",
    "layer": "BUILDING_FOOTPRINT",
    "source_type": "agent_generated_design",
    "confidence": "medium",
    "geometry_role": "design_proposal",
    "building_type": "mixed_use",
    "action": "renovate",
    "name_zh": "混合功能建筑"
   },
   "geometry": {
    "type": "Polygon",
    "coordinates": [
     [
      [
       116.34585449947902,
       40.01658203748204
      ],
      [
       116.34585449947902,
       40.01690203748204
      ],
      [
       116.34553449947903,
       40.01690203748204
      ],
      [
       116.34553449947903,
       40.01658203748204
      ],
      [
       116.34585449947902,
       40.01658203748204
      ]
     ]
    ]
   }
  },
  {
   "type": "Feature",
   "id": "BLDG-001-06",
   "properties": {
    "id": "BLDG-001-06",
    "layer": "BUILDING_FOOTPRINT",
    "source_type": "agent_generated_design",
    "confidence": "medium",
    "geometry_role": "design_proposal",
    "building_type": "mixed_use",
    "action": "renovate",
    "name_zh": "混合功能建筑"
   },
   "geometry": {
    "type": "Polygon",
    "coordinates": [
     [
      [
       116.34585838265083,
       40.02270755222827
      ],
      [
       116.34585838265083,
       40.02302755222827
      ],
      [
       116.34553838265084,
       40.02302755222827
      ],
      [
       116.34553838265084,
       40.02270755222827
      ],
      [
       116.34585838265083,
       40.02270755222827
      ]
     ]
    ]
   }
  },
  {
   "type": "Feature",
   "id": "BLDG-001-07",
   "properties": {
    "id": "BLDG-001-07",
    "layer": "BUILDING_FOOTPRINT",
    "source_type": "agent_generated_design",
    "confidence": "medium",
    "geometry_role": "design_proposal",
    "building_type": "mixed_use",
    "action": "renovate",
    "name_zh": "混合功能建筑"
   },
   "geometry": {
    "type": "Polygon",
    "coordinates": [
     [
      [
       116.34773427563603,
       40.0104625555883
      ],
      [
       116.34773427563603,
       40.0107825555883
      ],
      [
       116.34741427563604,
       40.0107825555883
      ],
      [
       116.34741427563604,
       40.0104625555883
      ],
      [
       116.34773427563603,
       40.0104625555883
      ]
     ]
    ]
   }
  },
  {
   "type": "Feature",
   "id": "BLDG-001-08",
   "properties": {
    "id": "BLDG-001-08",
    "layer": "BUILDING_FOOTPRINT",
    "source_type": "agent_generated_design",
    "confidence": "medium",
    "geometry_role": "design_proposal",
    "building_type": "mixed_use",
    "action": "renovate",
    "name_zh": "混合功能建筑"
   },
   "geometry": {
    "type": "Polygon",
    "coordinates": [
     [
      [
       116.34769818956866,
       40.01655678867576
      ],
      [
       116.34769818956866,
       40.01687678867576
      ],
      [
       116.34737818956867,
       40.01687678867576
      ],
      [
       116.34737818956867,
       40.01655678867576
      ],
      [
       116.34769818956866,
       40.01655678867576
      ]
     ]
    ]
   }
  },
  {
   "type": "Feature",
   "id": "BLDG-001-09",
   "properties": {
    "id": "BLDG-001-09",
    "layer": "BUILDING_FOOTPRINT",
    "source_type": "agent_generated_design",
    "confidence": "medium",
    "geometry_role": "design_proposal",
    "building_type": "mixed_use",
    "action": "renovate",
    "name_zh": "混合功能建筑"
   },
   "geometry": {
    "type": "Polygon",
    "coordinates": [
     [
      [
       116.34775862532001,
       40.02281039173976
      ],
      [
       116.34775862532001,
       40.02313039173976
      ],
      [
       116.34743862532002,
       40.02313039173976
      ],
      [
       116.34743862532002,
       40.02281039173976
      ],
      [
       116.34775862532001,
       40.02281039173976
      ]
     ]
    ]
   }
  },
  {
   "type": "Feature",
   "id": "BLDG-001-10",
   "properties": {
    "id": "BLDG-001-10",
    "layer": "BUILDING_FOOTPRINT",
    "source_type": "agent_generated_design",
    "confidence": "medium",
    "geometry_role": "design_proposal",
    "building_type": "mixed_use",
    "action": "renovate",
    "name_zh": "混合功能建筑"
   },
   "geometry": {
    "type": "Polygon",
    "coordinates": [
     [
      [
       116.3495859190205,
       40.0104109349903
      ],
      [
       116.3495859190205,
       40.0107309349903
      ],
      [
       116.34926591902051,
       40.0107309349903
      ],
      [
       116.34926591902051,
       40.0104109349903
      ],
      [
       116.3495859190205,
       40.0104109349903
      ]
     ]
    ]
   }
  },
  {
   "type": "Feature",
   "id": "BLDG-001-11",
   "properties": {
    "id": "BLDG-001-11",
    "layer": "BUILDING_FOOTPRINT",
    "source_type": "agent_generated_design",
    "confidence": "medium",
    "geometry_role": "design_proposal",
    "building_type": "mixed_use",
    "action": "renovate",
    "name_zh": "混合功能建筑"
   },
   "geometry": {
    "type": "Polygon",
    "coordinates": [
     [
      [
       116.34963381727934,
       40.01653558992167
      ],
      [
       116.34963381727934,
       40.016855589921676
      ],
      [
       116.34931381727935,
       40.016855589921676
      ],
      [
       116.34931381727935,
       40.01653558992167
      ],
      [
       116.34963381727934,
       40.01653558992167
      ]
     ]
    ]
   }
  },
  {
   "type": "Feature",
   "id": "BLDG-001-12",
   "properties": {
    "id": "BLDG-001-12",
    "layer": "BUILDING_FOOTPRINT",
    "source_type": "agent_generated_design",
    "confidence": "medium",
    "geometry_role": "design_proposal",
    "building_type": "mixed_use",
    "action": "renovate",
    "name_zh": "混合功能建筑"
   },
   "geometry": {
    "type": "Polygon",
    "coordinates": [
     [
      [
       116.34961968288175,
       40.022731419781024
      ],
      [
       116.34961968288175,
       40.02305141978103
      ],
      [
       116.34929968288176,
       40.02305141978103
      ],
      [
       116.34929968288176,
       40.022731419781024
      ],
      [
       116.34961968288175,
       40.022731419781024
      ]
     ]
    ]
   }
  },
  {
   "type": "Feature",
   "id": "BLDG-001-13",
   "properties": {
    "id": "BLDG-001-13",
    "layer": "BUILDING_FOOTPRINT",
    "source_type": "agent_generated_design",
    "confidence": "medium",
    "geometry_role": "design_proposal",
    "building_type": "mixed_use",
    "action": "renovate",
    "name_zh": "混合功能建筑"
   },
   "geometry": {
    "type": "Polygon",
    "coordinates": [
     [
      [
       116.35136731060999,
       40.010377468401906
      ],
      [
       116.35136731060999,
       40.01069746840191
      ],
      [
       116.35104731061,
       40.01069746840191
      ],
      [
       116.35104731061,
       40.010377468401906
      ],
      [
       116.35136731060999,
       40.010377468401906
      ]
     ]
    ]
   }
  },
  {
   "type": "Feature",
   "id": "BLDG-001-14",
   "properties": {
    "id": "BLDG-001-14",
    "layer": "BUILDING_FOOTPRINT",
    "source_type": "agent_generated_design",
    "confidence": "medium",
    "geometry_role": "design_proposal",
    "building_type": "mixed_use",
    "action": "renovate",
    "name_zh": "混合功能建筑"
   },
   "geometry": {
    "type": "Polygon",
    "coordinates": [
     [
      [
       116.35138701781888,
       40.01662793516309
      ],
      [
       116.35138701781888,
       40.016947935163095
      ],
      [
       116.35106701781889,
       40.016947935163095
      ],
      [
       116.35106701781889,
       40.01662793516309
      ],
      [
       116.35138701781888,
       40.01662793516309
      ]
     ]
    ]
   }
  },
  {
   "type": "Feature",
   "id": "BLDG-001-15",
   "properties": {
    "id": "BLDG-001-15",
    "layer": "BUILDING_FOOTPRINT",
    "source_type": "agent_generated_design",
    "confidence": "medium",
    "geometry_role": "design_proposal",
    "building_type": "mixed_use",
    "action": "renovate",
    "name_zh": "混合功能建筑"
   },
   "geometry": {
    "type": "Polygon",
    "coordinates": [
     [
      [
       116.35137168716558,
       40.022766458686306
      ],
      [
       116.35137168716558,
       40.02308645868631
      ],
      [
       116.3510516871656,
       40.02308645868631
      ],
      [
       116.3510516871656,
       40.022766458686306
      ],
      [
       116.35137168716558,
       40.022766458686306
      ]
     ]
    ]
   }
  },
  {
   "type": "Feature",
   "id": "BLDG-001-16",
   "properties": {
    "id": "BLDG-001-16",
    "layer": "BUILDING_FOOTPRINT",
    "source_type": "agent_generated_design",
    "confidence": "medium",
    "geometry_role": "design_proposal",
    "building_type": "mixed_use",
    "action": "renovate",
    "name_zh": "混合功能建筑"
   },
   "geometry": {
    "type": "Polygon",
    "coordinates": [
     [
      [
       116.3532600029496,
       40.010408021038465
      ],
      [
       116.3532600029496,
       40.01072802103847
      ],
      [
       116.35294000294961,
       40.01072802103847
      ],
      [
       116.35294000294961,
       40.010408021038465
      ],
      [
       116.3532600029496,
       40.010408021038465
      ]
     ]
    ]
   }
  },
  {
   "type": "Feature",
   "id": "BLDG-001-17",
   "properties": {
    "id": "BLDG-001-17",
    "layer": "BUILDING_FOOTPRINT",
    "source_type": "agent_generated_design",
    "confidence": "medium",
    "geometry_role": "design_proposal",
    "building_type": "mixed_use",
    "action": "renovate",
    "name_zh": "混合功能建筑"
   },
   "geometry": {
    "type": "Polygon",
    "coordinates": [
     [
      [
       116.3532490626692,
       40.016537534677
      ],
      [
       116.3532490626692,
       40.016857534677
      ],
      [
       116.35292906266922,
       40.016857534677
      ],
      [
       116.35292906266922,
       40.016537534677
      ],
      [
       116.3532490626692,
       40.016537534677
      ]
     ]
    ]
   }
  },
  {
   "type": "Feature",
   "id": "BLDG-001-18",
   "properties": {
    "id": "BLDG-001-18",
    "layer": "BUILDING_FOOTPRINT",
    "source_type": "agent_generated_design",
    "confidence": "medium",
    "geometry_role": "design_proposal",
    "building_type": "mixed_use",
    "action": "renovate",
    "name_zh": "混合功能建筑"
   },
   "geometry": {
    "type": "Polygon",
    "coordinates": [
     [
      [
       116.35319048547372,
       40.0227213817122
      ],
      [
       116.35319048547372,
       40.023041381712204
      ],
      [
       116.35287048547373,
       40.023041381712204
      ],
      [
       116.35287048547373,
       40.0227213817122
      ],
      [
       116.35319048547372,
       40.0227213817122
      ]
     ]
    ]
   }
  },
  {
   "type": "Feature",
   "id": "BLDG-002-19",
   "properties": {
    "id": "BLDG-002-19",
    "layer": "BUILDING_FOOTPRINT",
    "source_type": "agent_generated_design",
    "confidence": "medium",
    "geometry_role": "design_proposal",
    "building_type": "office",
    "action": "new",
    "name_zh": "办公建筑"
   },
   "geometry": {
    "type": "Polygon",
    "coordinates": [
     [
      [
       116.34405552659845,
       40.01192310190087
      ],
      [
       116.34405552659845,
       40.01224310190087
      ],
      [
       116.34373552659846,
       40.01224310190087
      ],
      [
       116.34373552659846,
       40.01192310190087
      ],
      [
       116.34405552659845,
       40.01192310190087
      ]
     ]
    ]
   }
  },
  {
   "type": "Feature",
   "id": "BLDG-002-20",
   "properties": {
    "id": "BLDG-002-20",
    "layer": "BUILDING_FOOTPRINT",
    "source_type": "agent_generated_design",
    "confidence": "medium",
    "geometry_role": "design_proposal",
    "building_type": "office",
    "action": "new",
    "name_zh": "办公建筑"
   },
   "geometry": {
    "type": "Polygon",
    "coordinates": [
     [
      [
       116.34409477880344,
       40.021163692354406
      ],
      [
       116.34409477880344,
       40.02148369235441
      ],
      [
       116.34377477880345,
       40.02148369235441
      ],
      [
       116.34377477880345,
       40.021163692354406
      ],
      [
       116.34409477880344,
       40.021163692354406
      ]
     ]
    ]
   }
  },
  {
   "type": "Feature",
   "id": "BLDG-002-21",
   "properties": {
    "id": "BLDG-002-21",
    "layer": "BUILDING_FOOTPRINT",
    "source_type": "agent_generated_design",
    "confidence": "medium",
    "geometry_role": "design_proposal",
    "building_type": "office",
    "action": "new",
    "name_zh": "办公建筑"
   },
   "geometry": {
    "type": "Polygon",
    "coordinates": [
     [
      [
       116.34591430584052,
       40.011948882670026
      ],
      [
       116.34591430584052,
       40.01226888267003
      ],
      [
       116.34559430584054,
       40.01226888267003
      ],
      [
       116.34559430584054,
       40.011948882670026
      ],
      [
       116.34591430584052,
       40.011948882670026
      ]
     ]
    ]
   }
  },
  {
   "type": "Feature",
   "id": "BLDG-002-22",
   "properties": {
    "id": "BLDG-002-22",
    "layer": "BUILDING_FOOTPRINT",
    "source_type": "agent_generated_design",
    "confidence": "medium",
    "geometry_role": "design_proposal",
    "building_type": "office",
    "action": "new",
    "name_zh": "办公建筑"
   },
   "geometry": {
    "type": "Polygon",
    "coordinates": [
     [
      [
       116.34585695987097,
       40.02121589228799
      ],
      [
       116.34585695987097,
       40.02153589228799
      ],
      [
       116.34553695987098,
       40.02153589228799
      ],
      [
       116.34553695987098,
       40.02121589228799
      ],
      [
       116.34585695987097,
       40.02121589228799
      ]
     ]
    ]
   }
  },
  {
   "type": "Feature",
   "id": "BLDG-002-23",
   "properties": {
    "id": "BLDG-002-23",
    "layer": "BUILDING_FOOTPRINT",
    "source_type": "agent_generated_design",
    "confidence": "medium",
    "geometry_role": "design_proposal",
    "building_type": "office",
    "action": "new",
    "name_zh": "办公建筑"
   },
   "geometry": {
    "type": "Polygon",
    "coordinates": [
     [
      [
       116.34768783281234,
       40.011957037482034
      ],
      [
       116.34768783281234,
       40.012277037482036
      ],
      [
       116.34736783281235,
       40.012277037482036
      ],
      [
       116.34736783281235,
       40.011957037482034
      ],
      [
       116.34768783281234,
       40.011957037482034
      ]
     ]
    ]
   }
  },
  {
   "type": "Feature",
   "id": "BLDG-002-24",
   "properties": {
    "id": "BLDG-002-24",
    "layer": "BUILDING_FOOTPRINT",
    "source_type": "agent_generated_design",
    "confidence": "medium",
    "geometry_role": "design_proposal",
    "building_type": "office",
    "action": "new",
    "name_zh": "办公建筑"
   },
   "geometry": {
    "type": "Polygon",
    "coordinates": [
     [
      [
       116.34769171598415,
       40.02116588556161
      ],
      [
       116.34769171598415,
       40.02148588556161
      ],
      [
       116.34737171598417,
       40.02148588556161
      ],
      [
       116.34737171598417,
       40.02116588556161
      ],
      [
       116.34769171598415,
       40.02116588556161
      ]
     ]
    ]
   }
  },
  {
   "type": "Feature",
   "id": "BLDG-002-25",
   "properties": {
    "id": "BLDG-002-25",
    "layer": "BUILDING_FOOTPRINT",
    "source_type": "agent_generated_design",
    "confidence": "medium",
    "geometry_role": "design_proposal",
    "building_type": "office",
    "action": "new",
    "name_zh": "办公建筑"
   },
   "geometry": {
    "type": "Polygon",
    "coordinates": [
     [
      [
       116.34956760896937,
       40.01200422225496
      ],
      [
       116.34956760896937,
       40.01232422225496
      ],
      [
       116.34924760896938,
       40.01232422225496
      ],
      [
       116.34924760896938,
       40.01200422225496
      ],
      [
       116.34956760896937,
       40.01200422225496
      ]
     ]
    ]
   }
  },
  {
   "type": "Feature",
   "id": "BLDG-002-26",
   "properties": {
    "id": "BLDG-002-26",
    "layer": "BUILDING_FOOTPRINT",
    "source_type": "agent_generated_design",
    "confidence": "medium",
    "geometry_role": "design_proposal",
    "building_type": "office",
    "action": "new",
    "name_zh": "办公建筑"
   },
   "geometry": {
    "type": "Polygon",
    "coordinates": [
     [
      [
       116.349531522902,
       40.02118178867576
      ],
      [
       116.349531522902,
       40.021501788675764
      ],
      [
       116.34921152290201,
       40.021501788675764
      ],
      [
       116.34921152290201,
       40.02118178867576
      ],
      [
       116.349531522902,
       40.02118178867576
      ]
     ]
    ]
   }
  },
  {
   "type": "Feature",
   "id": "BLDG-002-27",
   "properties": {
    "id": "BLDG-002-27",
    "layer": "BUILDING_FOOTPRINT",
    "source_type": "agent_generated_design",
    "confidence": "medium",
    "geometry_role": "design_proposal",
    "building_type": "office",
    "action": "new",
    "name_zh": "办公建筑"
   },
   "geometry": {
    "type": "Polygon",
    "coordinates": [
     [
      [
       116.35142529198667,
       40.01201872507309
      ],
      [
       116.35142529198667,
       40.01233872507309
      ],
      [
       116.35110529198668,
       40.01233872507309
      ],
      [
       116.35110529198668,
       40.01201872507309
      ],
      [
       116.35142529198667,
       40.01201872507309
      ]
     ]
    ]
   }
  },
  {
   "type": "Feature",
   "id": "BLDG-002-28",
   "properties": {
    "id": "BLDG-002-28",
    "layer": "BUILDING_FOOTPRINT",
    "source_type": "agent_generated_design",
    "confidence": "medium",
    "geometry_role": "design_proposal",
    "building_type": "office",
    "action": "new",
    "name_zh": "办公建筑"
   },
   "geometry": {
    "type": "Polygon",
    "coordinates": [
     [
      [
       116.35141925235382,
       40.02120260165697
      ],
      [
       116.35141925235382,
       40.02152260165697
      ],
      [
       116.35109925235383,
       40.02152260165697
      ],
      [
       116.35109925235383,
       40.02120260165697
      ],
      [
       116.35141925235382,
       40.02120260165697
      ]
     ]
    ]
   }
  },
  {
   "type": "Feature",
   "id": "BLDG-002-29",
   "properties": {
    "id": "BLDG-002-29",
    "layer": "BUILDING_FOOTPRINT",
    "source_type": "agent_generated_design",
    "confidence": "medium",
    "geometry_role": "design_proposal",
    "building_type": "office",
    "action": "new",
    "name_zh": "办公建筑"
   },
   "geometry": {
    "type": "Polygon",
    "coordinates": [
     [
      [
       116.353300483946,
       40.01191058992167
      ],
      [
       116.353300483946,
       40.01223058992167
      ],
      [
       116.35298048394601,
       40.01223058992167
      ],
      [
       116.35298048394601,
       40.01191058992167
      ],
      [
       116.353300483946,
       40.01191058992167
      ]
     ]
    ]
   }
  },
  {
   "type": "Feature",
   "id": "BLDG-002-30",
   "properties": {
    "id": "BLDG-002-30",
    "layer": "BUILDING_FOOTPRINT",
    "source_type": "agent_generated_design",
    "confidence": "medium",
    "geometry_role": "design_proposal",
    "building_type": "office",
    "action": "new",
    "name_zh": "办公建筑"
   },
   "geometry": {
    "type": "Polygon",
    "coordinates": [
     [
      [
       116.35328634954841,
       40.02118975311436
      ],
      [
       116.35328634954841,
       40.021509753114366
      ],
      [
       116.35296634954842,
       40.021509753114366
      ],
      [
       116.35296634954842,
       40.02118975311436
      ],
      [
       116.35328634954841,
       40.02118975311436
      ]
     ]
    ]
   }
  },
  {
   "type": "Feature",
   "id": "BLDG-003-31",
   "properties": {
    "id": "BLDG-003-31",
    "layer": "BUILDING_FOOTPRINT",
    "source_type": "agent_generated_design",
    "confidence": "medium",
    "geometry_role": "design_proposal",
    "building_type": "existing_retained",
    "action": "retain",
    "name_zh": "保留建筑"
   },
   "geometry": {
    "type": "Polygon",
    "coordinates": [
     [
      [
       116.34305552659845,
       39.98579810190087
      ],
      [
       116.34305552659845,
       39.98611810190087
      ],
      [
       116.34273552659846,
       39.98611810190087
      ],
      [
       116.34273552659846,
       39.98579810190087
      ],
      [
       116.34305552659845,
       39.98579810190087
      ]
     ]
    ]
   }
  },
  {
   "type": "Feature",
   "id": "BLDG-003-32",
   "properties": {
    "id": "BLDG-003-32",
    "layer": "BUILDING_FOOTPRINT",
    "source_type": "agent_generated_design",
    "confidence": "medium",
    "geometry_role": "design_proposal",
    "building_type": "existing_retained",
    "action": "retain",
    "name_zh": "保留建筑"
   },
   "geometry": {
    "type": "Polygon",
    "coordinates": [
     [
      [
       116.34309477880343,
       39.9907886923544
      ],
      [
       116.34309477880343,
       39.9911086923544
      ],
      [
       116.34277477880345,
       39.9911086923544
      ],
      [
       116.34277477880345,
       39.9907886923544
      ],
      [
       116.34309477880343,
       39.9907886923544
      ]
     ]
    ]
   }
  },
  {
   "type": "Feature",
   "id": "BLDG-003-33",
   "properties": {
    "id": "BLDG-003-33",
    "layer": "BUILDING_FOOTPRINT",
    "source_type": "agent_generated_design",
    "confidence": "medium",
    "geometry_role": "design_proposal",
    "building_type": "existing_retained",
    "action": "retain",
    "name_zh": "保留建筑"
   },
   "geometry": {
    "type": "Polygon",
    "coordinates": [
     [
      [
       116.34491430584052,
       39.985823882670026
      ],
      [
       116.34491430584052,
       39.98614388267003
      ],
      [
       116.34459430584053,
       39.98614388267003
      ],
      [
       116.34459430584053,
       39.985823882670026
      ],
      [
       116.34491430584052,
       39.985823882670026
      ]
     ]
    ]
   }
  },
  {
   "type": "Feature",
   "id": "BLDG-003-34",
   "properties": {
    "id": "BLDG-003-34",
    "layer": "BUILDING_FOOTPRINT",
    "source_type": "agent_generated_design",
    "confidence": "medium",
    "geometry_role": "design_proposal",
    "building_type": "existing_retained",
    "action": "retain",
    "name_zh": "保留建筑"
   },
   "geometry": {
    "type": "Polygon",
    "coordinates": [
     [
      [
       116.34485695987097,
       39.990840892287984
      ],
      [
       116.34485695987097,
       39.991160892287986
      ],
      [
       116.34453695987098,
       39.991160892287986
      ],
      [
       116.34453695987098,
       39.990840892287984
      ],
      [
       116.34485695987097,
       39.990840892287984
      ]
     ]
    ]
   }
  },
  {
   "type": "Feature",
   "id": "BLDG-003-35",
   "properties": {
    "id": "BLDG-003-35",
    "layer": "BUILDING_FOOTPRINT",
    "source_type": "agent_generated_design",
    "confidence": "medium",
    "geometry_role": "design_proposal",
    "building_type": "existing_retained",
    "action": "retain",
    "name_zh": "保留建筑"
   },
   "geometry": {
    "type": "Polygon",
    "coordinates": [
     [
      [
       116.34668783281234,
       39.985832037482034
      ],
      [
       116.34668783281234,
       39.986152037482036
      ],
      [
       116.34636783281235,
       39.986152037482036
      ],
      [
       116.34636783281235,
       39.985832037482034
      ],
      [
       116.34668783281234,
       39.985832037482034
      ]
     ]
    ]
   }
  },
  {
   "type": "Feature",
   "id": "BLDG-003-36",
   "properties": {
    "id": "BLDG-003-36",
    "layer": "BUILDING_FOOTPRINT",
    "source_type": "agent_generated_design",
    "confidence": "medium",
    "geometry_role": "design_proposal",
    "building_type": "existing_retained",
    "action": "retain",
    "name_zh": "保留建筑"
   },
   "geometry": {
    "type": "Polygon",
    "coordinates": [
     [
      [
       116.34669171598415,
       39.9907908855616
      ],
      [
       116.34669171598415,
       39.9911108855616
      ],
      [
       116.34637171598416,
       39.9911108855616
      ],
      [
       116.34637171598416,
       39.9907908855616
      ],
      [
       116.34669171598415,
       39.9907908855616
      ]
     ]
    ]
   }
  },
  {
   "type": "Feature",
   "id": "BLDG-003-37",
   "properties": {
    "id": "BLDG-003-37",
    "layer": "BUILDING_FOOTPRINT",
    "source_type": "agent_generated_design",
    "confidence": "medium",
    "geometry_role": "design_proposal",
    "building_type": "existing_retained",
    "action": "retain",
    "name_zh": "保留建筑"
   },
   "geometry": {
    "type": "Polygon",
    "coordinates": [
     [
      [
       116.34856760896936,
       39.98587922225496
      ],
      [
       116.34856760896936,
       39.98619922225496
      ],
      [
       116.34824760896937,
       39.98619922225496
      ],
      [
       116.34824760896937,
       39.98587922225496
      ],
      [
       116.34856760896936,
       39.98587922225496
      ]
     ]
    ]
   }
  },
  {
   "type": "Feature",
   "id": "BLDG-003-38",
   "properties": {
    "id": "BLDG-003-38",
    "layer": "BUILDING_FOOTPRINT",
    "source_type": "agent_generated_design",
    "confidence": "medium",
    "geometry_role": "design_proposal",
    "building_type": "existing_retained",
    "action": "retain",
    "name_zh": "保留建筑"
   },
   "geometry": {
    "type": "Polygon",
    "coordinates": [
     [
      [
       116.348531522902,
       39.990806788675755
      ],
      [
       116.348531522902,
       39.99112678867576
      ],
      [
       116.348211522902,
       39.99112678867576
      ],
      [
       116.348211522902,
       39.990806788675755
      ],
      [
       116.348531522902,
       39.990806788675755
      ]
     ]
    ]
   }
  },
  {
   "type": "Feature",
   "id": "BLDG-003-39",
   "properties": {
    "id": "BLDG-003-39",
    "layer": "BUILDING_FOOTPRINT",
    "source_type": "agent_generated_design",
    "confidence": "medium",
    "geometry_role": "design_proposal",
    "building_type": "existing_retained",
    "action": "retain",
    "name_zh": "保留建筑"
   },
   "geometry": {
    "type": "Polygon",
    "coordinates": [
     [
      [
       116.35042529198667,
       39.98589372507309
      ],
      [
       116.35042529198667,
       39.98621372507309
      ],
      [
       116.35010529198668,
       39.98621372507309
      ],
      [
       116.35010529198668,
       39.98589372507309
      ],
      [
       116.35042529198667,
       39.98589372507309
      ]
     ]
    ]
   }
  },
  {
   "type": "Feature",
   "id": "BLDG-003-40",
   "properties": {
    "id": "BLDG-003-40",
    "layer": "BUILDING_FOOTPRINT",
    "source_type": "agent_generated_design",
    "confidence": "medium",
    "geometry_role": "design_proposal",
    "building_type": "existing_retained",
    "action": "retain",
    "name_zh": "保留建筑"
   },
   "geometry": {
    "type": "Polygon",
    "coordinates": [
     [
      [
       116.35041925235382,
       39.99082760165696
      ],
      [
       116.35041925235382,
       39.99114760165696
      ],
      [
       116.35009925235383,
       39.99114760165696
      ],
      [
       116.35009925235383,
       39.99082760165696
      ],
      [
       116.35041925235382,
       39.99082760165696
      ]
     ]
    ]
   }
  },
  {
   "type": "Feature",
   "id": "BLDG-003-41",
   "properties": {
    "id": "BLDG-003-41",
    "layer": "BUILDING_FOOTPRINT",
    "source_type": "agent_generated_design",
    "confidence": "medium",
    "geometry_role": "design_proposal",
    "building_type": "existing_retained",
    "action": "retain",
    "name_zh": "保留建筑"
   },
   "geometry": {
    "type": "Polygon",
    "coordinates": [
     [
      [
       116.352300483946,
       39.98578558992167
      ],
      [
       116.352300483946,
       39.98610558992167
      ],
      [
       116.35198048394601,
       39.98610558992167
      ],
      [
       116.35198048394601,
       39.98578558992167
      ],
      [
       116.352300483946,
       39.98578558992167
      ]
     ]
    ]
   }
  },
  {
   "type": "Feature",
   "id": "BLDG-003-42",
   "properties": {
    "id": "BLDG-003-42",
    "layer": "BUILDING_FOOTPRINT",
    "source_type": "agent_generated_design",
    "confidence": "medium",
    "geometry_role": "design_proposal",
    "building_type": "existing_retained",
    "action": "retain",
    "name_zh": "保留建筑"
   },
   "geometry": {
    "type": "Polygon",
    "coordinates": [
     [
      [
       116.35228634954841,
       39.99081475311436
      ],
      [
       116.35228634954841,
       39.99113475311436
      ],
      [
       116.35196634954842,
       39.99113475311436
      ],
      [
       116.35196634954842,
       39.99081475311436
      ],
      [
       116.35228634954841,
       39.99081475311436
      ]
     ]
    ]
   }
  },
  {
   "type": "Feature",
   "id": "BLDG-004-43",
   "properties": {
    "id": "BLDG-004-43",
    "layer": "BUILDING_FOOTPRINT",
    "source_type": "agent_generated_design",
    "confidence": "medium",
    "geometry_role": "design_proposal",
    "building_type": "mixed_use",
    "action": "renovate",
    "name_zh": "混合功能建筑"
   },
   "geometry": {
    "type": "Polygon",
    "coordinates": [
     [
      [
       116.34305552659845,
       39.98579810190087
      ],
      [
       116.34305552659845,
       39.98611810190087
      ],
      [
       116.34273552659846,
       39.98611810190087
      ],
      [
       116.34273552659846,
       39.98579810190087
      ],
      [
       116.34305552659845,
       39.98579810190087
      ]
     ]
    ]
   }
  },
  {
   "type": "Feature",
   "id": "BLDG-004-44",
   "properties": {
    "id": "BLDG-004-44",
    "layer": "BUILDING_FOOTPRINT",
    "source_type": "agent_generated_design",
    "confidence": "medium",
    "geometry_role": "design_proposal",
    "building_type": "mixed_use",
    "action": "renovate",
    "name_zh": "混合功能建筑"
   },
   "geometry": {
    "type": "Polygon",
    "coordinates": [
     [
      [
       116.34309477880343,
       39.9907886923544
      ],
      [
       116.34309477880343,
       39.9911086923544
      ],
      [
       116.34277477880345,
       39.9911086923544
      ],
      [
       116.34277477880345,
       39.9907886923544
      ],
      [
       116.34309477880343,
       39.9907886923544
      ]
     ]
    ]
   }
  },
  {
   "type": "Feature",
   "id": "BLDG-004-45",
   "properties": {
    "id": "BLDG-004-45",
    "layer": "BUILDING_FOOTPRINT",
    "source_type": "agent_generated_design",
    "confidence": "medium",
    "geometry_role": "design_proposal",
    "building_type": "mixed_use",
    "action": "renovate",
    "name_zh": "混合功能建筑"
   },
   "geometry": {
    "type": "Polygon",
    "coordinates": [
     [
      [
       116.34491430584052,
       39.985823882670026
      ],
      [
       116.34491430584052,
       39.98614388267003
      ],
      [
       116.34459430584053,
       39.98614388267003
      ],
      [
       116.34459430584053,
       39.985823882670026
      ],
      [
       116.34491430584052,
       39.985823882670026
      ]
     ]
    ]
   }
  },
  {
   "type": "Feature",
   "id": "BLDG-004-46",
   "properties": {
    "id": "BLDG-004-46",
    "layer": "BUILDING_FOOTPRINT",
    "source_type": "agent_generated_design",
    "confidence": "medium",
    "geometry_role": "design_proposal",
    "building_type": "mixed_use",
    "action": "renovate",
    "name_zh": "混合功能建筑"
   },
   "geometry": {
    "type": "Polygon",
    "coordinates": [
     [
      [
       116.34485695987097,
       39.990840892287984
      ],
      [
       116.34485695987097,
       39.991160892287986
      ],
      [
       116.34453695987098,
       39.991160892287986
      ],
      [
       116.34453695987098,
       39.990840892287984
      ],
      [
       116.34485695987097,
       39.990840892287984
      ]
     ]
    ]
   }
  },
  {
   "type": "Feature",
   "id": "BLDG-004-47",
   "properties": {
    "id": "BLDG-004-47",
    "layer": "BUILDING_FOOTPRINT",
    "source_type": "agent_generated_design",
    "confidence": "medium",
    "geometry_role": "design_proposal",
    "building_type": "mixed_use",
    "action": "renovate",
    "name_zh": "混合功能建筑"
   },
   "geometry": {
    "type": "Polygon",
    "coordinates": [
     [
      [
       116.34668783281234,
       39.985832037482034
      ],
      [
       116.34668783281234,
       39.986152037482036
      ],
      [
       116.34636783281235,
       39.986152037482036
      ],
      [
       116.34636783281235,
       39.985832037482034
      ],
      [
       116.34668783281234,
       39.985832037482034
      ]
     ]
    ]
   }
  },
  {
   "type": "Feature",
   "id": "BLDG-004-48",
   "properties": {
    "id": "BLDG-004-48",
    "layer": "BUILDING_FOOTPRINT",
    "source_type": "agent_generated_design",
    "confidence": "medium",
    "geometry_role": "design_proposal",
    "building_type": "mixed_use",
    "action": "renovate",
    "name_zh": "混合功能建筑"
   },
   "geometry": {
    "type": "Polygon",
    "coordinates": [
     [
      [
       116.34669171598415,
       39.9907908855616
      ],
      [
       116.34669171598415,
       39.9911108855616
      ],
      [
       116.34637171598416,
       39.9911108855616
      ],
      [
       116.34637171598416,
       39.9907908855616
      ],
      [
       116.34669171598415,
       39.9907908855616
      ]
     ]
    ]
   }
  },
  {
   "type": "Feature",
   "id": "BLDG-004-49",
   "properties": {
    "id": "BLDG-004-49",
    "layer": "BUILDING_FOOTPRINT",
    "source_type": "agent_generated_design",
    "confidence": "medium",
    "geometry_role": "design_proposal",
    "building_type": "mixed_use",
    "action": "renovate",
    "name_zh": "混合功能建筑"
   },
   "geometry": {
    "type": "Polygon",
    "coordinates": [
     [
      [
       116.34856760896936,
       39.98587922225496
      ],
      [
       116.34856760896936,
       39.98619922225496
      ],
      [
       116.34824760896937,
       39.98619922225496
      ],
      [
       116.34824760896937,
       39.98587922225496
      ],
      [
       116.34856760896936,
       39.98587922225496
      ]
     ]
    ]
   }
  },
  {
   "type": "Feature",
   "id": "BLDG-004-50",
   "properties": {
    "id": "BLDG-004-50",
    "layer": "BUILDING_FOOTPRINT",
    "source_type": "agent_generated_design",
    "confidence": "medium",
    "geometry_role": "design_proposal",
    "building_type": "mixed_use",
    "action": "renovate",
    "name_zh": "混合功能建筑"
   },
   "geometry": {
    "type": "Polygon",
    "coordinates": [
     [
      [
       116.348531522902,
       39.990806788675755
      ],
      [
       116.348531522902,
       39.99112678867576
      ],
      [
       116.348211522902,
       39.99112678867576
      ],
      [
       116.348211522902,
       39.990806788675755
      ],
      [
       116.348531522902,
       39.990806788675755
      ]
     ]
    ]
   }
  },
  {
   "type": "Feature",
   "id": "BLDG-004-51",
   "properties": {
    "id": "BLDG-004-51",
    "layer": "BUILDING_FOOTPRINT",
    "source_type": "agent_generated_design",
    "confidence": "medium",
    "geometry_role": "design_proposal",
    "building_type": "mixed_use",
    "action": "renovate",
    "name_zh": "混合功能建筑"
   },
   "geometry": {
    "type": "Polygon",
    "coordinates": [
     [
      [
       116.35042529198667,
       39.98589372507309
      ],
      [
       116.35042529198667,
       39.98621372507309
      ],
      [
       116.35010529198668,
       39.98621372507309
      ],
      [
       116.35010529198668,
       39.98589372507309
      ],
      [
       116.35042529198667,
       39.98589372507309
      ]
     ]
    ]
   }
  },
  {
   "type": "Feature",
   "id": "BLDG-004-52",
   "properties": {
    "id": "BLDG-004-52",
    "layer": "BUILDING_FOOTPRINT",
    "source_type": "agent_generated_design",
    "confidence": "medium",
    "geometry_role": "design_proposal",
    "building_type": "mixed_use",
    "action": "renovate",
    "name_zh": "混合功能建筑"
   },
   "geometry": {
    "type": "Polygon",
    "coordinates": [
     [
      [
       116.35041925235382,
       39.99082760165696
      ],
      [
       116.35041925235382,
       39.99114760165696
      ],
      [
       116.35009925235383,
       39.99114760165696
      ],
      [
       116.35009925235383,
       39.99082760165696
      ],
      [
       116.35041925235382,
       39.99082760165696
      ]
     ]
    ]
   }
  },
  {
   "type": "Feature",
   "id": "BLDG-004-53",
   "properties": {
    "id": "BLDG-004-53",
    "layer": "BUILDING_FOOTPRINT",
    "source_type": "agent_generated_design",
    "confidence": "medium",
    "geometry_role": "design_proposal",
    "building_type": "mixed_use",
    "action": "renovate",
    "name_zh": "混合功能建筑"
   },
   "geometry": {
    "type": "Polygon",
    "coordinates": [
     [
      [
       116.352300483946,
       39.98578558992167
      ],
      [
       116.352300483946,
       39.98610558992167
      ],
      [
       116.35198048394601,
       39.98610558992167
      ],
      [
       116.35198048394601,
       39.98578558992167
      ],
      [
       116.352300483946,
       39.98578558992167
      ]
     ]
    ]
   }
  },
  {
   "type": "Feature",
   "id": "BLDG-004-54",
   "properties": {
    "id": "BLDG-004-54",
    "layer": "BUILDING_FOOTPRINT",
    "source_type": "agent_generated_design",
    "confidence": "medium",
    "geometry_role": "design_proposal",
    "building_type": "mixed_use",
    "action": "renovate",
    "name_zh": "混合功能建筑"
   },
   "geometry": {
    "type": "Polygon",
    "coordinates": [
     [
      [
       116.35228634954841,
       39.99081475311436
      ],
      [
       116.35228634954841,
       39.99113475311436
      ],
      [
       116.35196634954842,
       39.99113475311436
      ],
      [
       116.35196634954842,
       39.99081475311436
      ],
      [
       116.35228634954841,
       39.99081475311436
      ]
     ]
    ]
   }
  },
  {
   "type": "Feature",
   "id": "BLDG-005-55",
   "properties": {
    "id": "BLDG-005-55",
    "layer": "BUILDING_FOOTPRINT",
    "source_type": "agent_generated_design",
    "confidence": "medium",
    "geometry_role": "design_proposal",
    "building_type": "incubator",
    "action": "new",
    "name_zh": "孵化器"
   },
   "geometry": {
    "type": "Polygon",
    "coordinates": [
     [
      [
       116.34305552659845,
       39.98579810190087
      ],
      [
       116.34305552659845,
       39.98611810190087
      ],
      [
       116.34273552659846,
       39.98611810190087
      ],
      [
       116.34273552659846,
       39.98579810190087
      ],
      [
       116.34305552659845,
       39.98579810190087
      ]
     ]
    ]
   }
  },
  {
   "type": "Feature",
   "id": "BLDG-005-56",
   "properties": {
    "id": "BLDG-005-56",
    "layer": "BUILDING_FOOTPRINT",
    "source_type": "agent_generated_design",
    "confidence": "medium",
    "geometry_role": "design_proposal",
    "building_type": "incubator",
    "action": "new",
    "name_zh": "孵化器"
   },
   "geometry": {
    "type": "Polygon",
    "coordinates": [
     [
      [
       116.34309477880343,
       39.9907886923544
      ],
      [
       116.34309477880343,
       39.9911086923544
      ],
      [
       116.34277477880345,
       39.9911086923544
      ],
      [
       116.34277477880345,
       39.9907886923544
      ],
      [
       116.34309477880343,
       39.9907886923544
      ]
     ]
    ]
   }
  },
  {
   "type": "Feature",
   "id": "BLDG-005-57",
   "properties": {
    "id": "BLDG-005-57",
    "layer": "BUILDING_FOOTPRINT",
    "source_type": "agent_generated_design",
    "confidence": "medium",
    "geometry_role": "design_proposal",
    "building_type": "incubator",
    "action": "new",
    "name_zh": "孵化器"
   },
   "geometry": {
    "type": "Polygon",
    "coordinates": [
     [
      [
       116.34491430584052,
       39.985823882670026
      ],
      [
       116.34491430584052,
       39.98614388267003
      ],
      [
       116.34459430584053,
       39.98614388267003
      ],
      [
       116.34459430584053,
       39.985823882670026
      ],
      [
       116.34491430584052,
       39.985823882670026
      ]
     ]
    ]
   }
  },
  {
   "type": "Feature",
   "id": "BLDG-005-58",
   "properties": {
    "id": "BLDG-005-58",
    "layer": "BUILDING_FOOTPRINT",
    "source_type": "agent_generated_design",
    "confidence": "medium",
    "geometry_role": "design_proposal",
    "building_type": "incubator",
    "action": "new",
    "name_zh": "孵化器"
   },
   "geometry": {
    "type": "Polygon",
    "coordinates": [
     [
      [
       116.34485695987097,
       39.990840892287984
      ],
      [
       116.34485695987097,
       39.991160892287986
      ],
      [
       116.34453695987098,
       39.991160892287986
      ],
      [
       116.34453695987098,
       39.990840892287984
      ],
      [
       116.34485695987097,
       39.990840892287984
      ]
     ]
    ]
   }
  },
  {
   "type": "Feature",
   "id": "BLDG-005-59",
   "properties": {
    "id": "BLDG-005-59",
    "layer": "BUILDING_FOOTPRINT",
    "source_type": "agent_generated_design",
    "confidence": "medium",
    "geometry_role": "design_proposal",
    "building_type": "incubator",
    "action": "new",
    "name_zh": "孵化器"
   },
   "geometry": {
    "type": "Polygon",
    "coordinates": [
     [
      [
       116.34668783281234,
       39.985832037482034
      ],
      [
       116.34668783281234,
       39.986152037482036
      ],
      [
       116.34636783281235,
       39.986152037482036
      ],
      [
       116.34636783281235,
       39.985832037482034
      ],
      [
       116.34668783281234,
       39.985832037482034
      ]
     ]
    ]
   }
  },
  {
   "type": "Feature",
   "id": "BLDG-005-60",
   "properties": {
    "id": "BLDG-005-60",
    "layer": "BUILDING_FOOTPRINT",
    "source_type": "agent_generated_design",
    "confidence": "medium",
    "geometry_role": "design_proposal",
    "building_type": "incubator",
    "action": "new",
    "name_zh": "孵化器"
   },
   "geometry": {
    "type": "Polygon",
    "coordinates": [
     [
      [
       116.34669171598415,
       39.9907908855616
      ],
      [
       116.34669171598415,
       39.9911108855616
      ],
      [
       116.34637171598416,
       39.9911108855616
      ],
      [
       116.34637171598416,
       39.9907908855616
      ],
      [
       116.34669171598415,
       39.9907908855616
      ]
     ]
    ]
   }
  },
  {
   "type": "Feature",
   "id": "BLDG-005-61",
   "properties": {
    "id": "BLDG-005-61",
    "layer": "BUILDING_FOOTPRINT",
    "source_type": "agent_generated_design",
    "confidence": "medium",
    "geometry_role": "design_proposal",
    "building_type": "incubator",
    "action": "new",
    "name_zh": "孵化器"
   },
   "geometry": {
    "type": "Polygon",
    "coordinates": [
     [
      [
       116.34856760896936,
       39.98587922225496
      ],
      [
       116.34856760896936,
       39.98619922225496
      ],
      [
       116.34824760896937,
       39.98619922225496
      ],
      [
       116.34824760896937,
       39.98587922225496
      ],
      [
       116.34856760896936,
       39.98587922225496
      ]
     ]
    ]
   }
  },
  {
   "type": "Feature",
   "id": "BLDG-005-62",
   "properties": {
    "id": "BLDG-005-62",
    "layer": "BUILDING_FOOTPRINT",
    "source_type": "agent_generated_design",
    "confidence": "medium",
    "geometry_role": "design_proposal",
    "building_type": "incubator",
    "action": "new",
    "name_zh": "孵化器"
   },
   "geometry": {
    "type": "Polygon",
    "coordinates": [
     [
      [
       116.348531522902,
       39.990806788675755
      ],
      [
       116.348531522902,
       39.99112678867576
      ],
      [
       116.348211522902,
       39.99112678867576
      ],
      [
       116.348211522902,
       39.990806788675755
      ],
      [
       116.348531522902,
       39.990806788675755
      ]
     ]
    ]
   }
  },
  {
   "type": "Feature",
   "id": "BLDG-005-63",
   "properties": {
    "id": "BLDG-005-63",
    "layer": "BUILDING_FOOTPRINT",
    "source_type": "agent_generated_design",
    "confidence": "medium",
    "geometry_role": "design_proposal",
    "building_type": "incubator",
    "action": "new",
    "name_zh": "孵化器"
   },
   "geometry": {
    "type": "Polygon",
    "coordinates": [
     [
      [
       116.35042529198667,
       39.98589372507309
      ],
      [
       116.35042529198667,
       39.98621372507309
      ],
      [
       116.35010529198668,
       39.98621372507309
      ],
      [
       116.35010529198668,
       39.98589372507309
      ],
      [
       116.35042529198667,
       39.98589372507309
      ]
     ]
    ]
   }
  },
  {
   "type": "Feature",
   "id": "BLDG-005-64",
   "properties": {
    "id": "BLDG-005-64",
    "layer": "BUILDING_FOOTPRINT",
    "source_type": "agent_generated_design",
    "confidence": "medium",
    "geometry_role": "design_proposal",
    "building_type": "incubator",
    "action": "new",
    "name_zh": "孵化器"
   },
   "geometry": {
    "type": "Polygon",
    "coordinates": [
     [
      [
       116.35041925235382,
       39.99082760165696
      ],
      [
       116.35041925235382,
       39.99114760165696
      ],
      [
       116.35009925235383,
       39.99114760165696
      ],
      [
       116.35009925235383,
       39.99082760165696
      ],
      [
       116.35041925235382,
       39.99082760165696
      ]
     ]
    ]
   }
  },
  {
   "type": "Feature",
   "id": "BLDG-005-65",
   "properties": {
    "id": "BLDG-005-65",
    "layer": "BUILDING_FOOTPRINT",
    "source_type": "agent_generated_design",
    "confidence": "medium",
    "geometry_role": "design_proposal",
    "building_type": "incubator",
    "action": "new",
    "name_zh": "孵化器"
   },
   "geometry": {
    "type": "Polygon",
    "coordinates": [
     [
      [
       116.352300483946,
       39.98578558992167
      ],
      [
       116.352300483946,
       39.98610558992167
      ],
      [
       116.35198048394601,
       39.98610558992167
      ],
      [
       116.35198048394601,
       39.98578558992167
      ],
      [
       116.352300483946,
       39.98578558992167
      ]
     ]
    ]
   }
  },
  {
   "type": "Feature",
   "id": "BLDG-005-66",
   "properties": {
    "id": "BLDG-005-66",
    "layer": "BUILDING_FOOTPRINT",
    "source_type": "agent_generated_design",
    "confidence": "medium",
    "geometry_role": "design_proposal",
    "building_type": "incubator",
    "action": "new",
    "name_zh": "孵化器"
   },
   "geometry": {
    "type": "Polygon",
    "coordinates": [
     [
      [
       116.35228634954841,
       39.99081475311436
      ],
      [
       116.35228634954841,
       39.99113475311436
      ],
      [
       116.35196634954842,
       39.99113475311436
      ],
      [
       116.35196634954842,
       39.99081475311436
      ],
      [
       116.35228634954841,
       39.99081475311436
      ]
     ]
    ]
   }
  },
  {
   "type": "Feature",
   "id": "BLDG-006-67",
   "properties": {
    "id": "BLDG-006-67",
    "layer": "BUILDING_FOOTPRINT",
    "source_type": "agent_generated_design",
    "confidence": "medium",
    "geometry_role": "design_proposal",
    "building_type": "existing_retained",
    "action": "retain",
    "name_zh": "保留建筑"
   },
   "geometry": {
    "type": "Polygon",
    "coordinates": [
     [
      [
       116.34322219326512,
       39.945258101900876
      ],
      [
       116.34322219326512,
       39.94557810190088
      ],
      [
       116.34290219326513,
       39.94557810190088
      ],
      [
       116.34290219326513,
       39.945258101900876
      ],
      [
       116.34322219326512,
       39.945258101900876
      ]
     ]
    ]
   }
  },
  {
   "type": "Feature",
   "id": "BLDG-006-68",
   "properties": {
    "id": "BLDG-006-68",
    "layer": "BUILDING_FOOTPRINT",
    "source_type": "agent_generated_design",
    "confidence": "medium",
    "geometry_role": "design_proposal",
    "building_type": "existing_retained",
    "action": "retain",
    "name_zh": "保留建筑"
   },
   "geometry": {
    "type": "Polygon",
    "coordinates": [
     [
      [
       116.3432614454701,
       39.9481686923544
      ],
      [
       116.3432614454701,
       39.9484886923544
      ],
      [
       116.34294144547012,
       39.9484886923544
      ],
      [
       116.34294144547012,
       39.9481686923544
      ],
      [
       116.3432614454701,
       39.9481686923544
      ]
     ]
    ]
   }
  },
  {
   "type": "Feature",
   "id": "BLDG-006-69",
   "properties": {
    "id": "BLDG-006-69",
    "layer": "BUILDING_FOOTPRINT",
    "source_type": "agent_generated_design",
    "confidence": "medium",
    "geometry_role": "design_proposal",
    "building_type": "existing_retained",
    "action": "retain",
    "name_zh": "保留建筑"
   },
   "geometry": {
    "type": "Polygon",
    "coordinates": [
     [
      [
       116.3454143058405,
       39.94528388267003
      ],
      [
       116.3454143058405,
       39.945603882670035
      ],
      [
       116.34509430584052,
       39.945603882670035
      ],
      [
       116.34509430584052,
       39.94528388267003
      ],
      [
       116.3454143058405,
       39.94528388267003
      ]
     ]
    ]
   }
  },
  {
   "type": "Feature",
   "id": "BLDG-006-70",
   "properties": {
    "id": "BLDG-006-70",
    "layer": "BUILDING_FOOTPRINT",
    "source_type": "agent_generated_design",
    "confidence": "medium",
    "geometry_role": "design_proposal",
    "building_type": "existing_retained",
    "action": "retain",
    "name_zh": "保留建筑"
   },
   "geometry": {
    "type": "Polygon",
    "coordinates": [
     [
      [
       116.34535695987095,
       39.948220892287985
      ],
      [
       116.34535695987095,
       39.94854089228799
      ],
      [
       116.34503695987097,
       39.94854089228799
      ],
      [
       116.34503695987097,
       39.948220892287985
      ],
      [
       116.34535695987095,
       39.948220892287985
      ]
     ]
    ]
   }
  },
  {
   "type": "Feature",
   "id": "BLDG-006-71",
   "properties": {
    "id": "BLDG-006-71",
    "layer": "BUILDING_FOOTPRINT",
    "source_type": "agent_generated_design",
    "confidence": "medium",
    "geometry_role": "design_proposal",
    "building_type": "existing_retained",
    "action": "retain",
    "name_zh": "保留建筑"
   },
   "geometry": {
    "type": "Polygon",
    "coordinates": [
     [
      [
       116.34752116614568,
       39.94529203748204
      ],
      [
       116.34752116614568,
       39.94561203748204
      ],
      [
       116.3472011661457,
       39.94561203748204
      ],
      [
       116.3472011661457,
       39.94529203748204
      ],
      [
       116.34752116614568,
       39.94529203748204
      ]
     ]
    ]
   }
  },
  {
   "type": "Feature",
   "id": "BLDG-006-72",
   "properties": {
    "id": "BLDG-006-72",
    "layer": "BUILDING_FOOTPRINT",
    "source_type": "agent_generated_design",
    "confidence": "medium",
    "geometry_role": "design_proposal",
    "building_type": "existing_retained",
    "action": "retain",
    "name_zh": "保留建筑"
   },
   "geometry": {
    "type": "Polygon",
    "coordinates": [
     [
      [
       116.3475250493175,
       39.9481708855616
      ],
      [
       116.3475250493175,
       39.948490885561604
      ],
      [
       116.34720504931751,
       39.948490885561604
      ],
      [
       116.34720504931751,
       39.9481708855616
      ],
      [
       116.3475250493175,
       39.9481708855616
      ]
     ]
    ]
   }
  },
  {
   "type": "Feature",
   "id": "BLDG-006-73",
   "properties": {
    "id": "BLDG-006-73",
    "layer": "BUILDING_FOOTPRINT",
    "source_type": "agent_generated_design",
    "confidence": "medium",
    "geometry_role": "design_proposal",
    "building_type": "existing_retained",
    "action": "retain",
    "name_zh": "保留建筑"
   },
   "geometry": {
    "type": "Polygon",
    "coordinates": [
     [
      [
       116.34973427563602,
       39.945339222254965
      ],
      [
       116.34973427563602,
       39.94565922225497
      ],
      [
       116.34941427563604,
       39.94565922225497
      ],
      [
       116.34941427563604,
       39.945339222254965
      ],
      [
       116.34973427563602,
       39.945339222254965
      ]
     ]
    ]
   }
  },
  {
   "type": "Feature",
   "id": "BLDG-006-74",
   "properties": {
    "id": "BLDG-006-74",
    "layer": "BUILDING_FOOTPRINT",
    "source_type": "agent_generated_design",
    "confidence": "medium",
    "geometry_role": "design_proposal",
    "building_type": "existing_retained",
    "action": "retain",
    "name_zh": "保留建筑"
   },
   "geometry": {
    "type": "Polygon",
    "coordinates": [
     [
      [
       116.34969818956866,
       39.948186788675756
      ],
      [
       116.34969818956866,
       39.94850678867576
      ],
      [
       116.34937818956867,
       39.94850678867576
      ],
      [
       116.34937818956867,
       39.948186788675756
      ],
      [
       116.34969818956866,
       39.948186788675756
      ]
     ]
    ]
   }
  },
  {
   "type": "Feature",
   "id": "BLDG-006-75",
   "properties": {
    "id": "BLDG-006-75",
    "layer": "BUILDING_FOOTPRINT",
    "source_type": "agent_generated_design",
    "confidence": "medium",
    "geometry_role": "design_proposal",
    "building_type": "existing_retained",
    "action": "retain",
    "name_zh": "保留建筑"
   },
   "geometry": {
    "type": "Polygon",
    "coordinates": [
     [
      [
       116.35192529198669,
       39.9453537250731
      ],
      [
       116.35192529198669,
       39.9456737250731
      ],
      [
       116.3516052919867,
       39.9456737250731
      ],
      [
       116.3516052919867,
       39.9453537250731
      ],
      [
       116.35192529198669,
       39.9453537250731
      ]
     ]
    ]
   }
  },
  {
   "type": "Feature",
   "id": "BLDG-006-76",
   "properties": {
    "id": "BLDG-006-76",
    "layer": "BUILDING_FOOTPRINT",
    "source_type": "agent_generated_design",
    "confidence": "medium",
    "geometry_role": "design_proposal",
    "building_type": "existing_retained",
    "action": "retain",
    "name_zh": "保留建筑"
   },
   "geometry": {
    "type": "Polygon",
    "coordinates": [
     [
      [
       116.35191925235384,
       39.94820760165696
      ],
      [
       116.35191925235384,
       39.94852760165696
      ],
      [
       116.35159925235385,
       39.94852760165696
      ],
      [
       116.35159925235385,
       39.94820760165696
      ],
      [
       116.35191925235384,
       39.94820760165696
      ]
     ]
    ]
   }
  },
  {
   "type": "Feature",
   "id": "BLDG-006-77",
   "properties": {
    "id": "BLDG-006-77",
    "layer": "BUILDING_FOOTPRINT",
    "source_type": "agent_generated_design",
    "confidence": "medium",
    "geometry_role": "design_proposal",
    "building_type": "existing_retained",
    "action": "retain",
    "name_zh": "保留建筑"
   },
   "geometry": {
    "type": "Polygon",
    "coordinates": [
     [
      [
       116.35413381727933,
       39.945245589921676
      ],
      [
       116.35413381727933,
       39.94556558992168
      ],
      [
       116.35381381727935,
       39.94556558992168
      ],
      [
       116.35381381727935,
       39.945245589921676
      ],
      [
       116.35413381727933,
       39.945245589921676
      ]
     ]
    ]
   }
  },
  {
   "type": "Feature",
   "id": "BLDG-006-78",
   "properties": {
    "id": "BLDG-006-78",
    "layer": "BUILDING_FOOTPRINT",
    "source_type": "agent_generated_design",
    "confidence": "medium",
    "geometry_role": "design_proposal",
    "building_type": "existing_retained",
    "action": "retain",
    "name_zh": "保留建筑"
   },
   "geometry": {
    "type": "Polygon",
    "coordinates": [
     [
      [
       116.35411968288174,
       39.94819475311436
      ],
      [
       116.35411968288174,
       39.94851475311436
      ],
      [
       116.35379968288176,
       39.94851475311436
      ],
      [
       116.35379968288176,
       39.94819475311436
      ],
      [
       116.35411968288174,
       39.94819475311436
      ]
     ]
    ]
   }
  },
  {
   "type": "Feature",
   "id": "BLDG-007-79",
   "properties": {
    "id": "BLDG-007-79",
    "layer": "BUILDING_FOOTPRINT",
    "source_type": "agent_generated_design",
    "confidence": "medium",
    "geometry_role": "design_proposal",
    "building_type": "ai_r_and_d",
    "action": "new",
    "name_zh": "AI研发楼"
   },
   "geometry": {
    "type": "Polygon",
    "coordinates": [
     [
      [
       116.34322219326512,
       39.945258101900876
      ],
      [
       116.34322219326512,
       39.94557810190088
      ],
      [
       116.34290219326513,
       39.94557810190088
      ],
      [
       116.34290219326513,
       39.945258101900876
      ],
      [
       116.34322219326512,
       39.945258101900876
      ]
     ]
    ]
   }
  },
  {
   "type": "Feature",
   "id": "BLDG-007-80",
   "properties": {
    "id": "BLDG-007-80",
    "layer": "BUILDING_FOOTPRINT",
    "source_type": "agent_generated_design",
    "confidence": "medium",
    "geometry_role": "design_proposal",
    "building_type": "ai_r_and_d",
    "action": "new",
    "name_zh": "AI研发楼"
   },
   "geometry": {
    "type": "Polygon",
    "coordinates": [
     [
      [
       116.3432614454701,
       39.9481686923544
      ],
      [
       116.3432614454701,
       39.9484886923544
      ],
      [
       116.34294144547012,
       39.9484886923544
      ],
      [
       116.34294144547012,
       39.9481686923544
      ],
      [
       116.3432614454701,
       39.9481686923544
      ]
     ]
    ]
   }
  },
  {
   "type": "Feature",
   "id": "BLDG-007-81",
   "properties": {
    "id": "BLDG-007-81",
    "layer": "BUILDING_FOOTPRINT",
    "source_type": "agent_generated_design",
    "confidence": "medium",
    "geometry_role": "design_proposal",
    "building_type": "ai_r_and_d",
    "action": "new",
    "name_zh": "AI研发楼"
   },
   "geometry": {
    "type": "Polygon",
    "coordinates": [
     [
      [
       116.3454143058405,
       39.94528388267003
      ],
      [
       116.3454143058405,
       39.945603882670035
      ],
      [
       116.34509430584052,
       39.945603882670035
      ],
      [
       116.34509430584052,
       39.94528388267003
      ],
      [
       116.3454143058405,
       39.94528388267003
      ]
     ]
    ]
   }
  },
  {
   "type": "Feature",
   "id": "BLDG-007-82",
   "properties": {
    "id": "BLDG-007-82",
    "layer": "BUILDING_FOOTPRINT",
    "source_type": "agent_generated_design",
    "confidence": "medium",
    "geometry_role": "design_proposal",
    "building_type": "ai_r_and_d",
    "action": "new",
    "name_zh": "AI研发楼"
   },
   "geometry": {
    "type": "Polygon",
    "coordinates": [
     [
      [
       116.34535695987095,
       39.948220892287985
      ],
      [
       116.34535695987095,
       39.94854089228799
      ],
      [
       116.34503695987097,
       39.94854089228799
      ],
      [
       116.34503695987097,
       39.948220892287985
      ],
      [
       116.34535695987095,
       39.948220892287985
      ]
     ]
    ]
   }
  },
  {
   "type": "Feature",
   "id": "BLDG-007-83",
   "properties": {
    "id": "BLDG-007-83",
    "layer": "BUILDING_FOOTPRINT",
    "source_type": "agent_generated_design",
    "confidence": "medium",
    "geometry_role": "design_proposal",
    "building_type": "ai_r_and_d",
    "action": "new",
    "name_zh": "AI研发楼"
   },
   "geometry": {
    "type": "Polygon",
    "coordinates": [
     [
      [
       116.34752116614568,
       39.94529203748204
      ],
      [
       116.34752116614568,
       39.94561203748204
      ],
      [
       116.3472011661457,
       39.94561203748204
      ],
      [
       116.3472011661457,
       39.94529203748204
      ],
      [
       116.34752116614568,
       39.94529203748204
      ]
     ]
    ]
   }
  },
  {
   "type": "Feature",
   "id": "BLDG-007-84",
   "properties": {
    "id": "BLDG-007-84",
    "layer": "BUILDING_FOOTPRINT",
    "source_type": "agent_generated_design",
    "confidence": "medium",
    "geometry_role": "design_proposal",
    "building_type": "ai_r_and_d",
    "action": "new",
    "name_zh": "AI研发楼"
   },
   "geometry": {
    "type": "Polygon",
    "coordinates": [
     [
      [
       116.3475250493175,
       39.9481708855616
      ],
      [
       116.3475250493175,
       39.948490885561604
      ],
      [
       116.34720504931751,
       39.948490885561604
      ],
      [
       116.34720504931751,
       39.9481708855616
      ],
      [
       116.3475250493175,
       39.9481708855616
      ]
     ]
    ]
   }
  },
  {
   "type": "Feature",
   "id": "BLDG-007-85",
   "properties": {
    "id": "BLDG-007-85",
    "layer": "BUILDING_FOOTPRINT",
    "source_type": "agent_generated_design",
    "confidence": "medium",
    "geometry_role": "design_proposal",
    "building_type": "ai_r_and_d",
    "action": "new",
    "name_zh": "AI研发楼"
   },
   "geometry": {
    "type": "Polygon",
    "coordinates": [
     [
      [
       116.34973427563602,
       39.945339222254965
      ],
      [
       116.34973427563602,
       39.94565922225497
      ],
      [
       116.34941427563604,
       39.94565922225497
      ],
      [
       116.34941427563604,
       39.945339222254965
      ],
      [
       116.34973427563602,
       39.945339222254965
      ]
     ]
    ]
   }
  },
  {
   "type": "Feature",
   "id": "BLDG-007-86",
   "properties": {
    "id": "BLDG-007-86",
    "layer": "BUILDING_FOOTPRINT",
    "source_type": "agent_generated_design",
    "confidence": "medium",
    "geometry_role": "design_proposal",
    "building_type": "ai_r_and_d",
    "action": "new",
    "name_zh": "AI研发楼"
   },
   "geometry": {
    "type": "Polygon",
    "coordinates": [
     [
      [
       116.34969818956866,
       39.948186788675756
      ],
      [
       116.34969818956866,
       39.94850678867576
      ],
      [
       116.34937818956867,
       39.94850678867576
      ],
      [
       116.34937818956867,
       39.948186788675756
      ],
      [
       116.34969818956866,
       39.948186788675756
      ]
     ]
    ]
   }
  },
  {
   "type": "Feature",
   "id": "BLDG-007-87",
   "properties": {
    "id": "BLDG-007-87",
    "layer": "BUILDING_FOOTPRINT",
    "source_type": "agent_generated_design",
    "confidence": "medium",
    "geometry_role": "design_proposal",
    "building_type": "ai_r_and_d",
    "action": "new",
    "name_zh": "AI研发楼"
   },
   "geometry": {
    "type": "Polygon",
    "coordinates": [
     [
      [
       116.35192529198669,
       39.9453537250731
      ],
      [
       116.35192529198669,
       39.9456737250731
      ],
      [
       116.3516052919867,
       39.9456737250731
      ],
      [
       116.3516052919867,
       39.9453537250731
      ],
      [
       116.35192529198669,
       39.9453537250731
      ]
     ]
    ]
   }
  },
  {
   "type": "Feature",
   "id": "BLDG-007-88",
   "properties": {
    "id": "BLDG-007-88",
    "layer": "BUILDING_FOOTPRINT",
    "source_type": "agent_generated_design",
    "confidence": "medium",
    "geometry_role": "design_proposal",
    "building_type": "ai_r_and_d",
    "action": "new",
    "name_zh": "AI研发楼"
   },
   "geometry": {
    "type": "Polygon",
    "coordinates": [
     [
      [
       116.35191925235384,
       39.94820760165696
      ],
      [
       116.35191925235384,
       39.94852760165696
      ],
      [
       116.35159925235385,
       39.94852760165696
      ],
      [
       116.35159925235385,
       39.94820760165696
      ],
      [
       116.35191925235384,
       39.94820760165696
      ]
     ]
    ]
   }
  },
  {
   "type": "Feature",
   "id": "BLDG-007-89",
   "properties": {
    "id": "BLDG-007-89",
    "layer": "BUILDING_FOOTPRINT",
    "source_type": "agent_generated_design",
    "confidence": "medium",
    "geometry_role": "design_proposal",
    "building_type": "ai_r_and_d",
    "action": "new",
    "name_zh": "AI研发楼"
   },
   "geometry": {
    "type": "Polygon",
    "coordinates": [
     [
      [
       116.35413381727933,
       39.945245589921676
      ],
      [
       116.35413381727933,
       39.94556558992168
      ],
      [
       116.35381381727935,
       39.94556558992168
      ],
      [
       116.35381381727935,
       39.945245589921676
      ],
      [
       116.35413381727933,
       39.945245589921676
      ]
     ]
    ]
   }
  },
  {
   "type": "Feature",
   "id": "BLDG-007-90",
   "properties": {
    "id": "BLDG-007-90",
    "layer": "BUILDING_FOOTPRINT",
    "source_type": "agent_generated_design",
    "confidence": "medium",
    "geometry_role": "design_proposal",
    "building_type": "ai_r_and_d",
    "action": "new",
    "name_zh": "AI研发楼"
   },
   "geometry": {
    "type": "Polygon",
    "coordinates": [
     [
      [
       116.35411968288174,
       39.94819475311436
      ],
      [
       116.35411968288174,
       39.94851475311436
      ],
      [
       116.35379968288176,
       39.94851475311436
      ],
      [
       116.35379968288176,
       39.94819475311436
      ],
      [
       116.35411968288174,
       39.94819475311436
      ]
     ]
    ]
   }
  },
  {
   "type": "Feature",
   "id": "BLDG-008-91",
   "properties": {
    "id": "BLDG-008-91",
    "layer": "BUILDING_FOOTPRINT",
    "source_type": "agent_generated_design",
    "confidence": "medium",
    "geometry_role": "design_proposal",
    "building_type": "community_service",
    "action": "new",
    "name_zh": "社区服务建筑"
   },
   "geometry": {
    "type": "Polygon",
    "coordinates": [
     [
      [
       116.34496567071122,
       39.96069888267003
      ],
      [
       116.34496567071122,
       39.96101888267003
      ],
      [
       116.34464567071123,
       39.96101888267003
      ],
      [
       116.34464567071123,
       39.96069888267003
      ],
      [
       116.34496567071122,
       39.96069888267003
      ]
     ]
    ]
   }
  },
  {
   "type": "Feature",
   "id": "BLDG-008-92",
   "properties": {
    "id": "BLDG-008-92",
    "layer": "BUILDING_FOOTPRINT",
    "source_type": "agent_generated_design",
    "confidence": "medium",
    "geometry_role": "design_proposal",
    "building_type": "community_service",
    "action": "new",
    "name_zh": "社区服务建筑"
   },
   "geometry": {
    "type": "Polygon",
    "coordinates": [
     [
      [
       116.34624222604522,
       40.0044158855616
      ],
      [
       116.34624222604522,
       40.0047358855616
      ],
      [
       116.34592222604523,
       40.0047358855616
      ],
      [
       116.34592222604523,
       40.0044158855616
      ],
      [
       116.34624222604522,
       40.0044158855616
      ]
     ]
    ]
   }
  },
  {
   "type": "Feature",
   "id": "BLDG-008-93",
   "properties": {
    "id": "BLDG-008-93",
    "layer": "BUILDING_FOOTPRINT",
    "source_type": "agent_generated_design",
    "confidence": "medium",
    "geometry_role": "design_proposal",
    "building_type": "community_service",
    "action": "new",
    "name_zh": "社区服务建筑"
   },
   "geometry": {
    "type": "Polygon",
    "coordinates": [
     [
      [
       116.34761726422077,
       39.96075422225496
      ],
      [
       116.34761726422077,
       39.961074222254965
      ],
      [
       116.34729726422078,
       39.961074222254965
      ],
      [
       116.34729726422078,
       39.96075422225496
      ],
      [
       116.34761726422077,
       39.96075422225496
      ]
     ]
    ]
   }
  },
  {
   "type": "Feature",
   "id": "BLDG-008-94",
   "properties": {
    "id": "BLDG-008-94",
    "layer": "BUILDING_FOOTPRINT",
    "source_type": "agent_generated_design",
    "confidence": "medium",
    "geometry_role": "design_proposal",
    "building_type": "community_service",
    "action": "new",
    "name_zh": "社区服务建筑"
   },
   "geometry": {
    "type": "Polygon",
    "coordinates": [
     [
      [
       116.3489680527956,
       40.00445260165696
      ],
      [
       116.3489680527956,
       40.00477260165696
      ],
      [
       116.34864805279561,
       40.00477260165696
      ],
      [
       116.34864805279561,
       40.00445260165696
      ],
      [
       116.3489680527956,
       40.00445260165696
      ]
     ]
    ]
   }
  }
 ]
}