{
 "type": "FeatureCollection",
 "name": "green_space_design",
 "features": [
  {
   "type": "Feature",
   "id": "GREEN-001",
   "properties": {
    "id": "GREEN-001",
    "layer": "GREEN_SPACE",
    "source_type": "agent_generated_design",
    "confidence": "medium",
    "geometry_role": "design_proposal",
    "green_type": "community_park",
    "name_zh": "五道口青年公园",
    "land_use_code": "1401"
   },
   "geometry": {
    "type": "Polygon",
    "coordinates": [
     [
      [
       116.3425,
       39.988
      ],
      [
       116.3425,
       39.9915
      ],
      [
       116.3465,
       39.9915
      ],
      [
       116.3465,
       39.988
      ],
      [
       116.3425,
       39.988
      ]
     ]
    ]
   }
  },
  {
   "type": "Feature",
   "id": "GREEN-002",
   "properties": {
    "id": "GREEN-002",
    "layer": "GREEN_SPACE",
    "source_type": "agent_generated_design",
    "confidence": "medium",
    "geometry_role": "design_proposal",
    "green_type": "community_park",
    "name_zh": "知春里社区公园",
    "land_use_code": "1401"
   },
   "geometry": {
    "type": "Polygon",
    "coordinates": [
     [
      [
       116.344,
       39.959
      ],
      [
       116.344,
       39.962
      ],
      [
       116.3475,
       39.962
      ],
      [
       116.3475,
       39.959
      ],
      [
       116.344,
       39.959
      ]
     ]
    ]
   }
  },
  {
   "type": "Feature",
   "id": "GREEN-003",
   "properties": {
    "id": "GREEN-003",
    "layer": "GREEN_SPACE",
    "source_type": "agent_generated_design",
    "confidence": "medium",
    "geometry_role": "design_proposal",
    "green_type": "community_park",
    "name_zh": "大钟寺口袋公园群",
    "land_use_code": "1401"
   },
   "geometry": {
    "type": "Polygon",
    "coordinates": [
     [
      [
       116.3435,
       39.9442
      ],
      [
       116.3435,
       39.947
      ],
      [
       116.3465,
       39.947
      ],
      [
       116.3465,
       39.9442
      ],
      [
       116.3435,
       39.9442
      ]
     ]
    ]
   }
  },
  {
   "type": "Feature",
   "id": "GREEN-004",
   "properties": {
    "id": "GREEN-004",
    "layer": "GREEN_SPACE",
    "source_type": "agent_generated_design",
    "confidence": "medium",
    "geometry_role": "design_proposal",
    "green_type": "community_park",
    "name_zh": "众智园创新绿核",
    "land_use_code": "1401"
   },
   "geometry": {
    "type": "Polygon",
    "coordinates": [
     [
      [
       116.347,
       40.013
      ],
      [
       116.347,
       40.0175
      ],
      [
       116.3515,
       40.0175
      ],
      [
       116.3515,
       40.013
      ],
      [
       116.347,
       40.013
      ]
     ]
    ]
   }
  },
  {
   "type": "Feature",
   "id": "GREEN-005",
   "properties": {
    "id": "GREEN-005",
    "layer": "GREEN_SPACE",
    "source_type": "agent_generated_design",
    "confidence": "medium",
    "geometry_role": "design_proposal",
    "green_type": "community_park",
    "name_zh": "清华东路街角花园",
    "land_use_code": "1401"
   },
   "geometry": {
    "type": "Polygon",
    "coordinates": [
     [
      [
       116.348,
       39.9958
      ],
      [
       116.348,
       39.9982
      ],
      [
       116.351,
       39.9982
      ],
      [
       116.351,
       39.9958
      ],
      [
       116.348,
       39.9958
      ]
     ]
    ]
   }
  },
  {
   "type": "Feature",
   "id": "GREEN-006",
   "properties": {
    "id": "GREEN-006",
    "layer": "GREEN_SPACE",
    "source_type": "agent_generated_design",
    "confidence": "medium",
    "geometry_role": "design_proposal",
    "green_type": "community_park",
    "name_zh": "原点社区林荫广场带",
    "land_use_code": "1401"
   },
   "geometry": {
    "type": "Polygon",
    "coordinates": [
     [
      [
       116.3445,
       39.9848
      ],
      [
       116.3445,
       39.9878
      ],
      [
       116.348,
       39.9878
      ],
      [
       116.348,
       39.9848
      ],
      [
       116.3445,
       39.9848
      ]
     ]
    ]
   }
  },
  {
   "type": "Feature",
   "id": "GREEN-007",
   "properties": {
    "id": "GREEN-007",
    "layer": "GREEN_SPACE",
    "source_type": "agent_generated_design",
    "confidence": "medium",
    "geometry_role": "design_proposal",
    "green_type": "heritage_park",
    "name_zh": "京张遗址公园活力带",
    "land_use_code": "1401"
   },
   "geometry": {
    "type": "Polygon",
    "coordinates": [
     [
      [
       116.34515014046104,
       39.95798454800838
      ],
      [
       116.34515421838833,
       39.95808457816116
      ],
      [
       116.34634811465082,
       39.97002354078612
      ],
      [
       116.3457508382645,
       39.98346225947842
      ],
      [
       116.34575037683635,
       39.98352530770248
      ],
      [
       116.3457545901483,
       39.983588216680175
      ],
      [
       116.34694863837811,
       39.995031178882336
      ],
      [
       116.34655040208138,
       40.00797385852558
      ],
      [
       116.34655188261581,
       40.00805654115895
      ],
      [
       116.34735173823181,
       40.02005437539877
      ],
      [
       116.34774839205343,
       40.0265
      ],
      [
       116.34944904113328,
       40.0265
      ],
      [
       116.34944839508944,
       40.02644779107142
      ],
      [
       116.34904839508944,
       40.019947791071424
      ],
      [
       116.34904811738419,
       40.019943458841055
      ],
      [
       116.34825087106844,
       40.00798476410502
      ],
      [
       116.34864959791862,
       39.99502614147442
      ],
      [
       116.3486454098517,
       39.99491178331982
      ],
      [
       116.34745196698168,
       39.98347462248232
      ],
      [
       116.3480491617355,
       39.970037740521576
      ],
      [
       116.34804578161167,
       39.969915421838834
      ],
      [
       116.34685077109096,
       39.957965316631686
      ],
      [
       116.34704985953896,
       39.94701545199162
      ],
      [
       116.34704818535005,
       39.94694448773149
      ],
      [
       116.34704059589994,
       39.94687391061501
      ],
      [
       116.34585950930769,
       39.939
      ],
      [
       116.34415102273745,
       39.939
      ],
      [
       116.34415109287814,
       39.939043089423855
      ],
      [
       116.34415940410005,
       39.93912608938499
      ],
      [
       116.34534884666996,
       39.9470557065177
      ],
      [
       116.34515014046104,
       39.95798454800838
      ]
     ]
    ]
   }
  },
  {
   "type": "Feature",
   "id": "GREEN-008",
   "properties": {
    "id": "GREEN-008",
    "layer": "GREEN_SPACE",
    "source_type": "agent_generated_design",
    "confidence": "medium",
    "geometry_role": "design_proposal",
    "green_type": "waterfront_green",
    "name_zh": "小月河滨水绿带",
    "land_use_code": "1401"
   },
   "geometry": {
    "type": "Polygon",
    "coordinates": [
     [
      [
       116.35220005332623,
       39.96499200071102
      ],
      [
       116.35220026981789,
       39.96501799190547
      ],
      [
       116.35279985602432,
       39.985004198786996
      ],
      [
       116.35240007678526,
       40.00999040122856
      ],
      [
       116.35240039630122,
       40.01002180377086
      ],
      [
       116.35299960343683,
       40.0265
      ],
      [
       116.35419932590884,
       40.0265
      ],
      [
       116.35419960369877,
       40.026478196229135
      ],
      [
       116.35360017450199,
       40.00999389331773
      ],
      [
       116.3537799355999,
       39.99875882469818
      ],
      [
       116.3533,
       39.99
      ],
      [
       116.35391837813765,
       39.98227027327933
      ],
      [
       116.35340011997968,
       39.964995001346445
      ],
      [
       116.35359994667377,
       39.950007999288985
      ],
      [
       116.35359753592388,
       39.949945678552375
      ],
      [
       116.35260247423732,
       39.939
      ],
      [
       116.35140020449576,
       39.939
      ],
      [
       116.35140246407612,
       39.93905432144763
      ],
      [
       116.35239963701822,
       39.9500232238109
      ],
      [
       116.35220005332623,
       39.96499200071102
      ]
     ]
    ]
   }
  },
  {
   "type": "Feature",
   "id": "GREEN-009",
   "properties": {
    "id": "GREEN-009",
    "layer": "GREEN_SPACE",
    "source_type": "agent_generated_design",
    "confidence": "medium",
    "geometry_role": "design_proposal",
    "green_type": "waterfront_green",
    "name_zh": "清河滨水绿带",
    "land_use_code": "1402"
   },
   "geometry": {
    "type": "Polygon",
    "coordinates": [
     [
      [
       116.34257804878048,
       40.024
      ],
      [
       116.34262682926828,
       40.025000000000006
      ],
      [
       116.35521780821918,
       40.025000000000006
      ],
      [
       116.35516301369863,
       40.024
      ],
      [
       116.34257804878048,
       40.024
      ]
     ]
    ]
   }
  }
 ]
}