{
  "type": "FeatureCollection",
  "name": "building_footprints_provisional_concept",
  "features": [
    {
      "type": "Feature",
      "id": "BLDG-001",
      "properties": {
        "id": "BLDG-001",
        "layer": "BUILDING_FOOTPRINT",
        "source_type": "agent_generated_design",
        "confidence": "low",
        "geometry_role": "design_proposal",
        "building_type": "ai_r_and_d",
        "name_zh": "四线共生共享建筑概念基底",
        "name_en": "Concept footprint for a shared four-system building",
        "concept_role_zh": "用于检查开源协作、公共服务、企业交换和责任治理能否在共享建筑原型中分区组织",
        "usage_note": "脚手架概念基底，不是现状建筑调查、具体地块拆改留、批准建设规模或实施项目。",
        "area_sqm_declared": 310807.184
      },
      "geometry": {
        "type": "Polygon",
        "coordinates": [
          [
            [
              116.341572,
              39.95475
            ],
            [
              116.341572,
              39.97225
            ],
            [
              116.34344399999999,
              39.97225
            ],
            [
              116.34344399999999,
              39.95475
            ],
            [
              116.341572,
              39.95475
            ]
          ]
        ]
      }
    }
  ]
}
