{
  "type": "FeatureCollection",
  "name": "green_space",
  "features": [
    {
      "type": "Feature",
      "id": "GS-SPINE",
      "properties": {
        "id": "GS-SPINE",
        "layer": "GREEN_SPACE",
        "source_type": "agent_generated_design",
        "confidence": "medium",
        "geometry_role": "design_proposal",
        "land_use_code": "1401",
        "name_zh": "京张公共空间主轴公园（概念）",
        "area_sqm_calculated": 1327865.693
      },
      "geometry": {
        "type": "Polygon",
        "coordinates": [
          [
            [
              116.3483,
              39.939
            ],
            [
              116.3467,
              39.939
            ],
            [
              116.3467,
              40.0265
            ],
            [
              116.3483,
              40.0265
            ],
            [
              116.3483,
              39.939
            ]
          ]
        ]
      }
    },
    {
      "type": "Feature",
      "id": "GS-POCKET-1",
      "properties": {
        "id": "GS-POCKET-1",
        "layer": "GREEN_SPACE",
        "source_type": "agent_generated_design",
        "confidence": "medium",
        "geometry_role": "design_proposal",
        "land_use_code": "1401",
        "name_zh": "降温口袋公园1（概念）",
        "area_sqm_calculated": 24103.682
      },
      "geometry": {
        "type": "Polygon",
        "coordinates": [
          [
            [
              116.35126270675237,
              39.96332441871018
            ],
            [
              116.35124124630217,
              39.96323874379047
            ],
            [
              116.35121149157926,
              39.963155584910865
            ],
            [
              116.35117372913791,
              39.96307574293685
            ],
            [
              116.35112832265108,
              39.96299998679028
            ],
            [
              116.35107570940802,
              39.96292904604425
            ],
            [
              116.35101639610306,
              39.96286360389693
            ],
            [
              116.35095095395575,
              39.96280429059197
            ],
            [
              116.35088001320972,
              39.962751677348926
            ],
            [
              116.35080425706315,
              39.962706270862085
            ],
            [
              116.35072441508913,
              39.962668508420734
            ],
            [
              116.35064125620953,
              39.96263875369784
            ],
            [
              116.35055558128981,
              39.96261729324763
            ],
            [
              116.3504682154263,
              39.96260433374599
            ],
            [
              116.35038,
              39.962599999999995
            ],
            [
              116.3502917845737,
              39.96260433374599
            ],
            [
              116.35020441871019,
              39.96261729324763
            ],
            [
              116.35011874379047,
              39.96263875369784
            ],
            [
              116.35003558491087,
              39.962668508420734
            ],
            [
              116.34995574293686,
              39.962706270862085
            ],
            [
              116.34987998679028,
              39.962751677348926
            ],
            [
              116.34980904604426,
              39.96280429059197
            ],
            [
              116.34974360389694,
              39.96286360389693
            ],
            [
              116.34968429059198,
              39.96292904604425
            ],
            [
              116.34963167734892,
              39.96299998679028
            ],
            [
              116.34958627086209,
              39.96307574293685
            ],
            [
              116.34954850842074,
              39.963155584910865
            ],
            [
              116.34951875369784,
              39.96323874379047
            ],
            [
              116.34949729324764,
              39.96332441871018
            ],
            [
              116.34948433374599,
              39.9634117845737
            ],
            [
              116.34948,
              39.963499999999996
            ],
            [
              116.34948433374599,
              39.96358821542629
            ],
            [
              116.34949729324764,
              39.96367558128981
            ],
            [
              116.34951875369784,
              39.96376125620952
            ],
            [
              116.34954850842074,
              39.96384441508913
            ],
            [
              116.34958627086209,
              39.96392425706314
            ],
            [
              116.34963167734892,
              39.96400001320971
            ],
            [
              116.34968429059198,
              39.96407095395574
            ],
            [
              116.34974360389694,
              39.964136396103065
            ],
            [
              116.34980904604426,
              39.964195709408024
            ],
            [
              116.34987998679028,
              39.964248322651066
            ],
            [
              116.34995574293686,
              39.96429372913791
            ],
            [
              116.35003558491087,
              39.96433149157926
            ],
            [
              116.35011874379047,
              39.964361246302154
            ],
            [
              116.35020441871019,
              39.96438270675236
            ],
            [
              116.3502917845737,
              39.964395666254
            ],
            [
              116.35038,
              39.9644
            ],
            [
              116.3504682154263,
              39.964395666254
            ],
            [
              116.35055558128981,
              39.96438270675236
            ],
            [
              116.35064125620953,
              39.964361246302154
            ],
            [
              116.35072441508913,
              39.96433149157926
            ],
            [
              116.35080425706315,
              39.96429372913791
            ],
            [
              116.35088001320972,
              39.964248322651066
            ],
            [
              116.35095095395575,
              39.964195709408024
            ],
            [
              116.35101639610306,
              39.964136396103065
            ],
            [
              116.35107570940802,
              39.96407095395574
            ],
            [
              116.35112832265108,
              39.96400001320971
            ],
            [
              116.35117372913791,
              39.96392425706314
            ],
            [
              116.35121149157926,
              39.96384441508913
            ],
            [
              116.35124124630217,
              39.96376125620952
            ],
            [
              116.35126270675237,
              39.96367558128981
            ],
            [
              116.35127566625401,
              39.96358821542629
            ],
            [
              116.35128,
              39.963499999999996
            ],
            [
              116.35127566625401,
              39.9634117845737
            ],
            [
              116.35126270675237,
              39.96332441871018
            ]
          ]
        ]
      }
    },
    {
      "type": "Feature",
      "id": "GS-POCKET-2",
      "properties": {
        "id": "GS-POCKET-2",
        "layer": "GREEN_SPACE",
        "source_type": "agent_generated_design",
        "confidence": "medium",
        "geometry_role": "design_proposal",
        "land_use_code": "1401",
        "name_zh": "降温口袋公园2（概念）",
        "area_sqm_calculated": 24095.481
      },
      "geometry": {
        "type": "Polygon",
        "coordinates": [
          [
            [
              116.35126270675237,
              39.98694941871018
            ],
            [
              116.35124124630217,
              39.98686374379047
            ],
            [
              116.35121149157926,
              39.98678058491087
            ],
            [
              116.35117372913791,
              39.986700742936854
            ],
            [
              116.35112832265108,
              39.98662498679028
            ],
            [
              116.35107570940802,
              39.986554046044255
            ],
            [
              116.35101639610306,
              39.98648860389693
            ],
            [
              116.35095095395575,
              39.98642929059197
            ],
            [
              116.35088001320972,
              39.98637667734893
            ],
            [
              116.35080425706315,
              39.98633127086209
            ],
            [
              116.35072441508913,
              39.98629350842074
            ],
            [
              116.35064125620953,
              39.98626375369784
            ],
            [
              116.35055558128981,
              39.986242293247635
            ],
            [
              116.3504682154263,
              39.986229333745996
            ],
            [
              116.35038,
              39.986225
            ],
            [
              116.3502917845737,
              39.986229333745996
            ],
            [
              116.35020441871019,
              39.986242293247635
            ],
            [
              116.35011874379047,
              39.98626375369784
            ],
            [
              116.35003558491087,
              39.98629350842074
            ],
            [
              116.34995574293686,
              39.98633127086209
            ],
            [
              116.34987998679028,
              39.98637667734893
            ],
            [
              116.34980904604426,
              39.98642929059197
            ],
            [
              116.34974360389694,
              39.98648860389693
            ],
            [
              116.34968429059198,
              39.986554046044255
            ],
            [
              116.34963167734892,
              39.98662498679028
            ],
            [
              116.34958627086209,
              39.986700742936854
            ],
            [
              116.34954850842074,
              39.98678058491087
            ],
            [
              116.34951875369784,
              39.98686374379047
            ],
            [
              116.34949729324764,
              39.98694941871018
            ],
            [
              116.34948433374599,
              39.987036784573704
            ],
            [
              116.34948,
              39.987125
            ],
            [
              116.34948433374599,
              39.987213215426294
            ],
            [
              116.34949729324764,
              39.987300581289816
            ],
            [
              116.34951875369784,
              39.987386256209525
            ],
            [
              116.34954850842074,
              39.98746941508913
            ],
            [
              116.34958627086209,
              39.987549257063144
            ],
            [
              116.34963167734892,
              39.987625013209716
            ],
            [
              116.34968429059198,
              39.98769595395574
            ],
            [
              116.34974360389694,
              39.98776139610307
            ],
            [
              116.34980904604426,
              39.98782070940803
            ],
            [
              116.34987998679028,
              39.98787332265107
            ],
            [
              116.34995574293686,
              39.98791872913791
            ],
            [
              116.35003558491087,
              39.98795649157926
            ],
            [
              116.35011874379047,
              39.98798624630216
            ],
            [
              116.35020441871019,
              39.98800770675236
            ],
            [
              116.3502917845737,
              39.988020666254
            ],
            [
              116.35038,
              39.988025
            ],
            [
              116.3504682154263,
              39.988020666254
            ],
            [
              116.35055558128981,
              39.98800770675236
            ],
            [
              116.35064125620953,
              39.98798624630216
            ],
            [
              116.35072441508913,
              39.98795649157926
            ],
            [
              116.35080425706315,
              39.98791872913791
            ],
            [
              116.35088001320972,
              39.98787332265107
            ],
            [
              116.35095095395575,
              39.98782070940803
            ],
            [
              116.35101639610306,
              39.98776139610307
            ],
            [
              116.35107570940802,
              39.98769595395574
            ],
            [
              116.35112832265108,
              39.987625013209716
            ],
            [
              116.35117372913791,
              39.987549257063144
            ],
            [
              116.35121149157926,
              39.98746941508913
            ],
            [
              116.35124124630217,
              39.987386256209525
            ],
            [
              116.35126270675237,
              39.987300581289816
            ],
            [
              116.35127566625401,
              39.987213215426294
            ],
            [
              116.35128,
              39.987125
            ],
            [
              116.35127566625401,
              39.987036784573704
            ],
            [
              116.35126270675237,
              39.98694941871018
            ]
          ]
        ]
      }
    },
    {
      "type": "Feature",
      "id": "GS-POCKET-3",
      "properties": {
        "id": "GS-POCKET-3",
        "layer": "GREEN_SPACE",
        "source_type": "agent_generated_design",
        "confidence": "medium",
        "geometry_role": "design_proposal",
        "land_use_code": "1401",
        "name_zh": "降温口袋公园3（概念）",
        "area_sqm_calculated": 24088.492
      },
      "geometry": {
        "type": "Polygon",
        "coordinates": [
          [
            [
              116.35126270675237,
              40.00707441871018
            ],
            [
              116.35124124630217,
              40.00698874379047
            ],
            [
              116.35121149157926,
              40.00690558491087
            ],
            [
              116.35117372913791,
              40.006825742936854
            ],
            [
              116.35112832265108,
              40.00674998679028
            ],
            [
              116.35107570940802,
              40.006679046044255
            ],
            [
              116.35101639610306,
              40.00661360389693
            ],
            [
              116.35095095395575,
              40.00655429059197
            ],
            [
              116.35088001320972,
              40.00650167734893
            ],
            [
              116.35080425706315,
              40.00645627086209
            ],
            [
              116.35072441508913,
              40.00641850842074
            ],
            [
              116.35064125620953,
              40.00638875369784
            ],
            [
              116.35055558128981,
              40.006367293247635
            ],
            [
              116.3504682154263,
              40.006354333745996
            ],
            [
              116.35038,
              40.00635
            ],
            [
              116.3502917845737,
              40.006354333745996
            ],
            [
              116.35020441871019,
              40.006367293247635
            ],
            [
              116.35011874379047,
              40.00638875369784
            ],
            [
              116.35003558491087,
              40.00641850842074
            ],
            [
              116.34995574293686,
              40.00645627086209
            ],
            [
              116.34987998679028,
              40.00650167734893
            ],
            [
              116.34980904604426,
              40.00655429059197
            ],
            [
              116.34974360389694,
              40.00661360389693
            ],
            [
              116.34968429059198,
              40.006679046044255
            ],
            [
              116.34963167734892,
              40.00674998679028
            ],
            [
              116.34958627086209,
              40.006825742936854
            ],
            [
              116.34954850842074,
              40.00690558491087
            ],
            [
              116.34951875369784,
              40.00698874379047
            ],
            [
              116.34949729324764,
              40.00707441871018
            ],
            [
              116.34948433374599,
              40.007161784573704
            ],
            [
              116.34948,
              40.00725
            ],
            [
              116.34948433374599,
              40.007338215426294
            ],
            [
              116.34949729324764,
              40.007425581289816
            ],
            [
              116.34951875369784,
              40.007511256209526
            ],
            [
              116.34954850842074,
              40.00759441508913
            ],
            [
              116.34958627086209,
              40.007674257063144
            ],
            [
              116.34963167734892,
              40.007750013209716
            ],
            [
              116.34968429059198,
              40.00782095395574
            ],
            [
              116.34974360389694,
              40.00788639610307
            ],
            [
              116.34980904604426,
              40.00794570940803
            ],
            [
              116.34987998679028,
              40.00799832265107
            ],
            [
              116.34995574293686,
              40.00804372913791
            ],
            [
              116.35003558491087,
              40.00808149157926
            ],
            [
              116.35011874379047,
              40.00811124630216
            ],
            [
              116.35020441871019,
              40.00813270675236
            ],
            [
              116.3502917845737,
              40.008145666254
            ],
            [
              116.35038,
              40.00815
            ],
            [
              116.3504682154263,
              40.008145666254
            ],
            [
              116.35055558128981,
              40.00813270675236
            ],
            [
              116.35064125620953,
              40.00811124630216
            ],
            [
              116.35072441508913,
              40.00808149157926
            ],
            [
              116.35080425706315,
              40.00804372913791
            ],
            [
              116.35088001320972,
              40.00799832265107
            ],
            [
              116.35095095395575,
              40.00794570940803
            ],
            [
              116.35101639610306,
              40.00788639610307
            ],
            [
              116.35107570940802,
              40.00782095395574
            ],
            [
              116.35112832265108,
              40.007750013209716
            ],
            [
              116.35117372913791,
              40.007674257063144
            ],
            [
              116.35121149157926,
              40.00759441508913
            ],
            [
              116.35124124630217,
              40.007511256209526
            ],
            [
              116.35126270675237,
              40.007425581289816
            ],
            [
              116.35127566625401,
              40.007338215426294
            ],
            [
              116.35128,
              40.00725
            ],
            [
              116.35127566625401,
              40.007161784573704
            ],
            [
              116.35126270675237,
              40.00707441871018
            ]
          ]
        ]
      }
    }
  ]
}
