{
 "type": "FeatureCollection",
 "name": "public_space_red_list",
 "features": [
  {
   "type": "Feature",
   "id": "PUBLIC-009-01",
   "properties": {
    "id": "PUBLIC-009-01",
    "layer": "PUBLIC_SPACE",
    "source_type": "agent_generated_design",
    "confidence": "medium",
    "geometry_role": "design_proposal",
    "name_zh": "公榜广场公共空间",
    "name_en": "Red-list plaza public space",
    "area_sqm_declared": 67500.0
   },
   "geometry": {
    "type": "Polygon",
    "coordinates": [
     [
      [
       116.35049967529919,
       39.94707877391806
      ],
      [
       116.35051245002302,
       39.94572791853392
      ],
      [
       116.34700232205788,
       39.94570820091609
      ],
      [
       116.34697663368635,
       39.94840990948862
      ],
      [
       116.34873176626749,
       39.94841978252003
      ],
      [
       116.34874457637011,
       39.94706892792354
      ],
      [
       116.35049967529919,
       39.94707877391806
      ]
     ]
    ]
   }
  },
  {
   "type": "Feature",
   "id": "PUBLIC-009-02",
   "properties": {
    "id": "PUBLIC-009-02",
    "layer": "PUBLIC_SPACE",
    "source_type": "agent_generated_design",
    "confidence": "medium",
    "geometry_role": "design_proposal",
    "name_zh": "公榜广场公共空间",
    "name_en": "Red-list plaza public space",
    "area_sqm_declared": 22500.0
   },
   "geometry": {
    "type": "Polygon",
    "coordinates": [
     [
      [
       116.34837273214714,
       39.98624358163622
      ],
      [
       116.346616632156,
       39.98623369544308
      ],
      [
       116.34660376237065,
       39.98758454031273
      ],
      [
       116.34835989694598,
       39.98759442697619
      ],
      [
       116.34837273214714,
       39.98624358163622
      ]
     ]
    ]
   }
  },
  {
   "type": "Feature",
   "id": "PUBLIC-009-03",
   "properties": {
    "id": "PUBLIC-009-03",
    "layer": "PUBLIC_SPACE",
    "source_type": "agent_generated_design",
    "confidence": "medium",
    "geometry_role": "design_proposal",
    "name_zh": "公榜广场公共空间",
    "name_en": "Red-list plaza public space",
    "area_sqm_declared": 22500.0
   },
   "geometry": {
    "type": "Polygon",
    "coordinates": [
     [
      [
       116.34983420008021,
       40.01732281406701
      ],
      [
       116.34807730319423,
       40.017312943684615
      ],
      [
       116.34806444804829,
       40.01866378168151
      ],
      [
       116.34982137957228,
       40.01867365253339
      ],
      [
       116.34983420008021,
       40.01732281406701
      ]
     ]
    ]
   }
  }
 ]
}