{
 "type": "FeatureCollection",
 "name": "buildings",
 "features": [
  {
   "type": "Feature",
   "id": "BLDG-001",
   "properties": {
    "id": "BLDG-001",
    "layer": "BUILDING_FOOTPRINT",
    "source_type": "agent_generated_design",
    "confidence": "medium",
    "geometry_role": "design_proposal",
    "name_zh": "众智园·开源模型研发中心",
    "building_type": "ai_r_and_d"
   },
   "geometry": {
    "type": "Polygon",
    "coordinates": [
     [
      [
       116.3459,
       40.0144
      ],
      [
       116.3477,
       40.0144
      ],
      [
       116.3477,
       40.0156
      ],
      [
       116.3459,
       40.0156
      ],
      [
       116.3459,
       40.0144
      ]
     ]
    ]
   }
  },
  {
   "type": "Feature",
   "id": "BLDG-002",
   "properties": {
    "id": "BLDG-002",
    "layer": "BUILDING_FOOTPRINT",
    "source_type": "agent_generated_design",
    "confidence": "medium",
    "geometry_role": "design_proposal",
    "name_zh": "众智园·算力服务枢纽",
    "building_type": "mobility_hub"
   },
   "geometry": {
    "type": "Polygon",
    "coordinates": [
     [
      [
       116.3495,
       40.0151
      ],
      [
       116.3509,
       40.0151
      ],
      [
       116.3509,
       40.0169
      ],
      [
       116.3495,
       40.0169
      ],
      [
       116.3495,
       40.0151
      ]
     ]
    ]
   }
  },
  {
   "type": "Feature",
   "id": "BLDG-003",
   "properties": {
    "id": "BLDG-003",
    "layer": "BUILDING_FOOTPRINT",
    "source_type": "agent_generated_design",
    "confidence": "medium",
    "geometry_role": "design_proposal",
    "name_zh": "原点社区·AI人才公寓",
    "building_type": "talent_apartment"
   },
   "geometry": {
    "type": "Polygon",
    "coordinates": [
     [
      [
       116.34440000000001,
       39.9882
      ],
      [
       116.346,
       39.9882
      ],
      [
       116.346,
       39.989799999999995
      ],
      [
       116.34440000000001,
       39.989799999999995
      ],
      [
       116.34440000000001,
       39.9882
      ]
     ]
    ]
   }
  },
  {
   "type": "Feature",
   "id": "BLDG-004",
   "properties": {
    "id": "BLDG-004",
    "layer": "BUILDING_FOOTPRINT",
    "source_type": "agent_generated_design",
    "confidence": "medium",
    "geometry_role": "design_proposal",
    "name_zh": "原点社区·高校联合实验室",
    "building_type": "lab"
   },
   "geometry": {
    "type": "Polygon",
    "coordinates": [
     [
      [
       116.3496,
       39.9864
      ],
      [
       116.3514,
       39.9864
      ],
      [
       116.3514,
       39.9876
      ],
      [
       116.3496,
       39.9876
      ],
      [
       116.3496,
       39.9864
      ]
     ]
    ]
   }
  },
  {
   "type": "Feature",
   "id": "BLDG-005",
   "properties": {
    "id": "BLDG-005",
    "layer": "BUILDING_FOOTPRINT",
    "source_type": "agent_generated_design",
    "confidence": "medium",
    "geometry_role": "design_proposal",
    "name_zh": "大钟寺·智能商务中心",
    "building_type": "mixed_use"
   },
   "geometry": {
    "type": "Polygon",
    "coordinates": [
     [
      [
       116.34870000000001,
       39.9466
      ],
      [
       116.3503,
       39.9466
      ],
      [
       116.3503,
       39.9484
      ],
      [
       116.34870000000001,
       39.9484
      ],
      [
       116.34870000000001,
       39.9466
      ]
     ]
    ]
   }
  },
  {
   "type": "Feature",
   "id": "BLDG-006",
   "properties": {
    "id": "BLDG-006",
    "layer": "BUILDING_FOOTPRINT",
    "source_type": "agent_generated_design",
    "confidence": "medium",
    "geometry_role": "design_proposal",
    "name_zh": "大钟寺·场景体验旗舰店",
    "building_type": "retail"
   },
   "geometry": {
    "type": "Polygon",
    "coordinates": [
     [
      [
       116.3511,
       39.945499999999996
      ],
      [
       116.3529,
       39.945499999999996
      ],
      [
       116.3529,
       39.9465
      ],
      [
       116.3511,
       39.9465
      ],
      [
       116.3511,
       39.945499999999996
      ]
     ]
    ]
   }
  }
 ]
}