{
 "type": "FeatureCollection",
 "name": "green_space",
 "features": [
  {
   "type": "Feature",
   "id": "LU-011",
   "properties": {
    "id": "LU-011",
    "layer": "LAND_USE",
    "source_type": "agent_generated_design",
    "confidence": "medium",
    "geometry_role": "design_proposal",
    "land_use_code": "1401",
    "name_zh": "公园绿地·京张铁路文化绿廊",
    "band_ymin": 40.0195,
    "band_ymax": 40.0265,
    "area_sqm_declared": 165886.993
   },
   "geometry": {
    "type": "Polygon",
    "coordinates": [
     [
      [
       116.3455,
       40.0195
      ],
      [
       116.348,
       40.0195
      ],
      [
       116.348,
       40.0265
      ],
      [
       116.3455,
       40.0265
      ],
      [
       116.3455,
       40.0195
      ]
     ]
    ]
   }
  },
  {
   "type": "Feature",
   "id": "LU-012",
   "properties": {
    "id": "LU-012",
    "layer": "LAND_USE",
    "source_type": "agent_generated_design",
    "confidence": "medium",
    "geometry_role": "design_proposal",
    "land_use_code": "1401",
    "name_zh": "公园绿地·京张铁路文化绿廊",
    "band_ymin": 40.0075,
    "band_ymax": 40.0195,
    "area_sqm_declared": 284416.676
   },
   "geometry": {
    "type": "Polygon",
    "coordinates": [
     [
      [
       116.3455,
       40.0075
      ],
      [
       116.348,
       40.0075
      ],
      [
       116.348,
       40.0195
      ],
      [
       116.3455,
       40.0195
      ],
      [
       116.3455,
       40.0075
      ]
     ]
    ]
   }
  },
  {
   "type": "Feature",
   "id": "LU-013",
   "properties": {
    "id": "LU-013",
    "layer": "LAND_USE",
    "source_type": "agent_generated_design",
    "confidence": "medium",
    "geometry_role": "design_proposal",
    "land_use_code": "1401",
    "name_zh": "公园绿地·京张铁路文化绿廊",
    "band_ymin": 39.9835,
    "band_ymax": 40.0075,
    "area_sqm_declared": 568980.998
   },
   "geometry": {
    "type": "Polygon",
    "coordinates": [
     [
      [
       116.3455,
       39.9835
      ],
      [
       116.348,
       39.9835
      ],
      [
       116.348,
       40.0075
      ],
      [
       116.3455,
       40.0075
      ],
      [
       116.3455,
       39.9835
      ]
     ]
    ]
   }
  },
  {
   "type": "Feature",
   "id": "LU-014",
   "properties": {
    "id": "LU-014",
    "layer": "LAND_USE",
    "source_type": "agent_generated_design",
    "confidence": "medium",
    "geometry_role": "design_proposal",
    "land_use_code": "1401",
    "name_zh": "公园绿地·京张铁路文化绿廊",
    "band_ymin": 39.965,
    "band_ymax": 39.9835,
    "area_sqm_declared": 438723.833
   },
   "geometry": {
    "type": "Polygon",
    "coordinates": [
     [
      [
       116.3455,
       39.965
      ],
      [
       116.348,
       39.965
      ],
      [
       116.348,
       39.9835
      ],
      [
       116.3455,
       39.9835
      ],
      [
       116.3455,
       39.965
      ]
     ]
    ]
   }
  },
  {
   "type": "Feature",
   "id": "LU-015",
   "properties": {
    "id": "LU-015",
    "layer": "LAND_USE",
    "source_type": "agent_generated_design",
    "confidence": "medium",
    "geometry_role": "design_proposal",
    "land_use_code": "1401",
    "name_zh": "公园绿地·京张铁路文化绿廊",
    "band_ymin": 39.939,
    "band_ymax": 39.965,
    "area_sqm_declared": 616782.389
   },
   "geometry": {
    "type": "Polygon",
    "coordinates": [
     [
      [
       116.3455,
       39.939
      ],
      [
       116.348,
       39.939
      ],
      [
       116.348,
       39.965
      ],
      [
       116.3455,
       39.965
      ],
      [
       116.3455,
       39.939
      ]
     ]
    ]
   }
  },
  {
   "type": "Feature",
   "id": "GREEN-101",
   "properties": {
    "id": "GREEN-101",
    "layer": "GREEN_SPACE",
    "source_type": "agent_generated_design",
    "confidence": "medium",
    "geometry_role": "design_proposal",
    "name_zh": "众智园智慧森林",
    "park_type": "thematic_park"
   },
   "geometry": {
    "type": "Polygon",
    "coordinates": [
     [
      [
       116.3469,
       40.011399999999995
      ],
      [
       116.3501,
       40.011399999999995
      ],
      [
       116.3501,
       40.0146
      ],
      [
       116.3469,
       40.0146
      ],
      [
       116.3469,
       40.011399999999995
      ]
     ]
    ]
   }
  },
  {
   "type": "Feature",
   "id": "GREEN-102",
   "properties": {
    "id": "GREEN-102",
    "layer": "GREEN_SPACE",
    "source_type": "agent_generated_design",
    "confidence": "medium",
    "geometry_role": "design_proposal",
    "name_zh": "原点社区口袋公园",
    "park_type": "community_park"
   },
   "geometry": {
    "type": "Polygon",
    "coordinates": [
     [
      [
       116.3463,
       39.987300000000005
      ],
      [
       116.3487,
       39.987300000000005
      ],
      [
       116.3487,
       39.9897
      ],
      [
       116.3463,
       39.9897
      ],
      [
       116.3463,
       39.987300000000005
      ]
     ]
    ]
   }
  },
  {
   "type": "Feature",
   "id": "GREEN-103",
   "properties": {
    "id": "GREEN-103",
    "layer": "GREEN_SPACE",
    "source_type": "agent_generated_design",
    "confidence": "medium",
    "geometry_role": "design_proposal",
    "name_zh": "大钟寺AI广场",
    "park_type": "thematic_park"
   },
   "geometry": {
    "type": "Polygon",
    "coordinates": [
     [
      [
       116.348,
       39.9455
      ],
      [
       116.35000000000001,
       39.9455
      ],
      [
       116.35000000000001,
       39.9475
      ],
      [
       116.348,
       39.9475
      ],
      [
       116.348,
       39.9455
      ]
     ]
    ]
   }
  }
 ]
}