{
 "type": "FeatureCollection",
 "name": "green_space_jingzhang_timetable",
 "features": [
  {
   "type": "Feature",
   "id": "GREEN-001",
   "properties": {
    "id": "GREEN-001",
    "layer": "GREEN_SPACE",
    "source_type": "agent_generated_design",
    "confidence": "medium",
    "geometry_role": "design_proposal",
    "name_zh": "京张时刻带·遗址公园慢行绿脊",
    "area_sqm_declared": 1937781.612
   },
   "geometry": {
    "type": "Polygon",
    "coordinates": [
     [
      [
       116.34327932158304,
       39.939000133718054
      ],
      [
       116.34321581826927,
       39.94564199476092
      ],
      [
       116.34305212335947,
       39.96275278139531
      ],
      [
       116.34293141647723,
       39.97536069666687
      ],
      [
       116.34282789289395,
       39.986167459049724
      ],
      [
       116.34265522930542,
       40.00417868427728
      ],
      [
       116.34248360970099,
       40.02206489993087
      ],
      [
       116.34248970788592,
       40.02218989414332
      ],
      [
       116.34270000000001,
       40.026500000000006
      ],
      [
       116.34478399775493,
       40.0265000945657
      ],
      [
       116.34482510376148,
       40.02220312175229
      ],
      [
       116.34499730720331,
       40.004191944881214
      ],
      [
       116.34516935570971,
       39.986180711245495
      ],
      [
       116.34527251050933,
       39.97537394381983
      ],
      [
       116.34539278739554,
       39.96276602266698
      ],
      [
       116.34555589917233,
       39.94565522805424
      ],
      [
       116.3456193016077,
       39.93900020538356
      ],
      [
       116.34327932158304,
       39.939000133718054
      ]
     ]
    ]
   }
  },
  {
   "type": "Feature",
   "id": "GREEN-002",
   "properties": {
    "id": "GREEN-002",
    "layer": "GREEN_SPACE",
    "source_type": "agent_generated_design",
    "confidence": "medium",
    "geometry_role": "design_proposal",
    "name_zh": "清河绿楔·五环生态接口",
    "area_sqm_declared": 319765.922
   },
   "geometry": {
    "type": "MultiPolygon",
    "coordinates": [
     [
      [
       [
        116.34946993343344,
        40.02650017031133
       ],
       [
        116.3553,
        40.02649999999999
       ],
       [
        116.3550676062463,
        40.022260579057644
       ],
       [
        116.34951049547628,
        40.022229517718934
       ],
       [
        116.34946993343344,
        40.02650017031133
       ]
      ]
     ],
     [
      [
       [
        116.34248970788592,
        40.02218989414332
       ],
       [
        116.34270000000001,
        40.026500000000006
       ],
       [
        116.34478399775493,
        40.0265000945657
       ],
       [
        116.34482510376148,
        40.02220312175229
       ],
       [
        116.34248970788592,
        40.02218989414332
       ]
      ]
     ]
    ]
   }
  },
  {
   "type": "Feature",
   "id": "GREEN-003",
   "properties": {
    "id": "GREEN-003",
    "layer": "GREEN_SPACE",
    "source_type": "agent_generated_design",
    "confidence": "medium",
    "geometry_role": "design_proposal",
    "name_zh": "小月河场景翼·滨水绿带",
    "area_sqm_declared": 663412.961
   },
   "geometry": {
    "type": "Polygon",
    "coordinates": [
     [
      [
       116.34751082007327,
       39.98619391614589
      ],
      [
       116.34985228597911,
       39.98620707375082
      ],
      [
       116.35360185835485,
       39.98622804552249
      ],
      [
       116.35446615279422,
       39.97542550886105
      ],
      [
       116.3499547032086,
       39.97540029629353
      ],
      [
       116.34761360608827,
       39.97538714369542
      ],
      [
       116.34751082007327,
       39.98619391614589
      ]
     ]
    ]
   }
  }
 ]
}