{
  "type": "FeatureCollection",
  "features": [
    {
      "type": "Feature",
      "id": "RD-001",
      "properties": {
        "id": "RD-001",
        "layer": "ROAD_CENTERLINE",
        "name_zh": "学院路/西土城路（概念）",
        "source_type": "agent_inferred_from_public_data",
        "confidence": "low",
        "geometry_role": "provisional_constraint",
        "official_boundary": false,
        "boundary_precision": "provisional_rough",
        "is_redline": false,
        "source_id": "DATA-SRC-PROVISIONAL-BOUNDARIES-20260605",
        "usage_note": "概念中心线，非道路红线。"
      },
      "geometry": {
        "type": "LineString",
        "coordinates": [
          [
            116.345,
            39.939
          ],
          [
            116.345,
            40.0265
          ]
        ]
      }
    },
    {
      "type": "Feature",
      "id": "RD-002",
      "properties": {
        "id": "RD-002",
        "layer": "ROAD_CENTERLINE",
        "name_zh": "大钟寺东路（概念）",
        "source_type": "agent_inferred_from_public_data",
        "confidence": "low",
        "geometry_role": "provisional_constraint",
        "official_boundary": false,
        "boundary_precision": "provisional_rough",
        "is_redline": false,
        "source_id": "DATA-SRC-PROVISIONAL-BOUNDARIES-20260605",
        "usage_note": "概念中心线，非道路红线。"
      },
      "geometry": {
        "type": "LineString",
        "coordinates": [
          [
            116.35,
            39.939
          ],
          [
            116.35,
            40.0265
          ]
        ]
      }
    },
    {
      "type": "Feature",
      "id": "RD-003",
      "properties": {
        "id": "RD-003",
        "layer": "ROAD_CENTERLINE",
        "name_zh": "荷清路（概念）",
        "source_type": "agent_inferred_from_public_data",
        "confidence": "low",
        "geometry_role": "provisional_constraint",
        "official_boundary": false,
        "boundary_precision": "provisional_rough",
        "is_redline": false,
        "source_id": "DATA-SRC-PROVISIONAL-BOUNDARIES-20260605",
        "usage_note": "概念中心线，非道路红线。"
      },
      "geometry": {
        "type": "LineString",
        "coordinates": [
          [
            116.3545,
            39.939
          ],
          [
            116.3545,
            40.0265
          ]
        ]
      }
    },
    {
      "type": "Feature",
      "id": "RD-004",
      "properties": {
        "id": "RD-004",
        "layer": "ROAD_CENTERLINE",
        "name_zh": "北五环（概念）",
        "source_type": "agent_inferred_from_public_data",
        "confidence": "low",
        "geometry_role": "provisional_constraint",
        "official_boundary": false,
        "boundary_precision": "provisional_rough",
        "is_redline": false,
        "source_id": "DATA-SRC-PROVISIONAL-BOUNDARIES-20260605",
        "usage_note": "概念中心线，非道路红线。"
      },
      "geometry": {
        "type": "LineString",
        "coordinates": [
          [
            116.3397,
            40.022
          ],
          [
            116.3553,
            40.022
          ]
        ]
      }
    },
    {
      "type": "Feature",
      "id": "RD-005",
      "properties": {
        "id": "RD-005",
        "layer": "ROAD_CENTERLINE",
        "name_zh": "知春路（概念）",
        "source_type": "agent_inferred_from_public_data",
        "confidence": "low",
        "geometry_role": "provisional_constraint",
        "official_boundary": false,
        "boundary_precision": "provisional_rough",
        "is_redline": false,
        "source_id": "DATA-SRC-PROVISIONAL-BOUNDARIES-20260605",
        "usage_note": "概念中心线，非道路红线。"
      },
      "geometry": {
        "type": "LineString",
        "coordinates": [
          [
            116.3397,
            39.99
          ],
          [
            116.3553,
            39.99
          ]
        ]
      }
    },
    {
      "type": "Feature",
      "id": "RD-006",
      "properties": {
        "id": "RD-006",
        "layer": "ROAD_CENTERLINE",
        "name_zh": "清华东路（概念）",
        "source_type": "agent_inferred_from_public_data",
        "confidence": "low",
        "geometry_role": "provisional_constraint",
        "official_boundary": false,
        "boundary_precision": "provisional_rough",
        "is_redline": false,
        "source_id": "DATA-SRC-PROVISIONAL-BOUNDARIES-20260605",
        "usage_note": "概念中心线，非道路红线。"
      },
      "geometry": {
        "type": "LineString",
        "coordinates": [
          [
            116.3397,
            39.965
          ],
          [
            116.3553,
            39.965
          ]
        ]
      }
    },
    {
      "type": "Feature",
      "id": "RD-007",
      "properties": {
        "id": "RD-007",
        "layer": "ROAD_CENTERLINE",
        "name_zh": "大钟寺路（概念）",
        "source_type": "agent_inferred_from_public_data",
        "confidence": "low",
        "geometry_role": "provisional_constraint",
        "official_boundary": false,
        "boundary_precision": "provisional_rough",
        "is_redline": false,
        "source_id": "DATA-SRC-PROVISIONAL-BOUNDARIES-20260605",
        "usage_note": "概念中心线，非道路红线。"
      },
      "geometry": {
        "type": "LineString",
        "coordinates": [
          [
            116.3397,
            39.949
          ],
          [
            116.3553,
            39.949
          ]
        ]
      }
    }
  ],
  "metadata": {
    "boundary_status": "provisional"
  }
}