{
  "type": "FeatureCollection",
  "name": "common_ground_public_spaces",
  "features": [
    {
      "type": "Feature",
      "id": "PUBLIC-001",
      "properties": {
        "id": "PUBLIC-001",
        "layer": "PUBLIC_SPACE",
        "source_type": "agent_generated_design",
        "confidence": "medium",
        "geometry_role": "design_proposal",
        "name_zh": "众智园原型工场",
        "name_en": "Zhongzhiyuan Prototype Workshop",
        "public_space_type": "landmark",
        "area_sqm_declared": 310838.376
      },
      "geometry": {
        "type": "Polygon",
        "coordinates": [
          [
            [
              116.343132,
              39.9495
            ],
            [
              116.343132,
              39.9635
            ],
            [
              116.345472,
              39.9635
            ],
            [
              116.345472,
              39.9495
            ],
            [
              116.343132,
              39.9495
            ]
          ]
        ]
      }
    },
    {
      "type": "Feature",
      "id": "PUBLIC-002",
      "properties": {
        "id": "PUBLIC-002",
        "layer": "PUBLIC_SPACE",
        "source_type": "agent_generated_design",
        "confidence": "medium",
        "geometry_role": "design_proposal",
        "name_zh": "AI原点百桌客厅",
        "name_en": "AI Origin Hundred-Table Commons",
        "public_space_type": "landmark",
        "area_sqm_declared": 344377.983
      },
      "geometry": {
        "type": "Polygon",
        "coordinates": [
          [
            [
              116.34282,
              39.9775
            ],
            [
              116.34282,
              39.98975
            ],
            [
              116.345784,
              39.98975
            ],
            [
              116.345784,
              39.9775
            ],
            [
              116.34282,
              39.9775
            ]
          ]
        ]
      }
    },
    {
      "type": "Feature",
      "id": "PUBLIC-003",
      "properties": {
        "id": "PUBLIC-003",
        "layer": "PUBLIC_SPACE",
        "source_type": "agent_generated_design",
        "confidence": "medium",
        "geometry_role": "design_proposal",
        "name_zh": "大钟寺城市市集",
        "name_en": "Dazhongsi City Market",
        "public_space_type": "landmark",
        "area_sqm_declared": 341639.963
      },
      "geometry": {
        "type": "Polygon",
        "coordinates": [
          [
            [
              116.342508,
              40.009
            ],
            [
              116.342508,
              40.018625
            ],
            [
              116.346252,
              40.018625
            ],
            [
              116.346252,
              40.009
            ],
            [
              116.342508,
              40.009
            ]
          ]
        ]
      }
    },
    {
      "type": "Feature",
      "id": "PUBLIC-004",
      "properties": {
        "id": "PUBLIC-004",
        "layer": "PUBLIC_SPACE",
        "source_type": "agent_generated_design",
        "confidence": "medium",
        "geometry_role": "design_proposal",
        "name_zh": "京张第一层公共界面",
        "name_en": "The Common Ground public interface",
        "public_space_type": "common_ground",
        "area_sqm_declared": 1936824.639
      },
      "geometry": {
        "type": "Polygon",
        "coordinates": [
          [
            [
              116.347032,
              39.94425
            ],
            [
              116.347032,
              40.02125
            ],
            [
              116.349684,
              40.02125
            ],
            [
              116.349684,
              39.94425
            ],
            [
              116.347032,
              39.94425
            ]
          ]
        ]
      }
    }
  ]
}
