{
  "type": "FeatureCollection",
  "name": "common_ground_mobility_and_nine_gates",
  "features": [
    {
      "type": "Feature",
      "id": "ROAD-001",
      "properties": {
        "id": "ROAD-001",
        "layer": "ROAD_CENTERLINE",
        "source_type": "agent_generated_design",
        "confidence": "medium",
        "geometry_role": "design_proposal",
        "road_class": "greenway",
        "name_zh": "京张共同地面慢行主线",
        "name_en": "Common Ground slow-mobility spine",
        "conceptual": true
      },
      "geometry": {
        "type": "LineString",
        "coordinates": [
          [
            116.34672,
            39.9425
          ],
          [
            116.34672,
            40.023
          ]
        ]
      }
    },
    {
      "type": "Feature",
      "id": "DOOR-01",
      "properties": {
        "id": "DOOR-01",
        "layer": "ROAD_CENTERLINE",
        "source_type": "agent_generated_design",
        "confidence": "medium",
        "geometry_role": "design_proposal",
        "road_class": "pedestrian",
        "name_zh": "清河水岸门",
        "name_en": "Qinghe Waterfront Gate",
        "interface_type": "cross_gate",
        "conceptual": true
      },
      "geometry": {
        "type": "LineString",
        "coordinates": [
          [
            116.3424012,
            40.020375
          ],
          [
            116.354208,
            40.020375
          ]
        ]
      }
    },
    {
      "type": "Feature",
      "id": "DOOR-02",
      "properties": {
        "id": "DOOR-02",
        "layer": "ROAD_CENTERLINE",
        "source_type": "agent_generated_design",
        "confidence": "medium",
        "geometry_role": "design_proposal",
        "road_class": "pedestrian",
        "name_zh": "林大北路研发门",
        "name_en": "Lindabeilu R&D Gate",
        "interface_type": "cross_gate",
        "conceptual": true
      },
      "geometry": {
        "type": "LineString",
        "coordinates": [
          [
            116.3419317,
            40.01075
          ],
          [
            116.354208,
            40.01075
          ]
        ]
      }
    },
    {
      "type": "Feature",
      "id": "DOOR-03",
      "properties": {
        "id": "DOOR-03",
        "layer": "ROAD_CENTERLINE",
        "source_type": "agent_generated_design",
        "confidence": "medium",
        "geometry_role": "design_proposal",
        "road_class": "pedestrian",
        "name_zh": "清华东路花园门",
        "name_en": "Qinghua East Garden Gate",
        "interface_type": "cross_gate",
        "conceptual": true
      },
      "geometry": {
        "type": "LineString",
        "coordinates": [
          [
            116.341329,
            40.00025
          ],
          [
            116.3538616,
            40.00025
          ]
        ]
      }
    },
    {
      "type": "Feature",
      "id": "DOOR-04",
      "properties": {
        "id": "DOOR-04",
        "layer": "ROAD_CENTERLINE",
        "source_type": "agent_generated_design",
        "confidence": "medium",
        "geometry_role": "design_proposal",
        "road_class": "pedestrian",
        "name_zh": "成府路共学门",
        "name_en": "Chengfu Learning Gate",
        "interface_type": "cross_gate",
        "conceptual": true
      },
      "geometry": {
        "type": "LineString",
        "coordinates": [
          [
            116.340792,
            39.988875
          ],
          [
            116.35339,
            39.988875
          ]
        ]
      }
    },
    {
      "type": "Feature",
      "id": "DOOR-05",
      "properties": {
        "id": "DOOR-05",
        "layer": "ROAD_CENTERLINE",
        "source_type": "agent_generated_design",
        "confidence": "medium",
        "geometry_role": "design_proposal",
        "road_class": "pedestrian",
        "name_zh": "知春路服务门",
        "name_en": "Zhichun Service Gate",
        "interface_type": "cross_gate",
        "conceptual": true
      },
      "geometry": {
        "type": "LineString",
        "coordinates": [
          [
            116.340792,
            39.97925
          ],
          [
            116.35416,
            39.97925
          ]
        ]
      }
    },
    {
      "type": "Feature",
      "id": "DOOR-06",
      "properties": {
        "id": "DOOR-06",
        "layer": "ROAD_CENTERLINE",
        "source_type": "agent_generated_design",
        "confidence": "medium",
        "geometry_role": "design_proposal",
        "road_class": "pedestrian",
        "name_zh": "北三环换乘门",
        "name_en": "North Third Ring Transfer Gate",
        "interface_type": "cross_gate",
        "conceptual": true
      },
      "geometry": {
        "type": "LineString",
        "coordinates": [
          [
            116.340792,
            39.967
          ],
          [
            116.354208,
            39.967
          ]
        ]
      }
    },
    {
      "type": "Feature",
      "id": "DOOR-07",
      "properties": {
        "id": "DOOR-07",
        "layer": "ROAD_CENTERLINE",
        "source_type": "agent_generated_design",
        "confidence": "medium",
        "geometry_role": "design_proposal",
        "road_class": "pedestrian",
        "name_zh": "学院南路照护门",
        "name_en": "Xueyuan South Care Gate",
        "interface_type": "cross_gate",
        "conceptual": true
      },
      "geometry": {
        "type": "LineString",
        "coordinates": [
          [
            116.340792,
            39.957375
          ],
          [
            116.354208,
            39.957375
          ]
        ]
      }
    },
    {
      "type": "Feature",
      "id": "DOOR-08",
      "properties": {
        "id": "DOOR-08",
        "layer": "ROAD_CENTERLINE",
        "source_type": "agent_generated_design",
        "confidence": "medium",
        "geometry_role": "design_proposal",
        "road_class": "pedestrian",
        "name_zh": "西直门抵达门",
        "name_en": "Xizhimen Arrival Gate",
        "interface_type": "cross_gate",
        "conceptual": true
      },
      "geometry": {
        "type": "LineString",
        "coordinates": [
          [
            116.340792,
            39.946
          ],
          [
            116.354208,
            39.946
          ]
        ]
      }
    },
    {
      "type": "Feature",
      "id": "DOOR-09",
      "properties": {
        "id": "DOOR-09",
        "layer": "ROAD_CENTERLINE",
        "source_type": "agent_generated_design",
        "confidence": "medium",
        "geometry_role": "design_proposal",
        "road_class": "pedestrian",
        "name_zh": "小月河生态门",
        "name_en": "Xiaoyue Ecology Gate",
        "interface_type": "cross_gate",
        "conceptual": true
      },
      "geometry": {
        "type": "LineString",
        "coordinates": [
          [
            116.34672,
            39.995
          ],
          [
            116.353574,
            39.995
          ]
        ]
      }
    }
  ],
  "design_note_zh": "所有线为概念慢行与公共接口，不是道路红线或工程线位。"
}
