{
  "type": "FeatureCollection",
  "name": "land_use_topology_partition",
  "features": [
    {
      "type": "Feature",
      "id": "LU-001",
      "properties": {
        "id": "LU-001",
        "layer": "LAND_USE",
        "source_type": "agent_generated_design",
        "confidence": "medium",
        "geometry_role": "design_proposal",
        "land_use_code": "05",
        "name_zh": "商业服务业用地",
        "area_sqm_declared": 378886.873
      },
      "geometry": {
        "type": "Polygon",
        "coordinates": [
          [
            [
              116.34830235493891,
              39.9498755994903
            ],
            [
              116.35151784393541,
              39.94989363050271
            ],
            [
              116.35157367091232,
              39.94398088718683
            ],
            [
              116.34835845868541,
              39.94396285992956
            ],
            [
              116.34482172858907,
              39.94394292697119
            ],
            [
              116.34476532039712,
              39.949855662379804
            ],
            [
              116.34830235493891,
              39.9498755994903
            ]
          ]
        ]
      }
    },
    {
      "type": "Feature",
      "id": "LU-002",
      "properties": {
        "id": "LU-002",
        "layer": "LAND_USE",
        "source_type": "agent_generated_design",
        "confidence": "medium",
        "geometry_role": "design_proposal",
        "land_use_code": "05",
        "name_zh": "商业服务业用地",
        "area_sqm_declared": 843086.375
      },
      "geometry": {
        "type": "Polygon",
        "coordinates": [
          [
            [
              116.34039927981992,
              39.94983090360545
            ],
            [
              116.3397,
              39.975
            ],
            [
              116.34024358666146,
              39.98342809124437
            ],
            [
              116.34251425585914,
              39.98344099387504
            ],
            [
              116.34283603031662,
              39.94984474211326
            ],
            [
              116.34039927981992,
              39.94983090360545
            ]
          ]
        ]
      }
    },
    {
      "type": "Feature",
      "id": "LU-003",
      "properties": {
        "id": "LU-003",
        "layer": "LAND_USE",
        "source_type": "agent_generated_design",
        "confidence": "medium",
        "geometry_role": "design_proposal",
        "land_use_code": "05",
        "name_zh": "商业服务业用地",
        "area_sqm_declared": 133368.221
      },
      "geometry": {
        "type": "Polygon",
        "coordinates": [
          [
            [
              116.340892946569,
              39.993493709648895
            ],
            [
              116.34169999999999,
              40.00600000000001
            ],
            [
              116.34176979687,
              40.007431180832484
            ],
            [
              116.3422841253102,
              40.00743410095033
            ],
            [
              116.34241778559154,
              39.993502371136984
            ],
            [
              116.340892946569,
              39.993493709648895
            ]
          ]
        ]
      }
    },
    {
      "type": "Feature",
      "id": "LU-004",
      "properties": {
        "id": "LU-004",
        "layer": "LAND_USE",
        "source_type": "agent_generated_design",
        "confidence": "medium",
        "geometry_role": "design_proposal",
        "land_use_code": "0701",
        "name_zh": "城镇住宅用地",
        "area_sqm_declared": 121762.216
      },
      "geometry": {
        "type": "Polygon",
        "coordinates": [
          [
            [
              116.35419280637697,
              39.93900006442897
            ],
            [
              116.35162068500848,
              39.93900017328951
            ],
            [
              116.35157367091232,
              39.94398088718683
            ],
            [
              116.35414584277424,
              39.94399524480002
            ],
            [
              116.35419280637697,
              39.93900006442897
            ]
          ]
        ]
      }
    },
    {
      "type": "Feature",
      "id": "LU-005",
      "properties": {
        "id": "LU-005",
        "layer": "LAND_USE",
        "source_type": "agent_generated_design",
        "confidence": "medium",
        "geometry_role": "design_proposal",
        "land_use_code": "0701",
        "name_zh": "城镇住宅用地",
        "area_sqm_declared": 820133.026
      },
      "geometry": {
        "type": "Polygon",
        "coordinates": [
          [
            [
              116.35377397233533,
              39.98350431775635
            ],
            [
              116.35409023721371,
              39.949907991106656
            ],
            [
              116.35151784393541,
              39.94989363050271
            ],
            [
              116.35120031971883,
              39.983489940149184
            ],
            [
              116.35377397233533,
              39.98350431775635
            ]
          ]
        ]
      }
    },
    {
      "type": "Feature",
      "id": "LU-006",
      "properties": {
        "id": "LU-006",
        "layer": "LAND_USE",
        "source_type": "agent_generated_design",
        "confidence": "medium",
        "geometry_role": "design_proposal",
        "land_use_code": "0701",
        "name_zh": "城镇住宅用地",
        "area_sqm_declared": 307017.11
      },
      "geometry": {
        "type": "Polygon",
        "coordinates": [
          [
            [
              116.3511051237034,
              39.99355133475734
            ],
            [
              116.35120031971883,
              39.983489940149184
            ],
            [
              116.34798325655439,
              39.98347188778774
            ],
            [
              116.34788758859233,
              39.99353327599825
            ],
            [
              116.3511051237034,
              39.99355133475734
            ]
          ]
        ]
      }
    },
    {
      "type": "Feature",
      "id": "LU-007",
      "properties": {
        "id": "LU-007",
        "layer": "LAND_USE",
        "source_type": "agent_generated_design",
        "confidence": "medium",
        "geometry_role": "design_proposal",
        "land_use_code": "0701",
        "name_zh": "城镇住宅用地",
        "area_sqm_declared": 337598.301
      },
      "geometry": {
        "type": "Polygon",
        "coordinates": [
          [
            [
              116.3536521580465,
              39.9964293777275
            ],
            [
              116.35349524261517,
              39.993564691730015
            ],
            [
              116.3511051237034,
              39.99355133475734
            ],
            [
              116.3509732289079,
              40.00748308859789
            ],
            [
              116.35354778219299,
              40.007497478358204
            ],
            [
              116.3536521580465,
              39.9964293777275
            ]
          ]
        ]
      }
    },
    {
      "type": "Feature",
      "id": "LU-008",
      "properties": {
        "id": "LU-008",
        "layer": "LAND_USE",
        "source_type": "agent_generated_design",
        "confidence": "medium",
        "geometry_role": "design_proposal",
        "land_use_code": "0701",
        "name_zh": "城镇住宅用地",
        "area_sqm_declared": 10960.261
      },
      "geometry": {
        "type": "Polygon",
        "coordinates": [
          [
            [
              116.35336844609932,
              40.026500088918795
            ],
            [
              116.35337261696372,
              40.02605834609705
            ],
            [
              116.35079736618677,
              40.026043946929384
            ],
            [
              116.35079304156552,
              40.02650015739138
            ],
            [
              116.35336844609932,
              40.026500088918795
            ]
          ]
        ]
      }
    },
    {
      "type": "Feature",
      "id": "LU-009",
      "properties": {
        "id": "LU-009",
        "layer": "LAND_USE",
        "source_type": "agent_generated_design",
        "confidence": "medium",
        "geometry_role": "design_proposal",
        "land_use_code": "0702",
        "name_zh": "城镇社区服务设施用地",
        "area_sqm_declared": 106789.823
      },
      "geometry": {
        "type": "Polygon",
        "coordinates": [
          [
            [
              116.34293978108192,
              39.93900011939532
            ],
            [
              116.34070000000001,
              39.93899999999999
            ],
            [
              116.34056344463124,
              39.94391878418188
            ],
            [
              116.34289260456923,
              39.9439320089789
            ],
            [
              116.34293978108192,
              39.93900011939532
            ]
          ]
        ]
      }
    },
    {
      "type": "Feature",
      "id": "LU-010",
      "properties": {
        "id": "LU-010",
        "layer": "LAND_USE",
        "source_type": "agent_generated_design",
        "confidence": "medium",
        "geometry_role": "design_proposal",
        "land_use_code": "0702",
        "name_zh": "城镇社区服务设施用地",
        "area_sqm_declared": 108253.392
      },
      "geometry": {
        "type": "Polygon",
        "coordinates": [
          [
            [
              116.34283603031662,
              39.94984474211326
            ],
            [
              116.34476532039712,
              39.949855662379804
            ],
            [
              116.34482172858907,
              39.94394292697119
            ],
            [
              116.34289260456923,
              39.9439320089789
            ],
            [
              116.34283603031662,
              39.94984474211326
            ]
          ]
        ]
      }
    },
    {
      "type": "Feature",
      "id": "LU-011",
      "properties": {
        "id": "LU-011",
        "layer": "LAND_USE",
        "source_type": "agent_generated_design",
        "confidence": "medium",
        "geometry_role": "design_proposal",
        "land_use_code": "0802",
        "name_zh": "科研用地",
        "area_sqm_declared": 166239.665
      },
      "geometry": {
        "type": "Polygon",
        "coordinates": [
          [
            [
              116.34486887007571,
              39.939000187544885
            ],
            [
              116.34482172858907,
              39.94394292697119
            ],
            [
              116.34835845868541,
              39.94396285992956
            ],
            [
              116.3484055343748,
              39.9390002291178
            ],
            [
              116.34486887007571,
              39.939000187544885
            ]
          ]
        ]
      }
    },
    {
      "type": "Feature",
      "id": "LU-012",
      "properties": {
        "id": "LU-012",
        "layer": "LAND_USE",
        "source_type": "agent_generated_design",
        "confidence": "medium",
        "geometry_role": "design_proposal",
        "land_use_code": "0802",
        "name_zh": "科研用地",
        "area_sqm_declared": 3452172.607
      },
      "geometry": {
        "type": "Polygon",
        "coordinates": [
          [
            [
              116.34476532039712,
              39.949855662379804
            ],
            [
              116.34444449043419,
              39.98345192707138
            ],
            [
              116.34434830333271,
              39.99351330820796
            ],
            [
              116.34421503538012,
              40.00744504338829
            ],
            [
              116.3422841253102,
              40.00743410095033
            ],
            [
              116.34219956971916,
              40.01624250770873
            ],
            [
              116.34267551379754,
              40.025998159782915
            ],
            [
              116.34403734175193,
              40.026005876847606
            ],
            [
              116.34403260834281,
              40.02650006479054
            ],
            [
              116.34757378698076,
              40.026500162487096
            ],
            [
              116.34757830532794,
              40.02602586749682
            ],
            [
              116.35079736618677,
              40.026043946929384
            ],
            [
              116.3509732289079,
              40.00748308859789
            ],
            [
              116.34775503991125,
              40.00746502097708
            ],
            [
              116.34788758859233,
              39.99353327599825
            ],
            [
              116.34798325655439,
              39.98347188778774
            ],
            [
              116.34830235493891,
              39.9498755994903
            ],
            [
              116.34476532039712,
              39.949855662379804
            ]
          ]
        ]
      }
    },
    {
      "type": "Feature",
      "id": "LU-013",
      "properties": {
        "id": "LU-013",
        "layer": "LAND_USE",
        "source_type": "agent_generated_design",
        "confidence": "medium",
        "geometry_role": "design_proposal",
        "land_use_code": "0804",
        "name_zh": "教育用地",
        "area_sqm_declared": 184210.266
      },
      "geometry": {
        "type": "Polygon",
        "coordinates": [
          [
            [
              116.34251425585914,
              39.98344099387504
            ],
            [
              116.34241778559154,
              39.993502371136984
            ],
            [
              116.34434830333271,
              39.99351330820796
            ],
            [
              116.34444449043419,
              39.98345192707138
            ],
            [
              116.34251425585914,
              39.98344099387504
            ]
          ]
        ]
      }
    },
    {
      "type": "Feature",
      "id": "LU-014",
      "properties": {
        "id": "LU-014",
        "layer": "LAND_USE",
        "source_type": "agent_generated_design",
        "confidence": "medium",
        "geometry_role": "design_proposal",
        "land_use_code": "1401",
        "name_zh": "公园绿地",
        "area_sqm_declared": 151706.246
      },
      "geometry": {
        "type": "Polygon",
        "coordinates": [
          [
            [
              116.3484055343748,
              39.9390002291178
            ],
            [
              116.34835845868541,
              39.94396285992956
            ],
            [
              116.35157367091232,
              39.94398088718683
            ],
            [
              116.35162068500848,
              39.93900017328951
            ],
            [
              116.3484055343748,
              39.9390002291178
            ]
          ]
        ]
      }
    },
    {
      "type": "Feature",
      "id": "LU-015",
      "properties": {
        "id": "LU-015",
        "layer": "LAND_USE",
        "source_type": "agent_generated_design",
        "confidence": "medium",
        "geometry_role": "design_proposal",
        "land_use_code": "1401",
        "name_zh": "公园绿地",
        "area_sqm_declared": 90394.818
      },
      "geometry": {
        "type": "Polygon",
        "coordinates": [
          [
            [
              116.34293978108192,
              39.93900011939532
            ],
            [
              116.34289260456923,
              39.9439320089789
            ],
            [
              116.34482172858907,
              39.94394292697119
            ],
            [
              116.34486887007571,
              39.939000187544885
            ],
            [
              116.34293978108192,
              39.93900011939532
            ]
          ]
        ]
      }
    },
    {
      "type": "Feature",
      "id": "LU-016",
      "properties": {
        "id": "LU-016",
        "layer": "LAND_USE",
        "source_type": "agent_generated_design",
        "confidence": "medium",
        "geometry_role": "design_proposal",
        "land_use_code": "1401",
        "name_zh": "公园绿地",
        "area_sqm_declared": 615099.77
      },
      "geometry": {
        "type": "Polygon",
        "coordinates": [
          [
            [
              116.34476532039712,
              39.949855662379804
            ],
            [
              116.34283603031662,
              39.94984474211326
            ],
            [
              116.34251425585914,
              39.98344099387504
            ],
            [
              116.34444449043419,
              39.98345192707138
            ],
            [
              116.34476532039712,
              39.949855662379804
            ]
          ]
        ]
      }
    },
    {
      "type": "Feature",
      "id": "LU-017",
      "properties": {
        "id": "LU-017",
        "layer": "LAND_USE",
        "source_type": "agent_generated_design",
        "confidence": "medium",
        "geometry_role": "design_proposal",
        "land_use_code": "1401",
        "name_zh": "公园绿地",
        "area_sqm_declared": 1025166.283
      },
      "geometry": {
        "type": "Polygon",
        "coordinates": [
          [
            [
              116.35151784393541,
              39.94989363050271
            ],
            [
              116.34830235493891,
              39.9498755994903
            ],
            [
              116.34798325655439,
              39.98347188778774
            ],
            [
              116.35120031971883,
              39.983489940149184
            ],
            [
              116.35151784393541,
              39.94989363050271
            ]
          ]
        ]
      }
    },
    {
      "type": "Feature",
      "id": "LU-018",
      "properties": {
        "id": "LU-018",
        "layer": "LAND_USE",
        "source_type": "agent_generated_design",
        "confidence": "medium",
        "geometry_role": "design_proposal",
        "land_use_code": "1401",
        "name_zh": "公园绿地",
        "area_sqm_declared": 255071.744
      },
      "geometry": {
        "type": "Polygon",
        "coordinates": [
          [
            [
              116.34434830333271,
              39.99351330820796
            ],
            [
              116.34241778559154,
              39.993502371136984
            ],
            [
              116.3422841253102,
              40.00743410095033
            ],
            [
              116.34421503538012,
              40.00744504338829
            ],
            [
              116.34434830333271,
              39.99351330820796
            ]
          ]
        ]
      }
    },
    {
      "type": "Feature",
      "id": "LU-019",
      "properties": {
        "id": "LU-019",
        "layer": "LAND_USE",
        "source_type": "agent_generated_design",
        "confidence": "medium",
        "geometry_role": "design_proposal",
        "land_use_code": "1401",
        "name_zh": "公园绿地",
        "area_sqm_declared": 425119.573
      },
      "geometry": {
        "type": "Polygon",
        "coordinates": [
          [
            [
              116.3511051237034,
              39.99355133475734
            ],
            [
              116.34788758859233,
              39.99353327599825
            ],
            [
              116.34775503991125,
              40.00746502097708
            ],
            [
              116.3509732289079,
              40.00748308859789
            ],
            [
              116.3511051237034,
              39.99355133475734
            ]
          ]
        ]
      }
    },
    {
      "type": "Feature",
      "id": "LU-020",
      "properties": {
        "id": "LU-020",
        "layer": "LAND_USE",
        "source_type": "agent_generated_design",
        "confidence": "medium",
        "geometry_role": "design_proposal",
        "land_use_code": "1401",
        "name_zh": "公园绿地",
        "area_sqm_declared": 14196.992
      },
      "geometry": {
        "type": "Polygon",
        "coordinates": [
          [
            [
              116.35079304156552,
              40.02650015739138
            ],
            [
              116.35079736618677,
              40.026043946929384
            ],
            [
              116.34757830532794,
              40.02602586749682
            ],
            [
              116.34757378698076,
              40.026500162487096
            ],
            [
              116.35079304156552,
              40.02650015739138
            ]
          ]
        ]
      }
    },
    {
      "type": "Feature",
      "id": "LU-021",
      "properties": {
        "id": "LU-021",
        "layer": "LAND_USE",
        "source_type": "agent_generated_design",
        "confidence": "medium",
        "geometry_role": "design_proposal",
        "land_use_code": "1401",
        "name_zh": "公园绿地",
        "area_sqm_declared": 6359.294
      },
      "geometry": {
        "type": "Polygon",
        "coordinates": [
          [
            [
              116.34403260834281,
              40.02650006479054
            ],
            [
              116.34403734175193,
              40.026005876847606
            ],
            [
              116.34267551379754,
              40.025998159782915
            ],
            [
              116.34270000000001,
              40.0265
            ],
            [
              116.34403260834281,
              40.02650006479054
            ]
          ]
        ]
      }
    },
    {
      "type": "Feature",
      "id": "LU-022",
      "properties": {
        "id": "LU-022",
        "layer": "LAND_USE",
        "source_type": "agent_generated_design",
        "confidence": "medium",
        "geometry_role": "design_proposal",
        "land_use_code": "16",
        "name_zh": "留白用地",
        "area_sqm_declared": 133714.467
      },
      "geometry": {
        "type": "Polygon",
        "coordinates": [
          [
            [
              116.34039927981992,
              39.94983090360545
            ],
            [
              116.34283603031662,
              39.94984474211326
            ],
            [
              116.34289260456923,
              39.9439320089789
            ],
            [
              116.34056344463124,
              39.94391878418188
            ],
            [
              116.34039927981992,
              39.94983090360545
            ]
          ]
        ]
      }
    },
    {
      "type": "Feature",
      "id": "LU-023",
      "properties": {
        "id": "LU-023",
        "layer": "LAND_USE",
        "source_type": "agent_generated_design",
        "confidence": "medium",
        "geometry_role": "design_proposal",
        "land_use_code": "16",
        "name_zh": "留白用地",
        "area_sqm_declared": 794561.458
      },
      "geometry": {
        "type": "Polygon",
        "coordinates": [
          [
            [
              116.35157367091232,
              39.94398088718683
            ],
            [
              116.35151784393541,
              39.94989363050271
            ],
            [
              116.35409023721371,
              39.949907991106656
            ],
            [
              116.35377397233533,
              39.98350431775635
            ],
            [
              116.35120031971883,
              39.983489940149184
            ],
            [
              116.3511051237034,
              39.99355133475734
            ],
            [
              116.35349524261517,
              39.993564691730015
            ],
            [
              116.3533,
              39.989999999999995
            ],
            [
              116.35376785499719,
              39.9841535954764
            ],
            [
              116.35381978724288,
              39.98350457318177
            ],
            [
              116.3553,
              39.965
            ],
            [
              116.35530001610343,
              39.94991472506473
            ],
            [
              116.35530001027134,
              39.94400166870123
            ],
            [
              116.3553,
              39.939
            ],
            [
              116.35419280637697,
              39.93900006442897
            ],
            [
              116.35414584277424,
              39.94399524480002
            ],
            [
              116.35157367091232,
              39.94398088718683
            ]
          ]
        ]
      }
    },
    {
      "type": "Feature",
      "id": "LU-024",
      "properties": {
        "id": "LU-024",
        "layer": "LAND_USE",
        "source_type": "agent_generated_design",
        "confidence": "medium",
        "geometry_role": "design_proposal",
        "land_use_code": "16",
        "name_zh": "留白用地",
        "area_sqm_declared": 181099.949
      },
      "geometry": {
        "type": "Polygon",
        "coordinates": [
          [
            [
              116.340892946569,
              39.993493709648895
            ],
            [
              116.34241778559154,
              39.993502371136984
            ],
            [
              116.34251425585914,
              39.98344099387504
            ],
            [
              116.34024358666146,
              39.98342809124437
            ],
            [
              116.340892946569,
              39.993493709648895
            ]
          ]
        ]
      }
    },
    {
      "type": "Feature",
      "id": "LU-025",
      "properties": {
        "id": "LU-025",
        "layer": "LAND_USE",
        "source_type": "agent_generated_design",
        "confidence": "medium",
        "geometry_role": "design_proposal",
        "land_use_code": "16",
        "name_zh": "留白用地",
        "area_sqm_declared": 21478.511
      },
      "geometry": {
        "type": "Polygon",
        "coordinates": [
          [
            [
              116.34176979687,
              40.007431180832484
            ],
            [
              116.34219956971916,
              40.01624250770873
            ],
            [
              116.3422841253102,
              40.00743410095033
            ],
            [
              116.34176979687,
              40.007431180832484
            ]
          ]
        ]
      }
    },
    {
      "type": "Feature",
      "id": "LU-026",
      "properties": {
        "id": "LU-026",
        "layer": "LAND_USE",
        "source_type": "agent_generated_design",
        "confidence": "medium",
        "geometry_role": "design_proposal",
        "land_use_code": "16",
        "name_zh": "留白用地",
        "area_sqm_declared": 728378.146
      },
      "geometry": {
        "type": "Polygon",
        "coordinates": [
          [
            [
              116.35336844609932,
              40.026500088918795
            ],
            [
              116.3553,
              40.0265
            ],
            [
              116.35527637003892,
              40.02606895388074
            ],
            [
              116.35425874808634,
              40.00750144202866
            ],
            [
              116.3536521580465,
              39.9964293777275
            ],
            [
              116.35354778219299,
              40.007497478358204
            ],
            [
              116.3509732289079,
              40.00748308859789
            ],
            [
              116.35079736618677,
              40.026043946929384
            ],
            [
              116.35337261696372,
              40.02605834609705
            ],
            [
              116.35336844609932,
              40.026500088918795
            ]
          ]
        ]
      }
    }
  ]
}