{
  "type": "FeatureCollection",
  "name": "constraints_and_context",
  "features": [
    {
      "type": "Feature",
      "id": "HERITAGE-001",
      "properties": {
        "id": "HERITAGE-001",
        "layer": "HERITAGE_PROTECTION",
        "source_type": "agent_inferred_from_public_data",
        "confidence": "low",
        "geometry_role": "existing_condition",
        "name_zh": "京张铁路遗产廊道（背景示意，待文保范围确认）",
        "source_id": "DATA-SRC-PROVISIONAL-BOUNDARIES-20260605",
        "official_boundary": false
      },
      "geometry": {
        "type": "Polygon",
        "coordinates": [
          [
            [
              116.34570000000001,
              39.939
            ],
            [
              116.34570000000001,
              40.0265
            ],
            [
              116.3493,
              40.0265
            ],
            [
              116.3493,
              39.939
            ],
            [
              116.34570000000001,
              39.939
            ]
          ]
        ]
      }
    },
    {
      "type": "Feature",
      "id": "SCN-001",
      "properties": {
        "id": "SCN-001",
        "layer": "SCENARIO_NODE",
        "source_type": "agent_generated_design",
        "confidence": "medium",
        "geometry_role": "design_proposal",
        "node_type": "ai_scenario",
        "name_zh": "开源发布厅·众智引擎"
      },
      "geometry": {
        "type": "Point",
        "coordinates": [
          116.3482,
          40.011
        ]
      }
    },
    {
      "type": "Feature",
      "id": "SCN-002",
      "properties": {
        "id": "SCN-002",
        "layer": "SCENARIO_NODE",
        "source_type": "agent_generated_design",
        "confidence": "medium",
        "geometry_role": "design_proposal",
        "node_type": "ai_scenario",
        "name_zh": "AI原点广场·发布与荣誉墙"
      },
      "geometry": {
        "type": "Point",
        "coordinates": [
          116.3485,
          39.99
        ]
      }
    },
    {
      "type": "Feature",
      "id": "SCN-003",
      "properties": {
        "id": "SCN-003",
        "layer": "SCENARIO_NODE",
        "source_type": "agent_generated_design",
        "confidence": "medium",
        "geometry_role": "design_proposal",
        "node_type": "ai_scenario",
        "name_zh": "大钟寺AI路演客厅"
      },
      "geometry": {
        "type": "Point",
        "coordinates": [
          116.349,
          39.9465
        ]
      }
    },
    {
      "type": "Feature",
      "id": "SCN-004",
      "properties": {
        "id": "SCN-004",
        "layer": "SCENARIO_NODE",
        "source_type": "agent_generated_design",
        "confidence": "medium",
        "geometry_role": "design_proposal",
        "node_type": "ai_scenario",
        "name_zh": "遗址公园AI文化导览"
      },
      "geometry": {
        "type": "Point",
        "coordinates": [
          116.3475,
          39.968
        ]
      }
    },
    {
      "type": "Feature",
      "id": "SCN-005",
      "properties": {
        "id": "SCN-005",
        "layer": "SCENARIO_NODE",
        "source_type": "agent_generated_design",
        "confidence": "medium",
        "geometry_role": "design_proposal",
        "node_type": "ai_scenario",
        "name_zh": "清河低碳创新廊"
      },
      "geometry": {
        "type": "Point",
        "coordinates": [
          116.348,
          40.02
        ]
      }
    },
    {
      "type": "Feature",
      "id": "SCN-006",
      "properties": {
        "id": "SCN-006",
        "layer": "SCENARIO_NODE",
        "source_type": "agent_generated_design",
        "confidence": "medium",
        "geometry_role": "design_proposal",
        "node_type": "ai_scenario",
        "name_zh": "近校成果转化街"
      },
      "geometry": {
        "type": "Point",
        "coordinates": [
          116.3445,
          39.9835
        ]
      }
    },
    {
      "type": "Feature",
      "id": "SCN-007",
      "properties": {
        "id": "SCN-007",
        "layer": "SCENARIO_NODE",
        "source_type": "agent_generated_design",
        "confidence": "medium",
        "geometry_role": "design_proposal",
        "node_type": "ai_scenario",
        "name_zh": "端侧算力驿站"
      },
      "geometry": {
        "type": "Point",
        "coordinates": [
          116.352,
          39.9935
        ]
      }
    },
    {
      "type": "Feature",
      "id": "SCN-008",
      "properties": {
        "id": "SCN-008",
        "layer": "SCENARIO_NODE",
        "source_type": "agent_generated_design",
        "confidence": "medium",
        "geometry_role": "design_proposal",
        "node_type": "ai_scenario",
        "name_zh": "AI生活服务样板街"
      },
      "geometry": {
        "type": "Point",
        "coordinates": [
          116.344,
          39.958
        ]
      }
    },
    {
      "type": "Feature",
      "id": "SCN-009",
      "properties": {
        "id": "SCN-009",
        "layer": "SCENARIO_NODE",
        "source_type": "agent_generated_design",
        "confidence": "medium",
        "geometry_role": "design_proposal",
        "node_type": "ai_scenario",
        "name_zh": "AI无人接驳测试场"
      },
      "geometry": {
        "type": "Point",
        "coordinates": [
          116.349,
          40.0075
        ]
      }
    },
    {
      "type": "Feature",
      "id": "SCN-010",
      "properties": {
        "id": "SCN-010",
        "layer": "SCENARIO_NODE",
        "source_type": "agent_generated_design",
        "confidence": "medium",
        "geometry_role": "design_proposal",
        "node_type": "ai_scenario",
        "name_zh": "大模型安全测试沙盒"
      },
      "geometry": {
        "type": "Point",
        "coordinates": [
          116.3455,
          40.018
        ]
      }
    }
  ]
}