{
  "type": "FeatureCollection",
  "name": "phasing_plan",
  "features": [
    {
      "type": "Feature",
      "id": "PHASE-001",
      "properties": {
        "id": "PHASE-001",
        "layer": "PHASE",
        "source_type": "agent_generated_design",
        "confidence": "medium",
        "geometry_role": "design_proposal",
        "phase_class": "near_term",
        "phase_order": 1,
        "name_zh": "近期启动区（AI原点社区先行）",
        "area_sqm_declared": 5085027.194
      },
      "geometry": {
        "type": "Polygon",
        "coordinates": [
          [
            [
              116.34028064516129,
              39.984
            ],
            [
              116.3417,
              40.006
            ],
            [
              116.3427,
              40.0265
            ],
            [
              116.3553,
              40.0265
            ],
            [
              116.3533,
              39.99
            ],
            [
              116.35378,
              39.984
            ],
            [
              116.34028064516129,
              39.984
            ]
          ]
        ]
      }
    },
    {
      "type": "Feature",
      "id": "PHASE-002",
      "properties": {
        "id": "PHASE-002",
        "layer": "PHASE",
        "source_type": "agent_generated_design",
        "confidence": "medium",
        "geometry_role": "design_proposal",
        "phase_class": "mid_term",
        "phase_order": 2,
        "name_zh": "中期推进区（大钟寺与南段）",
        "area_sqm_declared": 7907603.39
      },
      "geometry": {
        "type": "Polygon",
        "coordinates": [
          [
            [
              116.35368356164383,
              39.997
            ],
            [
              116.3533,
              39.99
            ],
            [
              116.3553,
              39.965
            ],
            [
              116.3553,
              39.939
            ],
            [
              116.3407,
              39.939
            ],
            [
              116.3397,
              39.975
            ],
            [
              116.34111935483871,
              39.997
            ],
            [
              116.35368356164383,
              39.997
            ]
          ]
        ]
      }
    },
    {
      "type": "Feature",
      "id": "PHASE-003",
      "properties": {
        "id": "PHASE-003",
        "layer": "PHASE",
        "source_type": "agent_generated_design",
        "confidence": "medium",
        "geometry_role": "design_proposal",
        "phase_class": "long_term",
        "phase_order": 3,
        "name_zh": "远期深化区（众智园与北段）",
        "area_sqm_declared": 1579819.518
      },
      "geometry": {
        "type": "Polygon",
        "coordinates": [
          [
            [
              116.34028064516129,
              39.984
            ],
            [
              116.34111935483871,
              39.997
            ],
            [
              116.35368356164383,
              39.997
            ],
            [
              116.3533,
              39.99
            ],
            [
              116.35378,
              39.984
            ],
            [
              116.34028064516129,
              39.984
            ]
          ]
        ]
      }
    }
  ]
}