{
  "type": "FeatureCollection",
  "name": "phasing",
  "features": [
    {
      "type": "Feature",
      "id": "PHASE-001",
      "properties": {
        "id": "PHASE-001",
        "layer": "PHASE",
        "source_type": "agent_generated_design",
        "confidence": "medium",
        "geometry_role": "design_proposal",
        "area_sqm_declared": 4229811.537,
        "phase": "phase_1",
        "name_zh": "一期：规则、公共空间与可逆原型",
        "implementation_status": "conceptual_sequence"
      },
      "geometry": {
        "type": "Polygon",
        "coordinates": [
          [
            [
              116.34070000000001,
              39.93899999999999
            ],
            [
              116.3398754450381,
              39.96868740162649
            ],
            [
              116.35499829907123,
              39.96877253619742
            ],
            [
              116.3553,
              39.965
            ],
            [
              116.3553,
              39.939
            ],
            [
              116.34070000000001,
              39.93899999999999
            ]
          ]
        ]
      }
    },
    {
      "type": "Feature",
      "id": "PHASE-002",
      "properties": {
        "id": "PHASE-002",
        "layer": "PHASE",
        "source_type": "agent_generated_design",
        "confidence": "medium",
        "geometry_role": "design_proposal",
        "area_sqm_declared": 3961149.104,
        "phase": "phase_2",
        "name_zh": "二期：重点区网络化更新",
        "implementation_status": "conceptual_sequence"
      },
      "geometry": {
        "type": "Polygon",
        "coordinates": [
          [
            [
              116.3533,
              39.989999999999995
            ],
            [
              116.35499829907123,
              39.96877253619742
            ],
            [
              116.3398754450381,
              39.96868740162649
            ],
            [
              116.3397,
              39.975
            ],
            [
              116.34127051376844,
              39.99934509170907
            ],
            [
              116.3538157494778,
              39.99941571711347
            ],
            [
              116.3533,
              39.989999999999995
            ]
          ]
        ]
      }
    },
    {
      "type": "Feature",
      "id": "PHASE-003",
      "properties": {
        "id": "PHASE-003",
        "layer": "PHASE",
        "source_type": "agent_generated_design",
        "confidence": "medium",
        "geometry_role": "design_proposal",
        "area_sqm_declared": 3221864.745,
        "phase": "phase_3",
        "name_zh": "三期：国际创新公地网络",
        "implementation_status": "conceptual_sequence"
      },
      "geometry": {
        "type": "Polygon",
        "coordinates": [
          [
            [
              116.3553,
              40.0265
            ],
            [
              116.3538157494778,
              39.99941571711347
            ],
            [
              116.34127051376844,
              39.99934509170907
            ],
            [
              116.34169999999999,
              40.00600000000001
            ],
            [
              116.34270000000001,
              40.0265
            ],
            [
              116.3553,
              40.0265
            ]
          ]
        ]
      }
    }
  ]
}
