{
 "type": "FeatureCollection",
 "name": "public_space",
 "features": [
  {
   "type": "Feature",
   "id": "PS-001",
   "properties": {
    "id": "PS-001",
    "layer": "PUBLIC_SPACE",
    "source_type": "agent_generated_design",
    "confidence": "medium",
    "geometry_role": "design_proposal",
    "name_zh": "开发者散步道（验证轨主段）",
    "verification_node_role": "developer_walk",
    "design_intent_zh": "沿验证轨的连续步行体验主段，串联各验证节点。",
    "usage_note": "概念建议公共空间节点，可供专业团队深化研究；不构成建设或运营审定结论。",
    "area_sqm_declared": 307745.289
   },
   "geometry": {
    "type": "Polygon",
    "coordinates": [
     [
      [
       116.34857108822628,
       40.00902536507291
      ],
      [
       116.34857085703942,
       40.00900782680704
      ],
      [
       116.34711269178919,
       39.99324579917357
      ],
      [
       116.34842125301056,
       39.973996481541796
      ],
      [
       116.34842127031057,
       39.97398169313997
      ],
      [
       116.34715752468101,
       39.954716101201356
      ],
      [
       116.34810231625629,
       39.93984145043553
      ],
      [
       116.34810231174603,
       39.93982730960522
      ],
      [
       116.34810050663212,
       39.93981323720713
      ],
      [
       116.34809691829985,
       39.93979936876606
      ],
      [
       116.34809158130787,
       39.939785837842535
      ],
      [
       116.34808454705525,
       39.93977277474652
      ],
      [
       116.34807588328651,
       39.93976030528249
      ],
      [
       116.34806567343904,
       39.93974854953781
      ],
      [
       116.34805401583975,
       39.939737620726376
      ],
      [
       116.34804102275791,
       39.93972762409822
      ],
      [
       116.34802681932399,
       39.93971865592588
      ],
      [
       116.34801154232461,
       39.93971080257737
      ],
      [
       116.34799533888526,
       39.939704139684316
      ],
      [
       116.34797836505324,
       39.93969873141368
      ],
      [
       116.34796078429511,
       39.93969462984973
      ],
      [
       116.34794276592227,
       39.93969187449257
      ],
      [
       116.34792448346045,
       39.9396904918776
      ],
      [
       116.34790611297865,
       39.939690495320086
      ],
      [
       116.34788783139362,
       39.93969188478684
      ],
      [
       116.34786981476583,
       39.93969464689663
      ],
      [
       116.34785223660431,
       39.93969875504898
      ],
      [
       116.3478352661954,
       39.93970416968037
      ],
      [
       116.34781906697262,
       39.9397108386452
      ],
      [
       116.34780379494272,
       39.93971869771808
      ],
      [
       116.34778959718327,
       39.93972767121221
      ],
      [
       116.34777661042622,
       39.93973767270835
      ],
      [
       116.34776495974113,
       39.939748605887026
      ],
      [
       116.34775475733066,
       39.9397603654562
      ],
      [
       116.34774610145006,
       39.939772838165176
      ],
      [
       116.34773907546072,
       39.93978590389529
      ],
      [
       116.34773374702762,
       39.93979943681672
      ],
      [
       116.34773016746735,
       39.93981330660031
      ],
      [
       116.34772837125402,
       39.939827379672586
      ],
      [
       116.34678304464101,
       39.9547091770527
      ],
      [
       116.34678305916401,
       39.95472347705185
      ],
      [
       116.34804668365483,
       39.97398882735552
      ],
      [
       116.34673791640756,
       39.9932396268505
      ],
      [
       116.34673813285481,
       39.993257378047424
      ],
      [
       116.34819622198417,
       40.00901951638792
      ],
      [
       116.34706860119104,
       40.02608058810696
      ],
      [
       116.34706857003293,
       40.026094728705964
      ],
      [
       116.34707034191432,
       40.02610880356198
      ],
      [
       116.34707389977207,
       40.02612267712634
      ],
      [
       116.34707920934314,
       40.026136215788874
      ],
      [
       116.34708621949437,
       40.026149289164664
      ],
      [
       116.34709486271497,
       40.02616177134963
      ],
      [
       116.34710505576666,
       40.026173542133186
      ],
      [
       116.3471167004852,
       40.026184488155835
      ],
      [
       116.3471296847258,
       40.02619450400102
      ],
      [
       116.34714388344315,
       40.02620349321023
      ],
      [
       116.34715915989567,
       40.02621136921208
      ],
      [
       116.34717536696232,
       40.02621805615592
      ],
      [
       116.34719234855959,
       40.02622348964252
      ],
      [
       116.34720994114465,
       40.026227617344084
      ],
      [
       116.34722797529037,
       40.02623039950837
      ],
      [
       116.34724627731705,
       40.026231809341446
      ],
      [
       116.34726467096507,
       40.02623183326576
      ],
      [
       116.34728297909241,
       40.02623047105087
      ],
      [
       116.34730102538076,
       40.02622773581575
      ],
      [
       116.34731863603342,
       40.026223653902356
      ],
      [
       116.34733564144923,
       40.02621826462195
      ],
      [
       116.34735187785598,
       40.02621161987656
      ],
      [
       116.34736718888757,
       40.02620378365907
      ],
      [
       116.34738142708991,
       40.02619483143691
      ],
      [
       116.34739445534115,
       40.02618484942529
      ],
      [
       116.34740614817203,
       40.02617393375687
      ],
      [
       116.34741639297445,
       40.026162189555905
      ],
      [
       116.34742509108575,
       40.026149729925876
      ],
      [
       116.34743215873898,
       40.026136674860176
      ],
      [
       116.34743752786957,
       40.02612315008654
      ],
      [
       116.34744114677073,
       40.026109285856194
      ],
      [
       116.34744298059152,
       40.02609521568939
      ],
      [
       116.34857108822628,
       40.00902536507291
      ]
     ]
    ]
   }
  },
  {
   "type": "Feature",
   "id": "PS-002",
   "properties": {
    "id": "PS-002",
    "layer": "PUBLIC_SPACE",
    "source_type": "agent_generated_design",
    "confidence": "medium",
    "geometry_role": "design_proposal",
    "name_zh": "智能体贡献荣誉墙广场",
    "verification_node_role": "honor_wall",
    "design_intent_zh": "记录通过验证的智能体与贡献者的荣誉展示广场。",
    "usage_note": "概念建议公共空间节点，可供专业团队深化研究；不构成建设或运营审定结论。",
    "area_sqm_declared": 96192.821
   },
   "geometry": {
    "type": "Polygon",
    "coordinates": [
     [
      [
       116.34608520369623,
       40.013821473779856
      ],
      [
       116.34605177174531,
       40.01732409585415
      ],
      [
       116.34894855749472,
       40.01734040661057
      ],
      [
       116.34898184137813,
       40.013837782524796
      ],
      [
       116.34608520369623,
       40.013821473779856
      ]
     ]
    ]
   }
  },
  {
   "type": "Feature",
   "id": "PS-003",
   "properties": {
    "id": "PS-003",
    "layer": "PUBLIC_SPACE",
    "source_type": "agent_generated_design",
    "confidence": "medium",
    "geometry_role": "design_proposal",
    "name_zh": "开源成果展示廊",
    "verification_node_role": "open_source_gallery",
    "design_intent_zh": "开源成果与迭代记录的线性展示廊。",
    "usage_note": "概念建议公共空间节点，可供专业团队深化研究；不构成建设或运营审定结论。",
    "area_sqm_declared": 117569.003
   },
   "geometry": {
    "type": "Polygon",
    "coordinates": [
     [
      [
       116.34444725628323,
       39.983162538116545
      ],
      [
       116.3444137769381,
       39.98666517762887
      ],
      [
       116.34795270882466,
       39.98668514060417
      ],
      [
       116.34798600747564,
       39.98318249862948
      ],
      [
       116.34444725628323,
       39.983162538116545
      ]
     ]
    ]
   }
  },
  {
   "type": "Feature",
   "id": "PS-004",
   "properties": {
    "id": "PS-004",
    "layer": "PUBLIC_SPACE",
    "source_type": "agent_generated_design",
    "confidence": "medium",
    "geometry_role": "design_proposal",
    "name_zh": "清华园车站文化验证前场",
    "verification_node_role": "heritage_forecourt",
    "design_intent_zh": "依托清华园车站旧址的文化前场，历史与验证叙事的交汇点。",
    "usage_note": "概念建议公共空间节点，可供专业团队深化研究；不构成建设或运营审定结论。",
    "area_sqm_declared": 93520.798
   },
   "geometry": {
    "type": "Polygon",
    "coordinates": [
     [
      [
       116.3418232029301,
       39.988401909292385
      ],
      [
       116.3417937861158,
       39.991466714591176
      ],
      [
       116.34501122035071,
       39.99148494173842
      ],
      [
       116.34504049339529,
       39.98842013447245
      ],
      [
       116.3418232029301,
       39.988401909292385
      ]
     ]
    ]
   }
  },
  {
   "type": "Feature",
   "id": "PS-005",
   "properties": {
    "id": "PS-005",
    "layer": "PUBLIC_SPACE",
    "source_type": "agent_generated_design",
    "confidence": "medium",
    "geometry_role": "design_proposal",
    "name_zh": "大钟寺站前验证广场",
    "verification_node_role": "station_plaza",
    "design_intent_zh": "站城一体的南端城市客厅与智能原生消费验证界面。",
    "usage_note": "概念建议公共空间节点，可供专业团队深化研究；不构成建设或运营审定结论。",
    "area_sqm_declared": 132265.128
   },
   "geometry": {
    "type": "Polygon",
    "coordinates": [
     [
      [
       116.34933307185631,
       39.942907379007075
      ],
      [
       116.34929574111221,
       39.946847879593555
      ],
      [
       116.35283262393494,
       39.94686767725949
      ],
      [
       116.35286975180355,
       39.94292717392507
      ],
      [
       116.34933307185631,
       39.942907379007075
      ]
     ]
    ]
   }
  },
  {
   "type": "Feature",
   "id": "PS-006",
   "properties": {
    "id": "PS-006",
    "layer": "PUBLIC_SPACE",
    "source_type": "agent_generated_design",
    "confidence": "medium",
    "geometry_role": "design_proposal",
    "name_zh": "机器人配送路测环廊",
    "verification_node_role": "robot_testbed",
    "design_intent_zh": "面向机器人配送与低速接驳的开放路测公共界面。",
    "usage_note": "概念建议公共空间节点，可供专业团队深化研究；不构成建设或运营审定结论。",
    "area_sqm_declared": 232465.983
   },
   "geometry": {
    "type": "Polygon",
    "coordinates": [
     [
      [
       116.34144035203606,
       39.96125276692872
      ],
      [
       116.34141514746425,
       39.96387975513882
      ],
      [
       116.35074196299246,
       39.96393236848976
      ],
      [
       116.3507668106811,
       39.96130537541161
      ],
      [
       116.34144035203606,
       39.96125276692872
      ]
     ]
    ]
   }
  },
  {
   "type": "Feature",
   "id": "PS-007",
   "properties": {
    "id": "PS-007",
    "layer": "PUBLIC_SPACE",
    "source_type": "agent_generated_design",
    "confidence": "medium",
    "geometry_role": "design_proposal",
    "name_zh": "众智园治理议事院",
    "verification_node_role": "governance_court",
    "design_intent_zh": "面向标准制定与安全治理的公共议事与公示空间。",
    "usage_note": "概念建议公共空间节点，可供专业团队深化研究；不构成建设或运营审定结论。",
    "area_sqm_declared": 93520.798
   },
   "geometry": {
    "type": "Polygon",
    "coordinates": [
     [
      [
       116.34989753382304,
       40.01909713901192
      ],
      [
       116.3498684462925,
       40.02216193297192
      ],
      [
       116.35308732702039,
       40.022179947355426
      ],
      [
       116.35311627055952,
       40.01911515145159
      ],
      [
       116.34989753382304,
       40.01909713901192
      ]
     ]
    ]
   }
  },
  {
   "type": "Feature",
   "id": "PS-008",
   "properties": {
    "id": "PS-008",
    "layer": "PUBLIC_SPACE",
    "source_type": "agent_generated_design",
    "confidence": "medium",
    "geometry_role": "design_proposal",
    "name_zh": "小月河场景体验回路",
    "verification_node_role": "scenario_loop",
    "design_intent_zh": "AI+生活服务场景的公众体验回路。",
    "usage_note": "概念建议公共空间节点，可供专业团队深化研究；不构成建设或运营审定结论。",
    "area_sqm_declared": 160321.368
   },
   "geometry": {
    "type": "Polygon",
    "coordinates": [
     [
      [
       116.34074248147937,
       39.96694091663185
      ],
      [
       116.34071724511917,
       39.96956790188757
      ],
      [
       116.34715006128297,
       39.96960431023972
      ],
      [
       116.34717505144737,
       39.96697732161544
      ],
      [
       116.34074248147937,
       39.96694091663185
      ]
     ]
    ]
   }
  },
  {
   "type": "Feature",
   "id": "PS-009",
   "properties": {
    "id": "PS-009",
    "layer": "PUBLIC_SPACE",
    "source_type": "agent_generated_design",
    "confidence": "medium",
    "geometry_role": "design_proposal",
    "name_zh": "AI原点社区人才客厅",
    "verification_node_role": "talent_lounge",
    "design_intent_zh": "青年人才与开发者的日常停留与社交界面。",
    "usage_note": "概念建议公共空间节点，可供专业团队深化研究；不构成建设或运营审定结论。",
    "area_sqm_declared": 117569.003
   },
   "geometry": {
    "type": "Polygon",
    "coordinates": [
     [
      [
       116.34870008765256,
       39.97574299393675
      ],
      [
       116.34866683422528,
       39.97924564091835
      ],
      [
       116.35220538633165,
       39.97926547100952
      ],
      [
       116.35223845913114,
       39.97576282158182
      ],
      [
       116.34870008765256,
       39.97574299393675
      ]
     ]
    ]
   }
  }
 ]
}
