{"type": "FeatureCollection", "features": [{"type": "Feature", "id": "SITE-001", "properties": {"id": "SITE-001", "layer": "SITE_BOUNDARY", "scope_id": "overall_design_area", "name_zh": "总体设计范围（临时）", "source_type": "agent_inferred_from_public_data", "confidence": "medium", "geometry_role": "provisional_constraint", "official_boundary": false, "boundary_precision": "provisional_rough", "derivation_method": "copied from provisional_boundaries.geojson#PROV-SITE-001", "derived_from_source_ids": ["PROV-SITE-001"], "source_id": "BOUNDARY-SOURCE", "source_title": "百年京张AI创新带三层范围与三处重点区临时粗略polygon", "usage_note": "临时约束范围，仅用于生成、展示、讨论与包内自检，不能作为官方红线、审批依据或精确面积依据。", "area_sqm_declared": 11412825.4, "area_sqm_calculated": 11412825.4}, "geometry": {"type": "Polygon", "coordinates": [[[116.3407, 39.939], [116.3553, 39.939], [116.3553, 39.965], [116.3533, 39.99], [116.3553, 40.0265], [116.3427, 40.0265], [116.3417, 40.006], [116.3397, 39.975], [116.3407, 39.939]]]}}]}