{
  "type": "FeatureCollection",
  "name": "handover_constraints",
  "features": [
    {
      "type": "Feature",
      "id": "CONSTRAINT-PROVISIONAL-SITE",
      "properties": {
        "id": "CONSTRAINT-PROVISIONAL-SITE",
        "layer": "SITE_BOUNDARY",
        "source_type": "agent_inferred_from_public_data",
        "confidence": "medium",
        "geometry_role": "provisional_constraint",
        "name_zh": "临时总体范围约束（非官方红线）",
        "name_en": "Provisional overall-area constraint (not an official boundary)",
        "official_boundary": false,
        "boundary_precision": "provisional_rough",
        "area_sqm_declared": 11412825.386,
        "source_id": "DATA-SRC-PROVISIONAL-BOUNDARIES-20260605",
        "replacement_trigger": "official or rights-cleared polygon with recorded version, CRS, and provenance"
      },
      "geometry": {
        "type": "Polygon",
        "coordinates": [
          [
            [
              116.3407,
              39.939
            ],
            [
              116.3553,
              39.939
            ],
            [
              116.3553,
              39.965
            ],
            [
              116.3533,
              39.99
            ],
            [
              116.3553,
              40.0265
            ],
            [
              116.3427,
              40.0265
            ],
            [
              116.3417,
              40.006
            ],
            [
              116.3397,
              39.975
            ],
            [
              116.3407,
              39.939
            ]
          ]
        ]
      }
    }
  ]
}
