{
  "type": "FeatureCollection",
  "name": "handover_evidence_gated_phasing",
  "features": [
    {
      "type": "Feature",
      "id": "PHASE-01",
      "properties": {
        "id": "PHASE-01",
        "layer": "PHASE",
        "source_type": "agent_generated_design",
        "confidence": "medium",
        "geometry_role": "design_proposal",
        "name_zh": "近期：责任与可逆服务",
        "name_en": "Near term: responsibility and reversible services",
        "phase": "phase_1",
        "gate": "official data + professional safety + ownership + public review",
        "area_sqm_declared": 4145970.725
      },
      "geometry": {
        "type": "Polygon",
        "coordinates": [
          [
            [
              116.34070000000001,
              39.93899999999999
            ],
            [
              116.33989166606412,
              39.968103687635235
            ],
            [
              116.3550449694261,
              39.968188989207874
            ],
            [
              116.3553,
              39.965
            ],
            [
              116.3553,
              39.939
            ],
            [
              116.34070000000001,
              39.93899999999999
            ]
          ]
        ]
      }
    },
    {
      "type": "Feature",
      "id": "PHASE-02",
      "properties": {
        "id": "PHASE-02",
        "layer": "PHASE",
        "source_type": "agent_generated_design",
        "confidence": "medium",
        "geometry_role": "design_proposal",
        "name_zh": "中期：空间缝合与适应性更新",
        "name_en": "Middle term: spatial connections and adaptive renewal",
        "phase": "phase_2",
        "gate": "official data + professional safety + ownership + public review",
        "area_sqm_declared": 3801720.759
      },
      "geometry": {
        "type": "Polygon",
        "coordinates": [
          [
            [
              116.3533,
              39.989999999999995
            ],
            [
              116.3550449694261,
              39.968188989207874
            ],
            [
              116.33989166606412,
              39.968103687635235
            ],
            [
              116.3397,
              39.975
            ],
            [
              116.34113861172393,
              39.99730103000568
            ],
            [
              116.35370378140554,
              39.99737177997888
            ],
            [
              116.3533,
              39.989999999999995
            ]
          ]
        ]
      }
    },
    {
      "type": "Feature",
      "id": "PHASE-03",
      "properties": {
        "id": "PHASE-03",
        "layer": "PHASE",
        "source_type": "agent_generated_design",
        "confidence": "medium",
        "geometry_role": "design_proposal",
        "name_zh": "长期：证据驱动的扩大、调整或退役",
        "name_en": "Long term: evidence-led scale, adjustment, or retirement",
        "phase": "phase_3",
        "gate": "official data + professional safety + ownership + public review",
        "area_sqm_declared": 3465133.902
      },
      "geometry": {
        "type": "Polygon",
        "coordinates": [
          [
            [
              116.3553,
              40.02649999999999
            ],
            [
              116.35370378140554,
              39.99737177997888
            ],
            [
              116.34113861172393,
              39.99730103000568
            ],
            [
              116.34169999999999,
              40.00600000000001
            ],
            [
              116.34270000000001,
              40.026500000000006
            ],
            [
              116.3553,
              40.02649999999999
            ]
          ]
        ]
      }
    }
  ]
}
