{"type": "FeatureCollection", "name": "roads_marshalling_yard", "features": [{"type": "Feature", "id": "ROAD-001", "properties": {"id": "ROAD-001", "layer": "ROAD_CENTERLINE", "source_type": "agent_generated_design", "confidence": "medium", "geometry_role": "design_proposal", "road_class": "branch", "name_zh": "编组路网·南北干路"}, "geometry": {"type": "LineString", "coordinates": [[116.34178253441101, 39.94095924857294], [116.34167710978896, 39.951958647214454], [116.34154284889338, 39.96595788112538], [116.34136048688796, 39.984956840135915], [116.34122851906383, 39.9986943194157]]}}, {"type": "Feature", "id": "ROAD-002", "properties": {"id": "ROAD-002", "layer": "ROAD_CENTERLINE", "source_type": "agent_generated_design", "confidence": "medium", "geometry_role": "design_proposal", "road_class": "secondary", "name_zh": "编组路网·南北干路"}, "geometry": {"type": "LineString", "coordinates": [[116.34538134208901, 39.94097962441396], [116.34527649377604, 39.95197903095197], [116.34514296682444, 39.965978274916594], [116.34496160171003, 39.98497724757797], [116.34478006373959, 40.003976218752335], [116.34458399974733, 40.02447510703475]]}}, {"type": "Feature", "id": "ROAD-003", "properties": {"id": "ROAD-003", "layer": "ROAD_CENTERLINE", "source_type": "agent_generated_design", "confidence": "medium", "geometry_role": "design_proposal", "road_class": "secondary", "name_zh": "编组路网·南北干路"}, "geometry": {"type": "LineString", "coordinates": [[116.35027972433693, 39.94100717871092], [116.35017566044813, 39.95200659592735], [116.35004313248028, 39.966005853487644], [116.3498631242513, 39.98500484460908], [116.34968294445936, 40.00400383425365], [116.34948834732197, 40.02450274247588]]}}, {"type": "Feature", "id": "ROAD-004", "properties": {"id": "ROAD-004", "layer": "ROAD_CENTERLINE", "source_type": "agent_generated_design", "confidence": "medium", "geometry_role": "design_proposal", "road_class": "branch", "name_zh": "编组路网·南北干路"}, "geometry": {"type": "LineString", "coordinates": [[116.35347867101974, 39.94102506165377], [116.3533751194101, 39.95202448580061], [116.35324324384256, 39.96602375218457], [116.35306412174656, 39.985022755286735], [116.35288482893206, 40.004021756918625], [116.35269118974473, 40.02452067808195]]}}, {"type": "Feature", "id": "ROAD-005", "properties": {"id": "ROAD-005", "layer": "ROAD_CENTERLINE", "source_type": "agent_generated_design", "confidence": "medium", "geometry_role": "design_proposal", "road_class": "branch", "name_zh": "编组路网·东西干路"}, "geometry": {"type": "LineString", "coordinates": [[116.34133664282845, 39.94575671496214], [116.34513564939448, 39.94577823625826], [116.34913460752236, 39.945800755778095], [116.35293362137774, 39.94582202156932]]}}, {"type": "Feature", "id": "ROAD-006", "properties": {"id": "ROAD-006", "layer": "ROAD_CENTERLINE", "source_type": "agent_generated_design", "confidence": "medium", "geometry_role": "design_proposal", "road_class": "secondary", "name_zh": "编组路网·东西干路"}, "geometry": {"type": "LineString", "coordinates": [[116.34124072337725, 39.955756167294645], [116.34504028308613, 39.95577769617261], [116.3490398234721, 39.955800223625964], [116.35283939047486, 39.95582149690902]]}}, {"type": "Feature", "id": "ROAD-007", "properties": {"id": "ROAD-007", "layer": "ROAD_CENTERLINE", "source_type": "agent_generated_design", "confidence": "medium", "geometry_role": "design_proposal", "road_class": "secondary", "name_zh": "编组路网·东西干路"}, "geometry": {"type": "LineString", "coordinates": [[116.34112843656182, 39.96745552599834], [116.34492864379995, 39.96747706374984], [116.34892886579838, 39.9674996004883], [116.35272908033566, 39.96752088253957]]}}, {"type": "Feature", "id": "ROAD-008", "properties": {"id": "ROAD-008", "layer": "ROAD_CENTERLINE", "source_type": "agent_generated_design", "confidence": "medium", "geometry_role": "design_proposal", "road_class": "secondary", "name_zh": "编组路网·东西干路"}, "geometry": {"type": "LineString", "coordinates": [[116.34100839922127, 39.979954840226526], [116.34480929868386, 39.97997638746162], [116.3488102493426, 39.97999893412357], [116.35261115610996, 39.98002022554585]]}}, {"type": "Feature", "id": "ROAD-009", "properties": {"id": "ROAD-009", "layer": "ROAD_CENTERLINE", "source_type": "agent_generated_design", "confidence": "medium", "geometry_role": "design_proposal", "road_class": "secondary", "name_zh": "编组路网·东西干路"}, "geometry": {"type": "LineString", "coordinates": [[116.3410388526486, 39.99575500905795], [116.34465833939684, 39.995775531712276], [116.34866021173576, 39.995798090922634], [116.35246199410282, 39.99581939419472]]}}, {"type": "Feature", "id": "ROAD-010", "properties": {"id": "ROAD-010", "layer": "ROAD_CENTERLINE", "source_type": "agent_generated_design", "confidence": "medium", "geometry_role": "design_proposal", "road_class": "secondary", "name_zh": "编组路网·东西干路"}, "geometry": {"type": "LineString", "coordinates": [[116.34189312348938, 40.009959859563764], [116.34452256504649, 40.00997476174314], [116.34852526635403, 40.0099973322361], [116.35232783624447, 40.01001864616264]]}}, {"type": "Feature", "id": "ROAD-011", "properties": {"id": "ROAD-011", "layer": "ROAD_CENTERLINE", "source_type": "agent_generated_design", "confidence": "medium", "geometry_role": "design_proposal", "road_class": "branch", "name_zh": "编组路网·东西干路"}, "geometry": {"type": "LineString", "coordinates": [[116.34247864705341, 40.021963180482565], [116.34440775076187, 40.02197411041679], [116.34841115306652, 40.02199669044794], [116.35221438890694, 40.022018013381675]]}}, {"type": "Feature", "id": "ROAD-012", "properties": {"id": "ROAD-012", "layer": "ROAD_CENTERLINE", "source_type": "agent_generated_design", "confidence": "medium", "geometry_role": "design_proposal", "road_class": "greenway", "name_zh": "京张编组主轨·遗址公园慢行脊"}, "geometry": {"type": "LineString", "coordinates": [[116.34831059322276, 39.94099612686532], [116.34814925561184, 39.957995219371576], [116.34798778044791, 39.974994310693305], [116.34782616759973, 39.991993400829855], [116.3476548978963, 40.009992436152466], [116.34751681816626, 40.02449165808388]]}}]}