{
 "type": "FeatureCollection",
 "features": [
  {
   "type": "Feature",
   "properties": {
    "id": "CONSTRAINTS-001",
    "layer": "HERITAGE_PROTECTION",
    "source_type": "agent_generated_design",
    "confidence": "low",
    "geometry_role": "provisional_constraint",
    "constraint_type": "heritage_railway_corridor",
    "official_boundary": false
   },
   "geometry": {
    "type": "Polygon",
    "coordinates": [
     [
      [
       116.34828,
       39.939
      ],
      [
       116.34671999999999,
       39.939
      ],
      [
       116.34671999999999,
       40.0265
      ],
      [
       116.34828,
       40.0265
      ],
      [
       116.34828,
       39.939
      ]
     ]
    ]
   },
   "id": "CONSTRAINTS-001"
  }
 ]
}