{
 "type": "FeatureCollection",
 "features": [
  {
   "type": "Feature",
   "properties": {
    "id": "GREEN-001",
    "layer": "GREEN_SPACE",
    "source_type": "agent_generated_design",
    "confidence": "low",
    "geometry_role": "design_proposal",
    "land_use_code": "1401",
    "land_use_name_zh": "公园绿地",
    "area_sqm_declared": 11616.83
   },
   "geometry": {
    "type": "Polygon",
    "coordinates": [
     [
      [
       116.34945755225034,
       39.94534459697378
      ],
      [
       116.34945755225034,
       39.94787583455731
      ],
      [
       116.34994117054501,
       39.94787583455731
      ],
      [
       116.34994117054501,
       39.94534459697378
      ],
      [
       116.34945755225034,
       39.94534459697378
      ]
     ]
    ]
   },
   "id": "GREEN-001"
  },
  {
   "type": "Feature",
   "properties": {
    "id": "GREEN-002",
    "layer": "GREEN_SPACE",
    "source_type": "agent_generated_design",
    "confidence": "low",
    "geometry_role": "design_proposal",
    "land_use_code": "1401",
    "land_use_name_zh": "公园绿地",
    "area_sqm_declared": 16922.83
   },
   "geometry": {
    "type": "Polygon",
    "coordinates": [
     [
      [
       116.35082005584687,
       39.99666508463455
      ],
      [
       116.35082005584687,
       39.998719370548756
      ],
      [
       116.3516887758971,
       39.998719370548756
      ],
      [
       116.3516887758971,
       39.99666508463455
      ],
      [
       116.35082005584687,
       39.99666508463455
      ]
     ]
    ]
   },
   "id": "GREEN-002"
  },
  {
   "type": "Feature",
   "properties": {
    "id": "GREEN-003",
    "layer": "GREEN_SPACE",
    "source_type": "agent_generated_design",
    "confidence": "low",
    "geometry_role": "design_proposal",
    "land_use_code": "1401",
    "land_use_name_zh": "公园绿地",
    "area_sqm_declared": 14973.7
   },
   "geometry": {
    "type": "Polygon",
    "coordinates": [
     [
      [
       116.34640378234837,
       39.94572153103075
      ],
      [
       116.34640378234837,
       39.94924027453911
      ],
      [
       116.34685221244466,
       39.94924027453911
      ],
      [
       116.34685221244466,
       39.94572153103075
      ],
      [
       116.34640378234837,
       39.94572153103075
      ]
     ]
    ]
   },
   "id": "GREEN-003"
  },
  {
   "type": "Feature",
   "properties": {
    "id": "GREEN-004",
    "layer": "GREEN_SPACE",
    "source_type": "agent_generated_design",
    "confidence": "low",
    "geometry_role": "design_proposal",
    "land_use_code": "1401",
    "land_use_name_zh": "公园绿地",
    "area_sqm_declared": 24897.89
   },
   "geometry": {
    "type": "Polygon",
    "coordinates": [
     [
      [
       116.34085256501436,
       39.95903346499157
      ],
      [
       116.34085256501436,
       39.962690760173686
      ],
      [
       116.34157009290352,
       39.962690760173686
      ],
      [
       116.34157009290352,
       39.95903346499157
      ],
      [
       116.34085256501436,
       39.95903346499157
      ]
     ]
    ]
   },
   "id": "GREEN-004"
  },
  {
   "type": "Feature",
   "properties": {
    "id": "GREEN-005",
    "layer": "GREEN_SPACE",
    "source_type": "agent_generated_design",
    "confidence": "low",
    "geometry_role": "design_proposal",
    "land_use_code": "1401",
    "land_use_name_zh": "公园绿地",
    "area_sqm_declared": 13736.96
   },
   "geometry": {
    "type": "Polygon",
    "coordinates": [
     [
      [
       116.34357498633345,
       39.98977967260523
      ],
      [
       116.34357498633345,
       39.9915524182641
      ],
      [
       116.34439207093841,
       39.9915524182641
      ],
      [
       116.34439207093841,
       39.98977967260523
      ],
      [
       116.34357498633345,
       39.98977967260523
      ]
     ]
    ]
   },
   "id": "GREEN-005"
  },
  {
   "type": "Feature",
   "properties": {
    "id": "GREEN-006",
    "layer": "GREEN_SPACE",
    "source_type": "agent_generated_design",
    "confidence": "low",
    "geometry_role": "design_proposal",
    "land_use_code": "1401",
    "land_use_name_zh": "公园绿地",
    "area_sqm_declared": 11406.21
   },
   "geometry": {
    "type": "Polygon",
    "coordinates": [
     [
      [
       116.35179370229574,
       39.99835347735532
      ],
      [
       116.35179370229574,
       40.000647655604666
      ],
      [
       116.35231801861804,
       40.000647655604666
      ],
      [
       116.35231801861804,
       39.99835347735532
      ],
      [
       116.35179370229574,
       39.99835347735532
      ]
     ]
    ]
   },
   "id": "GREEN-006"
  },
  {
   "type": "Feature",
   "properties": {
    "id": "GREEN-007",
    "layer": "GREEN_SPACE",
    "source_type": "agent_generated_design",
    "confidence": "low",
    "geometry_role": "design_proposal",
    "land_use_code": "1401",
    "land_use_name_zh": "公园绿地",
    "area_sqm_declared": 7328.05
   },
   "geometry": {
    "type": "Polygon",
    "coordinates": [
     [
      [
       116.35391927153378,
       39.96988182042762
      ],
      [
       116.35391927153378,
       39.97197032774653
      ],
      [
       116.35428914494005,
       39.97197032774653
      ],
      [
       116.35428914494005,
       39.96988182042762
      ],
      [
       116.35391927153378,
       39.96988182042762
      ]
     ]
    ]
   },
   "id": "GREEN-007"
  },
  {
   "type": "Feature",
   "properties": {
    "id": "GREEN-008",
    "layer": "GREEN_SPACE",
    "source_type": "agent_generated_design",
    "confidence": "low",
    "geometry_role": "design_proposal",
    "land_use_code": "1401",
    "land_use_name_zh": "公园绿地",
    "area_sqm_declared": 33292.19
   },
   "geometry": {
    "type": "Polygon",
    "coordinates": [
     [
      [
       116.35237882090351,
       39.99091842497014
      ],
      [
       116.35237882090351,
       39.99522248622357
      ],
      [
       116.35319446894604,
       39.99522248622357
      ],
      [
       116.35319446894604,
       39.99091842497014
      ],
      [
       116.35237882090351,
       39.99091842497014
      ]
     ]
    ]
   },
   "id": "GREEN-008"
  }
 ]
}