{"type": "FeatureCollection", "name": "phasing", "generation_note": "provisional geometry: derived from brief/site-package/geometry/provisional_boundaries.geojson; not an official redline; recalculate when official polygons are released; three-phase rollout partition", "features": [{"type": "Feature", "id": "PHS-001", "properties": {"id": "PHS-001", "layer": "PHASE", "phase_id": "phase_1", "name_zh": "近期（2026-2028）：AI原点社区激活与京张公园带贯通", "geometry_role": "design_proposal", "source_type": "agent_inferred_from_public_data", "confidence": "medium", "source_id": "DATA-SRC-PROVISIONAL-BOUNDARIES-20260605", "usage_note": "仅用于临时生成、可视化与提交自检；不得作为官方红线、审批依据或精确面积复算依据。", "area_sqm_declared": 2162842.88}, "geometry": {"type": "Polygon", "coordinates": [[[116.34643973644862, 39.95852077498887], [116.3466390253613, 39.964999998822485], [116.34643937982037, 39.97148614154573], [116.34623930773276, 39.97798614288795], [116.3462393073443, 39.97801384947971], [116.346408053015, 39.98350012535269], [116.34200000000001, 39.98349999999999], [116.34200000000001, 39.99349999999999], [116.34685382789525, 39.993500128702955], [116.34703935688626, 39.997520765397816], [116.34703972857194, 39.99752766989031], [116.34743923131217, 40.00402076090518], [116.3476389463682, 40.01051384369977], [116.34783876768124, 40.01701038263074], [116.34793864221541, 40.02350692112516], [116.3479388387493, 40.02351499348347], [116.34803831133829, 40.02650016727351], [116.34956073139008, 40.02650016990751], [116.34956119432378, 40.026485001131014], [116.34946129554703, 40.02348903717105], [116.34936128544629, 40.016993073942935], [116.34936112562158, 40.01698615151734], [116.34916105342077, 40.01048615223812], [116.34896098117997, 40.003986150895145], [116.34896034288947, 40.003972323100314], [116.34856048329594, 39.99747577651764], [116.34837694187512, 39.99350012718655], [116.353, 39.99349999999998], [116.353, 39.9835], [116.34793041271844, 39.98350012969721], [116.34776111879356, 39.97799999882173], [116.34796062060336, 39.971513851881525], [116.34816054858945, 39.9650138515899], [116.34816054820116, 39.96498614078079], [116.34796047618829, 39.95848614149865], [116.34795983746685, 39.95847230435707], [116.34755976562326, 39.951972306370216], [116.34755870446439, 39.95195851162448], [116.34695863291023, 39.94545851492899], [116.34636241073538, 39.93900021826157], [116.34484026688462, 39.939000186768865], [116.34484143844571, 39.939041484096194], [116.34544136657686, 39.945541483741835], [116.34604065846976, 39.95203459084252], [116.34643973644862, 39.95852077498887]]]}}, {"type": "Feature", "id": "PHS-002", "properties": {"id": "PHS-002", "layer": "PHASE", "phase_id": "phase_3", "name_zh": "远期（2030之后）：全带成势与留白用地弹性释放", "geometry_role": "design_proposal", "source_type": "agent_inferred_from_public_data", "confidence": "medium", "source_id": "DATA-SRC-PROVISIONAL-BOUNDARIES-20260605", "usage_note": "仅用于临时生成、可视化与提交自检；不得作为官方红线、审批依据或精确面积复算依据。", "area_sqm_declared": 4435117.71}, "geometry": {"type": "Polygon", "coordinates": [[[116.34070000000001, 39.93899999999999], [116.3397, 39.975], [116.34169999999999, 40.00600000000001], [116.34270000000001, 40.0265], [116.34803831133829, 40.02650016727351], [116.3479388387493, 40.02351499348347], [116.34793864221541, 40.02350692112516], [116.34783876768124, 40.01701038263074], [116.3476389463682, 40.01051384369977], [116.34743923131217, 40.00402076090518], [116.34703972857194, 39.99752766989031], [116.34703935688626, 39.997520765397816], [116.34685382789525, 39.993500128702955], [116.34200000000001, 39.99349999999999], [116.34200000000001, 39.98349999999999], [116.346408053015, 39.98350012535269], [116.3462393073443, 39.97801384947971], [116.34623930773276, 39.97798614288795], [116.34643937982037, 39.97148614154573], [116.3466390253613, 39.964999998822485], [116.34643973644862, 39.95852077498887], [116.34604065846976, 39.95203459084252], [116.34544136657686, 39.945541483741835], [116.34484143844571, 39.939041484096194], [116.34484026688462, 39.939000186768865], [116.34070000000001, 39.93899999999999]]]}}, {"type": "Feature", "id": "PHS-003", "properties": {"id": "PHS-003", "layer": "PHASE", "phase_id": "phase_3", "name_zh": "远期（2030之后）：全带成势与留白用地弹性释放", "geometry_role": "design_proposal", "source_type": "agent_inferred_from_public_data", "confidence": "medium", "source_id": "DATA-SRC-PROVISIONAL-BOUNDARIES-20260605", "usage_note": "仅用于临时生成、可视化与提交自检；不得作为官方红线、审批依据或精确面积复算依据。", "area_sqm_declared": 4814864.79}, "geometry": {"type": "Polygon", "coordinates": [[[116.3553, 40.0265], [116.3533, 39.989999999999995], [116.3553, 39.965], [116.3553, 39.939], [116.34504518053748, 39.939000192172564], [116.34636241073538, 39.93900021826157], [116.34695863291023, 39.94545851492899], [116.34755870446439, 39.95195851162448], [116.34755976562326, 39.951972306370216], [116.34795983746685, 39.95847230435707], [116.34796047618829, 39.95848614149865], [116.34816054820116, 39.96498614078079], [116.34816054858945, 39.9650138515899], [116.34796062060336, 39.971513851881525], [116.34776111879356, 39.97799999882173], [116.34793041271844, 39.98350012969721], [116.353, 39.9835], [116.353, 39.99349999999998], [116.34837694187512, 39.99350012718655], [116.34856048329594, 39.99747577651764], [116.34896034288947, 40.003972323100314], [116.34896098117997, 40.003986150895145], [116.34916105342077, 40.01048615223812], [116.34936112562158, 40.01698615151734], [116.34936128544629, 40.016993073942935], [116.34946129554703, 40.02348903717105], [116.34956119432378, 40.026485001131014], [116.34956073139008, 40.02650016990751], [116.3487701921206, 40.02650017103636], [116.3553, 40.0265]]]}}]}
