{
  "type": "FeatureCollection",
  "name": "phasing_public_prototype_first",
  "features": [
    {
      "type": "Feature",
      "id": "PHASE-001",
      "properties": {
        "id": "PHASE-001",
        "layer": "PHASE",
        "source_type": "agent_generated_design",
        "confidence": "medium",
        "geometry_role": "design_proposal",
        "phase": "phase_1",
        "name_zh": "??????????????",
        "area_sqm_declared": 4587013.573,
        "proposal_concept": "coexistence_loop",
        "review_note": "conceptual design layer; professional verification required"
      },
      "geometry": {
        "type": "Polygon",
        "coordinates": [
          [
            [
              116.3417,
              40.006
            ],
            [
              116.34218780487805,
              40.016
            ],
            [
              116.34843599999999,
              40.016
            ],
            [
              116.34843599999999,
              39.9495
            ],
            [
              116.340948,
              39.9495
            ],
            [
              116.340948,
              39.99434399999997
            ],
            [
              116.3417,
              40.006
            ]
          ]
        ]
      }
    }
  ],
  "proposal_concept": "JZ-AI COMMON LOOP",
  "geometry_status": "provisional_constraint",
  "official_boundary": false,
  "finalization_refresh": "2026-08-09"
}
