{
  "type": "FeatureCollection",
  "name": "roads",
  "features": [
    {
      "type": "Feature",
      "id": "RD-E1",
      "properties": {
        "id": "RD-E1",
        "layer": "ROAD_CENTERLINE",
        "source_type": "agent_inferred_from_public_data",
        "confidence": "medium",
        "geometry_role": "provisional_constraint",
        "official_boundary": false,
        "boundary_precision": "provisional_rough",
        "road_class": "arterial",
        "name_zh": "东侧纵向干路（科技服务翼走廊）",
        "usage_note": "概念道路中心线，非道路红线；待现状道路数据补齐后复核。"
      },
      "geometry": {
        "type": "LineString",
        "coordinates": [
          [
            116.35089223128284,
            39.93897540600238
          ],
          [
            116.35006303093304,
            40.0265415319505
          ]
        ]
      }
    },
    {
      "type": "Feature",
      "id": "RD-W1",
      "properties": {
        "id": "RD-W1",
        "layer": "ROAD_CENTERLINE",
        "source_type": "agent_inferred_from_public_data",
        "confidence": "medium",
        "geometry_role": "provisional_constraint",
        "official_boundary": false,
        "boundary_precision": "provisional_rough",
        "road_class": "arterial",
        "name_zh": "西侧纵向干路（小月河场景翼走廊）",
        "usage_note": "概念道路中心线，非道路红线；待现状道路数据补齐后复核。"
      },
      "geometry": {
        "type": "LineString",
        "coordinates": [
          [
            116.34527657981894,
            39.93894382962534
          ],
          [
            116.3444402070217,
            40.02650985804435
          ]
        ]
      }
    },
    {
      "type": "Feature",
      "id": "RD-H1",
      "properties": {
        "id": "RD-H1",
        "layer": "ROAD_CENTERLINE",
        "source_type": "agent_inferred_from_public_data",
        "confidence": "medium",
        "geometry_role": "provisional_constraint",
        "official_boundary": false,
        "boundary_precision": "provisional_rough",
        "road_class": "secondary",
        "name_zh": "横向联络线 1",
        "usage_note": "概念道路中心线，非道路红线。"
      },
      "geometry": {
        "type": "LineString",
        "coordinates": [
          [
            116.33979444401224,
            39.965184101264725
          ],
          [
            116.35587547608581,
            39.96527457277179
          ]
        ]
      }
    },
    {
      "type": "Feature",
      "id": "RD-H2",
      "properties": {
        "id": "RD-H2",
        "layer": "ROAD_CENTERLINE",
        "source_type": "agent_inferred_from_public_data",
        "confidence": "medium",
        "geometry_role": "provisional_constraint",
        "official_boundary": false,
        "boundary_precision": "provisional_rough",
        "road_class": "secondary",
        "name_zh": "横向联络线 2",
        "usage_note": "概念道路中心线，非道路红线。"
      },
      "geometry": {
        "type": "LineString",
        "coordinates": [
          [
            116.33962590748587,
            39.9826973154734
          ],
          [
            116.35571104400638,
            39.98278784280204
          ]
        ]
      }
    },
    {
      "type": "Feature",
      "id": "RD-H3",
      "properties": {
        "id": "RD-H3",
        "layer": "ROAD_CENTERLINE",
        "source_type": "agent_inferred_from_public_data",
        "confidence": "medium",
        "geometry_role": "provisional_constraint",
        "official_boundary": false,
        "boundary_precision": "provisional_rough",
        "road_class": "secondary",
        "name_zh": "横向联络线 3",
        "usage_note": "概念道路中心线，非道路红线。"
      },
      "geometry": {
        "type": "LineString",
        "coordinates": [
          [
            116.33947409845646,
            39.998459162372775
          ],
          [
            116.35556293205111,
            39.9985497399649
          ]
        ]
      }
    },
    {
      "type": "Feature",
      "id": "RD-H4",
      "properties": {
        "id": "RD-H4",
        "layer": "ROAD_CENTERLINE",
        "source_type": "agent_inferred_from_public_data",
        "confidence": "medium",
        "geometry_role": "provisional_constraint",
        "official_boundary": false,
        "boundary_precision": "provisional_rough",
        "road_class": "secondary",
        "name_zh": "横向联络线 4",
        "usage_note": "概念道路中心线，非道路红线。"
      },
      "geometry": {
        "type": "LineString",
        "coordinates": [
          [
            116.3393390566744,
            40.01246965645015
          ],
          [
            116.35543117900242,
            40.0125602787401
          ]
        ]
      }
    }
  ]
}
