{
  "type": "FeatureCollection",
  "name": "land_use_renjian_gui",
  "features": [
    {
      "type": "Feature",
      "id": "LU-001",
      "properties": {
        "id": "LU-001",
        "layer": "LAND_USE",
        "source_type": "agent_generated_design",
        "confidence": "medium",
        "geometry_role": "design_proposal",
        "land_use_code": "0701",
        "name_zh": "住人间·居住",
        "area_sqm_declared": 1005852.898
      },
      "geometry": {
        "type": "Polygon",
        "coordinates": [
          [
            [
              116.3407,
              39.939
            ],
            [
              116.3397,
              39.975
            ],
            [
              116.3417,
              40.006
            ],
            [
              116.342,
              40.01215
            ],
            [
              116.342,
              39.939
            ],
            [
              116.3407,
              39.939
            ]
          ]
        ]
      }
    },
    {
      "type": "Feature",
      "id": "LU-002",
      "properties": {
        "id": "LU-002",
        "layer": "LAND_USE",
        "source_type": "agent_generated_design",
        "confidence": "medium",
        "geometry_role": "design_proposal",
        "land_use_code": "0702",
        "name_zh": "人间服务·社区配套",
        "area_sqm_declared": 2027228.474
      },
      "geometry": {
        "type": "Polygon",
        "coordinates": [
          [
            [
              116.342,
              39.939
            ],
            [
              116.342,
              40.01215
            ],
            [
              116.3427,
              40.0265
            ],
            [
              116.3445,
              40.0265
            ],
            [
              116.3445,
              39.939
            ],
            [
              116.342,
              39.939
            ]
          ]
        ]
      }
    },
    {
      "type": "Feature",
      "id": "LU-003",
      "properties": {
        "id": "LU-003",
        "layer": "LAND_USE",
        "source_type": "agent_generated_design",
        "confidence": "medium",
        "geometry_role": "design_proposal",
        "land_use_code": "0802",
        "name_zh": "研人间·AI研发",
        "area_sqm_declared": 2489749.051
      },
      "geometry": {
        "type": "Polygon",
        "coordinates": [
          [
            [
              116.3445,
              39.939
            ],
            [
              116.3445,
              40.0265
            ],
            [
              116.3475,
              40.0265
            ],
            [
              116.3475,
              39.939
            ],
            [
              116.3445,
              39.939
            ]
          ]
        ]
      }
    },
    {
      "type": "Feature",
      "id": "LU-004",
      "properties": {
        "id": "LU-004",
        "layer": "LAND_USE",
        "source_type": "agent_generated_design",
        "confidence": "medium",
        "geometry_role": "design_proposal",
        "land_use_code": "1401",
        "name_zh": "人间轨·中央绿廊",
        "area_sqm_declared": 2074789.539
      },
      "geometry": {
        "type": "Polygon",
        "coordinates": [
          [
            [
              116.3475,
              39.939
            ],
            [
              116.3475,
              40.0265
            ],
            [
              116.35,
              40.0265
            ],
            [
              116.35,
              39.939
            ],
            [
              116.3475,
              39.939
            ]
          ]
        ]
      }
    },
    {
      "type": "Feature",
      "id": "LU-005",
      "properties": {
        "id": "LU-005",
        "layer": "LAND_USE",
        "source_type": "agent_generated_design",
        "confidence": "medium",
        "geometry_role": "design_proposal",
        "land_use_code": "0803",
        "name_zh": "京张文化·文化节点",
        "area_sqm_declared": 1659830.759
      },
      "geometry": {
        "type": "Polygon",
        "coordinates": [
          [
            [
              116.35,
              39.939
            ],
            [
              116.35,
              40.0265
            ],
            [
              116.352,
              40.0265
            ],
            [
              116.352,
              39.939
            ],
            [
              116.35,
              39.939
            ]
          ]
        ]
      }
    },
    {
      "type": "Feature",
      "id": "LU-006",
      "properties": {
        "id": "LU-006",
        "layer": "LAND_USE",
        "source_type": "agent_generated_design",
        "confidence": "medium",
        "geometry_role": "design_proposal",
        "land_use_code": "05",
        "name_zh": "市人间·智能商业",
        "area_sqm_declared": 1588292.135
      },
      "geometry": {
        "type": "Polygon",
        "coordinates": [
          [
            [
              116.352,
              39.939
            ],
            [
              116.352,
              40.0265
            ],
            [
              116.354,
              40.0265
            ],
            [
              116.354,
              40.002775
            ],
            [
              116.3533,
              39.99
            ],
            [
              116.354,
              39.98125
            ],
            [
              116.354,
              39.939
            ],
            [
              116.352,
              39.939
            ]
          ]
        ]
      }
    },
    {
      "type": "Feature",
      "id": "LU-007",
      "properties": {
        "id": "LU-007",
        "layer": "LAND_USE",
        "source_type": "agent_generated_design",
        "confidence": "medium",
        "geometry_role": "design_proposal",
        "land_use_code": "16",
        "name_zh": "预留发展",
        "area_sqm_declared": 567100.351
      },
      "geometry": {
        "type": "MultiPolygon",
        "coordinates": [
          [
            [
              [
                116.3553,
                39.965
              ],
              [
                116.3553,
                39.939
              ],
              [
                116.354,
                39.939
              ],
              [
                116.354,
                39.98125
              ],
              [
                116.3553,
                39.965
              ]
            ]
          ],
          [
            [
              [
                116.3553,
                40.0265
              ],
              [
                116.354,
                40.002775
              ],
              [
                116.354,
                40.0265
              ],
              [
                116.3553,
                40.0265
              ]
            ]
          ]
        ]
      }
    }
  ]
}
