{
  "type": "FeatureCollection",
  "name": "roads_renjian_gui",
  "features": [
    {
      "type": "Feature",
      "id": "ROAD-001",
      "properties": {
        "id": "ROAD-001",
        "layer": "ROAD_CENTERLINE",
        "source_type": "agent_generated_design",
        "confidence": "medium",
        "geometry_role": "design_proposal",
        "road_class": "greenway",
        "name_zh": "人间轨·中央慢行绿廊"
      },
      "geometry": {
        "type": "LineString",
        "coordinates": [
          [
            116.34875,
            39.94
          ],
          [
            116.34875,
            40.026
          ]
        ]
      }
    },
    {
      "type": "Feature",
      "id": "ROAD-002",
      "properties": {
        "id": "ROAD-002",
        "layer": "ROAD_CENTERLINE",
        "source_type": "agent_generated_design",
        "confidence": "medium",
        "geometry_role": "design_proposal",
        "road_class": "secondary",
        "name_zh": "众智园·东西缝合路"
      },
      "geometry": {
        "type": "LineString",
        "coordinates": [
          [
            116.341,
            40.017
          ],
          [
            116.355,
            40.017
          ]
        ]
      }
    },
    {
      "type": "Feature",
      "id": "ROAD-003",
      "properties": {
        "id": "ROAD-003",
        "layer": "ROAD_CENTERLINE",
        "source_type": "agent_generated_design",
        "confidence": "medium",
        "geometry_role": "design_proposal",
        "road_class": "secondary",
        "name_zh": "AI原点·社区联络路"
      },
      "geometry": {
        "type": "LineString",
        "coordinates": [
          [
            116.341,
            39.989
          ],
          [
            116.355,
            39.989
          ]
        ]
      }
    },
    {
      "type": "Feature",
      "id": "ROAD-004",
      "properties": {
        "id": "ROAD-004",
        "layer": "ROAD_CENTERLINE",
        "source_type": "agent_generated_design",
        "confidence": "medium",
        "geometry_role": "design_proposal",
        "road_class": "secondary",
        "name_zh": "大钟寺·市井连通路"
      },
      "geometry": {
        "type": "LineString",
        "coordinates": [
          [
            116.341,
            39.947
          ],
          [
            116.355,
            39.947
          ]
        ]
      }
    },
    {
      "type": "Feature",
      "id": "ROAD-006",
      "properties": {
        "id": "ROAD-006",
        "layer": "ROAD_CENTERLINE",
        "source_type": "agent_generated_design",
        "confidence": "medium",
        "geometry_role": "design_proposal",
        "road_class": "pedestrian",
        "name_zh": "步行通道1"
      },
      "geometry": {
        "type": "LineString",
        "coordinates": [
          [
            116.342,
            39.942
          ],
          [
            116.342,
            40.025
          ]
        ]
      }
    },
    {
      "type": "Feature",
      "id": "ROAD-007",
      "properties": {
        "id": "ROAD-007",
        "layer": "ROAD_CENTERLINE",
        "source_type": "agent_generated_design",
        "confidence": "medium",
        "geometry_role": "design_proposal",
        "road_class": "pedestrian",
        "name_zh": "步行通道2"
      },
      "geometry": {
        "type": "LineString",
        "coordinates": [
          [
            116.3445,
            39.942
          ],
          [
            116.3445,
            40.025
          ]
        ]
      }
    },
    {
      "type": "Feature",
      "id": "ROAD-008",
      "properties": {
        "id": "ROAD-008",
        "layer": "ROAD_CENTERLINE",
        "source_type": "agent_generated_design",
        "confidence": "medium",
        "geometry_role": "design_proposal",
        "road_class": "pedestrian",
        "name_zh": "步行通道3"
      },
      "geometry": {
        "type": "LineString",
        "coordinates": [
          [
            116.3475,
            39.942
          ],
          [
            116.3475,
            40.025
          ]
        ]
      }
    },
    {
      "type": "Feature",
      "id": "ROAD-009",
      "properties": {
        "id": "ROAD-009",
        "layer": "ROAD_CENTERLINE",
        "source_type": "agent_generated_design",
        "confidence": "medium",
        "geometry_role": "design_proposal",
        "road_class": "cycleway",
        "name_zh": "骑行道"
      },
      "geometry": {
        "type": "LineString",
        "coordinates": [
          [
            116.353,
            39.942
          ],
          [
            116.353,
            40.025
          ]
        ]
      }
    },
    {
      "type": "Feature",
      "id": "ROAD-010",
      "properties": {
        "id": "ROAD-010",
        "layer": "ROAD_CENTERLINE",
        "source_type": "agent_generated_design",
        "confidence": "medium",
        "geometry_role": "design_proposal",
        "road_class": "transit_connection",
        "name_zh": "轨道接驳1"
      },
      "geometry": {
        "type": "LineString",
        "coordinates": [
          [
            116.346,
            40.012
          ],
          [
            116.351,
            40.012
          ]
        ]
      }
    },
    {
      "type": "Feature",
      "id": "ROAD-011",
      "properties": {
        "id": "ROAD-011",
        "layer": "ROAD_CENTERLINE",
        "source_type": "agent_generated_design",
        "confidence": "medium",
        "geometry_role": "design_proposal",
        "road_class": "transit_connection",
        "name_zh": "轨道接驳2"
      },
      "geometry": {
        "type": "LineString",
        "coordinates": [
          [
            116.346,
            39.988
          ],
          [
            116.351,
            39.988
          ]
        ]
      }
    },
    {
      "type": "Feature",
      "id": "ROAD-012",
      "properties": {
        "id": "ROAD-012",
        "layer": "ROAD_CENTERLINE",
        "source_type": "agent_generated_design",
        "confidence": "medium",
        "geometry_role": "design_proposal",
        "road_class": "transit_connection",
        "name_zh": "轨道接驳3"
      },
      "geometry": {
        "type": "LineString",
        "coordinates": [
          [
            116.346,
            39.946
          ],
          [
            116.351,
            39.946
          ]
        ]
      }
    }
  ]
}
