{
  "type": "FeatureCollection",
  "name": "green_space",
  "features": [
    {
      "type": "Feature",
      "id": "GREEN-001",
      "properties": {
        "id": "GREEN-001",
        "layer": "GREEN_SPACE",
        "source_type": "agent_generated_design",
        "confidence": "medium",
        "geometry_role": "provisional_constraint",
        "official_boundary": false,
        "boundary_precision": "provisional_rough",
        "name_zh": "京张遗址公园AI公共空间主轴",
        "area_sqm_approx": 0,
        "description": "东西向中央连续公园绿带，宽约300m，京张铁路遗产走廊核心公共空间",
        "land_use_code": "1401"
      },
      "geometry": {
        "type": "Polygon",
        "coordinates": [
          [
            [
              116.3407,
              39.9826
            ],
            [
              116.3553,
              39.9826
            ],
            [
              116.3553,
              39.9854
            ],
            [
              116.3407,
              39.9854
            ],
            [
              116.3407,
              39.9826
            ]
          ]
        ]
      }
    },
    {
      "type": "Feature",
      "id": "GREEN-002",
      "properties": {
        "id": "GREEN-002",
        "layer": "GREEN_SPACE",
        "source_type": "agent_generated_design",
        "confidence": "medium",
        "geometry_role": "provisional_constraint",
        "official_boundary": false,
        "boundary_precision": "provisional_rough",
        "name_zh": "小月河滨水绿带",
        "area_sqm_approx": 0,
        "description": "小月河沿岸南北向滨水生态廊道",
        "land_use_code": "1401"
      },
      "geometry": {
        "type": "Polygon",
        "coordinates": [
          [
            [
              116.341,
              39.948
            ],
            [
              116.343,
              39.948
            ],
            [
              116.343,
              39.965
            ],
            [
              116.341,
              39.965
            ],
            [
              116.341,
              39.948
            ]
          ]
        ]
      }
    },
    {
      "type": "Feature",
      "id": "GREEN-003",
      "properties": {
        "id": "GREEN-003",
        "layer": "GREEN_SPACE",
        "source_type": "agent_generated_design",
        "confidence": "medium",
        "geometry_role": "provisional_constraint",
        "official_boundary": false,
        "boundary_precision": "provisional_rough",
        "name_zh": "众智园配套绿地",
        "area_sqm_approx": 0,
        "description": "众智园片区内部配套绿地和屋顶花园",
        "land_use_code": "1401"
      },
      "geometry": {
        "type": "Polygon",
        "coordinates": [
          [
            [
              116.345,
              40.01
            ],
            [
              116.3475,
              40.01
            ],
            [
              116.3475,
              40.02
            ],
            [
              116.345,
              40.02
            ],
            [
              116.345,
              40.01
            ]
          ]
        ]
      }
    },
    {
      "type": "Feature",
      "id": "GREEN-004",
      "properties": {
        "id": "GREEN-004",
        "layer": "GREEN_SPACE",
        "source_type": "agent_generated_design",
        "confidence": "medium",
        "geometry_role": "provisional_constraint",
        "official_boundary": false,
        "boundary_precision": "provisional_rough",
        "name_zh": "AI原点社区配套绿地",
        "area_sqm_approx": 0,
        "description": "AI原点社区内部庭院绿地和口袋公园",
        "land_use_code": "1401"
      },
      "geometry": {
        "type": "Polygon",
        "coordinates": [
          [
            [
              116.348,
              39.9855
            ],
            [
              116.351,
              39.9855
            ],
            [
              116.351,
              39.992
            ],
            [
              116.348,
              39.992
            ],
            [
              116.348,
              39.9855
            ]
          ]
        ]
      }
    },
    {
      "type": "Feature",
      "id": "GREEN-005",
      "properties": {
        "id": "GREEN-005",
        "layer": "GREEN_SPACE",
        "source_type": "agent_generated_design",
        "confidence": "medium",
        "geometry_role": "provisional_constraint",
        "official_boundary": false,
        "boundary_precision": "provisional_rough",
        "name_zh": "大钟寺产业区沿街绿带",
        "area_sqm_approx": 0,
        "description": "大钟寺AI产业聚集区沿街绿带与街头广场",
        "land_use_code": "1401"
      },
      "geometry": {
        "type": "Polygon",
        "coordinates": [
          [
            [
              116.349,
              39.9455
            ],
            [
              116.355,
              39.9455
            ],
            [
              116.355,
              39.9495
            ],
            [
              116.349,
              39.9495
            ],
            [
              116.349,
              39.9455
            ]
          ]
        ]
      }
    }
  ]
}