{
  "type": "FeatureCollection",
  "name": "land_use",
  "features": [
    {
      "type": "Feature",
      "id": "LU-00",
      "properties": {
        "id": "LU-00",
        "layer": "LAND_USE",
        "source_type": "agent_generated_design",
        "confidence": "medium",
        "geometry_role": "design_proposal",
        "area_sqm_declared": 893097.079,
        "land_use_code": "05",
        "name_zh": "大钟寺智能原生商业混合用地（西）",
        "zone_zh": "大钟寺智能原生门户段",
        "design_note_zh": "概念建议用地结构，待正式控规条件确认后深化；不构成法定规划结论。"
      },
      "geometry": {
        "type": "Polygon",
        "coordinates": [
          [
            [
              116.346,
              39.939
            ],
            [
              116.3407,
              39.939
            ],
            [
              116.34022777777777,
              39.956
            ],
            [
              116.346,
              39.956
            ],
            [
              116.346,
              39.939
            ]
          ]
        ]
      }
    },
    {
      "type": "Feature",
      "id": "LU-01",
      "properties": {
        "id": "LU-01",
        "layer": "LAND_USE",
        "source_type": "agent_generated_design",
        "confidence": "medium",
        "geometry_role": "design_proposal",
        "area_sqm_declared": 909936.698,
        "land_use_code": "0802",
        "name_zh": "学院路科研转化用地（西）",
        "zone_zh": "学院路创新转化段",
        "design_note_zh": "概念建议用地结构，待正式控规条件确认后深化；不构成法定规划结论。"
      },
      "geometry": {
        "type": "Polygon",
        "coordinates": [
          [
            [
              116.34022777777777,
              39.956
            ],
            [
              116.33978333333333,
              39.972
            ],
            [
              116.346,
              39.972
            ],
            [
              116.346,
              39.956
            ],
            [
              116.34022777777777,
              39.956
            ]
          ]
        ]
      }
    },
    {
      "type": "Feature",
      "id": "LU-02",
      "properties": {
        "id": "LU-02",
        "layer": "LAND_USE",
        "source_type": "agent_generated_design",
        "confidence": "medium",
        "geometry_role": "design_proposal",
        "area_sqm_declared": 1297982.658,
        "land_use_code": "0701",
        "name_zh": "AI 原点社区居住与生活服务用地（西）",
        "zone_zh": "AI 原点社区生活段",
        "design_note_zh": "概念建议用地结构，待正式控规条件确认后深化；不构成法定规划结论。"
      },
      "geometry": {
        "type": "Polygon",
        "coordinates": [
          [
            [
              116.33978333333333,
              39.972
            ],
            [
              116.3397,
              39.975
            ],
            [
              116.34105483870968,
              39.996
            ],
            [
              116.346,
              39.996
            ],
            [
              116.346,
              39.972
            ],
            [
              116.33978333333333,
              39.972
            ]
          ]
        ]
      }
    },
    {
      "type": "Feature",
      "id": "LU-03",
      "properties": {
        "id": "LU-03",
        "layer": "LAND_USE",
        "source_type": "agent_generated_design",
        "confidence": "medium",
        "geometry_role": "design_proposal",
        "area_sqm_declared": 1176851.26,
        "land_use_code": "0802",
        "name_zh": "众智园全栈自主研发用地（西）",
        "zone_zh": "众智园全栈自主段",
        "design_note_zh": "概念建议用地结构，待正式控规条件确认后深化；不构成法定规划结论。"
      },
      "geometry": {
        "type": "Polygon",
        "coordinates": [
          [
            [
              116.34105483870968,
              39.996
            ],
            [
              116.3417,
              40.006
            ],
            [
              116.3427,
              40.0265
            ],
            [
              116.346,
              40.0265
            ],
            [
              116.346,
              39.996
            ],
            [
              116.34105483870968,
              39.996
            ]
          ]
        ]
      }
    },
    {
      "type": "Feature",
      "id": "LU-10",
      "properties": {
        "id": "LU-10",
        "layer": "LAND_USE",
        "source_type": "agent_generated_design",
        "confidence": "medium",
        "geometry_role": "design_proposal",
        "area_sqm_declared": 483968.213,
        "land_use_code": "1401",
        "name_zh": "京张原线遗址公园绿廊（南段）",
        "zone_zh": "大钟寺智能原生门户段",
        "design_note_zh": "概念建议用地结构，待正式控规条件确认后深化；不构成法定规划结论。"
      },
      "geometry": {
        "type": "Polygon",
        "coordinates": [
          [
            [
              116.349,
              39.939
            ],
            [
              116.346,
              39.939
            ],
            [
              116.346,
              39.956
            ],
            [
              116.349,
              39.956
            ],
            [
              116.349,
              39.939
            ]
          ]
        ]
      }
    },
    {
      "type": "Feature",
      "id": "LU-11",
      "properties": {
        "id": "LU-11",
        "layer": "LAND_USE",
        "source_type": "agent_generated_design",
        "confidence": "medium",
        "geometry_role": "design_proposal",
        "area_sqm_declared": 455391.329,
        "land_use_code": "1401",
        "name_zh": "京张原线遗址公园绿廊（中南段）",
        "zone_zh": "学院路创新转化段",
        "design_note_zh": "概念建议用地结构，待正式控规条件确认后深化；不构成法定规划结论。"
      },
      "geometry": {
        "type": "Polygon",
        "coordinates": [
          [
            [
              116.346,
              39.956
            ],
            [
              116.346,
              39.972
            ],
            [
              116.349,
              39.972
            ],
            [
              116.349,
              39.956
            ],
            [
              116.346,
              39.956
            ]
          ]
        ]
      }
    },
    {
      "type": "Feature",
      "id": "LU-12",
      "properties": {
        "id": "LU-12",
        "layer": "LAND_USE",
        "source_type": "agent_generated_design",
        "confidence": "medium",
        "geometry_role": "design_proposal",
        "area_sqm_declared": 682890.242,
        "land_use_code": "1401",
        "name_zh": "京张原线遗址公园绿廊（中北段）",
        "zone_zh": "AI 原点社区生活段",
        "design_note_zh": "概念建议用地结构，待正式控规条件确认后深化；不构成法定规划结论。"
      },
      "geometry": {
        "type": "Polygon",
        "coordinates": [
          [
            [
              116.346,
              39.972
            ],
            [
              116.346,
              39.996
            ],
            [
              116.349,
              39.996
            ],
            [
              116.349,
              39.972
            ],
            [
              116.346,
              39.972
            ]
          ]
        ]
      }
    },
    {
      "type": "Feature",
      "id": "LU-13",
      "properties": {
        "id": "LU-13",
        "layer": "LAND_USE",
        "source_type": "agent_generated_design",
        "confidence": "medium",
        "geometry_role": "design_proposal",
        "area_sqm_declared": 867498.836,
        "land_use_code": "1401",
        "name_zh": "京张原线遗址公园绿廊（北段）",
        "zone_zh": "众智园全栈自主段",
        "design_note_zh": "概念建议用地结构，待正式控规条件确认后深化；不构成法定规划结论。"
      },
      "geometry": {
        "type": "Polygon",
        "coordinates": [
          [
            [
              116.346,
              39.996
            ],
            [
              116.346,
              40.0265
            ],
            [
              116.349,
              40.0265
            ],
            [
              116.349,
              39.996
            ],
            [
              116.346,
              39.996
            ]
          ]
        ]
      }
    },
    {
      "type": "Feature",
      "id": "LU-20",
      "properties": {
        "id": "LU-20",
        "layer": "LAND_USE",
        "source_type": "agent_generated_design",
        "confidence": "medium",
        "geometry_role": "design_proposal",
        "area_sqm_declared": 1016332.143,
        "land_use_code": "05",
        "name_zh": "大钟寺智能原生商业混合用地（东）",
        "zone_zh": "大钟寺智能原生门户段",
        "design_note_zh": "概念建议用地结构，待正式控规条件确认后深化；不构成法定规划结论。"
      },
      "geometry": {
        "type": "Polygon",
        "coordinates": [
          [
            [
              116.3553,
              39.956
            ],
            [
              116.3553,
              39.939
            ],
            [
              116.349,
              39.939
            ],
            [
              116.349,
              39.956
            ],
            [
              116.3553,
              39.956
            ]
          ]
        ]
      }
    },
    {
      "type": "Feature",
      "id": "LU-21",
      "properties": {
        "id": "LU-21",
        "layer": "LAND_USE",
        "source_type": "agent_generated_design",
        "confidence": "medium",
        "geometry_role": "design_proposal",
        "area_sqm_declared": 937726.911,
        "land_use_code": "05",
        "name_zh": "知春路创新服务混合用地（东）",
        "zone_zh": "学院路创新转化段",
        "design_note_zh": "概念建议用地结构，待正式控规条件确认后深化；不构成法定规划结论。"
      },
      "geometry": {
        "type": "Polygon",
        "coordinates": [
          [
            [
              116.35474,
              39.972
            ],
            [
              116.3553,
              39.965
            ],
            [
              116.3553,
              39.956
            ],
            [
              116.349,
              39.956
            ],
            [
              116.349,
              39.972
            ],
            [
              116.35474,
              39.972
            ]
          ]
        ]
      }
    },
    {
      "type": "Feature",
      "id": "LU-22",
      "properties": {
        "id": "LU-22",
        "layer": "LAND_USE",
        "source_type": "agent_generated_design",
        "confidence": "medium",
        "geometry_role": "design_proposal",
        "area_sqm_declared": 1111101.249,
        "land_use_code": "0804",
        "name_zh": "高校共创教育用地（东）",
        "zone_zh": "AI 原点社区生活段",
        "design_note_zh": "概念建议用地结构，待正式控规条件确认后深化；不构成法定规划结论。"
      },
      "geometry": {
        "type": "Polygon",
        "coordinates": [
          [
            [
              116.3536287671233,
              39.996
            ],
            [
              116.3533,
              39.99
            ],
            [
              116.35474,
              39.972
            ],
            [
              116.349,
              39.972
            ],
            [
              116.349,
              39.996
            ],
            [
              116.3536287671233,
              39.996
            ]
          ]
        ]
      }
    },
    {
      "type": "Feature",
      "id": "LU-23",
      "properties": {
        "id": "LU-23",
        "layer": "LAND_USE",
        "source_type": "agent_generated_design",
        "confidence": "medium",
        "geometry_role": "design_proposal",
        "area_sqm_declared": 1580061.118,
        "land_use_code": "0802",
        "name_zh": "众智园全栈自主研发用地（东）",
        "zone_zh": "众智园全栈自主段",
        "design_note_zh": "概念建议用地结构，待正式控规条件确认后深化；不构成法定规划结论。"
      },
      "geometry": {
        "type": "Polygon",
        "coordinates": [
          [
            [
              116.349,
              40.0265
            ],
            [
              116.3553,
              40.0265
            ],
            [
              116.3536287671233,
              39.996
            ],
            [
              116.349,
              39.996
            ],
            [
              116.349,
              40.0265
            ]
          ]
        ]
      }
    }
  ]
}
