{
  "type": "FeatureCollection",
  "name": "roads_schematic_from_regulatory_plan",
  "metadata": {
    "derivation_note": "道路中心线据《HD00—1601 等街区控规（2024—2035）》道路系统规划图示意转绘，仅表达道路等级与走向关系；不代表道路红线、定线或精确线位，正式条件以主管部门批复为准（控规文本第74条）。",
    "coordinate_reference_system": "EPSG:4326",
    "precision": "schematic_transcription"
  },
  "features": [
    {
      "type": "Feature",
      "id": "ROAD-001",
      "properties": {
        "id": "ROAD-001",
        "layer": "ROAD_CENTERLINE",
        "source_type": "agent_generated_design",
        "confidence": "medium",
        "geometry_role": "design_proposal",
        "road_class": "greenway",
        "name_zh": "京张走廊慢行与创新服务主通道（方案）",
        "usage_note": "方案慢行主通道，沿京张铁路遗址公园走廊真实走向布置。"
      },
      "geometry": {
        "type": "LineString",
        "coordinates": [
          [
            116.3554,
            39.9404
          ],
          [
            116.352,
            39.9435
          ],
          [
            116.3485,
            39.948
          ],
          [
            116.3453,
            39.9562
          ],
          [
            116.3425,
            39.966
          ],
          [
            116.3394,
            39.9763
          ],
          [
            116.3375,
            39.985
          ],
          [
            116.3357,
            39.9928
          ],
          [
            116.3345,
            40.0
          ],
          [
            116.333,
            40.01
          ],
          [
            116.3315,
            40.02
          ],
          [
            116.3305,
            40.0265
          ]
        ]
      }
    },
    {
      "type": "Feature",
      "id": "ROAD-EXP-001",
      "properties": {
        "id": "ROAD-EXP-001",
        "layer": "ROAD_CENTERLINE",
        "source_type": "agent_inferred_from_public_data",
        "confidence": "medium",
        "geometry_role": "existing_condition",
        "road_class": "expressway",
        "name_zh": "北四环路（城市快速路）",
        "usage_note": "据控规道路系统规划图示意转绘；非道路红线。"
      },
      "geometry": {
        "type": "LineString",
        "coordinates": [
          [
            116.3,
            39.986
          ],
          [
            116.34,
            39.986
          ],
          [
            116.38,
            39.9862
          ]
        ]
      }
    },
    {
      "type": "Feature",
      "id": "ROAD-EXP-002",
      "properties": {
        "id": "ROAD-EXP-002",
        "layer": "ROAD_CENTERLINE",
        "source_type": "agent_inferred_from_public_data",
        "confidence": "medium",
        "geometry_role": "existing_condition",
        "road_class": "expressway",
        "name_zh": "北三环路（城市快速路）",
        "usage_note": "据控规道路系统规划图示意转绘；非道路红线。"
      },
      "geometry": {
        "type": "LineString",
        "coordinates": [
          [
            116.3,
            39.965
          ],
          [
            116.34,
            39.965
          ],
          [
            116.38,
            39.9652
          ]
        ]
      }
    },
    {
      "type": "Feature",
      "id": "ROAD-EXP-003",
      "properties": {
        "id": "ROAD-EXP-003",
        "layer": "ROAD_CENTERLINE",
        "source_type": "agent_inferred_from_public_data",
        "confidence": "medium",
        "geometry_role": "existing_condition",
        "road_class": "expressway",
        "name_zh": "西直门外大街—北二环路（城市快速路）",
        "usage_note": "据控规道路系统规划图示意转绘；非道路红线。"
      },
      "geometry": {
        "type": "LineString",
        "coordinates": [
          [
            116.3175,
            39.938
          ],
          [
            116.335,
            39.9382
          ],
          [
            116.36,
            39.9395
          ],
          [
            116.38,
            39.9405
          ]
        ]
      }
    },
    {
      "type": "Feature",
      "id": "ROAD-MAJ-001",
      "properties": {
        "id": "ROAD-MAJ-001",
        "layer": "ROAD_CENTERLINE",
        "source_type": "agent_inferred_from_public_data",
        "confidence": "medium",
        "geometry_role": "existing_condition",
        "road_class": "arterial",
        "name_zh": "中关村大街（城市主干路，控规西边界）",
        "usage_note": "据控规道路系统规划图示意转绘；非道路红线。"
      },
      "geometry": {
        "type": "LineString",
        "coordinates": [
          [
            116.3105,
            39.938
          ],
          [
            116.309,
            39.948
          ],
          [
            116.3075,
            39.958
          ],
          [
            116.307,
            39.968
          ],
          [
            116.307,
            39.976
          ],
          [
            116.308,
            39.986
          ],
          [
            116.3085,
            39.992
          ]
        ]
      }
    },
    {
      "type": "Feature",
      "id": "ROAD-MAJ-002",
      "properties": {
        "id": "ROAD-MAJ-002",
        "layer": "ROAD_CENTERLINE",
        "source_type": "agent_inferred_from_public_data",
        "confidence": "medium",
        "geometry_role": "existing_condition",
        "road_class": "arterial",
        "name_zh": "成府路（城市主干路，控规北边界）",
        "usage_note": "据控规道路系统规划图示意转绘；非道路红线。"
      },
      "geometry": {
        "type": "LineString",
        "coordinates": [
          [
            116.307,
            39.992
          ],
          [
            116.352,
            39.992
          ]
        ]
      }
    },
    {
      "type": "Feature",
      "id": "ROAD-MAJ-003",
      "properties": {
        "id": "ROAD-MAJ-003",
        "layer": "ROAD_CENTERLINE",
        "source_type": "agent_inferred_from_public_data",
        "confidence": "medium",
        "geometry_role": "existing_condition",
        "road_class": "arterial",
        "name_zh": "知春路（城市主干路）",
        "usage_note": "据控规道路系统规划图示意转绘；非道路红线。"
      },
      "geometry": {
        "type": "LineString",
        "coordinates": [
          [
            116.307,
            39.976
          ],
          [
            116.3655,
            39.976
          ],
          [
            116.38,
            39.9762
          ]
        ]
      }
    },
    {
      "type": "Feature",
      "id": "ROAD-MAJ-004",
      "properties": {
        "id": "ROAD-MAJ-004",
        "layer": "ROAD_CENTERLINE",
        "source_type": "agent_inferred_from_public_data",
        "confidence": "medium",
        "geometry_role": "existing_condition",
        "road_class": "arterial",
        "name_zh": "学院南路（城市主干路）",
        "usage_note": "据控规道路系统规划图示意转绘；非道路红线。"
      },
      "geometry": {
        "type": "LineString",
        "coordinates": [
          [
            116.312,
            39.9545
          ],
          [
            116.34,
            39.9545
          ],
          [
            116.3637,
            39.9545
          ]
        ]
      }
    },
    {
      "type": "Feature",
      "id": "ROAD-MAJ-005",
      "properties": {
        "id": "ROAD-MAJ-005",
        "layer": "ROAD_CENTERLINE",
        "source_type": "agent_inferred_from_public_data",
        "confidence": "medium",
        "geometry_role": "existing_condition",
        "road_class": "arterial",
        "name_zh": "学院路（城市主干路）",
        "usage_note": "据控规道路系统规划图示意转绘；非道路红线。"
      },
      "geometry": {
        "type": "LineString",
        "coordinates": [
          [
            116.343,
            39.965
          ],
          [
            116.343,
            39.992
          ],
          [
            116.3435,
            40.02
          ]
        ]
      }
    },
    {
      "type": "Feature",
      "id": "ROAD-MAJ-006",
      "properties": {
        "id": "ROAD-MAJ-006",
        "layer": "ROAD_CENTERLINE",
        "source_type": "agent_inferred_from_public_data",
        "confidence": "medium",
        "geometry_role": "existing_condition",
        "road_class": "arterial",
        "name_zh": "西土城路（城市主干路）",
        "usage_note": "据控规道路系统规划图示意转绘；非道路红线。"
      },
      "geometry": {
        "type": "LineString",
        "coordinates": [
          [
            116.3637,
            39.9545
          ],
          [
            116.3637,
            39.965
          ],
          [
            116.3637,
            39.976
          ]
        ]
      }
    },
    {
      "type": "Feature",
      "id": "ROAD-MAJ-007",
      "properties": {
        "id": "ROAD-MAJ-007",
        "layer": "ROAD_CENTERLINE",
        "source_type": "agent_inferred_from_public_data",
        "confidence": "medium",
        "geometry_role": "existing_condition",
        "road_class": "arterial",
        "name_zh": "新街口外大街（城市主干路，控规东边界）",
        "usage_note": "据控规道路系统规划图示意转绘；非道路红线。"
      },
      "geometry": {
        "type": "LineString",
        "coordinates": [
          [
            116.368,
            39.944
          ],
          [
            116.368,
            39.956
          ],
          [
            116.368,
            39.968
          ]
        ]
      }
    },
    {
      "type": "Feature",
      "id": "ROAD-SUB-001",
      "properties": {
        "id": "ROAD-SUB-001",
        "layer": "ROAD_CENTERLINE",
        "source_type": "agent_inferred_from_public_data",
        "confidence": "medium",
        "geometry_role": "existing_condition",
        "road_class": "secondary",
        "name_zh": "大钟寺东路（城市次干路）",
        "usage_note": "据控规道路系统规划图示意转绘；非道路红线。"
      },
      "geometry": {
        "type": "LineString",
        "coordinates": [
          [
            116.34,
            39.965
          ],
          [
            116.341,
            39.976
          ]
        ]
      }
    },
    {
      "type": "Feature",
      "id": "ROAD-SUB-002",
      "properties": {
        "id": "ROAD-SUB-002",
        "layer": "ROAD_CENTERLINE",
        "source_type": "agent_inferred_from_public_data",
        "confidence": "medium",
        "geometry_role": "existing_condition",
        "road_class": "secondary",
        "name_zh": "交通大学路（城市次干路）",
        "usage_note": "据控规道路系统规划图示意转绘；非道路红线。"
      },
      "geometry": {
        "type": "LineString",
        "coordinates": [
          [
            116.33,
            39.9545
          ],
          [
            116.336,
            39.945
          ],
          [
            116.34,
            39.9385
          ]
        ]
      }
    }
  ]
}
