{
  "type": "FeatureCollection",
  "name": "coauthored_mobility_network",
  "features": [
    {
      "type": "Feature",
      "id": "ROAD-CO-01",
      "properties": {
        "id": "ROAD-CO-01",
        "layer": "ROAD_CENTERLINE",
        "source_type": "agent_generated_design",
        "confidence": "medium",
        "geometry_role": "design_proposal",
        "name_zh": "共稿页边慢行主线",
        "name_en": "Co-Authoring Margin Spine",
        "road_class": "greenway",
        "length_m_declared": 9136.58,
        "design_note_zh": "概念慢行联系，不代表道路红线或工程线位。"
      },
      "geometry": {
        "type": "LineString",
        "coordinates": [
          [
            116.34796354166667,
            39.941625
          ],
          [
            116.34778125,
            39.95475
          ],
          [
            116.34743680555556,
            39.96875
          ],
          [
            116.34703999999999,
            39.982749999999996
          ],
          [
            116.34738654441009,
            39.99675
          ],
          [
            116.34818434680922,
            40.01075
          ],
          [
            116.34886405780153,
            40.023875
          ]
        ]
      }
    },
    {
      "type": "Feature",
      "id": "ROAD-CO-02",
      "properties": {
        "id": "ROAD-CO-02",
        "layer": "ROAD_CENTERLINE",
        "source_type": "agent_generated_design",
        "confidence": "medium",
        "geometry_role": "design_proposal",
        "name_zh": "第1道跨线批注廊",
        "name_en": "Cross-Margin Comment Link 1",
        "road_class": "pedestrian",
        "length_m_declared": 1282.946,
        "design_note_zh": "概念性东西缝合关系；桥隧与交叉口工程可行性待专业核查。"
      },
      "geometry": {
        "type": "LineString",
        "coordinates": [
          [
            116.34028680555555,
            39.953875
          ],
          [
            116.3553,
            39.953875
          ]
        ]
      }
    },
    {
      "type": "Feature",
      "id": "ROAD-CO-03",
      "properties": {
        "id": "ROAD-CO-03",
        "layer": "ROAD_CENTERLINE",
        "source_type": "agent_generated_design",
        "confidence": "medium",
        "geometry_role": "design_proposal",
        "name_zh": "第2道跨线批注廊",
        "name_en": "Cross-Margin Comment Link 2",
        "road_class": "pedestrian",
        "length_m_declared": 1276.658,
        "design_note_zh": "概念性东西缝合关系；桥隧与交叉口工程可行性待专业核查。"
      },
      "geometry": {
        "type": "LineString",
        "coordinates": [
          [
            116.33977638888888,
            39.97225
          ],
          [
            116.35472,
            39.97225
          ]
        ]
      }
    },
    {
      "type": "Feature",
      "id": "ROAD-CO-04",
      "properties": {
        "id": "ROAD-CO-04",
        "layer": "ROAD_CENTERLINE",
        "source_type": "agent_generated_design",
        "confidence": "medium",
        "geometry_role": "design_proposal",
        "name_zh": "第3道跨线批注廊",
        "name_en": "Cross-Margin Comment Link 3",
        "road_class": "pedestrian",
        "length_m_declared": 1076.907,
        "design_note_zh": "概念性东西缝合关系；桥隧与交叉口工程可行性待专业核查。"
      },
      "geometry": {
        "type": "LineString",
        "coordinates": [
          [
            116.34082096774193,
            39.992375
          ],
          [
            116.3534301369863,
            39.992375
          ]
        ]
      }
    },
    {
      "type": "Feature",
      "id": "ROAD-CO-05",
      "properties": {
        "id": "ROAD-CO-05",
        "layer": "ROAD_CENTERLINE",
        "source_type": "agent_generated_design",
        "confidence": "medium",
        "geometry_role": "design_proposal",
        "name_zh": "第4道跨线批注廊",
        "name_en": "Cross-Margin Comment Link 4",
        "road_class": "pedestrian",
        "length_m_declared": 1068.183,
        "design_note_zh": "概念性东西缝合关系；桥隧与交叉口工程可行性待专业核查。"
      },
      "geometry": {
        "type": "LineString",
        "coordinates": [
          [
            116.3419743902439,
            40.011625
          ],
          [
            116.35448493150685,
            40.011625
          ]
        ]
      }
    }
  ]
}
