{
  "type": "FeatureCollection",
  "features": [
    {
      "type": "Feature",
      "id": "BLDG-001",
      "properties": {
        "id": "BLDG-001",
        "layer": "buildings",
        "source_type": "provisional",
        "confidence": "low",
        "geometry_role": "existing_building",
        "building_type": "mixed_use",
        "status": "retain",
        "floors": 4,
        "height_m": 15,
        "footprint_area_sqm": 500
      },
      "geometry": {
        "type": "Polygon",
        "coordinates": [
          [
            [
              116.33,
              39.97
            ],
            [
              116.34,
              39.97
            ],
            [
              116.34,
              39.98
            ],
            [
              116.33,
              39.98
            ],
            [
              116.33,
              39.97
            ]
          ]
        ]
      }
    },
    {
      "type": "Feature",
      "id": "BLDG-002",
      "properties": {
        "id": "BLDG-002",
        "layer": "buildings",
        "source_type": "provisional",
        "confidence": "low",
        "geometry_role": "existing_building",
        "building_type": "research",
        "status": "retain",
        "floors": 8,
        "height_m": 30,
        "footprint_area_sqm": 1200
      },
      "geometry": {
        "type": "Polygon",
        "coordinates": [
          [
            [
              116.34,
              39.97
            ],
            [
              116.35,
              39.97
            ],
            [
              116.35,
              39.98
            ],
            [
              116.34,
              39.98
            ],
            [
              116.34,
              39.97
            ]
          ]
        ]
      }
    },
    {
      "type": "Feature",
      "id": "BLDG-003",
      "properties": {
        "id": "BLDG-003",
        "layer": "buildings",
        "source_type": "provisional",
        "confidence": "low",
        "geometry_role": "proposed_building",
        "building_type": "ai_innovation_hub",
        "status": "new",
        "floors": 15,
        "height_m": 55,
        "footprint_area_sqm": 2500
      },
      "geometry": {
        "type": "Polygon",
        "coordinates": [
          [
            [
              116.35,
              39.97
            ],
            [
              116.36,
              39.97
            ],
            [
              116.36,
              39.98
            ],
            [
              116.35,
              39.98
            ],
            [
              116.35,
              39.97
            ]
          ]
        ]
      }
    }
  ]
}