{
  "type": "FeatureCollection",
  "name": "topology_safe_concept_land_use",
  "features": [
    {
      "type": "Feature",
      "id": "LU-RD-001",
      "properties": {
        "id": "LU-RD-001",
        "layer": "LAND_USE",
        "source_type": "agent_generated_design",
        "confidence": "medium",
        "geometry_role": "design_proposal",
        "land_use_code": "0802",
        "name_zh": "AI研发与开放实验",
        "design_logic": "完整覆盖提交边界的拓扑安全概念分区",
        "statutory_status": "concept_only_pending_official_control_plan",
        "area_sqm_declared": 1948058.498
      },
      "geometry": {
        "type": "Polygon",
        "coordinates": [
          [
            [
              116.3407,
              39.939
            ],
            [
              116.3397,
              39.975
            ],
            [
              116.3417,
              40.006
            ],
            [
              116.3427,
              40.0265
            ],
            [
              116.3432056652636,
              40.0265
            ],
            [
              116.3432394575078,
              40.02526041666667
            ],
            [
              116.34328800412143,
              40.023328125
            ],
            [
              116.34333055558415,
              40.02139583333334
            ],
            [
              116.34336547666713,
              40.01946354166667
            ],
            [
              116.34339142537273,
              40.01753125
            ],
            [
              116.34340740450673,
              40.015598958333335
            ],
            [
              116.3434128,
              40.013666666666666
            ],
            [
              116.34340740450673,
              40.011734375
            ],
            [
              116.34339142537273,
              40.009802083333334
            ],
            [
              116.34336547666713,
              40.007869791666664
            ],
            [
              116.34333055558415,
              40.0059375
            ],
            [
              116.34328800412143,
              40.00400520833333
            ],
            [
              116.3432394575078,
              40.00207291666667
            ],
            [
              116.34318678136242,
              40.000140625
            ],
            [
              116.343132,
              39.99820833333333
            ],
            [
              116.34307721863757,
              39.99627604166667
            ],
            [
              116.34302454249219,
              39.99434375
            ],
            [
              116.34297599587856,
              39.992411458333336
            ],
            [
              116.34293344441583,
              39.99047916666667
            ],
            [
              116.34289852333286,
              39.988546875
            ],
            [
              116.34287257462726,
              39.986614583333335
            ],
            [
              116.34285659549326,
              39.984682291666665
            ],
            [
              116.3428512,
              39.982749999999996
            ],
            [
              116.34285659549326,
              39.98081770833333
            ],
            [
              116.34287257462726,
              39.978885416666664
            ],
            [
              116.34289852333286,
              39.976953125
            ],
            [
              116.34293344441583,
              39.97502083333333
            ],
            [
              116.34297599587856,
              39.97308854166666
            ],
            [
              116.34302454249219,
              39.97115625
            ],
            [
              116.34307721863757,
              39.96922395833333
            ],
            [
              116.343132,
              39.96729166666667
            ],
            [
              116.34318678136242,
              39.965359375
            ],
            [
              116.3432394575078,
              39.96342708333333
            ],
            [
              116.34328800412143,
              39.96149479166667
            ],
            [
              116.34333055558415,
              39.9595625
            ],
            [
              116.34336547666713,
              39.957630208333335
            ],
            [
              116.34339142537273,
              39.955697916666665
            ],
            [
              116.34340740450673,
              39.953765624999996
            ],
            [
              116.3434128,
              39.95183333333333
            ],
            [
              116.34340740450673,
              39.949901041666664
            ],
            [
              116.34339142537273,
              39.94796875
            ],
            [
              116.34336547666713,
              39.94603645833333
            ],
            [
              116.34333055558415,
              39.94410416666666
            ],
            [
              116.34328800412143,
              39.942171875
            ],
            [
              116.3432394575078,
              39.94023958333333
            ],
            [
              116.3432056652636,
              39.939
            ],
            [
              116.3407,
              39.939
            ]
          ]
        ]
      }
    },
    {
      "type": "Feature",
      "id": "LU-GREEN-001",
      "properties": {
        "id": "LU-GREEN-001",
        "layer": "LAND_USE",
        "source_type": "agent_generated_design",
        "confidence": "medium",
        "geometry_role": "design_proposal",
        "land_use_code": "1401",
        "name_zh": "京张公园与蓝绿开放空间",
        "design_logic": "完整覆盖提交边界的拓扑安全概念分区",
        "statutory_status": "concept_only_pending_official_control_plan",
        "area_sqm_declared": 2317895.441
      },
      "geometry": {
        "type": "Polygon",
        "coordinates": [
          [
            [
              116.3432056652636,
              39.939
            ],
            [
              116.3432394575078,
              39.94023958333333
            ],
            [
              116.34328800412143,
              39.942171875
            ],
            [
              116.34333055558415,
              39.94410416666666
            ],
            [
              116.34336547666713,
              39.94603645833333
            ],
            [
              116.34339142537273,
              39.94796875
            ],
            [
              116.34340740450673,
              39.949901041666664
            ],
            [
              116.3434128,
              39.95183333333333
            ],
            [
              116.34340740450673,
              39.953765624999996
            ],
            [
              116.34339142537273,
              39.955697916666665
            ],
            [
              116.34336547666713,
              39.957630208333335
            ],
            [
              116.34333055558415,
              39.9595625
            ],
            [
              116.34328800412143,
              39.96149479166667
            ],
            [
              116.3432394575078,
              39.96342708333333
            ],
            [
              116.34318678136242,
              39.965359375
            ],
            [
              116.343132,
              39.96729166666667
            ],
            [
              116.34307721863757,
              39.96922395833333
            ],
            [
              116.34302454249219,
              39.97115625
            ],
            [
              116.34297599587856,
              39.97308854166666
            ],
            [
              116.34293344441583,
              39.97502083333333
            ],
            [
              116.34289852333286,
              39.976953125
            ],
            [
              116.34287257462726,
              39.978885416666664
            ],
            [
              116.34285659549326,
              39.98081770833333
            ],
            [
              116.3428512,
              39.982749999999996
            ],
            [
              116.34285659549326,
              39.984682291666665
            ],
            [
              116.34287257462726,
              39.986614583333335
            ],
            [
              116.34289852333286,
              39.988546875
            ],
            [
              116.34293344441583,
              39.99047916666667
            ],
            [
              116.34297599587856,
              39.992411458333336
            ],
            [
              116.34302454249219,
              39.99434375
            ],
            [
              116.34307721863757,
              39.99627604166667
            ],
            [
              116.343132,
              39.99820833333333
            ],
            [
              116.34318678136242,
              40.000140625
            ],
            [
              116.3432394575078,
              40.00207291666667
            ],
            [
              116.34328800412143,
              40.00400520833333
            ],
            [
              116.34333055558415,
              40.0059375
            ],
            [
              116.34336547666713,
              40.007869791666664
            ],
            [
              116.34339142537273,
              40.009802083333334
            ],
            [
              116.34340740450673,
              40.011734375
            ],
            [
              116.3434128,
              40.013666666666666
            ],
            [
              116.34340740450673,
              40.015598958333335
            ],
            [
              116.34339142537273,
              40.01753125
            ],
            [
              116.34336547666713,
              40.01946354166667
            ],
            [
              116.34333055558415,
              40.02139583333334
            ],
            [
              116.34328800412143,
              40.023328125
            ],
            [
              116.3432394575078,
              40.02526041666667
            ],
            [
              116.3432056652636,
              40.0265
            ],
            [
              116.34581756165545,
              40.0265
            ],
            [
              116.3458497260557,
              40.02526041666667
            ],
            [
              116.34590333385668,
              40.023328125
            ],
            [
              116.34595835071698,
              40.02139583333334
            ],
            [
              116.34601266236953,
              40.01946354166667
            ],
            [
              116.34606418164796,
              40.01753125
            ],
            [
              116.3461109286953,
              40.015598958333335
            ],
            [
              116.34615110704874,
              40.013666666666666
            ],
            [
              116.34618317267669,
              40.011734375
            ],
            [
              116.34620589331503,
              40.009802083333334
            ],
            [
              116.3462183958224,
              40.007869791666664
            ],
            [
              116.34622019973445,
              40.0059375
            ],
            [
              116.34621123572784,
              40.00400520833333
            ],
            [
              116.3461918482843,
              40.00207291666667
            ],
            [
              116.34616278245245,
              40.000140625
            ],
            [
              116.34612515521589,
              39.99820833333333
            ],
            [
              116.34608041256821,
              39.99627604166667
            ],
            [
              116.34603027394428,
              39.99434375
            ],
            [
              116.3459766661433,
              39.992411458333336
            ],
            [
              116.345921649283,
              39.99047916666667
            ],
            [
              116.34586733763047,
              39.988546875
            ],
            [
              116.34581581835204,
              39.986614583333335
            ],
            [
              116.34576907130469,
              39.984682291666665
            ],
            [
              116.34572889295126,
              39.982749999999996
            ],
            [
              116.34569682732331,
              39.98081770833333
            ],
            [
              116.34567410668495,
              39.978885416666664
            ],
            [
              116.3456616041776,
              39.976953125
            ],
            [
              116.34565980026555,
              39.97502083333333
            ],
            [
              116.34566876427216,
              39.97308854166666
            ],
            [
              116.34568815171569,
              39.97115625
            ],
            [
              116.34571721754754,
              39.96922395833333
            ],
            [
              116.34575484478411,
              39.96729166666667
            ],
            [
              116.34579958743178,
              39.965359375
            ],
            [
              116.3458497260557,
              39.96342708333333
            ],
            [
              116.34590333385668,
              39.96149479166667
            ],
            [
              116.34595835071698,
              39.9595625
            ],
            [
              116.34601266236953,
              39.957630208333335
            ],
            [
              116.34606418164796,
              39.955697916666665
            ],
            [
              116.3461109286953,
              39.953765624999996
            ],
            [
              116.34615110704874,
              39.95183333333333
            ],
            [
              116.34618317267669,
              39.949901041666664
            ],
            [
              116.34620589331503,
              39.94796875
            ],
            [
              116.3462183958224,
              39.94603645833333
            ],
            [
              116.34622019973445,
              39.94410416666666
            ],
            [
              116.34621123572784,
              39.942171875
            ],
            [
              116.3461918482843,
              39.94023958333333
            ],
            [
              116.34617320227896,
              39.939
            ],
            [
              116.3432056652636,
              39.939
            ]
          ]
        ]
      }
    },
    {
      "type": "Feature",
      "id": "LU-INNO-001",
      "properties": {
        "id": "LU-INNO-001",
        "layer": "LAND_USE",
        "source_type": "agent_generated_design",
        "confidence": "medium",
        "geometry_role": "design_proposal",
        "land_use_code": "05",
        "name_zh": "创新服务与智能原生业态",
        "design_logic": "完整覆盖提交边界的拓扑安全概念分区",
        "statutory_status": "concept_only_pending_official_control_plan",
        "area_sqm_declared": 2428551.381
      },
      "geometry": {
        "type": "Polygon",
        "coordinates": [
          [
            [
              116.34617320227896,
              39.939
            ],
            [
              116.3461918482843,
              39.94023958333333
            ],
            [
              116.34621123572784,
              39.942171875
            ],
            [
              116.34622019973445,
              39.94410416666666
            ],
            [
              116.3462183958224,
              39.94603645833333
            ],
            [
              116.34620589331503,
              39.94796875
            ],
            [
              116.34618317267669,
              39.949901041666664
            ],
            [
              116.34615110704874,
              39.95183333333333
            ],
            [
              116.3461109286953,
              39.953765624999996
            ],
            [
              116.34606418164796,
              39.955697916666665
            ],
            [
              116.34601266236953,
              39.957630208333335
            ],
            [
              116.34595835071698,
              39.9595625
            ],
            [
              116.34590333385668,
              39.96149479166667
            ],
            [
              116.3458497260557,
              39.96342708333333
            ],
            [
              116.34579958743178,
              39.965359375
            ],
            [
              116.34575484478411,
              39.96729166666667
            ],
            [
              116.34571721754754,
              39.96922395833333
            ],
            [
              116.34568815171569,
              39.97115625
            ],
            [
              116.34566876427216,
              39.97308854166666
            ],
            [
              116.34565980026555,
              39.97502083333333
            ],
            [
              116.3456616041776,
              39.976953125
            ],
            [
              116.34567410668495,
              39.978885416666664
            ],
            [
              116.34569682732331,
              39.98081770833333
            ],
            [
              116.34572889295126,
              39.982749999999996
            ],
            [
              116.34576907130469,
              39.984682291666665
            ],
            [
              116.34581581835204,
              39.986614583333335
            ],
            [
              116.34586733763047,
              39.988546875
            ],
            [
              116.345921649283,
              39.99047916666667
            ],
            [
              116.3459766661433,
              39.992411458333336
            ],
            [
              116.34603027394428,
              39.99434375
            ],
            [
              116.34608041256821,
              39.99627604166667
            ],
            [
              116.34612515521589,
              39.99820833333333
            ],
            [
              116.34616278245245,
              40.000140625
            ],
            [
              116.3461918482843,
              40.00207291666667
            ],
            [
              116.34621123572784,
              40.00400520833333
            ],
            [
              116.34622019973445,
              40.0059375
            ],
            [
              116.3462183958224,
              40.007869791666664
            ],
            [
              116.34620589331503,
              40.009802083333334
            ],
            [
              116.34618317267669,
              40.011734375
            ],
            [
              116.34615110704874,
              40.013666666666666
            ],
            [
              116.3461109286953,
              40.015598958333335
            ],
            [
              116.34606418164796,
              40.01753125
            ],
            [
              116.34601266236953,
              40.01946354166667
            ],
            [
              116.34595835071698,
              40.02139583333334
            ],
            [
              116.34590333385668,
              40.023328125
            ],
            [
              116.3458497260557,
              40.02526041666667
            ],
            [
              116.34581756165545,
              40.0265
            ],
            [
              116.34864623503861,
              40.0265
            ],
            [
              116.34866080555517,
              40.02526041666667
            ],
            [
              116.34869286424535,
              40.023328125
            ],
            [
              116.34873303676419,
              40.02139583333334
            ],
            [
              116.34877977930428,
              40.01946354166667
            ],
            [
              116.34883129557606,
              40.01753125
            ],
            [
              116.34888560583806,
              40.015598958333335
            ],
            [
              116.34894062297741,
              40.013666666666666
            ],
            [
              116.34899423271627,
              40.011734375
            ],
            [
              116.34904437486244,
              40.009802083333334
            ],
            [
              116.34908912248137,
              40.007869791666664
            ],
            [
              116.34912675594717,
              40.0059375
            ],
            [
              116.34915582902683,
              40.00400520833333
            ],
            [
              116.34917522445822,
              40.00207291666667
            ],
            [
              116.34918419688579,
              40.000140625
            ],
            [
              116.34918240150417,
              39.99820833333333
            ],
            [
              116.34916990730888,
              39.99627604166667
            ],
            [
              116.34914719444483,
              39.99434375
            ],
            [
              116.34911513575464,
              39.992411458333336
            ],
            [
              116.34907496323581,
              39.99047916666667
            ],
            [
              116.34902822069571,
              39.988546875
            ],
            [
              116.34897670442393,
              39.986614583333335
            ],
            [
              116.34892239416192,
              39.984682291666665
            ],
            [
              116.34886737702259,
              39.982749999999996
            ],
            [
              116.34881376728373,
              39.98081770833333
            ],
            [
              116.34876362513755,
              39.978885416666664
            ],
            [
              116.34871887751862,
              39.976953125
            ],
            [
              116.34868124405283,
              39.97502083333333
            ],
            [
              116.34865217097317,
              39.97308854166666
            ],
            [
              116.34863277554177,
              39.97115625
            ],
            [
              116.34862380311421,
              39.96922395833333
            ],
            [
              116.34862559849583,
              39.96729166666667
            ],
            [
              116.34863809269112,
              39.965359375
            ],
            [
              116.34866080555517,
              39.96342708333333
            ],
            [
              116.34869286424535,
              39.96149479166667
            ],
            [
              116.34873303676419,
              39.9595625
            ],
            [
              116.34877977930428,
              39.957630208333335
            ],
            [
              116.34883129557606,
              39.955697916666665
            ],
            [
              116.34888560583806,
              39.953765624999996
            ],
            [
              116.34894062297741,
              39.95183333333333
            ],
            [
              116.34899423271627,
              39.949901041666664
            ],
            [
              116.34904437486244,
              39.94796875
            ],
            [
              116.34908912248137,
              39.94603645833333
            ],
            [
              116.34912675594717,
              39.94410416666666
            ],
            [
              116.34915582902683,
              39.942171875
            ],
            [
              116.34917522445822,
              39.94023958333333
            ],
            [
              116.34918098035514,
              39.939
            ],
            [
              116.34617320227896,
              39.939
            ]
          ]
        ]
      }
    },
    {
      "type": "Feature",
      "id": "LU-CIVIC-001",
      "properties": {
        "id": "LU-CIVIC-001",
        "layer": "LAND_USE",
        "source_type": "agent_generated_design",
        "confidence": "medium",
        "geometry_role": "design_proposal",
        "land_use_code": "0702",
        "name_zh": "社区公共服务与人才支持",
        "design_logic": "完整覆盖提交边界的拓扑安全概念分区",
        "statutory_status": "concept_only_pending_official_control_plan",
        "area_sqm_declared": 2554754.14
      },
      "geometry": {
        "type": "Polygon",
        "coordinates": [
          [
            [
              116.34918098035514,
              39.939
            ],
            [
              116.34917522445822,
              39.94023958333333
            ],
            [
              116.34915582902683,
              39.942171875
            ],
            [
              116.34912675594717,
              39.94410416666666
            ],
            [
              116.34908912248137,
              39.94603645833333
            ],
            [
              116.34904437486244,
              39.94796875
            ],
            [
              116.34899423271627,
              39.949901041666664
            ],
            [
              116.34894062297741,
              39.95183333333333
            ],
            [
              116.34888560583806,
              39.953765624999996
            ],
            [
              116.34883129557606,
              39.955697916666665
            ],
            [
              116.34877977930428,
              39.957630208333335
            ],
            [
              116.34873303676419,
              39.9595625
            ],
            [
              116.34869286424535,
              39.96149479166667
            ],
            [
              116.34866080555517,
              39.96342708333333
            ],
            [
              116.34863809269112,
              39.965359375
            ],
            [
              116.34862559849583,
              39.96729166666667
            ],
            [
              116.34862380311421,
              39.96922395833333
            ],
            [
              116.34863277554177,
              39.97115625
            ],
            [
              116.34865217097317,
              39.97308854166666
            ],
            [
              116.34868124405283,
              39.97502083333333
            ],
            [
              116.34871887751862,
              39.976953125
            ],
            [
              116.34876362513755,
              39.978885416666664
            ],
            [
              116.34881376728373,
              39.98081770833333
            ],
            [
              116.34886737702259,
              39.982749999999996
            ],
            [
              116.34892239416192,
              39.984682291666665
            ],
            [
              116.34897670442393,
              39.986614583333335
            ],
            [
              116.34902822069571,
              39.988546875
            ],
            [
              116.34907496323581,
              39.99047916666667
            ],
            [
              116.34911513575464,
              39.992411458333336
            ],
            [
              116.34914719444483,
              39.99434375
            ],
            [
              116.34916990730888,
              39.99627604166667
            ],
            [
              116.34918240150417,
              39.99820833333333
            ],
            [
              116.34918419688579,
              40.000140625
            ],
            [
              116.34917522445822,
              40.00207291666667
            ],
            [
              116.34915582902683,
              40.00400520833333
            ],
            [
              116.34912675594717,
              40.0059375
            ],
            [
              116.34908912248137,
              40.007869791666664
            ],
            [
              116.34904437486244,
              40.009802083333334
            ],
            [
              116.34899423271627,
              40.011734375
            ],
            [
              116.34894062297741,
              40.013666666666666
            ],
            [
              116.34888560583806,
              40.015598958333335
            ],
            [
              116.34883129557606,
              40.01753125
            ],
            [
              116.34877977930428,
              40.01946354166667
            ],
            [
              116.34873303676419,
              40.02139583333334
            ],
            [
              116.34869286424535,
              40.023328125
            ],
            [
              116.34866080555517,
              40.02526041666667
            ],
            [
              116.34864623503861,
              40.0265
            ],
            [
              116.35175885999506,
              40.0265
            ],
            [
              116.35174860399046,
              40.02526041666667
            ],
            [
              116.35174320000337,
              40.023328125
            ],
            [
              116.35174858700269,
              40.02139583333334
            ],
            [
              116.35176455796903,
              40.01946354166667
            ],
            [
              116.35179049914713,
              40.01753125
            ],
            [
              116.35182541363206,
              40.015598958333335
            ],
            [
              116.35186795967974,
              40.013666666666666
            ],
            [
              116.3519165022694,
              40.011734375
            ],
            [
              116.35196917593659,
              40.009802083333334
            ],
            [
              116.35202395646178,
              40.007869791666664
            ],
            [
              116.35207873866011,
              40.0059375
            ],
            [
              116.35213141728244,
              40.00400520833333
            ],
            [
              116.35217996791884,
              40.00207291666667
            ],
            [
              116.3522225247956,
              40.000140625
            ],
            [
              116.35225745247578,
              39.99820833333333
            ],
            [
              116.35228340870825,
              39.99627604166667
            ],
            [
              116.35229939600954,
              39.99434375
            ],
            [
              116.35230479999662,
              39.992411458333336
            ],
            [
              116.35229941299731,
              39.99047916666667
            ],
            [
              116.35228344203097,
              39.988546875
            ],
            [
              116.35225750085287,
              39.986614583333335
            ],
            [
              116.35222258636794,
              39.984682291666665
            ],
            [
              116.35218004032026,
              39.982749999999996
            ],
            [
              116.3521314977306,
              39.98081770833333
            ],
            [
              116.35207882406341,
              39.978885416666664
            ],
            [
              116.35202404353822,
              39.976953125
            ],
            [
              116.35196926133989,
              39.97502083333333
            ],
            [
              116.35191658271755,
              39.97308854166666
            ],
            [
              116.35186803208116,
              39.97115625
            ],
            [
              116.35182547520441,
              39.96922395833333
            ],
            [
              116.35179054752422,
              39.96729166666667
            ],
            [
              116.35176459129174,
              39.965359375
            ],
            [
              116.35174860399046,
              39.96342708333333
            ],
            [
              116.35174320000337,
              39.96149479166667
            ],
            [
              116.35174858700269,
              39.9595625
            ],
            [
              116.35176455796903,
              39.957630208333335
            ],
            [
              116.35179049914713,
              39.955697916666665
            ],
            [
              116.35182541363206,
              39.953765624999996
            ],
            [
              116.35186795967974,
              39.95183333333333
            ],
            [
              116.3519165022694,
              39.949901041666664
            ],
            [
              116.35196917593659,
              39.94796875
            ],
            [
              116.35202395646178,
              39.94603645833333
            ],
            [
              116.35207873866011,
              39.94410416666666
            ],
            [
              116.35213141728244,
              39.942171875
            ],
            [
              116.35217996791884,
              39.94023958333333
            ],
            [
              116.35220726855675,
              39.939
            ],
            [
              116.34918098035514,
              39.939
            ]
          ]
        ]
      }
    },
    {
      "type": "Feature",
      "id": "LU-LIVING-001",
      "properties": {
        "id": "LU-LIVING-001",
        "layer": "LAND_USE",
        "source_type": "agent_generated_design",
        "confidence": "medium",
        "geometry_role": "design_proposal",
        "land_use_code": "0701",
        "name_zh": "复合居住与人才生活",
        "design_logic": "完整覆盖提交边界的拓扑安全概念分区",
        "statutory_status": "concept_only_pending_official_control_plan",
        "area_sqm_declared": 2163573.442
      },
      "geometry": {
        "type": "Polygon",
        "coordinates": [
          [
            [
              116.3553,
              40.0265
            ],
            [
              116.3533,
              39.99
            ],
            [
              116.3553,
              39.965
            ],
            [
              116.3553,
              39.939
            ],
            [
              116.35220726855675,
              39.939
            ],
            [
              116.35217996791884,
              39.94023958333333
            ],
            [
              116.35213141728244,
              39.942171875
            ],
            [
              116.35207873866011,
              39.94410416666666
            ],
            [
              116.35202395646178,
              39.94603645833333
            ],
            [
              116.35196917593659,
              39.94796875
            ],
            [
              116.3519165022694,
              39.949901041666664
            ],
            [
              116.35186795967974,
              39.95183333333333
            ],
            [
              116.35182541363206,
              39.953765624999996
            ],
            [
              116.35179049914713,
              39.955697916666665
            ],
            [
              116.35176455796903,
              39.957630208333335
            ],
            [
              116.35174858700269,
              39.9595625
            ],
            [
              116.35174320000337,
              39.96149479166667
            ],
            [
              116.35174860399046,
              39.96342708333333
            ],
            [
              116.35176459129174,
              39.965359375
            ],
            [
              116.35179054752422,
              39.96729166666667
            ],
            [
              116.35182547520441,
              39.96922395833333
            ],
            [
              116.35186803208116,
              39.97115625
            ],
            [
              116.35191658271755,
              39.97308854166666
            ],
            [
              116.35196926133989,
              39.97502083333333
            ],
            [
              116.35202404353822,
              39.976953125
            ],
            [
              116.35207882406341,
              39.978885416666664
            ],
            [
              116.3521314977306,
              39.98081770833333
            ],
            [
              116.35218004032026,
              39.982749999999996
            ],
            [
              116.35222258636794,
              39.984682291666665
            ],
            [
              116.35225750085287,
              39.986614583333335
            ],
            [
              116.35228344203097,
              39.988546875
            ],
            [
              116.35229941299731,
              39.99047916666667
            ],
            [
              116.35230479999662,
              39.992411458333336
            ],
            [
              116.35229939600954,
              39.99434375
            ],
            [
              116.35228340870825,
              39.99627604166667
            ],
            [
              116.35225745247578,
              39.99820833333333
            ],
            [
              116.3522225247956,
              40.000140625
            ],
            [
              116.35217996791884,
              40.00207291666667
            ],
            [
              116.35213141728244,
              40.00400520833333
            ],
            [
              116.35207873866011,
              40.0059375
            ],
            [
              116.35202395646178,
              40.007869791666664
            ],
            [
              116.35196917593659,
              40.009802083333334
            ],
            [
              116.3519165022694,
              40.011734375
            ],
            [
              116.35186795967974,
              40.013666666666666
            ],
            [
              116.35182541363206,
              40.015598958333335
            ],
            [
              116.35179049914713,
              40.01753125
            ],
            [
              116.35176455796903,
              40.01946354166667
            ],
            [
              116.35174858700269,
              40.02139583333334
            ],
            [
              116.35174320000337,
              40.023328125
            ],
            [
              116.35174860399046,
              40.02526041666667
            ],
            [
              116.35175885999506,
              40.0265
            ],
            [
              116.3553,
              40.0265
            ]
          ]
        ]
      }
    }
  ]
}
