{
 "type": "FeatureCollection",
 "name": "constraints",
 "features": [
  {
   "type": "Feature",
   "properties": {
    "id": "CON-001",
    "layer": "HERITAGE_PROTECTION",
    "name_zh": "京张铁路遗址保护带",
    "category": "railway_heritage",
    "locked": true,
    "source_type": "agent_inferred_from_public_data",
    "confidence": "medium",
    "geometry_role": "provisional_constraint"
   },
   "geometry": {
    "type": "Polygon",
    "coordinates": [
     [
      [
       116.34670037429834,
       39.94998501871492
      ],
      [
       116.34620037429835,
       39.95998501871492
      ],
      [
       116.34570037429835,
       39.969985018714915
      ],
      [
       116.34570005998201,
       39.96999400119964
      ],
      [
       116.345500059982,
       39.979994001199636
      ],
      [
       116.34530005998201,
       39.98999400119964
      ],
      [
       116.345100059982,
       39.99999400119964
      ],
      [
       116.34490007497139,
       40.00999325173024
      ],
      [
       116.34470011531715,
       40.017991637899804
      ],
      [
       116.34450014191108,
       40.024490773597265
      ],
      [
       116.34450068146413,
       40.0245202092573
      ],
      [
       116.3445041036183,
       40.02454945029113
      ],
      [
       116.34451037541638,
       40.02457821509164
      ],
      [
       116.34451943645753,
       40.02460622663805
      ],
      [
       116.34453119947895,
       40.02463321516387
      ],
      [
       116.34454555119635,
       40.02465892075483
      ],
      [
       116.3445623533948,
       40.024683095852055
      ],
      [
       116.34458144426,
       40.024705507636135
      ],
      [
       116.34460263993643,
       40.024725940269335
      ],
      [
       116.34462573629817,
       40.024744196974225
      ],
      [
       116.3446505109146,
       40.02476010192877
      ],
      [
       116.34467672519267,
       40.02477350195955
      ],
      [
       116.34470412667451,
       40.02478426801695
      ],
      [
       116.34473245146889,
       40.02479229641795
      ],
      [
       116.34476142679254,
       40.02479750984466
      ],
      [
       116.34479077359727,
       40.024799858088926
      ],
      [
       116.3448202092573,
       40.024799318535884
      ],
      [
       116.34484945029114,
       40.02479589638171
      ],
      [
       116.34487821509164,
       40.02478962458363
      ],
      [
       116.34490622663805,
       40.024780563542485
      ],
      [
       116.34493321516386,
       40.02476880052105
      ],
      [
       116.34495892075483,
       40.02475444880366
      ],
      [
       116.34498309585206,
       40.024737646605196
      ],
      [
       116.34500550763613,
       40.024718555740016
      ],
      [
       116.34502594026934,
       40.02469736006358
      ],
      [
       116.34504419697423,
       40.02467426370185
      ],
      [
       116.34506010192877,
       40.0246494890854
      ],
      [
       116.34507350195955,
       40.02462327480734
      ],
      [
       116.34508426801695,
       40.0245958733255
      ],
      [
       116.34509229641795,
       40.024567548531124
      ],
      [
       116.34509750984466,
       40.02453857320747
      ],
      [
       116.34509985808893,
       40.02450922640274
      ],
      [
       116.34529985808892,
       40.01800922640274
      ],
      [
       116.34529990629392,
       40.01800749765735
      ],
      [
       116.34549990629392,
       40.01000749765735
      ],
      [
       116.345499940018,
       40.01000599880036
      ],
      [
       116.345699940018,
       40.00000599880036
      ],
      [
       116.345899940018,
       39.99000599880036
      ],
      [
       116.346099940018,
       39.98000599880036
      ],
      [
       116.34629985014607,
       39.97001049239695
      ],
      [
       116.34679962570166,
       39.960014981285084
      ],
      [
       116.34729960604112,
       39.95001537449574
      ],
      [
       116.3477995853488,
       39.940515767649934
      ],
      [
       116.34779968826341,
       39.940486327225216
      ],
      [
       116.34779690501622,
       39.9404570184768
      ],
      [
       116.34779126241143,
       39.940428123663935
      ],
      [
       116.34778281479039,
       39.94039992105949
      ],
      [
       116.34777164350832,
       39.940372682269945
      ],
      [
       116.34775785615076,
       39.940346669619736
      ],
      [
       116.34774158549752,
       39.94032213362492
      ],
      [
       116.34772298824387,
       39.940299310580514
      ],
      [
       116.34770224349154,
       39.94027842028493
      ],
      [
       116.34767955102382,
       39.94025966392313
      ],
      [
       116.3476551293816,
       39.94024322212913
      ],
      [
       116.34762921375861,
       39.9402292532464
      ],
      [
       116.34760205373651,
       39.94021789180291
      ],
      [
       116.34757391088112,
       39.94020924721558
      ],
      [
       116.34754505622357,
       39.94020340273649
      ],
      [
       116.34751576764994,
       39.9402004146512
      ],
      [
       116.34748632722521,
       39.94020031173658
      ],
      [
       116.34745701847679,
       39.94020309498377
      ],
      [
       116.34742812366393,
       39.94020873758856
      ],
      [
       116.34739992105949,
       39.940217185209605
      ],
      [
       116.34737268226993,
       39.94022835649168
      ],
      [
       116.34734666961974,
       39.94024214384923
      ],
      [
       116.34732213362491,
       39.94025841450247
      ],
      [
       116.34729931058051,
       39.94027701175612
      ],
      [
       116.34727842028492,
       39.940297756508464
      ],
      [
       116.34725966392313,
       39.94032044897618
      ],
      [
       116.34724322212914,
       39.940344870618404
      ],
      [
       116.3472292532464,
       39.94037078624138
      ],
      [
       116.34721789180291,
       39.94039794626349
      ],
      [
       116.34720924721557,
       39.940426089118866
      ],
      [
       116.3472034027365,
       39.94045494377643
      ],
      [
       116.3472004146512,
       39.940484232350066
      ],
      [
       116.3467004146512,
       39.94998423235007
      ],
      [
       116.34670037429834,
       39.94998501871492
      ]
     ]
    ]
   },
   "id": "CON-001"
  },
  {
   "type": "Feature",
   "properties": {
    "id": "CON-002",
    "layer": "REGULATORY_CONTROL",
    "name_zh": "清华园隧道上盖控制区",
    "category": "tunnel_control",
    "locked": true,
    "source_type": "agent_inferred_from_public_data",
    "confidence": "medium",
    "geometry_role": "provisional_constraint"
   },
   "geometry": {
    "type": "Polygon",
    "coordinates": [
     [
      [
       116.34510009997001,
       39.9899900019994
      ],
      [
       116.34502990000999,
       39.9935
      ],
      [
       116.34603009999,
       39.9935
      ],
      [
       116.34609990003,
       39.9900099980006
      ],
      [
       116.34623009999001,
       39.9835
      ],
      [
       116.34522990001,
       39.9835
      ],
      [
       116.34510009997001,
       39.9899900019994
      ]
     ]
    ]
   },
   "id": "CON-002"
  }
 ]
}