{
  "type": "FeatureCollection",
  "name": "known_data_gap_constraints",
  "features": [
    {
      "type": "Feature",
      "id": "CONSTRAINT-K01",
      "properties": {
        "id": "CONSTRAINT-K01",
        "layer": "REGULATORY_CONTROL",
        "source_type": "agent_inferred_from_public_data",
        "confidence": "low",
        "geometry_role": "provisional_constraint",
        "name_zh": "临时重点范围核查区 1",
        "name_en": "Provisional key-area verification zone 1",
        "official_boundary": false,
        "source_id": "PROV-BOUNDARY-001",
        "note_zh": "仅作资料缺口提示；不得视为正式控制线。",
        "area_sqm_declared": 1929201.877
      },
      "geometry": {
        "type": "Polygon",
        "coordinates": [
          [
            [
              116.343,
              40.0075
            ],
            [
              116.354,
              40.0075
            ],
            [
              116.354,
              40.026
            ],
            [
              116.343,
              40.026
            ],
            [
              116.343,
              40.0075
            ]
          ]
        ]
      }
    },
    {
      "type": "Feature",
      "id": "CONSTRAINT-K02",
      "properties": {
        "id": "CONSTRAINT-K02",
        "layer": "REGULATORY_CONTROL",
        "source_type": "agent_inferred_from_public_data",
        "confidence": "low",
        "geometry_role": "provisional_constraint",
        "name_zh": "临时重点范围核查区 2",
        "name_en": "Provisional key-area verification zone 2",
        "official_boundary": false,
        "source_id": "PROV-BOUNDARY-001",
        "note_zh": "仅作资料缺口提示；不得视为正式控制线。",
        "area_sqm_declared": 1043236.909
      },
      "geometry": {
        "type": "Polygon",
        "coordinates": [
          [
            [
              116.342,
              39.9835
            ],
            [
              116.353,
              39.9835
            ],
            [
              116.353,
              39.9935
            ],
            [
              116.342,
              39.9935
            ],
            [
              116.342,
              39.9835
            ]
          ]
        ]
      }
    },
    {
      "type": "Feature",
      "id": "CONSTRAINT-K03",
      "properties": {
        "id": "CONSTRAINT-K03",
        "layer": "REGULATORY_CONTROL",
        "source_type": "agent_inferred_from_public_data",
        "confidence": "low",
        "geometry_role": "provisional_constraint",
        "name_zh": "临时重点范围核查区 3",
        "name_en": "Provisional key-area verification zone 3",
        "official_boundary": false,
        "source_id": "PROV-BOUNDARY-001",
        "note_zh": "仅作资料缺口提示；不得视为正式控制线。",
        "area_sqm_declared": 720454.219
      },
      "geometry": {
        "type": "Polygon",
        "coordinates": [
          [
            [
              116.342,
              39.944
            ],
            [
              116.355,
              39.944
            ],
            [
              116.355,
              39.94984
            ],
            [
              116.342,
              39.94984
            ],
            [
              116.342,
              39.944
            ]
          ]
        ]
      }
    }
  ]
}
