{
  "type": "FeatureCollection",
  "name": "evidence_gated_phasing",
  "features": [
    {
      "type": "Feature",
      "id": "PHASE-G0",
      "properties": {
        "id": "PHASE-G0",
        "layer": "PHASE",
        "source_type": "agent_generated_design",
        "confidence": "low",
        "geometry_role": "design_proposal",
        "phase": "G0",
        "name_zh": "evidence, alignment and surveys",
        "go_gate": "no build; source/status/rights/access/capacity audit",
        "not_an_approved_project_boundary": true,
        "assumption_ids": [
          "A-CONTROLS-001"
        ],
        "area_sqm_declared": 11390849.929
      },
      "geometry": {
        "type": "Polygon",
        "coordinates": [
          [
            [
              116.3407,
              39.939
            ],
            [
              116.34,
              39.96419999999969
            ],
            [
              116.34,
              39.979650000000134
            ],
            [
              116.3417,
              40.006
            ],
            [
              116.3427,
              40.0265
            ],
            [
              116.3553,
              40.0265
            ],
            [
              116.3533,
              39.99
            ],
            [
              116.3553,
              39.965
            ],
            [
              116.3553,
              39.939
            ],
            [
              116.3407,
              39.939
            ]
          ]
        ]
      }
    },
    {
      "type": "Feature",
      "id": "PHASE-G1",
      "properties": {
        "id": "PHASE-G1",
        "layer": "PHASE",
        "source_type": "agent_generated_design",
        "confidence": "low",
        "geometry_role": "design_proposal",
        "phase": "G1",
        "name_zh": "low-regret repairs and reversible tests",
        "go_gate": "consent, public use, manual fallback and exit proof",
        "not_an_approved_project_boundary": true,
        "assumption_ids": [
          "A-CONTROLS-001"
        ],
        "area_sqm_declared": 9216859.333
      },
      "geometry": {
        "type": "Polygon",
        "coordinates": [
          [
            [
              116.3533,
              39.99
            ],
            [
              116.354,
              39.981250000000045
            ],
            [
              116.354,
              39.944
            ],
            [
              116.342,
              39.944
            ],
            [
              116.342,
              40.01214999999997
            ],
            [
              116.34267560975609,
              40.026
            ],
            [
              116.354,
              40.026
            ],
            [
              116.354,
              40.002774999999936
            ],
            [
              116.3533,
              39.99
            ]
          ]
        ]
      }
    },
    {
      "type": "Feature",
      "id": "PHASE-G2",
      "properties": {
        "id": "PHASE-G2",
        "layer": "PHASE",
        "source_type": "agent_generated_design",
        "confidence": "low",
        "geometry_role": "design_proposal",
        "phase": "G2",
        "name_zh": "professionally reviewed adaptive renewal",
        "go_gate": "structure/fire/heritage/access/service/continuity review",
        "not_an_approved_project_boundary": true,
        "assumption_ids": [
          "A-CONTROLS-001"
        ],
        "area_sqm_declared": 7397868.615
      },
      "geometry": {
        "type": "Polygon",
        "coordinates": [
          [
            [
              116.343,
              39.946
            ],
            [
              116.343,
              40.024
            ],
            [
              116.353,
              40.024
            ],
            [
              116.353,
              39.946
            ],
            [
              116.343,
              39.946
            ]
          ]
        ]
      }
    },
    {
      "type": "Feature",
      "id": "PHASE-G3",
      "properties": {
        "id": "PHASE-G3",
        "layer": "PHASE",
        "source_type": "agent_generated_design",
        "confidence": "low",
        "geometry_role": "design_proposal",
        "phase": "G3",
        "name_zh": "selective infill after demonstrated need",
        "go_gate": "official controls + measured gap + public-interest review",
        "not_an_approved_project_boundary": true,
        "assumption_ids": [
          "A-CONTROLS-001"
        ],
        "area_sqm_declared": 2655071.226
      },
      "geometry": {
        "type": "Polygon",
        "coordinates": [
          [
            [
              116.345,
              39.98
            ],
            [
              116.345,
              40.02
            ],
            [
              116.352,
              40.02
            ],
            [
              116.352,
              39.98
            ],
            [
              116.345,
              39.98
            ]
          ]
        ]
      }
    },
    {
      "type": "Feature",
      "id": "PHASE-G4",
      "properties": {
        "id": "PHASE-G4",
        "layer": "PHASE",
        "source_type": "agent_generated_design",
        "confidence": "low",
        "geometry_role": "design_proposal",
        "phase": "G4",
        "name_zh": "long-term operations and revision",
        "go_gate": "versioned evidence, maintenance and public feedback",
        "not_an_approved_project_boundary": true,
        "assumption_ids": [
          "A-CONTROLS-001"
        ],
        "area_sqm_declared": 11390849.929
      },
      "geometry": {
        "type": "Polygon",
        "coordinates": [
          [
            [
              116.3407,
              39.939
            ],
            [
              116.34,
              39.96419999999969
            ],
            [
              116.34,
              39.979650000000134
            ],
            [
              116.3417,
              40.006
            ],
            [
              116.3427,
              40.0265
            ],
            [
              116.3553,
              40.0265
            ],
            [
              116.3533,
              39.99
            ],
            [
              116.3553,
              39.965
            ],
            [
              116.3553,
              39.939
            ],
            [
              116.3407,
              39.939
            ]
          ]
        ]
      }
    }
  ]
}
