{
  "type": "FeatureCollection",
  "name": "work_training_responsibility_space_partition",
  "features": [
    {
      "type": "Feature",
      "id": "LU-001",
      "properties": {
        "id": "LU-001",
        "layer": "LAND_USE",
        "source_type": "agent_generated_design",
        "confidence": "low",
        "geometry_role": "design_proposal",
        "land_use_code": "0802",
        "name_zh": "普通工作与生计连续 / ordinary work and livelihood continuity",
        "name_en": "普通工作与生计连续 / ordinary work and livelihood continuity",
        "provisional_design": true,
        "description": "普通工作与生计连续 / ordinary work and livelihood continuity",
        "purpose": "ordinary_work"
      },
      "geometry": {
        "type": "Polygon",
        "coordinates": [
          [
            [
              116.3407,
              39.939
            ],
            [
              116.3397,
              39.975
            ],
            [
              116.3417,
              40.006
            ],
            [
              116.3427,
              40.0265
            ],
            [
              116.3436,
              40.0265
            ],
            [
              116.3436,
              39.939
            ],
            [
              116.3407,
              39.939
            ]
          ]
        ]
      }
    },
    {
      "type": "Feature",
      "id": "LU-002",
      "properties": {
        "id": "LU-002",
        "layer": "LAND_USE",
        "source_type": "agent_generated_design",
        "confidence": "low",
        "geometry_role": "design_proposal",
        "land_use_code": "0702",
        "name_zh": "自愿示教与传感控制 / voluntary demonstration and sensor control",
        "name_en": "自愿示教与传感控制 / voluntary demonstration and sensor control",
        "provisional_design": true,
        "description": "自愿示教与传感控制 / voluntary demonstration and sensor control",
        "purpose": "optional_training"
      },
      "geometry": {
        "type": "Polygon",
        "coordinates": [
          [
            [
              116.3436,
              39.939
            ],
            [
              116.3436,
              40.0265
            ],
            [
              116.34781199999999,
              40.0265
            ],
            [
              116.34781199999999,
              39.939
            ],
            [
              116.3436,
              39.939
            ]
          ]
        ]
      }
    },
    {
      "type": "Feature",
      "id": "LU-003",
      "properties": {
        "id": "LU-003",
        "layer": "LAND_USE",
        "source_type": "agent_generated_design",
        "confidence": "low",
        "geometry_role": "design_proposal",
        "land_use_code": "1401",
        "name_zh": "派生追踪与争议禁用 / derivative tracing and disputed disablement",
        "name_en": "派生追踪与争议禁用 / derivative tracing and disputed disablement",
        "provisional_design": true,
        "description": "派生追踪与争议禁用 / derivative tracing and disputed disablement",
        "purpose": "derivative_control"
      },
      "geometry": {
        "type": "Polygon",
        "coordinates": [
          [
            [
              116.34781199999999,
              39.939
            ],
            [
              116.34781199999999,
              40.0265
            ],
            [
              116.351868,
              40.0265
            ],
            [
              116.351868,
              39.939
            ],
            [
              116.34781199999999,
              39.939
            ]
          ]
        ]
      }
    },
    {
      "type": "Feature",
      "id": "LU-004",
      "properties": {
        "id": "LU-004",
        "layer": "LAND_USE",
        "source_type": "agent_generated_design",
        "confidence": "low",
        "geometry_role": "design_proposal",
        "land_use_code": "05",
        "name_zh": "独立复核与退出 / independent review and withdrawal",
        "name_en": "独立复核与退出 / independent review and withdrawal",
        "provisional_design": true,
        "description": "独立复核与退出 / independent review and withdrawal",
        "purpose": "independent_review"
      },
      "geometry": {
        "type": "Polygon",
        "coordinates": [
          [
            [
              116.351868,
              39.939
            ],
            [
              116.351868,
              40.0265
            ],
            [
              116.3553,
              40.0265
            ],
            [
              116.3533,
              39.99
            ],
            [
              116.3553,
              39.965
            ],
            [
              116.3553,
              39.939
            ],
            [
              116.351868,
              39.939
            ]
          ]
        ]
      }
    }
  ]
}
