{"type": "FeatureCollection", "features": [{"type": "Feature", "id": "PS-CORRIDOR", "properties": {"id": "PS-CORRIDOR", "layer": "PUBLIC_SPACE", "source_type": "agent_generated_design", "confidence": "medium", "geometry_role": "design_proposal", "space_type": "memory_corridor_green_axis", "name_zh": "京张遗址公园记忆长廊公共空间带", "area_sqm_declared": 2117954.2}, "geometry": {"type": "MultiPolygon", "coordinates": [[[[116.346, 39.939], [116.346, 39.944], [116.3502, 39.944], [116.3502, 39.939], [116.346, 39.939]]], [[[116.346, 39.94984], [116.346, 39.9835], [116.3502, 39.9835], [116.3502, 39.94984], [116.346, 39.94984]]], [[[116.346, 39.9935], [116.346, 40.0075], [116.3502, 40.0075], [116.3502, 39.9935], [116.346, 39.9935]]], [[[116.346, 40.026], [116.346, 40.0265], [116.3502, 40.0265], [116.3502, 40.026], [116.346, 40.026]]]]}}, {"type": "Feature", "id": "PS-STATION-1909", "properties": {"id": "PS-STATION-1909", "layer": "PUBLIC_SPACE", "source_type": "agent_generated_design", "confidence": "medium", "geometry_role": "design_proposal", "space_type": "corridor_node", "name_zh": "原点站·清华园车站记忆点", "node_note": "1909京张铁路·詹天佑题名站房·进京赶考原点", "area_sqm_declared": 34561.1}, "geometry": {"type": "Polygon", "coordinates": [[[116.34855726045318, 39.99958969782032], [116.34853155623686, 39.999487080836595], [116.34849591757008, 39.99938747743547], [116.34845068767267, 39.999291846852145], [116.34839630213327, 39.99920111006142], [116.34833328471437, 39.9991161409082], [116.34826224230814, 39.99903775769186], [116.3481838590918, 39.99896671528563], [116.34809888993857, 39.99890369786672], [116.34800815314784, 39.99884931232733], [116.34791252256453, 39.99880408242992], [116.3478129191634, 39.99876844376313], [116.34771030217968, 39.99874273954682], [116.347605659871, 39.99872721732662], [116.3475, 39.99872202659001], [116.347394340129, 39.99872721732662], [116.34728969782032, 39.99874273954682], [116.34718708083659, 39.99876844376313], [116.34708747743547, 39.99880408242992], [116.34699184685215, 39.99884931232733], [116.34690111006142, 39.99890369786672], [116.34681614090819, 39.99896671528563], [116.34673775769186, 39.99903775769186], [116.34666671528562, 39.9991161409082], [116.34660369786673, 39.99920111006142], [116.34654931232733, 39.999291846852145], [116.34650408242992, 39.99938747743547], [116.34646844376313, 39.999487080836595], [116.34644273954682, 39.99958969782032], [116.34642721732662, 39.999694340129004], [116.34642202659, 39.9998], [116.34642721732662, 39.999905659871], [116.34644273954682, 40.00001030217968], [116.34646844376313, 40.000112919163406], [116.34650408242992, 40.00021252256453], [116.34654931232733, 40.000308153147856], [116.34660369786673, 40.00039888993858], [116.34666671528562, 40.0004838590918], [116.34673775769186, 40.00056224230814], [116.34681614090819, 40.00063328471437], [116.34690111006142, 40.00069630213328], [116.34699184685215, 40.00075068767267], [116.34708747743547, 40.00079591757008], [116.34718708083659, 40.00083155623687], [116.34728969782032, 40.00085726045318], [116.347394340129, 40.00087278267338], [116.3475, 40.00087797340999], [116.347605659871, 40.00087278267338], [116.34771030217968, 40.00085726045318], [116.3478129191634, 40.00083155623687], [116.34791252256453, 40.00079591757008], [116.34800815314784, 40.00075068767267], [116.34809888993857, 40.00069630213328], [116.3481838590918, 40.00063328471437], [116.34826224230814, 40.00056224230814], [116.34833328471437, 40.0004838590918], [116.34839630213327, 40.00039888993858], [116.34845068767267, 40.000308153147856], [116.34849591757008, 40.00021252256453], [116.34853155623686, 40.000112919163406], [116.34855726045318, 40.00001030217968], [116.34857278267337, 39.999905659871], [116.34857797340999, 39.9998], [116.34857278267337, 39.999694340129004], [116.34855726045318, 39.99958969782032]]]}}, {"type": "Feature", "id": "PS-STATION-1986", "properties": {"id": "PS-STATION-1986", "layer": "PUBLIC_SPACE", "source_type": "agent_generated_design", "confidence": "medium", "geometry_role": "design_proposal", "space_type": "corridor_node", "name_zh": "起航站·863记忆点", "node_note": "1986四位科学家上书·高科技起航", "area_sqm_declared": 23997.9}, "geometry": {"type": "Polygon", "coordinates": [[[116.34988105037766, 40.0078247481836], [116.34985963019739, 40.007739234030495], [116.3498299313084, 40.00765623119622], [116.34979223972724, 40.007576539043455], [116.3497469184444, 40.00750092505119], [116.34969440392864, 40.007430117423496], [116.34963520192346, 40.00736479807655], [116.3495698825765, 40.00730559607136], [116.34949907494882, 40.007253081555604], [116.34942346095654, 40.00720776027278], [116.34934376880378, 40.0071700686916], [116.3492607659695, 40.00714036980261], [116.3491752518164, 40.00711894962235], [116.3490880498925, 40.007106014438854], [116.349, 40.00710168882501], [116.3489119501075, 40.007106014438854], [116.3488247481836, 40.00711894962235], [116.3487392340305, 40.00714036980261], [116.34865623119623, 40.0071700686916], [116.34857653904346, 40.00720776027278], [116.34850092505118, 40.007253081555604], [116.3484301174235, 40.00730559607136], [116.34836479807655, 40.00736479807655], [116.34830559607137, 40.007430117423496], [116.34825308155561, 40.00750092505119], [116.34820776027277, 40.007576539043455], [116.3481700686916, 40.00765623119622], [116.34814036980262, 40.007739234030495], [116.34811894962235, 40.0078247481836], [116.34810601443886, 40.007911950107506], [116.34810168882501, 40.008], [116.34810601443886, 40.0080880498925], [116.34811894962235, 40.008175251816404], [116.34814036980262, 40.00826076596951], [116.3481700686916, 40.00834376880378], [116.34820776027277, 40.00842346095655], [116.34825308155561, 40.008499074948816], [116.34830559607137, 40.00856988257651], [116.34836479807655, 40.008635201923454], [116.3484301174235, 40.008694403928644], [116.34850092505118, 40.0087469184444], [116.34857653904346, 40.00879223972723], [116.34865623119623, 40.008829931308405], [116.3487392340305, 40.00885963019739], [116.3488247481836, 40.00888105037765], [116.3489119501075, 40.00889398556115], [116.349, 40.008898311174995], [116.3490880498925, 40.00889398556115], [116.3491752518164, 40.00888105037765], [116.3492607659695, 40.00885963019739], [116.34934376880378, 40.008829931308405], [116.34942346095654, 40.00879223972723], [116.34949907494882, 40.0087469184444], [116.3495698825765, 40.008694403928644], [116.34963520192346, 40.008635201923454], [116.34969440392864, 40.00856988257651], [116.3497469184444, 40.008499074948816], [116.34979223972724, 40.00842346095655], [116.3498299313084, 40.00834376880378], [116.34985963019739, 40.00826076596951], [116.34988105037766, 40.008175251816404], [116.34989398556115, 40.0080880498925], [116.349898311175, 40.008], [116.34989398556115, 40.007911950107506], [116.34988105037766, 40.0078247481836]]]}}, {"type": "Feature", "id": "PS-STATION-1994", "properties": {"id": "PS-STATION-1994", "layer": "PUBLIC_SPACE", "source_type": "agent_generated_design", "confidence": "medium", "geometry_role": "design_proposal", "space_type": "corridor_node", "name_zh": "数字站·互联网原点", "node_note": "1994中科院64K专线·中国互联网原点", "area_sqm_declared": 24002.8}, "geometry": {"type": "Polygon", "coordinates": [[[116.34888105037766, 39.9938247481836], [116.34885963019738, 39.99373923403049], [116.3488299313084, 39.99365623119622], [116.34879223972723, 39.99357653904345], [116.34874691844439, 39.99350092505119], [116.34869440392863, 39.99343011742349], [116.34863520192346, 39.99336479807655], [116.3485698825765, 39.99330559607136], [116.34849907494882, 39.9932530815556], [116.34842346095654, 39.993207760272774], [116.34834376880377, 39.9931700686916], [116.3482607659695, 39.99314036980261], [116.3481752518164, 39.99311894962235], [116.3480880498925, 39.99310601443885], [116.348, 39.99310168882501], [116.3479119501075, 39.99310601443885], [116.3478247481836, 39.99311894962235], [116.3477392340305, 39.99314036980261], [116.34765623119623, 39.9931700686916], [116.34757653904346, 39.993207760272774], [116.34750092505118, 39.9932530815556], [116.3474301174235, 39.99330559607136], [116.34736479807654, 39.99336479807655], [116.34730559607137, 39.99343011742349], [116.3472530815556, 39.99350092505119], [116.34720776027277, 39.99357653904345], [116.3471700686916, 39.99365623119622], [116.34714036980262, 39.99373923403049], [116.34711894962234, 39.9938247481836], [116.34710601443885, 39.9939119501075], [116.347101688825, 39.994], [116.34710601443885, 39.9940880498925], [116.34711894962234, 39.9941752518164], [116.34714036980262, 39.99426076596951], [116.3471700686916, 39.99434376880378], [116.34720776027277, 39.99442346095655], [116.3472530815556, 39.99449907494881], [116.34730559607137, 39.994569882576506], [116.34736479807654, 39.99463520192345], [116.3474301174235, 39.99469440392864], [116.34750092505118, 39.9947469184444], [116.34757653904346, 39.994792239727225], [116.34765623119623, 39.9948299313084], [116.3477392340305, 39.99485963019739], [116.3478247481836, 39.99488105037765], [116.3479119501075, 39.99489398556115], [116.348, 39.99489831117499], [116.3480880498925, 39.99489398556115], [116.3481752518164, 39.99488105037765], [116.3482607659695, 39.99485963019739], [116.34834376880377, 39.9948299313084], [116.34842346095654, 39.994792239727225], [116.34849907494882, 39.9947469184444], [116.3485698825765, 39.99469440392864], [116.34863520192346, 39.99463520192345], [116.34869440392863, 39.994569882576506], [116.34874691844439, 39.99449907494881], [116.34879223972723, 39.99442346095655], [116.3488299313084, 39.99434376880378], [116.34885963019738, 39.99426076596951], [116.34888105037766, 39.9941752518164], [116.34889398556115, 39.9940880498925], [116.34889831117499, 39.994], [116.34889398556115, 39.9939119501075], [116.34888105037766, 39.9938247481836]]]}}, {"type": "Feature", "id": "PS-STATION-2026", "properties": {"id": "PS-STATION-2026", "layer": "PUBLIC_SPACE", "source_type": "agent_generated_design", "confidence": "medium", "geometry_role": "design_proposal", "space_type": "corridor_node", "name_zh": "时代站·AI当下记忆点", "node_note": "2026十五五·人工智能+时代·当下", "area_sqm_declared": 17294.1}, "geometry": {"type": "Polygon", "coordinates": [[[116.34955726045318, 39.94578969782032], [116.34953155623687, 39.94568708083659], [116.34949591757008, 39.94558747743547], [116.34945068767267, 39.94549184685214], [116.34939630213327, 39.94540111006142], [116.34933328471438, 39.9453161409082], [116.34926224230814, 39.94523775769186], [116.34918385909181, 39.94516671528563], [116.34909888993857, 39.94510369786672], [116.34900815314785, 39.94504931232733], [116.34891252256453, 39.94500408242992], [116.34881291916341, 39.94496844376313], [116.34871030217968, 39.94494273954682], [116.348605659871, 39.944927217326615], [116.3485, 39.94492202659001], [116.348394340129, 39.944927217326615], [116.34828969782032, 39.94494273954682], [116.3481870808366, 39.94496844376313], [116.34808747743547, 39.94500408242992], [116.34799184685215, 39.94504931232733], [116.34790111006143, 39.94510369786672], [116.3478161409082, 39.94516671528563], [116.34773775769186, 39.94523775769186], [116.34766671528563, 39.9453161409082], [116.34760369786673, 39.94540111006142], [116.34754931232733, 39.94549184685214], [116.34750408242992, 39.94558747743547], [116.34746844376313, 39.94568708083659], [116.34744273954682, 39.94578969782032], [116.34742721732663, 39.945894340129], [116.34742202659001, 39.946], [116.34742202659001, 39.946000000000005], [116.34957797340999, 39.946000000000005], [116.34957797340999, 39.946], [116.34957278267338, 39.945894340129], [116.34955726045318, 39.94578969782032]]]}}, {"type": "Feature", "id": "PS-LANDMARK", "properties": {"id": "PS-LANDMARK", "layer": "PUBLIC_SPACE", "source_type": "agent_generated_design", "confidence": "medium", "geometry_role": "design_proposal", "space_type": "landmark", "name_zh": "朝圣地标·AI里程碑荣誉墙", "node_note": "AI里程碑碑林·开发者荣誉·开源成果展示", "area_sqm_declared": 54024.9}, "geometry": {"type": "Polygon", "coordinates": [[[116.35014097834173, 39.96986792516125], [116.35012157556648, 39.9697371222754], [116.35008944529608, 39.96960885104574], [116.3500448969626, 39.96948434679433], [116.34998835959084, 39.96936480856518], [116.34992037766659, 39.969251387576776], [116.34984160589296, 39.96914517613524], [116.34975280288518, 39.96904719711482], [116.34965482386475, 39.96895839410704], [116.34954861242322, 39.968879622333404], [116.34943519143482, 39.96881164040916], [116.34931565320566, 39.968755103037395], [116.34919114895426, 39.96871055470392], [116.34906287772459, 39.96867842443352], [116.34893207483874, 39.968659021658276], [116.3488, 39.96865253323751], [116.34866792516125, 39.968659021658276], [116.3485371222754, 39.96867842443352], [116.34840885104573, 39.96871055470392], [116.34828434679433, 39.968755103037395], [116.34816480856517, 39.96881164040916], [116.34805138757677, 39.968879622333404], [116.34794517613524, 39.96895839410704], [116.34784719711482, 39.96904719711482], [116.34775839410703, 39.96914517613524], [116.3476796223334, 39.969251387576776], [116.34761164040916, 39.96936480856518], [116.3475551030374, 39.96948434679433], [116.34751055470392, 39.96960885104574], [116.34747842443352, 39.9697371222754], [116.34745902165827, 39.96986792516125], [116.34745253323752, 39.97], [116.34745902165827, 39.970132074838745], [116.34747842443352, 39.9702628777246], [116.34751055470392, 39.970391148954256], [116.3475551030374, 39.970515653205666], [116.34761164040916, 39.970635191434816], [116.3476796223334, 39.97074861242322], [116.34775839410703, 39.970854823864755], [116.34784719711482, 39.97095280288518], [116.34794517613524, 39.97104160589296], [116.34805138757677, 39.971120377666594], [116.34816480856517, 39.97118835959084], [116.34828434679433, 39.9712448969626], [116.34840885104573, 39.97128944529608], [116.3485371222754, 39.97132157556648], [116.34866792516125, 39.97134097834172], [116.3488, 39.97134746676249], [116.34893207483874, 39.97134097834172], [116.34906287772459, 39.97132157556648], [116.34919114895426, 39.97128944529608], [116.34931565320566, 39.9712448969626], [116.34943519143482, 39.97118835959084], [116.34954861242322, 39.971120377666594], [116.34965482386475, 39.97104160589296], [116.34975280288518, 39.97095280288518], [116.34984160589296, 39.970854823864755], [116.34992037766659, 39.97074861242322], [116.34998835959084, 39.970635191434816], [116.3500448969626, 39.970515653205666], [116.35008944529608, 39.970391148954256], [116.35012157556648, 39.9702628777246], [116.35014097834173, 39.970132074838745], [116.35014746676248, 39.97], [116.35014097834173, 39.96986792516125]]]}}, {"type": "Feature", "id": "PS-RELAY-1", "properties": {"id": "PS-RELAY-1", "layer": "PUBLIC_SPACE", "source_type": "agent_generated_design", "confidence": "medium", "geometry_role": "design_proposal", "space_type": "relay_station", "name_zh": "记忆驿站(概念)", "node_note": "激活既有文化设施·星火驿站网络概念点", "area_sqm_declared": 15356.4}, "geometry": {"type": "Polygon", "coordinates": [[[116.35271518844893, 40.017929560086], [116.35270484030212, 40.01785979854688], [116.35268770415792, 40.0177913872244], [116.35266394504673, 40.01772498495698], [116.35263379178178, 40.01766123123476], [116.35259753475552, 40.01760074004095], [116.35255552314291, 40.017544093938795], [116.35250816153876, 40.01749183846124], [116.35245590606121, 40.01744447685709], [116.35239925995906, 40.01740246524448], [116.35233876876524, 40.01736620821822], [116.35227501504302, 40.01733605495328], [116.35220861277561, 40.01731229584209], [116.35214020145312, 40.01729515969788], [116.352070439914, 40.01728481155108], [116.352, 40.01728135106001], [116.351929560086, 40.01728481155108], [116.35185979854688, 40.01729515969788], [116.3517913872244, 40.01731229584209], [116.35172498495699, 40.01733605495328], [116.35166123123477, 40.01736620821822], [116.35160074004095, 40.01740246524448], [116.3515440939388, 40.01744447685709], [116.35149183846124, 40.01749183846124], [116.3514444768571, 40.017544093938795], [116.35140246524449, 40.01760074004095], [116.35136620821822, 40.01766123123476], [116.35133605495328, 40.01772498495698], [116.35131229584209, 40.0177913872244], [116.35129515969788, 40.01785979854688], [116.35128481155108, 40.017929560086], [116.35128135106001, 40.018], [116.35128481155108, 40.018070439914], [116.35129515969788, 40.01814020145312], [116.35131229584209, 40.0182086127756], [116.35133605495328, 40.018275015043024], [116.35136620821822, 40.01833876876524], [116.35140246524449, 40.018399259959054], [116.3514444768571, 40.018455906061206], [116.35149183846124, 40.01850816153876], [116.3515440939388, 40.018555523142915], [116.35160074004095, 40.01859753475552], [116.35166123123477, 40.01863379178178], [116.35172498495699, 40.01866394504672], [116.3517913872244, 40.01868770415791], [116.35185979854688, 40.01870484030212], [116.351929560086, 40.01871518844892], [116.352, 40.018718648939995], [116.352070439914, 40.01871518844892], [116.35214020145312, 40.01870484030212], [116.35220861277561, 40.01868770415791], [116.35227501504302, 40.01866394504672], [116.35233876876524, 40.01863379178178], [116.35239925995906, 40.01859753475552], [116.35245590606121, 40.018555523142915], [116.35250816153876, 40.01850816153876], [116.35255552314291, 40.018455906061206], [116.35259753475552, 40.018399259959054], [116.35263379178178, 40.01833876876524], [116.35266394504673, 40.018275015043024], [116.35268770415792, 40.0182086127756], [116.35270484030212, 40.01814020145312], [116.35271518844893, 40.018070439914], [116.35271864894, 40.018], [116.35271518844893, 40.017929560086]]]}}, {"type": "Feature", "id": "PS-RELAY-2", "properties": {"id": "PS-RELAY-2", "layer": "PUBLIC_SPACE", "source_type": "agent_generated_design", "confidence": "medium", "geometry_role": "design_proposal", "space_type": "relay_station", "name_zh": "记忆驿站(概念)", "node_note": "激活既有文化设施·星火驿站网络概念点", "area_sqm_declared": 15363.1}, "geometry": {"type": "Polygon", "coordinates": [[[116.34521518844892, 39.987929560086], [116.34520484030212, 39.98785979854688], [116.34518770415791, 39.9877913872244], [116.34516394504672, 39.98772498495698], [116.34513379178178, 39.98766123123476], [116.34509753475551, 39.987600740040946], [116.3450555231429, 39.987544093938794], [116.34500816153876, 39.98749183846124], [116.3449559060612, 39.987444476857085], [116.34489925995905, 39.98740246524448], [116.34483876876523, 39.98736620821822], [116.34477501504301, 39.98733605495328], [116.3447086127756, 39.98731229584209], [116.34464020145312, 39.98729515969788], [116.344570439914, 39.98728481155108], [116.3445, 39.987281351060005], [116.344429560086, 39.98728481155108], [116.34435979854688, 39.98729515969788], [116.34429138722439, 39.98731229584209], [116.34422498495698, 39.98733605495328], [116.34416123123476, 39.98736620821822], [116.34410074004094, 39.98740246524448], [116.34404409393879, 39.987444476857085], [116.34399183846124, 39.98749183846124], [116.34394447685709, 39.987544093938794], [116.34390246524448, 39.987600740040946], [116.34386620821822, 39.98766123123476], [116.34383605495327, 39.98772498495698], [116.34381229584208, 39.9877913872244], [116.34379515969788, 39.98785979854688], [116.34378481155107, 39.987929560086], [116.34378135106, 39.988], [116.34378481155107, 39.988070439914], [116.34379515969788, 39.98814020145312], [116.34381229584208, 39.9882086127756], [116.34383605495327, 39.98827501504302], [116.34386620821822, 39.98833876876524], [116.34390246524448, 39.98839925995905], [116.34394447685709, 39.988455906061205], [116.34399183846124, 39.98850816153876], [116.34404409393879, 39.988555523142914], [116.34410074004094, 39.98859753475552], [116.34416123123476, 39.98863379178178], [116.34422498495698, 39.98866394504672], [116.34429138722439, 39.98868770415791], [116.34435979854688, 39.98870484030212], [116.344429560086, 39.98871518844892], [116.3445, 39.988718648939994], [116.344570439914, 39.98871518844892], [116.34464020145312, 39.98870484030212], [116.3447086127756, 39.98868770415791], [116.34477501504301, 39.98866394504672], [116.34483876876523, 39.98863379178178], [116.34489925995905, 39.98859753475552], [116.3449559060612, 39.988555523142914], [116.34500816153876, 39.98850816153876], [116.3450555231429, 39.988455906061205], [116.34509753475551, 39.98839925995905], [116.34513379178178, 39.98833876876524], [116.34516394504672, 39.98827501504302], [116.34518770415791, 39.9882086127756], [116.34520484030212, 39.98814020145312], [116.34521518844892, 39.988070439914], [116.34521864893999, 39.988], [116.34521518844892, 39.987929560086]]]}}, {"type": "Feature", "id": "PS-RELAY-3", "properties": {"id": "PS-RELAY-3", "layer": "PUBLIC_SPACE", "source_type": "agent_generated_design", "confidence": "medium", "geometry_role": "design_proposal", "space_type": "relay_station", "name_zh": "记忆驿站(概念)", "node_note": "激活既有文化设施·星火驿站网络概念点", "area_sqm_declared": 15368.2}, "geometry": {"type": "Polygon", "coordinates": [[[116.35321518844893, 39.964929560086006], [116.35320484030213, 39.96485979854688], [116.35318770415792, 39.9647913872244], [116.35316394504673, 39.96472498495698], [116.35313379178179, 39.964661231234764], [116.35309753475552, 39.96460074004095], [116.35305552314291, 39.9645440939388], [116.35300816153877, 39.96449183846124], [116.35295590606121, 39.96444447685709], [116.35289925995906, 39.96440246524448], [116.35283876876524, 39.96436620821822], [116.35277501504302, 39.964336054953286], [116.35270861277561, 39.96431229584209], [116.35264020145313, 39.96429515969788], [116.352570439914, 39.96428481155108], [116.3525, 39.96428135106001], [116.35242956008601, 39.96428481155108], [116.35235979854689, 39.96429515969788], [116.3522913872244, 39.96431229584209], [116.35222498495699, 39.964336054953286], [116.35216123123477, 39.96436620821822], [116.35210074004095, 39.96440246524448], [116.3520440939388, 39.96444447685709], [116.35199183846125, 39.96449183846124], [116.3519444768571, 39.9645440939388], [116.35190246524449, 39.96460074004095], [116.35186620821823, 39.964661231234764], [116.35183605495328, 39.96472498495698], [116.3518122958421, 39.9647913872244], [116.35179515969789, 39.96485979854688], [116.35178481155108, 39.964929560086006], [116.35178135106001, 39.965], [116.35178481155108, 39.965070439914], [116.35179515969789, 39.965140201453124], [116.3518122958421, 39.965208612775605], [116.35183605495328, 39.96527501504303], [116.35186620821823, 39.96533876876524], [116.35190246524449, 39.96539925995906], [116.3519444768571, 39.96545590606121], [116.35199183846125, 39.965508161538764], [116.3520440939388, 39.96555552314292], [116.35210074004095, 39.965597534755524], [116.35216123123477, 39.965633791781784], [116.35222498495699, 39.96566394504672], [116.3522913872244, 39.965687704157915], [116.35235979854689, 39.965704840302124], [116.35242956008601, 39.965715188448925], [116.3525, 39.96571864894], [116.352570439914, 39.965715188448925], [116.35264020145313, 39.965704840302124], [116.35270861277561, 39.965687704157915], [116.35277501504302, 39.96566394504672], [116.35283876876524, 39.965633791781784], [116.35289925995906, 39.965597534755524], [116.35295590606121, 39.96555552314292], [116.35300816153877, 39.965508161538764], [116.35305552314291, 39.96545590606121], [116.35309753475552, 39.96539925995906], [116.35313379178179, 39.96533876876524], [116.35316394504673, 39.96527501504303], [116.35318770415792, 39.965208612775605], [116.35320484030213, 39.965140201453124], [116.35321518844893, 39.965070439914], [116.35321864894, 39.965], [116.35321518844893, 39.964929560086006]]]}}, {"type": "Feature", "id": "PS-TERMINAL", "properties": {"id": "PS-TERMINAL", "layer": "PUBLIC_SPACE", "source_type": "agent_generated_design", "confidence": "medium", "geometry_role": "design_proposal", "space_type": "terminal", "name_zh": "终点文化馆·记忆终点站(概念选址)", "node_note": "AI+城市档案馆·游客接待/消费转化/城市记忆容器", "area_sqm_declared": 77824.1}, "geometry": {"type": "Polygon", "coordinates": [[[116.34980917401008, 39.944641510193506], [116.34978589067978, 39.94448454673048], [116.3497473343553, 39.94433062125489], [116.34969387635513, 39.944181216153204], [116.34962603150902, 39.94403777027822], [116.34954445319993, 39.943901665092135], [116.34944992707156, 39.943774211362296], [116.34934336346222, 39.94365663653779], [116.34922578863771, 39.943550072928446], [116.34909833490786, 39.94345554680009], [116.34896222972179, 39.943373968490995], [116.34881878384681, 39.94330612364488], [116.34866937874511, 39.9432526656447], [116.34851545326953, 39.94321410932022], [116.3483584898065, 39.94319082598993], [116.3482, 39.943183039885014], [116.34804151019351, 39.94319082598993], [116.34788454673048, 39.94321410932022], [116.3477306212549, 39.9432526656447], [116.3475812161532, 39.94330612364488], [116.34743777027822, 39.943373968490995], [116.34730166509215, 39.94345554680009], [116.3471742113623, 39.943550072928446], [116.34705663653779, 39.94365663653779], [116.34695007292845, 39.943774211362296], [116.34685554680009, 39.943901665092135], [116.346773968491, 39.94403777027822], [116.34670612364488, 39.944181216153204], [116.34665266564471, 39.94433062125489], [116.34661410932023, 39.94448454673048], [116.34659082598994, 39.944641510193506], [116.34658303988502, 39.9448], [116.34659082598994, 39.944958489806496], [116.34661410932023, 39.94511545326952], [116.34665266564471, 39.94526937874511], [116.34670612364488, 39.9454187838468], [116.346773968491, 39.94556222972178], [116.34685554680009, 39.94569833490787], [116.34695007292845, 39.945825788637706], [116.34705663653779, 39.94594336346221], [116.3471742113623, 39.946049927071556], [116.34730166509215, 39.94614445319991], [116.34743777027822, 39.946226031509006], [116.3475812161532, 39.94629387635512], [116.3477306212549, 39.9463473343553], [116.34788454673048, 39.94638589067978], [116.34804151019351, 39.94640917401007], [116.3482, 39.94641696011499], [116.3483584898065, 39.94640917401007], [116.34851545326953, 39.94638589067978], [116.34866937874511, 39.9463473343553], [116.34881878384681, 39.94629387635512], [116.34896222972179, 39.946226031509006], [116.34909833490786, 39.94614445319991], [116.34922578863771, 39.946049927071556], [116.34934336346222, 39.94594336346221], [116.34944992707156, 39.945825788637706], [116.34954445319993, 39.94569833490787], [116.34962603150902, 39.94556222972178], [116.34969387635513, 39.9454187838468], [116.3497473343553, 39.94526937874511], [116.34978589067978, 39.94511545326952], [116.34980917401008, 39.944958489806496], [116.34981696011499, 39.9448], [116.34980917401008, 39.944641510193506]]]}}]}