{
  "type": "FeatureCollection",
  "name": "jingzhang_civic_ai_spine_green_space",
  "features": [
    {
      "type": "Feature",
      "id": "GREEN-001",
      "properties": {
        "id": "GREEN-001",
        "layer": "GREEN_SPACE",
        "source_type": "agent_generated_design",
        "confidence": "medium",
        "geometry_role": "design_proposal",
        "green_type": "continuous_blue_green_spine",
        "name_zh": "京张智脉蓝绿连续体",
        "design_intent_zh": "以连续绿脉连接清河、小月河线索和三处重点区，所有水系及生态边界待官方资料校核。",
        "source_id": "DATA-SRC-OFFICIAL-ANNOUNCEMENT-20260509",
        "area_sqm_declared": 2599145.03
      },
      "geometry": {
        "type": "Polygon",
        "coordinates": [
          [
            [
              116.34231386015921,
              40.018585392847335
            ],
            [
              116.34639179109203,
              40.018585503879784
            ],
            [
              116.34623588719977,
              40.02598176674555
            ],
            [
              116.34916411383014,
              40.02601821476098
            ],
            [
              116.34932046838173,
              40.01858549507975
            ],
            [
              116.35300004696569,
              40.018585379105424
            ],
            [
              116.35307467274846,
              40.01858255678422
            ],
            [
              116.35314857937452,
              40.018574124075464
            ],
            [
              116.35322105506502,
              40.01856016219268
            ],
            [
              116.35329140182314,
              40.01854080559956
            ],
            [
              116.35335894215682,
              40.01851624071501
            ],
            [
              116.35342302560399,
              40.01848670411761
            ],
            [
              116.35348303499711,
              40.018452480266994
            ],
            [
              116.35353839240749,
              40.018413898764194
            ],
            [
              116.35358856471098,
              40.018371331177136
            ],
            [
              116.35363306872247,
              40.01832518746187
            ],
            [
              116.3536714758492,
              40.01827591201433
            ],
            [
              116.353703416218,
              40.018223979390235
            ],
            [
              116.3537285822372,
              40.01816988973463
            ],
            [
              116.3537467315583,
              40.018114163965016
            ],
            [
              116.35375768940956,
              40.018057338754424
            ],
            [
              116.3537613502784,
              40.017999961362854
            ],
            [
              116.35375767892691,
              40.01794258436678
            ],
            [
              116.3537467107305,
              40.017885760337506
            ],
            [
              116.35372855133656,
              40.017830036519626
            ],
            [
              116.3537033756462,
              40.017775949560765
            ],
            [
              116.35367142612944,
              40.017724020343636
            ],
            [
              116.35363301048938,
              40.01767474896966
            ],
            [
              116.35358849869843,
              40.017628609943024
            ],
            [
              116.35353831943502,
              40.01758604760115
            ],
            [
              116.35348295595486,
              40.017547471835705
            ],
            [
              116.35342294143692,
              40.017513254145456
            ],
            [
              116.35335885384865,
              40.01748372405876
            ],
            [
              116.35329131038006,
              40.017459165960254
            ],
            [
              116.35322096150017,
              40.017439816352386
            ],
            [
              116.3531484846931,
              40.01742586157789
            ],
            [
              116.353074577934,
              40.01741743602549
            ],
            [
              116.35299995296783,
              40.01741462083566
            ],
            [
              116.34934509232203,
              40.01741473691773
            ],
            [
              116.34956429304829,
              40.00699038139361
            ],
            [
              116.34876401001473,
              39.98849298073579
            ],
            [
              116.34926349964822,
              39.96999725336846
            ],
            [
              116.34906328498057,
              39.96399549690116
            ],
            [
              116.35400004688466,
              39.963995325484596
            ],
            [
              116.35406314149878,
              39.963992936805546
            ],
            [
              116.35412562801336,
              39.96398580084185
            ],
            [
              116.35418690463655,
              39.96397398631804
            ],
            [
              116.35424638122929,
              39.96395760701676
            ],
            [
              116.3543034849893,
              39.96393682068267
            ],
            [
              116.35435766596771,
              39.96391182750335
            ],
            [
              116.3544084023658,
              39.963882868181116
            ],
            [
              116.35445520556038,
              39.96385022161481
            ],
            [
              116.35449762480967,
              39.96381420221366
            ],
            [
              116.3545352515943,
              39.963775156869175
            ],
            [
              116.35456772355138,
              39.96373346161416
            ],
            [
              116.35459472796435,
              39.96368951800116
            ],
            [
              116.35461600477412,
              39.96364374923511
            ],
            [
              116.35463134908343,
              39.963596596097496
            ],
            [
              116.35464061312972,
              39.96354851270122
            ],
            [
              116.35464370770764,
              39.96349996211726
            ],
            [
              116.35464060302779,
              39.96345141191486
            ],
            [
              116.35463132900297,
              39.963403329658625
            ],
            [
              116.3546159749597,
              39.96335617840561
            ],
            [
              116.35459468877742,
              39.963310412245896
            ],
            [
              116.35456767546394,
              39.96326647192954
            ],
            [
              116.3545351951807,
              39.96322478062203
            ],
            [
              116.35449756073682,
              39.96318573982909
            ],
            [
              116.3544551345765,
              39.963149725530165
            ],
            [
              116.35440832528832,
              39.96311708455768
            ],
            [
              116.35435758367012,
              39.963088131257074
            ],
            [
              116.35430339838778,
              39.96306314445966
            ],
            [
              116.3542462912691,
              39.96304236479753
            ],
            [
              116.35418681227866,
              39.96302599238623
            ],
            [
              116.35412553422155,
              39.96301418489782
            ],
            [
              116.35406304722753,
              39.96300705604243
            ],
            [
              116.35399995306791,
              39.963004674473254
            ],
            [
              116.34903024024831,
              39.963004846899665
            ],
            [
              116.34866318792304,
              39.951999419464684
            ],
            [
              116.34906201711051,
              39.93952770592467
            ],
            [
              116.34613798431972,
              39.93947227564765
            ],
            [
              116.3457368123038,
              39.9520005620671
            ],
            [
              116.34610335715678,
              39.96300484875627
            ],
            [
              116.34100004688347,
              39.96300467522808
            ],
            [
              116.34093695282095,
              39.96300705680091
            ],
            [
              116.34087446592491,
              39.96301418565246
            ],
            [
              116.34081318796567,
              39.96302599312934
            ],
            [
              116.3407537090719,
              39.96304236552133
            ],
            [
              116.34069660204761,
              39.96306314515647
            ],
            [
              116.34064241685623,
              39.96308813191925
            ],
            [
              116.34059167532449,
              39.96311708517785
            ],
            [
              116.3405448661171,
              39.96314972610131
            ],
            [
              116.34050244003093,
              39.96318574034464
            ],
            [
              116.3404648056535,
              39.963224781075965
            ],
            [
              116.34043232542814,
              39.96326647231648
            ],
            [
              116.34040531216318,
              39.96331041256121
            ],
            [
              116.34038402601941,
              39.96335617864553
            ],
            [
              116.34036867200402,
              39.963403329820224
            ],
            [
              116.3403593979961,
              39.96345141199618
            ],
            [
              116.34035629332189,
              39.9634999621173
            ],
            [
              116.34035938789417,
              39.96354851261998
            ],
            [
              116.34036865192358,
              39.96359659593596
            ],
            [
              116.34038399620502,
              39.96364374899527
            ],
            [
              116.34040527297631,
              39.96368951768591
            ],
            [
              116.34043227734075,
              39.963733461227285
            ],
            [
              116.34046474923997,
              39.96377515641531
            ],
            [
              116.34050237595812,
              39.96381420169817
            ],
            [
              116.34054479513331,
              39.96385022104371
            ],
            [
              116.34059159824707,
              39.963882867560976
            ],
            [
              116.34064233455874,
              39.96391182684121
            ],
            [
              116.34069651544618,
              39.9639368199859
            ],
            [
              116.34075361911182,
              39.96395760629295
            ],
            [
              116.34081309560788,
              39.963973985574945
            ],
            [
              116.34087437213317,
              39.9639858000872
            ],
            [
              116.34093685854977,
              39.96399293604705
            ],
            [
              116.34099995306681,
              39.96399532472976
            ],
            [
              116.3461363596327,
              39.96399549925175
            ],
            [
              116.34633650048596,
              39.9700027281527
            ],
            [
              116.34583598993707,
              39.98850700076893
            ],
            [
              116.34663570679183,
              40.007009600100986
            ],
            [
              116.34641646507603,
              40.01741474674179
            ],
            [
              116.34225674742012,
              40.01741463347101
            ],
            [
              116.34231386015921,
              40.018585392847335
            ]
          ]
        ]
      }
    }
  ]
}
