{
  "type": "FeatureCollection",
  "name": "jingzhang_civic_ai_spine_land_use",
  "features": [
    {
      "type": "Feature",
      "id": "LU-SPINE",
      "properties": {
        "id": "LU-SPINE",
        "layer": "LAND_USE",
        "source_type": "agent_generated_design",
        "confidence": "medium",
        "geometry_role": "design_proposal",
        "land_use_code": "1401",
        "land_use_name_zh": "京张遗址公园与开放智能公共空间主脉",
        "design_intent_zh": "把铁路文化、慢行、蓝绿空间和AI公共体验组织为连续主脉。",
        "source_id": "DATA-SRC-MNR-LAND-USE-CLASSIFICATION-202311",
        "area_sqm_declared": 2401942.132
      },
      "geometry": {
        "type": "Polygon",
        "coordinates": [
          [
            [
              116.34633650048596,
              39.9700027281527
            ],
            [
              116.34583598993707,
              39.98850700076893
            ],
            [
              116.34663570679183,
              40.007009600100986
            ],
            [
              116.34623588719977,
              40.02598176674555
            ],
            [
              116.34916411383014,
              40.02601821476098
            ],
            [
              116.34956429304829,
              40.00699038139361
            ],
            [
              116.34876401001473,
              39.98849298073579
            ],
            [
              116.34926349964822,
              39.96999725336846
            ],
            [
              116.34866318792304,
              39.951999419464684
            ],
            [
              116.34906201711051,
              39.93952770592467
            ],
            [
              116.34613798431972,
              39.93947227564765
            ],
            [
              116.3457368123038,
              39.9520005620671
            ],
            [
              116.34633650048596,
              39.9700027281527
            ]
          ]
        ]
      }
    },
    {
      "type": "Feature",
      "id": "LU-001",
      "properties": {
        "id": "LU-001",
        "layer": "LAND_USE",
        "source_type": "agent_generated_design",
        "confidence": "medium",
        "geometry_role": "design_proposal",
        "land_use_code": "05",
        "land_use_name_zh": "创新商务与公共服务混合区",
        "band_index": 1,
        "side": "W",
        "design_intent_zh": "围绕京张主脉形成研发、转化、生活和公共服务的复合界面。",
        "source_id": "DATA-SRC-MNR-LAND-USE-CLASSIFICATION-202311",
        "area_sqm_declared": 675764.825
      },
      "geometry": {
        "type": "Polygon",
        "coordinates": [
          [
            [
              116.34070000000001,
              39.93899999999999
            ],
            [
              116.3403388888889,
              39.952
            ],
            [
              116.3457364791412,
              39.952
            ],
            [
              116.34613763343613,
              39.939472268991594
            ],
            [
              116.34613763597329,
              39.93947224254956
            ],
            [
              116.34613764186518,
              39.93947221642629
            ],
            [
              116.34613765105512,
              39.93947219087336
            ],
            [
              116.34613766345458,
              39.939472166136845
            ],
            [
              116.34613767894416,
              39.93947214245498
            ],
            [
              116.34613769737463,
              39.93947212005582
            ],
            [
              116.34613771856858,
              39.93947209915511
            ],
            [
              116.34613774232186,
              39.93947207995412
            ],
            [
              116.34613776840568,
              39.93947206263774
            ],
            [
              116.34613779656888,
              39.93947204737278
            ],
            [
              116.34613782654024,
              39.939472034306235
            ],
            [
              116.3461378580311,
              39.939472023563944
            ],
            [
              116.34613789073816,
              39.93947201524934
            ],
            [
              116.3461379243465,
              39.93947200944253
            ],
            [
              116.3461379585324,
              39.939472006199416
            ],
            [
              116.34613799296663,
              39.93947200555123
            ],
            [
              116.34755,
              39.9394987726727
            ],
            [
              116.34755,
              39.93899999999999
            ],
            [
              116.34070000000001,
              39.93899999999999
            ]
          ]
        ]
      }
    },
    {
      "type": "Feature",
      "id": "LU-002",
      "properties": {
        "id": "LU-002",
        "layer": "LAND_USE",
        "source_type": "agent_generated_design",
        "confidence": "medium",
        "geometry_role": "design_proposal",
        "land_use_code": "0701",
        "land_use_name_zh": "人才居住与社区服务区",
        "band_index": 1,
        "side": "E",
        "design_intent_zh": "围绕京张主脉形成研发、转化、生活和公共服务的复合界面。",
        "source_id": "DATA-SRC-MNR-LAND-USE-CLASSIFICATION-202311",
        "area_sqm_declared": 800488.628
      },
      "geometry": {
        "type": "Polygon",
        "coordinates": [
          [
            [
              116.3553,
              39.939
            ],
            [
              116.34755,
              39.93899999999999
            ],
            [
              116.34755,
              39.9394987726727
            ],
            [
              116.34906202574595,
              39.93952743582794
            ],
            [
              116.34906206009704,
              39.93952743778007
            ],
            [
              116.34906209403417,
              39.93952744231459
            ],
            [
              116.34906212723045,
              39.93952744938781
            ],
            [
              116.34906215936621,
              39.93952745893161
            ],
            [
              116.349062190132,
              39.9395274708541
            ],
            [
              116.34906221923148,
              39.93952748504045
            ],
            [
              116.34906224638443,
              39.93952750135402
            ],
            [
              116.34906227132934,
              39.939527519637736
            ],
            [
              116.349062293826,
              39.93952753971548
            ],
            [
              116.34906231365773,
              39.93952756139393
            ],
            [
              116.34906233063354,
              39.93952758446427
            ],
            [
              116.34906234458997,
              39.93952760870434
            ],
            [
              116.34906235539258,
              39.939527633880715
            ],
            [
              116.34906236293735,
              39.93952765975089
            ],
            [
              116.34906236715163,
              39.93952768606575
            ],
            [
              116.3490623679948,
              39.93952771257188
            ],
            [
              116.34866353908816,
              39.95199941932313
            ],
            [
              116.34866355845645,
              39.952
            ],
            [
              116.3553,
              39.952
            ],
            [
              116.3553,
              39.939
            ]
          ]
        ]
      }
    },
    {
      "type": "Feature",
      "id": "LU-003",
      "properties": {
        "id": "LU-003",
        "layer": "LAND_USE",
        "source_type": "agent_generated_design",
        "confidence": "medium",
        "geometry_role": "design_proposal",
        "land_use_code": "0803",
        "land_use_name_zh": "京张文化与公共服务区",
        "band_index": 2,
        "side": "W",
        "design_intent_zh": "围绕京张主脉形成研发、转化、生活和公共服务的复合界面。",
        "source_id": "DATA-SRC-MNR-LAND-USE-CLASSIFICATION-202311",
        "area_sqm_declared": 893563.471
      },
      "geometry": {
        "type": "Polygon",
        "coordinates": [
          [
            [
              116.33989444444444,
              39.968
            ],
            [
              116.34626943435156,
              39.968
            ],
            [
              116.34573646136492,
              39.95200056899006
            ],
            [
              116.34573646135627,
              39.95200055540933
            ],
            [
              116.3457364791412,
              39.952
            ],
            [
              116.3403388888889,
              39.952
            ],
            [
              116.33989444444444,
              39.968
            ]
          ]
        ]
      }
    },
    {
      "type": "Feature",
      "id": "LU-004",
      "properties": {
        "id": "LU-004",
        "layer": "LAND_USE",
        "source_type": "agent_generated_design",
        "confidence": "medium",
        "geometry_role": "design_proposal",
        "land_use_code": "05",
        "land_use_name_zh": "智能原生商务区",
        "band_index": 2,
        "side": "E",
        "design_intent_zh": "围绕京张主脉形成研发、转化、生活和公共服务的复合界面。",
        "source_id": "DATA-SRC-MNR-LAND-USE-CLASSIFICATION-202311",
        "area_sqm_declared": 963530.726
      },
      "geometry": {
        "type": "Polygon",
        "coordinates": [
          [
            [
              116.3553,
              39.965
            ],
            [
              116.3553,
              39.952
            ],
            [
              116.34866355845645,
              39.952
            ],
            [
              116.34919723318241,
              39.968
            ],
            [
              116.35506,
              39.968
            ],
            [
              116.3553,
              39.965
            ]
          ]
        ]
      }
    },
    {
      "type": "Feature",
      "id": "LU-005",
      "properties": {
        "id": "LU-005",
        "layer": "LAND_USE",
        "source_type": "agent_generated_design",
        "confidence": "medium",
        "geometry_role": "design_proposal",
        "land_use_code": "0702",
        "land_use_name_zh": "社区公共服务与生活实验区",
        "band_index": 3,
        "side": "W",
        "design_intent_zh": "围绕京张主脉形成研发、转化、生活和公共服务的复合界面。",
        "source_id": "DATA-SRC-MNR-LAND-USE-CLASSIFICATION-202311",
        "area_sqm_declared": 923140.701
      },
      "geometry": {
        "type": "Polygon",
        "coordinates": [
          [
            [
              116.34024838709676,
              39.9835
            ],
            [
              116.3459710698921,
              39.9835
            ],
            [
              116.34633614924611,
              39.97000272880523
            ],
            [
              116.34626943435156,
              39.968
            ],
            [
              116.33989444444444,
              39.968
            ],
            [
              116.3397,
              39.975
            ],
            [
              116.34024838709676,
              39.9835
            ]
          ]
        ]
      }
    },
    {
      "type": "Feature",
      "id": "LU-006",
      "properties": {
        "id": "LU-006",
        "layer": "LAND_USE",
        "source_type": "agent_generated_design",
        "confidence": "medium",
        "geometry_role": "design_proposal",
        "land_use_code": "05",
        "land_use_name_zh": "企业服务与开放协作区",
        "band_index": 3,
        "side": "E",
        "design_intent_zh": "围绕京张主脉形成研发、转化、生活和公共服务的复合界面。",
        "source_id": "DATA-SRC-MNR-LAND-USE-CLASSIFICATION-202311",
        "area_sqm_declared": 785032.262
      },
      "geometry": {
        "type": "Polygon",
        "coordinates": [
          [
            [
              116.35506,
              39.968
            ],
            [
              116.34919723318241,
              39.968
            ],
            [
              116.34926385067892,
              39.969997246435575
            ],
            [
              116.34926385071881,
              39.969997258979234
            ],
            [
              116.34889920012951,
              39.9835
            ],
            [
              116.35382,
              39.9835
            ],
            [
              116.35506,
              39.968
            ]
          ]
        ]
      }
    },
    {
      "type": "Feature",
      "id": "LU-007",
      "properties": {
        "id": "LU-007",
        "layer": "LAND_USE",
        "source_type": "agent_generated_design",
        "confidence": "medium",
        "geometry_role": "design_proposal",
        "land_use_code": "0701",
        "land_use_name_zh": "人才居住与近校生活区",
        "band_index": 4,
        "side": "W",
        "design_intent_zh": "围绕京张主脉形成研发、转化、生活和公共服务的复合界面。",
        "source_id": "DATA-SRC-MNR-LAND-USE-CLASSIFICATION-202311",
        "area_sqm_declared": 701663.362
      },
      "geometry": {
        "type": "Polygon",
        "coordinates": [
          [
            [
              116.34115161290322,
              39.9975
            ],
            [
              116.34622433265675,
              39.9975
            ],
            [
              116.34583563888998,
              39.98850700974431
            ],
            [
              116.34583563877217,
              39.98850699514702
            ],
            [
              116.3459710698921,
              39.9835
            ],
            [
              116.34024838709676,
              39.9835
            ],
            [
              116.34115161290322,
              39.9975
            ]
          ]
        ]
      }
    },
    {
      "type": "Feature",
      "id": "LU-008",
      "properties": {
        "id": "LU-008",
        "layer": "LAND_USE",
        "source_type": "agent_generated_design",
        "confidence": "medium",
        "geometry_role": "design_proposal",
        "land_use_code": "0802",
        "land_use_name_zh": "科研与成果转化区",
        "band_index": 4,
        "side": "E",
        "design_intent_zh": "围绕京张主脉形成研发、转化、生活和公共服务的复合界面。",
        "source_id": "DATA-SRC-MNR-LAND-USE-CLASSIFICATION-202311",
        "area_sqm_declared": 613012.463
      },
      "geometry": {
        "type": "Polygon",
        "coordinates": [
          [
            [
              116.3533,
              39.989999999999995
            ],
            [
              116.35382,
              39.9835
            ],
            [
              116.34889920012951,
              39.9835
            ],
            [
              116.34876436137715,
              39.98849297904894
            ],
            [
              116.34915404677335,
              39.9975
            ],
            [
              116.35371095890412,
              39.9975
            ],
            [
              116.3533,
              39.989999999999995
            ]
          ]
        ]
      }
    },
    {
      "type": "Feature",
      "id": "LU-009",
      "properties": {
        "id": "LU-009",
        "layer": "LAND_USE",
        "source_type": "agent_generated_design",
        "confidence": "medium",
        "geometry_role": "design_proposal",
        "land_use_code": "0804",
        "land_use_name_zh": "教育科研协同区",
        "band_index": 5,
        "side": "W",
        "design_intent_zh": "围绕京张主脉形成研发、转化、生活和公共服务的复合界面。",
        "source_id": "DATA-SRC-MNR-LAND-USE-CLASSIFICATION-202311",
        "area_sqm_declared": 692722.302
      },
      "geometry": {
        "type": "Polygon",
        "coordinates": [
          [
            [
              116.34169999999999,
              40.00600000000001
            ],
            [
              116.34201707317072,
              40.0125
            ],
            [
              116.34651965065028,
              40.0125
            ],
            [
              116.34663535536146,
              40.007009602402796
            ],
            [
              116.34622433265675,
              39.9975
            ],
            [
              116.34115161290322,
              39.9975
            ],
            [
              116.34169999999999,
              40.00600000000001
            ]
          ]
        ]
      }
    },
    {
      "type": "Feature",
      "id": "LU-010",
      "properties": {
        "id": "LU-010",
        "layer": "LAND_USE",
        "source_type": "agent_generated_design",
        "confidence": "medium",
        "geometry_role": "design_proposal",
        "land_use_code": "0802",
        "land_use_name_zh": "全栈研发与测试区",
        "band_index": 5,
        "side": "E",
        "design_intent_zh": "围绕京张主脉形成研发、转化、生活和公共服务的复合界面。",
        "source_id": "DATA-SRC-MNR-LAND-USE-CLASSIFICATION-202311",
        "area_sqm_declared": 669657.341
      },
      "geometry": {
        "type": "Polygon",
        "coordinates": [
          [
            [
              116.35371095890412,
              39.9975
            ],
            [
              116.34915404677335,
              39.9975
            ],
            [
              116.34956464418974,
              40.00699037240772
            ],
            [
              116.34956464433822,
              40.00699038576095
            ],
            [
              116.34944877026372,
              40.0125
            ],
            [
              116.35453287671233,
              40.0125
            ],
            [
              116.35371095890412,
              39.9975
            ]
          ]
        ]
      }
    },
    {
      "type": "Feature",
      "id": "LU-011",
      "properties": {
        "id": "LU-011",
        "layer": "LAND_USE",
        "source_type": "agent_generated_design",
        "confidence": "medium",
        "geometry_role": "design_proposal",
        "land_use_code": "0802",
        "land_use_name_zh": "全栈自主创新研发区",
        "band_index": 6,
        "side": "W",
        "design_intent_zh": "围绕京张主脉形成研发、转化、生活和公共服务的复合界面。",
        "source_id": "DATA-SRC-MNR-LAND-USE-CLASSIFICATION-202311",
        "area_sqm_declared": 539055.013
      },
      "geometry": {
        "type": "Polygon",
        "coordinates": [
          [
            [
              116.34270000000001,
              40.0265
            ],
            [
              116.34755,
              40.0265
            ],
            [
              116.34755,
              40.025998393887306
            ],
            [
              116.34623588150477,
              40.02598203688447
            ],
            [
              116.34623584709024,
              40.02598203515455
            ],
            [
              116.346235813062,
              40.025982030839685
            ],
            [
              116.34623577974774,
              40.02598202398145
            ],
            [
              116.3462357474683,
              40.02598201464592
            ],
            [
              116.34623571653455,
              40.02598200292296
            ],
            [
              116.34623568724442,
              40.02598198892546
            ],
            [
              116.34623565987995,
              40.02598197278825
            ],
            [
              116.34623563470468,
              40.02598195466677
            ],
            [
              116.3462356119611,
              40.025981934735476
            ],
            [
              116.34623559186821,
              40.02598191318636
            ],
            [
              116.34623557461953,
              40.02598189022694
            ],
            [
              116.34623556038117,
              40.02598186607831
            ],
            [
              116.34623554929026,
              40.02598184097306
            ],
            [
              116.34623554145357,
              40.02598181515296
            ],
            [
              116.34623553694662,
              40.02598178886667
            ],
            [
              116.34623553581282,
              40.025981762367344
            ],
            [
              116.34651965065028,
              40.0125
            ],
            [
              116.34201707317072,
              40.0125
            ],
            [
              116.34270000000001,
              40.0265
            ]
          ]
        ]
      }
    },
    {
      "type": "Feature",
      "id": "LU-012",
      "properties": {
        "id": "LU-012",
        "layer": "LAND_USE",
        "source_type": "agent_generated_design",
        "confidence": "medium",
        "geometry_role": "design_proposal",
        "land_use_code": "05",
        "land_use_name_zh": "产业展示与国际交流区",
        "band_index": 6,
        "side": "E",
        "design_intent_zh": "围绕京张主脉形成研发、转化、生活和公共服务的复合界面。",
        "source_id": "DATA-SRC-MNR-LAND-USE-CLASSIFICATION-202311",
        "area_sqm_declared": 752680.553
      },
      "geometry": {
        "type": "Polygon",
        "coordinates": [
          [
            [
              116.3553,
              40.0265
            ],
            [
              116.35453287671233,
              40.0125
            ],
            [
              116.34944877026372,
              40.0125
            ],
            [
              116.34916446521758,
              40.0260182191303
            ],
            [
              116.34916446296847,
              40.02601824558753
            ],
            [
              116.34916445735699,
              40.02601827174788
            ],
            [
              116.34916444843714,
              40.02601829735941
            ],
            [
              116.34916443629484,
              40.02601832217548
            ],
            [
              116.34916442104704,
              40.0260183459571
            ],
            [
              116.34916440284057,
              40.02601836847522
            ],
            [
              116.34916438185077,
              40.02601838951298
            ],
            [
              116.34916435827978,
              40.026018408867785
            ],
            [
              116.34916433235459,
              40.02601842635323
            ],
            [
              116.34916430432493,
              40.026018441800936
            ],
            [
              116.34916427446066,
              40.02601845506213
            ],
            [
              116.34916424304946,
              40.026018466009084
            ],
            [
              116.34916421039381,
              40.02601847453638
            ],
            [
              116.34916417680817,
              40.026018480561895
            ],
            [
              116.34916414261603,
              40.02601848402761
            ],
            [
              116.34916410814668,
              40.02601848490012
            ],
            [
              116.34755,
              40.025998393887306
            ],
            [
              116.34755,
              40.0265
            ],
            [
              116.3553,
              40.0265
            ]
          ]
        ]
      }
    }
  ]
}
