{
  "type": "FeatureCollection",
  "name": "conceptual_continuous_green_space",
  "features": [
    {
      "type": "Feature",
      "id": "GREEN-001",
      "properties": {
        "id": "GREEN-001",
        "layer": "GREEN_SPACE",
        "source_type": "agent_generated_design",
        "confidence": "medium",
        "geometry_role": "design_proposal",
        "land_use_code": "1401",
        "name_zh": "京张智脉连续蓝绿生活廊",
        "concept_role": "one_line_blue_green_support",
        "planning_status": "conceptual_not_statutory_green_control",
        "area_sqm_declared": 553853.96,
        "assumption_ids": [
          "A-BOUNDARY-001",
          "A-LANDUSE-001",
          "A-GREEN-CONTROL-001",
          "A-RECALC-001"
        ],
        "usage_note": "Conceptual green-space geometry wholly inside LU-002; the topology inset is not a statutory setback and does not satisfy or establish an unavailable statutory green-ratio control.",
        "topology_method": "conceptual_inset_wholly_within_LU-002",
        "parent_land_use_id": "LU-002",
        "topology_inset_degrees": 0.0001,
        "topology_inset_is_statutory_setback": false,
        "cross_layer_rule": "GREEN-001 must be wholly covered by the land_use_code=1401 feature in EPSG:4326 and EPSG:4548."
      },
      "geometry": {
        "type": "Polygon",
        "coordinates": [
          [
            [
              116.3406902852152,
              39.942951120873396
            ],
            [
              116.33980008953549,
              39.97499816534329
            ],
            [
              116.3417998430237,
              40.005994344410354
            ],
            [
              116.34242350192329,
              40.01877935185228
            ],
            [
              116.3406902852152,
              39.942951120873396
            ]
          ]
        ]
      }
    }
  ]
}
