{
  "type": "FeatureCollection",
  "name": "land_use_shared_edge_partition",
  "features": [
    {
      "type": "Feature",
      "id": "LU-001",
      "properties": {
        "id": "LU-001",
        "layer": "LAND_USE",
        "source_type": "agent_generated_design",
        "confidence": "medium",
        "geometry_role": "design_proposal",
        "land_use_code": "0802",
        "name_zh": "AI研发创新用地",
        "conceptual_role": "research_and_translation",
        "planning_status": "conceptual_not_statutory",
        "area_sqm_declared": 6924069.476,
        "assumption_ids": [
          "A-BOUNDARY-001",
          "A-LANDUSE-001",
          "A-RECALC-001"
        ],
        "usage_note": "Editable conceptual partition; not an approved land-use plan.",
        "topology_method": "source_vertex_fan_from_locked_SITE-001"
      },
      "geometry": {
        "type": "Polygon",
        "coordinates": [
          [
            [
              116.3407,
              39.939
            ],
            [
              116.3533,
              39.99
            ],
            [
              116.3553,
              40.0265
            ],
            [
              116.3427,
              40.0265
            ],
            [
              116.3407,
              39.939
            ]
          ]
        ]
      }
    },
    {
      "type": "Feature",
      "id": "LU-002",
      "properties": {
        "id": "LU-002",
        "layer": "LAND_USE",
        "source_type": "agent_generated_design",
        "confidence": "medium",
        "geometry_role": "design_proposal",
        "land_use_code": "1401",
        "name_zh": "公园绿地与开敞空间",
        "conceptual_role": "living_green_spine",
        "planning_status": "conceptual_not_statutory",
        "area_sqm_declared": 708789.954,
        "assumption_ids": [
          "A-BOUNDARY-001",
          "A-LANDUSE-001",
          "A-RECALC-001"
        ],
        "usage_note": "Editable conceptual partition; not an approved land-use plan.",
        "topology_method": "source_vertex_fan_from_locked_SITE-001"
      },
      "geometry": {
        "type": "Polygon",
        "coordinates": [
          [
            [
              116.3407,
              39.939
            ],
            [
              116.3427,
              40.0265
            ],
            [
              116.3417,
              40.006
            ],
            [
              116.3397,
              39.975
            ],
            [
              116.3407,
              39.939
            ]
          ]
        ]
      }
    },
    {
      "type": "Feature",
      "id": "LU-003",
      "properties": {
        "id": "LU-003",
        "layer": "LAND_USE",
        "source_type": "agent_generated_design",
        "confidence": "medium",
        "geometry_role": "design_proposal",
        "land_use_code": "05",
        "name_zh": "产业服务与商业服务用地",
        "conceptual_role": "industry_and_exchange",
        "planning_status": "conceptual_not_statutory",
        "area_sqm_declared": 1801343.489,
        "assumption_ids": [
          "A-BOUNDARY-001",
          "A-LANDUSE-001",
          "A-RECALC-001"
        ],
        "usage_note": "Editable conceptual partition; not an approved land-use plan.",
        "topology_method": "source_vertex_fan_from_locked_SITE-001"
      },
      "geometry": {
        "type": "Polygon",
        "coordinates": [
          [
            [
              116.3407,
              39.939
            ],
            [
              116.3553,
              39.939
            ],
            [
              116.3553,
              39.965
            ],
            [
              116.3407,
              39.939
            ]
          ]
        ]
      }
    },
    {
      "type": "Feature",
      "id": "LU-004",
      "properties": {
        "id": "LU-004",
        "layer": "LAND_USE",
        "source_type": "agent_generated_design",
        "confidence": "medium",
        "geometry_role": "design_proposal",
        "land_use_code": "0702",
        "name_zh": "社区服务与配套用地",
        "conceptual_role": "talent_and_daily_services",
        "planning_status": "conceptual_not_statutory",
        "area_sqm_declared": 1978622.466,
        "assumption_ids": [
          "A-BOUNDARY-001",
          "A-LANDUSE-001",
          "A-RECALC-001"
        ],
        "usage_note": "Editable conceptual partition; not an approved land-use plan.",
        "topology_method": "source_vertex_fan_from_locked_SITE-001"
      },
      "geometry": {
        "type": "Polygon",
        "coordinates": [
          [
            [
              116.3407,
              39.939
            ],
            [
              116.3553,
              39.965
            ],
            [
              116.3533,
              39.99
            ],
            [
              116.3407,
              39.939
            ]
          ]
        ]
      }
    }
  ]
}
