{
 "type": "FeatureCollection",
 "name": "PHASING",
 "features": [
  {
   "type": "Feature",
   "id": "PH-001",
   "properties": {
    "id": "PH-001",
    "layer": "PHASE",
    "source_type": "agent_generated_design",
    "confidence": "medium",
    "geometry_role": "design_proposal",
    "phase_id": "PH-002",
    "phase_name_zh": "中期：转化站与加速站",
    "area_sqm_declared": 3238527.804
   },
   "geometry": {
    "type": "Polygon",
    "coordinates": [
     [
      [
       116.340065841,
       39.961835204
      ],
      [
       116.355300007,
       39.961920929
      ],
      [
       116.3553,
       39.939
      ],
      [
       116.3407,
       39.939
      ],
      [
       116.340065841,
       39.961835204
      ]
     ]
    ]
   }
  },
  {
   "type": "Feature",
   "id": "PH-002",
   "properties": {
    "id": "PH-002",
    "layer": "PHASE",
    "source_type": "agent_generated_design",
    "confidence": "medium",
    "geometry_role": "design_proposal",
    "phase_id": "PH-003",
    "phase_name_zh": "远期：两翼织补",
    "area_sqm_declared": 1935124.023
   },
   "geometry": {
    "type": "Polygon",
    "coordinates": [
     [
      [
       116.3397,
       39.975
      ],
      [
       116.339722085,
       39.97534246
      ],
      [
       116.354466153,
       39.975425509
      ],
      [
       116.3553,
       39.965
      ],
      [
       116.355300007,
       39.961920929
      ],
      [
       116.340065841,
       39.961835204
      ],
      [
       116.3397,
       39.975
      ]
     ]
    ]
   }
  },
  {
   "type": "Feature",
   "id": "PH-003",
   "properties": {
    "id": "PH-003",
    "layer": "PHASE",
    "source_type": "agent_generated_design",
    "confidence": "medium",
    "geometry_role": "design_proposal",
    "phase_id": "PH-001",
    "phase_name_zh": "近期：拓路者之路示范段与启源站",
    "area_sqm_declared": 1764142.594
   },
   "geometry": {
    "type": "Polygon",
    "coordinates": [
     [
      [
       116.340593773,
       39.988856604
      ],
      [
       116.353385739,
       39.988928675
      ],
      [
       116.354466153,
       39.975425509
      ],
      [
       116.339722085,
       39.97534246
      ],
      [
       116.340593773,
       39.988856604
      ]
     ]
    ]
   }
  },
  {
   "type": "Feature",
   "id": "PH-004",
   "properties": {
    "id": "PH-004",
    "layer": "PHASE",
    "source_type": "agent_generated_design",
    "confidence": "medium",
    "geometry_role": "design_proposal",
    "phase_id": "PH-003",
    "phase_name_zh": "远期：两翼织补",
    "area_sqm_declared": 1612531.545
   },
   "geometry": {
    "type": "Polygon",
    "coordinates": [
     [
      [
       116.341465768,
       40.002370714
      ],
      [
       116.353981496,
       40.002441155
      ],
      [
       116.3533,
       39.99
      ],
      [
       116.353385739,
       39.988928675
      ],
      [
       116.340593773,
       39.988856604
      ],
      [
       116.341465768,
       40.002370714
      ]
     ]
    ]
   }
  },
  {
   "type": "Feature",
   "id": "PH-005",
   "properties": {
    "id": "PH-005",
    "layer": "PHASE",
    "source_type": "agent_generated_design",
    "confidence": "medium",
    "geometry_role": "design_proposal",
    "phase_id": "PH-002",
    "phase_name_zh": "中期：转化站与加速站",
    "area_sqm_declared": 2862499.672
   },
   "geometry": {
    "type": "Polygon",
    "coordinates": [
     [
      [
       116.3417,
       40.006
      ],
      [
       116.3427,
       40.0265
      ],
      [
       116.3553,
       40.0265
      ],
      [
       116.353981496,
       40.002441155
      ],
      [
       116.341465768,
       40.002370714
      ],
      [
       116.3417,
       40.006
      ]
     ]
    ]
   }
  }
 ]
}