{
  "type": "FeatureCollection",
  "name": "land_use",
  "features": [
    {
      "type": "Feature",
      "id": "LU-001",
      "properties": {
        "id": "LU-001",
        "layer": "LAND_USE",
        "source_type": "agent_generated_design",
        "confidence": "medium",
        "geometry_role": "design_proposal",
        "land_use_code": "1401",
        "name_zh": "公园绿地与开敞空间(京张遗址公园活力带)",
        "area_sqm_calculated": 2074790.169
      },
      "geometry": {
        "type": "Polygon",
        "coordinates": [
          [
            [
              116.347,
              39.965
            ],
            [
              116.347,
              39.9835
            ],
            [
              116.347,
              39.9935
            ],
            [
              116.347,
              40.006
            ],
            [
              116.347,
              40.0265
            ],
            [
              116.3495,
              40.0265
            ],
            [
              116.3495,
              40.006
            ],
            [
              116.3495,
              39.9935
            ],
            [
              116.3495,
              39.9835
            ],
            [
              116.3495,
              39.965
            ],
            [
              116.3495,
              39.94984
            ],
            [
              116.3495,
              39.939
            ],
            [
              116.347,
              39.939
            ],
            [
              116.347,
              39.94984
            ],
            [
              116.347,
              39.965
            ]
          ]
        ]
      }
    },
    {
      "type": "Feature",
      "id": "LU-002",
      "properties": {
        "id": "LU-002",
        "layer": "LAND_USE",
        "source_type": "agent_generated_design",
        "confidence": "medium",
        "geometry_role": "design_proposal",
        "land_use_code": "0802",
        "name_zh": "科研用地(AI研发与全栈创新)",
        "area_sqm_calculated": 1608874.374
      },
      "geometry": {
        "type": "Polygon",
        "coordinates": [
          [
            [
              116.347,
              39.9935
            ],
            [
              116.3408935483871,
              39.9935
            ],
            [
              116.3417,
              40.006
            ],
            [
              116.3427,
              40.0265
            ],
            [
              116.347,
              40.0265
            ],
            [
              116.347,
              40.006
            ],
            [
              116.347,
              39.9935
            ]
          ]
        ]
      }
    },
    {
      "type": "Feature",
      "id": "LU-003",
      "properties": {
        "id": "LU-003",
        "layer": "LAND_USE",
        "source_type": "agent_generated_design",
        "confidence": "medium",
        "geometry_role": "design_proposal",
        "land_use_code": "0802",
        "name_zh": "科研用地(AI研发与全栈创新)",
        "area_sqm_calculated": 1531762.231
      },
      "geometry": {
        "type": "Polygon",
        "coordinates": [
          [
            [
              116.3495,
              39.9935
            ],
            [
              116.3495,
              40.006
            ],
            [
              116.3495,
              40.0265
            ],
            [
              116.3553,
              40.0265
            ],
            [
              116.35417671232877,
              40.006
            ],
            [
              116.35386752561317,
              40.00035734244023
            ],
            [
              116.35349178082193,
              39.9935
            ],
            [
              116.3495,
              39.9935
            ]
          ]
        ]
      }
    },
    {
      "type": "Feature",
      "id": "LU-004",
      "properties": {
        "id": "LU-004",
        "layer": "LAND_USE",
        "source_type": "agent_generated_design",
        "confidence": "medium",
        "geometry_role": "design_proposal",
        "land_use_code": "0804",
        "name_zh": "教育科研用地(高校衔接与原点社区)",
        "area_sqm_calculated": 609728.836
      },
      "geometry": {
        "type": "Polygon",
        "coordinates": [
          [
            [
              116.34060277777778,
              39.988993055555554
            ],
            [
              116.3408935483871,
              39.9935
            ],
            [
              116.347,
              39.9935
            ],
            [
              116.347,
              39.9835
            ],
            [
              116.34024838709676,
              39.9835
            ],
            [
              116.34060277777778,
              39.988993055555554
            ]
          ]
        ]
      }
    },
    {
      "type": "Feature",
      "id": "LU-005",
      "properties": {
        "id": "LU-005",
        "layer": "LAND_USE",
        "source_type": "agent_generated_design",
        "confidence": "medium",
        "geometry_role": "design_proposal",
        "land_use_code": "0803",
        "name_zh": "文化用地(AI文化创新带)",
        "area_sqm_calculated": 379602.179
      },
      "geometry": {
        "type": "Polygon",
        "coordinates": [
          [
            [
              116.3533,
              39.99
            ],
            [
              116.35382,
              39.9835
            ],
            [
              116.3495,
              39.9835
            ],
            [
              116.3495,
              39.9935
            ],
            [
              116.35349178082193,
              39.9935
            ],
            [
              116.3533,
              39.99
            ]
          ]
        ]
      }
    },
    {
      "type": "Feature",
      "id": "LU-006",
      "properties": {
        "id": "LU-006",
        "layer": "LAND_USE",
        "source_type": "agent_generated_design",
        "confidence": "medium",
        "geometry_role": "design_proposal",
        "land_use_code": "05",
        "name_zh": "商业服务业用地(创新服务与智能经济)",
        "area_sqm_calculated": 2889170.163
      },
      "geometry": {
        "type": "Polygon",
        "coordinates": [
          [
            [
              116.34039888888888,
              39.94984
            ],
            [
              116.34030365340071,
              39.95326847757423
            ],
            [
              116.33997777777778,
              39.965
            ],
            [
              116.3397,
              39.975
            ],
            [
              116.34024838709676,
              39.9835
            ],
            [
              116.347,
              39.9835
            ],
            [
              116.347,
              39.965
            ],
            [
              116.347,
              39.94984
            ],
            [
              116.347,
              39.939
            ],
            [
              116.3407,
              39.939
            ],
            [
              116.34039888888888,
              39.94984
            ]
          ]
        ]
      }
    },
    {
      "type": "Feature",
      "id": "LU-007",
      "properties": {
        "id": "LU-007",
        "layer": "LAND_USE",
        "source_type": "agent_generated_design",
        "confidence": "medium",
        "geometry_role": "design_proposal",
        "land_use_code": "0701",
        "name_zh": "居住用地(宜居社区)",
        "area_sqm_calculated": 1722271.779
      },
      "geometry": {
        "type": "Polygon",
        "coordinates": [
          [
            [
              116.3495,
              39.94984
            ],
            [
              116.3495,
              39.965
            ],
            [
              116.3495,
              39.9835
            ],
            [
              116.35382,
              39.9835
            ],
            [
              116.3553,
              39.965
            ],
            [
              116.3553,
              39.94984
            ],
            [
              116.3495,
              39.94984
            ]
          ]
        ]
      }
    },
    {
      "type": "Feature",
      "id": "LU-008",
      "properties": {
        "id": "LU-008",
        "layer": "LAND_USE",
        "source_type": "agent_generated_design",
        "confidence": "medium",
        "geometry_role": "design_proposal",
        "land_use_code": "0702",
        "name_zh": "社区服务用地(公共服务设施)",
        "area_sqm_calculated": 596654.183
      },
      "geometry": {
        "type": "Polygon",
        "coordinates": [
          [
            [
              116.3553,
              39.939
            ],
            [
              116.3495,
              39.939
            ],
            [
              116.3495,
              39.94984
            ],
            [
              116.3553,
              39.94984
            ],
            [
              116.3553,
              39.939
            ]
          ]
        ]
      }
    }
  ]
}