{
  "type": "FeatureCollection",
  "name": "constraints_autonomous_line",
  "features": [
    {
      "type": "Feature",
      "id": "CONS-001",
      "properties": {
        "id": "CONS-001",
        "layer": "EXISTING_RAIL",
        "source_type": "agent_inferred_from_public_data",
        "confidence": "medium",
        "geometry_role": "existing_condition",
        "name_zh": "京张铁路/京张高铁走廊"
      },
      "geometry": {
        "type": "LineString",
        "coordinates": [
          [
            116.347,
            39.939
          ],
          [
            116.3472,
            39.951
          ],
          [
            116.3473,
            39.962
          ],
          [
            116.348,
            39.9725
          ],
          [
            116.349,
            39.9835
          ],
          [
            116.3492,
            39.994
          ],
          [
            116.348,
            40.006
          ],
          [
            116.3472,
            40.014
          ],
          [
            116.3468,
            40.0265
          ]
        ]
      }
    },
    {
      "type": "Feature",
      "id": "CONS-002",
      "properties": {
        "id": "CONS-002",
        "layer": "HERITAGE_PROTECTION",
        "source_type": "agent_inferred_from_public_data",
        "confidence": "medium",
        "geometry_role": "existing_condition",
        "name_zh": "清华园站文物保护范围",
        "area_sqm_declared": 52356.1
      },
      "geometry": {
        "type": "Polygon",
        "coordinates": [
          [
            [
              116.3478,
              39.9812
            ],
            [
              116.3478,
              39.9835
            ],
            [
              116.3502,
              39.9835
            ],
            [
              116.3502,
              39.9812
            ],
            [
              116.3478,
              39.9812
            ]
          ]
        ]
      }
    },
    {
      "type": "Feature",
      "id": "CONS-003",
      "properties": {
        "id": "CONS-003",
        "layer": "EXISTING_PRIMARY_ROAD",
        "source_type": "osm",
        "confidence": "high",
        "geometry_role": "existing_condition",
        "name_zh": "学院路现状主干路"
      },
      "geometry": {
        "type": "LineString",
        "coordinates": [
          [
            116.3522,
            39.947
          ],
          [
            116.3522,
            40.019
          ]
        ]
      }
    },
    {
      "type": "Feature",
      "id": "CONS-004",
      "properties": {
        "id": "CONS-004",
        "layer": "EXISTING_WATER",
        "source_type": "osm",
        "confidence": "high",
        "geometry_role": "existing_condition",
        "name_zh": "清河（北侧）",
        "area_sqm_declared": 222756.8
      },
      "geometry": {
        "type": "Polygon",
        "coordinates": [
          [
            [
              116.3438,
              40.0235
            ],
            [
              116.3438,
              40.026
            ],
            [
              116.3532,
              40.026
            ],
            [
              116.3532,
              40.0235
            ],
            [
              116.3438,
              40.0235
            ]
          ]
        ]
      }
    },
    {
      "type": "Feature",
      "id": "CONS-005",
      "properties": {
        "id": "CONS-005",
        "layer": "EXISTING_WATER",
        "source_type": "osm",
        "confidence": "medium",
        "geometry_role": "existing_condition",
        "name_zh": "小月河"
      },
      "geometry": {
        "type": "LineString",
        "coordinates": [
          [
            116.3518,
            39.978
          ],
          [
            116.3518,
            40.004
          ]
        ]
      }
    },
    {
      "type": "Feature",
      "id": "CONS-006",
      "properties": {
        "id": "CONS-006",
        "layer": "REGULATORY_CONTROL",
        "source_type": "agent_generated_design",
        "confidence": "medium",
        "geometry_role": "design_proposal",
        "name_zh": "轨道交通安全防护与遗址公园绿线",
        "area_sqm_declared": 1244874.5
      },
      "geometry": {
        "type": "MultiPolygon",
        "coordinates": [
          [
            [
              [
                116.3456,
                39.9725
              ],
              [
                116.3451,
                39.984
              ],
              [
                116.3449,
                39.994
              ],
              [
                116.3451,
                40.006
              ],
              [
                116.3456,
                40.014
              ],
              [
                116.34617692,
                40.0265
              ],
              [
                116.34692692,
                40.0265
              ],
              [
                116.34635,
                40.014
              ],
              [
                116.34585,
                40.006
              ],
              [
                116.34565,
                39.994
              ],
              [
                116.34585,
                39.984
              ],
              [
                116.34635,
                39.9725
              ],
              [
                116.34675,
                39.962
              ],
              [
                116.34695,
                39.951
              ],
              [
                116.346758,
                39.939
              ],
              [
                116.346008,
                39.939
              ],
              [
                116.3462,
                39.951
              ],
              [
                116.346,
                39.962
              ],
              [
                116.3456,
                39.9725
              ]
            ]
          ],
          [
            [
              [
                116.3475,
                40.006
              ],
              [
                116.3473,
                39.994
              ],
              [
                116.3475,
                39.984
              ],
              [
                116.348,
                39.9725
              ],
              [
                116.3484,
                39.962
              ],
              [
                116.3486,
                39.951
              ],
              [
                116.348408,
                39.939
              ],
              [
                116.347658,
                39.939
              ],
              [
                116.34785,
                39.951
              ],
              [
                116.34765,
                39.962
              ],
              [
                116.34725,
                39.9725
              ],
              [
                116.34675,
                39.984
              ],
              [
                116.34655,
                39.994
              ],
              [
                116.34675,
                40.006
              ],
              [
                116.34725,
                40.014
              ],
              [
                116.34782692,
                40.0265
              ],
              [
                116.34857692,
                40.0265
              ],
              [
                116.348,
                40.014
              ],
              [
                116.3475,
                40.006
              ]
            ]
          ]
        ]
      }
    },
    {
      "type": "Feature",
      "id": "CONS-007",
      "properties": {
        "id": "CONS-007",
        "layer": "REGULATORY_CONTROL",
        "source_type": "agent_generated_design",
        "confidence": "medium",
        "geometry_role": "design_proposal",
        "name_zh": "北四环沿线防护与控制带",
        "area_sqm_declared": 203304.8
      },
      "geometry": {
        "type": "Polygon",
        "coordinates": [
          [
            [
              116.35346438,
              39.993
            ],
            [
              116.3428,
              39.993
            ],
            [
              116.3428,
              39.995
            ],
            [
              116.35357397,
              39.995
            ],
            [
              116.35346438,
              39.993
            ]
          ]
        ]
      }
    }
  ]
}