{
  "type": "FeatureCollection",
  "name": "pending_professional_constraints",
  "features": [
    {
      "type": "Feature",
      "id": "CONSTRAINT-001",
      "properties": {
        "id": "CONSTRAINT-001",
        "layer": "REGULATORY_CONTROL",
        "source_type": "agent_inferred_from_public_data",
        "confidence": "low",
        "geometry_role": "analysis_helper",
        "name_zh": "正式控规待补",
        "name_en": "Statutory controls pending",
        "constraint_status": "unknown",
        "area_sqm_declared": 112442.623
      },
      "geometry": {
        "type": "Polygon",
        "coordinates": [
          [
            [
              116.341884,
              39.9495
            ],
            [
              116.341884,
              39.94075
            ],
            [
              116.34065138888889,
              39.94075
            ],
            [
              116.34040833333333,
              39.9495
            ],
            [
              116.341884,
              39.9495
            ]
          ]
        ]
      }
    },
    {
      "type": "Feature",
      "id": "CONSTRAINT-002",
      "properties": {
        "id": "CONSTRAINT-002",
        "layer": "HERITAGE_PROTECTION",
        "source_type": "agent_inferred_from_public_data",
        "confidence": "low",
        "geometry_role": "analysis_helper",
        "name_zh": "文保边界待核",
        "name_en": "Heritage limits pending",
        "constraint_status": "unknown",
        "area_sqm_declared": 185236.872
      },
      "geometry": {
        "type": "Polygon",
        "coordinates": [
          [
            [
              116.34671999999999,
              39.94075
            ],
            [
              116.34671999999999,
              39.950375
            ],
            [
              116.348748,
              39.950375
            ],
            [
              116.348748,
              39.94075
            ],
            [
              116.34671999999999,
              39.94075
            ]
          ]
        ]
      }
    },
    {
      "type": "Feature",
      "id": "CONSTRAINT-003",
      "properties": {
        "id": "CONSTRAINT-003",
        "layer": "REGULATORY_CONTROL",
        "source_type": "agent_inferred_from_public_data",
        "confidence": "low",
        "geometry_role": "analysis_helper",
        "name_zh": "权属与市政待核",
        "name_en": "Ownership and utilities pending",
        "constraint_status": "unknown",
        "area_sqm_declared": 95035.438
      },
      "geometry": {
        "type": "Polygon",
        "coordinates": [
          [
            [
              116.35280399999999,
              39.978375
            ],
            [
              116.35280399999999,
              39.988
            ],
            [
              116.35346,
              39.988
            ],
            [
              116.35423,
              39.978375
            ],
            [
              116.35280399999999,
              39.978375
            ]
          ]
        ]
      }
    }
  ]
}
