{
  "type": "FeatureCollection",
  "name": "jingzhang_basics_mobility",
  "features": [
    {
      "type": "Feature",
      "id": "ROAD-001",
      "properties": {
        "id": "ROAD-001",
        "layer": "ROAD_CENTERLINE",
        "source_type": "agent_generated_design",
        "confidence": "medium",
        "geometry_role": "design_proposal",
        "road_class": "greenway",
        "name_zh": "基本功南北慢行主线",
        "name_en": "North-south Basics walking spine",
        "engineering_status": "conceptual_alignment_pending_professional_review"
      },
      "geometry": {
        "type": "LineString",
        "coordinates": [
          [
            116.348199606,
            39.93900023
          ],
          [
            116.347533524,
            39.953843675
          ],
          [
            116.348012344,
            39.968733454
          ],
          [
            116.347519656,
            39.983617728
          ],
          [
            116.347916627,
            39.998506971
          ],
          [
            116.347174296,
            40.01251406
          ],
          [
            116.347309938,
            40.026500159
          ]
        ]
      }
    },
    {
      "type": "Feature",
      "id": "ROAD-002",
      "properties": {
        "id": "ROAD-002",
        "layer": "ROAD_CENTERLINE",
        "source_type": "agent_generated_design",
        "confidence": "medium",
        "geometry_role": "design_proposal",
        "road_class": "pedestrian",
        "name_zh": "东西基本服务缝合线 1",
        "name_en": "East-west basic-service link 1",
        "engineering_status": "conceptual_connection_pending_road_and_ownership_data"
      },
      "geometry": {
        "type": "LineString",
        "coordinates": [
          [
            116.340410557,
            39.949424807
          ],
          [
            116.355300016,
            39.949508564
          ]
        ]
      }
    },
    {
      "type": "Feature",
      "id": "ROAD-003",
      "properties": {
        "id": "ROAD-003",
        "layer": "ROAD_CENTERLINE",
        "source_type": "agent_generated_design",
        "confidence": "medium",
        "geometry_role": "design_proposal",
        "road_class": "pedestrian",
        "name_zh": "东西基本服务缝合线 2",
        "name_en": "East-west basic-service link 2",
        "engineering_status": "conceptual_connection_pending_road_and_ownership_data"
      },
      "geometry": {
        "type": "LineString",
        "coordinates": [
          [
            116.340045749,
            39.962558402
          ],
          [
            116.355300005,
            39.962644242
          ]
        ]
      }
    },
    {
      "type": "Feature",
      "id": "ROAD-004",
      "properties": {
        "id": "ROAD-004",
        "layer": "ROAD_CENTERLINE",
        "source_type": "agent_generated_design",
        "confidence": "medium",
        "geometry_role": "design_proposal",
        "road_class": "pedestrian",
        "name_zh": "东西基本服务缝合线 3",
        "name_en": "East-west basic-service link 3",
        "engineering_status": "conceptual_connection_pending_road_and_ownership_data"
      },
      "geometry": {
        "type": "LineString",
        "coordinates": [
          [
            116.339744649,
            39.975692329
          ],
          [
            116.354438188,
            39.975775094
          ]
        ]
      }
    },
    {
      "type": "Feature",
      "id": "ROAD-005",
      "properties": {
        "id": "ROAD-005",
        "layer": "ROAD_CENTERLINE",
        "source_type": "agent_generated_design",
        "confidence": "medium",
        "geometry_role": "design_proposal",
        "road_class": "pedestrian",
        "name_zh": "东西基本服务缝合线 4",
        "name_en": "East-west basic-service link 4",
        "engineering_status": "conceptual_connection_pending_road_and_ownership_data"
      },
      "geometry": {
        "type": "LineString",
        "coordinates": [
          [
            116.340648751,
            39.989708794
          ],
          [
            116.353317593,
            39.989780172
          ]
        ]
      }
    },
    {
      "type": "Feature",
      "id": "ROAD-006",
      "properties": {
        "id": "ROAD-006",
        "layer": "ROAD_CENTERLINE",
        "source_type": "agent_generated_design",
        "confidence": "medium",
        "geometry_role": "design_proposal",
        "road_class": "pedestrian",
        "name_zh": "东西基本服务缝合线 5",
        "name_en": "East-west basic-service link 5",
        "engineering_status": "conceptual_connection_pending_road_and_ownership_data"
      },
      "geometry": {
        "type": "LineString",
        "coordinates": [
          [
            116.341553185,
            40.003725221
          ],
          [
            116.354055701,
            40.00379558
          ]
        ]
      }
    },
    {
      "type": "Feature",
      "id": "ROAD-007",
      "properties": {
        "id": "ROAD-007",
        "layer": "ROAD_CENTERLINE",
        "source_type": "agent_generated_design",
        "confidence": "medium",
        "geometry_role": "design_proposal",
        "road_class": "pedestrian",
        "name_zh": "东西基本服务缝合线 6",
        "name_en": "East-west basic-service link 6",
        "engineering_status": "conceptual_connection_pending_road_and_ownership_data"
      },
      "geometry": {
        "type": "LineString",
        "coordinates": [
          [
            116.342272647,
            40.017740559
          ],
          [
            116.354823726,
            40.017811117
          ]
        ]
      }
    },
    {
      "type": "Feature",
      "id": "ROAD-008",
      "properties": {
        "id": "ROAD-008",
        "layer": "ROAD_CENTERLINE",
        "source_type": "agent_generated_design",
        "confidence": "medium",
        "geometry_role": "design_proposal",
        "road_class": "cycleway",
        "name_zh": "基本功骑行支线",
        "name_en": "Basics cycling branch",
        "engineering_status": "conceptual_connection_pending_professional_review"
      },
      "geometry": {
        "type": "LineString",
        "coordinates": [
          [
            116.34715928,
            39.953833725
          ],
          [
            116.347159171,
            39.953850803
          ],
          [
            116.347637677,
            39.96873335
          ],
          [
            116.347145147,
            39.98361039
          ],
          [
            116.347145104,
            39.983623636
          ],
          [
            116.347541758,
            39.998504055
          ],
          [
            116.346799819,
            40.012502322
          ],
          [
            116.346799518,
            40.012516208
          ],
          [
            116.346935083,
            40.026502307
          ],
          [
            116.347684792,
            40.02649801
          ],
          [
            116.347549141,
            40.012518856
          ],
          [
            116.348291028,
            39.998518704
          ],
          [
            116.34829126,
            39.998501061
          ],
          [
            116.347894384,
            39.983618443
          ],
          [
            116.348386772,
            39.968740789
          ],
          [
            116.348386778,
            39.968726323
          ],
          [
            116.347908152,
            39.953845086
          ],
          [
            116.34857377,
            39.939010175
          ],
          [
            116.347825442,
            39.938990283
          ],
          [
            116.34715928,
            39.953833725
          ]
        ]
      }
    }
  ]
}
