{
  "type": "FeatureCollection",
  "name": "concept_roads",
  "features": [
    {
      "type": "Feature",
      "id": "ROAD-002",
      "properties": {
        "id": "ROAD-002",
        "layer": "ROAD_CENTERLINE",
        "source_type": "agent_generated_design",
        "confidence": "medium",
        "geometry_role": "design_proposal",
        "road_class": "secondary",
        "name_zh": "北段次干道（K1 众智园产业带北侧）"
      },
      "geometry": {
        "type": "LineString",
        "coordinates": [
          [
            116.33997083333333,
            39.96525
          ],
          [
            116.35528,
            39.96525
          ]
        ]
      }
    },
    {
      "type": "Feature",
      "id": "ROAD-003",
      "properties": {
        "id": "ROAD-003",
        "layer": "ROAD_CENTERLINE",
        "source_type": "agent_generated_design",
        "confidence": "medium",
        "geometry_role": "design_proposal",
        "road_class": "secondary",
        "name_zh": "南段次干道（K3 大钟寺片区北侧）"
      },
      "geometry": {
        "type": "LineString",
        "coordinates": [
          [
            116.34176097560976,
            40.00725
          ],
          [
            116.35424520547946,
            40.00725
          ]
        ]
      }
    },
    {
      "type": "Feature",
      "id": "ROAD-004",
      "properties": {
        "id": "ROAD-004",
        "layer": "ROAD_CENTERLINE",
        "source_type": "agent_generated_design",
        "confidence": "medium",
        "geometry_role": "design_proposal",
        "road_class": "branch",
        "name_zh": "K1–K2 竖向连接"
      },
      "geometry": {
        "type": "LineString",
        "coordinates": [
          [
            116.3475,
            39.939
          ],
          [
            116.3475,
            40.0265
          ]
        ]
      }
    },
    {
      "type": "Feature",
      "id": "ROAD-005",
      "properties": {
        "id": "ROAD-005",
        "layer": "ROAD_CENTERLINE",
        "source_type": "agent_generated_design",
        "confidence": "medium",
        "geometry_role": "design_proposal",
        "road_class": "branch",
        "name_zh": "K2–K3 竖向连接"
      },
      "geometry": {
        "type": "LineString",
        "coordinates": [
          [
            116.34984,
            39.939
          ],
          [
            116.34984,
            40.0265
          ]
        ]
      }
    }
  ],
  "metadata": {
    "regenerated_at": "2026-08-08T16:00:00Z"
  }
}
