{
  "type": "FeatureCollection",
  "name": "roads_jz_common_ports",
  "features": [
    {
      "type": "Feature",
      "id": "ROAD-001",
      "properties": {
        "id": "ROAD-001",
        "layer": "ROAD_CENTERLINE",
        "source_type": "agent_generated_design",
        "confidence": "medium",
        "geometry_role": "design_proposal",
        "road_class": "greenway",
        "name_zh": "三港公共接口慢行联络线",
        "name_en": "Common-port walking and cycling connector",
        "design_system": "one-spine-three-ports-two-wings-twelve-interfaces"
      },
      "geometry": {
        "type": "LineString",
        "coordinates": [
          [
            116.340948,
            39.9845
          ],
          [
            116.35374,
            39.9845
          ]
        ]
      }
    },
    {
      "type": "Feature",
      "id": "ROAD-002",
      "properties": {
        "id": "ROAD-002",
        "layer": "ROAD_CENTERLINE",
        "source_type": "agent_generated_design",
        "confidence": "medium",
        "geometry_role": "design_proposal",
        "road_class": "greenway",
        "name_zh": "北部验证港接入线",
        "name_en": "North validation-port connector",
        "design_system": "jz-common-ports"
      },
      "geometry": {
        "type": "LineString",
        "coordinates": [
          [
            116.3435,
            40.015
          ],
          [
            116.3495,
            40.008
          ]
        ]
      }
    },
    {
      "type": "Feature",
      "id": "ROAD-003",
      "properties": {
        "id": "ROAD-003",
        "layer": "ROAD_CENTERLINE",
        "source_type": "agent_generated_design",
        "confidence": "medium",
        "geometry_role": "design_proposal",
        "road_class": "greenway",
        "name_zh": "南部生活港接入线",
        "name_en": "South living-port connector",
        "design_system": "jz-common-ports"
      },
      "geometry": {
        "type": "LineString",
        "coordinates": [
          [
            116.3435,
            39.947
          ],
          [
            116.3515,
            39.955
          ]
        ]
      }
    }
  ]
}
