{
  "type": "FeatureCollection",
  "name": "buildings_jingzhang_ai_belt",
  "features": [
    {
      "type": "Feature",
      "id": "BD-ZZ-01",
      "properties": {
        "id": "BD-ZZ-01",
        "layer": "BUILDING_FOOTPRINT",
        "source_type": "agent_generated_design",
        "confidence": "low",
        "geometry_role": "design_proposal",
        "name_zh": "众智·编组站 加速枢纽",
        "building_type": "ai_r_and_d",
        "area_sqm": 33178.3,
        "footprint_note": "概念锚点建筑示意；非现状建筑，非工程方案，高度/容积率待确认"
      },
      "geometry": {
        "type": "Polygon",
        "coordinates": [
          [
            [
              116.3438,
              40.02
            ],
            [
              116.3438,
              40.0225
            ],
            [
              116.3452,
              40.0225
            ],
            [
              116.3452,
              40.02
            ],
            [
              116.3438,
              40.02
            ]
          ]
        ]
      }
    },
    {
      "type": "Feature",
      "id": "BD-ZZ-02",
      "properties": {
        "id": "BD-ZZ-02",
        "layer": "BUILDING_FOOTPRINT",
        "source_type": "agent_generated_design",
        "confidence": "low",
        "geometry_role": "design_proposal",
        "name_zh": "众智·试跑回廊 研发楼",
        "building_type": "lab",
        "area_sqm": 28440.2,
        "footprint_note": "概念锚点建筑示意；非现状建筑，非工程方案，高度/容积率待确认"
      },
      "geometry": {
        "type": "Polygon",
        "coordinates": [
          [
            [
              116.349,
              40.016
            ],
            [
              116.349,
              40.018
            ],
            [
              116.3505,
              40.018
            ],
            [
              116.3505,
              40.016
            ],
            [
              116.349,
              40.016
            ]
          ]
        ]
      }
    },
    {
      "type": "Feature",
      "id": "BD-OR-01",
      "properties": {
        "id": "BD-OR-01",
        "layer": "BUILDING_FOOTPRINT",
        "source_type": "agent_generated_design",
        "confidence": "low",
        "geometry_role": "design_proposal",
        "name_zh": "原点·始发站 孵化器",
        "building_type": "incubator",
        "area_sqm": 26555.7,
        "footprint_note": "概念锚点建筑示意；非现状建筑，非工程方案，高度/容积率待确认"
      },
      "geometry": {
        "type": "Polygon",
        "coordinates": [
          [
            [
              116.3438,
              39.986
            ],
            [
              116.3438,
              39.988
            ],
            [
              116.3452,
              39.988
            ],
            [
              116.3452,
              39.986
            ],
            [
              116.3438,
              39.986
            ]
          ]
        ]
      }
    },
    {
      "type": "Feature",
      "id": "BD-OR-02",
      "properties": {
        "id": "BD-OR-02",
        "layer": "BUILDING_FOOTPRINT",
        "source_type": "agent_generated_design",
        "confidence": "low",
        "geometry_role": "design_proposal",
        "name_zh": "原点·学术共创楼",
        "building_type": "education",
        "area_sqm": 28452.7,
        "footprint_note": "概念锚点建筑示意；非现状建筑，非工程方案，高度/容积率待确认"
      },
      "geometry": {
        "type": "Polygon",
        "coordinates": [
          [
            [
              116.349,
              39.9856
            ],
            [
              116.349,
              39.9876
            ],
            [
              116.3505,
              39.9876
            ],
            [
              116.3505,
              39.9856
            ],
            [
              116.349,
              39.9856
            ]
          ]
        ]
      }
    },
    {
      "type": "Feature",
      "id": "BD-DZ-01",
      "properties": {
        "id": "BD-DZ-01",
        "layer": "BUILDING_FOOTPRINT",
        "source_type": "agent_generated_design",
        "confidence": "low",
        "geometry_role": "design_proposal",
        "name_zh": "大钟寺·转辙站 智能零售街区",
        "building_type": "mixed_use",
        "area_sqm": 26571.2,
        "footprint_note": "概念锚点建筑示意；非现状建筑，非工程方案，高度/容积率待确认"
      },
      "geometry": {
        "type": "Polygon",
        "coordinates": [
          [
            [
              116.3438,
              39.9455
            ],
            [
              116.3438,
              39.9475
            ],
            [
              116.3452,
              39.9475
            ],
            [
              116.3452,
              39.9455
            ],
            [
              116.3438,
              39.9455
            ]
          ]
        ]
      }
    },
    {
      "type": "Feature",
      "id": "BD-DZ-02",
      "properties": {
        "id": "BD-DZ-02",
        "layer": "BUILDING_FOOTPRINT",
        "source_type": "agent_generated_design",
        "confidence": "low",
        "geometry_role": "design_proposal",
        "name_zh": "大钟寺·产业港 商务客厅",
        "building_type": "office",
        "area_sqm": 28469.2,
        "footprint_note": "概念锚点建筑示意；非现状建筑，非工程方案，高度/容积率待确认"
      },
      "geometry": {
        "type": "Polygon",
        "coordinates": [
          [
            [
              116.349,
              39.9452
            ],
            [
              116.349,
              39.9472
            ],
            [
              116.3505,
              39.9472
            ],
            [
              116.3505,
              39.9452
            ],
            [
              116.349,
              39.9452
            ]
          ]
        ]
      }
    }
  ]
}