{
 "type": "FeatureCollection",
 "name": "JZ-STACK constraints (provisional)",
 "features": [
  {
   "type": "Feature",
   "id": "CONSTRAINT-001",
   "properties": {
    "id": "CONSTRAINT-001",
    "layer": "REGULATORY_CONTROL",
    "source_type": "agent_inferred_from_public_data",
    "confidence": "low",
    "geometry_role": "provisional_constraint",
    "name_zh": "京张铁路遗址公园廊道（概念约束）",
    "note_zh": "文保与绿廊约束为概念性示意，正式约束以官方发布为准。"
   },
   "geometry": {
    "type": "Polygon",
    "coordinates": [
     [
      [
       116.3484,
       39.939
      ],
      [
       116.3462,
       39.939
      ],
      [
       116.3462,
       40.0265
      ],
      [
       116.3484,
       40.0265
      ],
      [
       116.3484,
       39.939
      ]
     ]
    ]
   }
  }
 ]
}