{
 "type": "FeatureCollection",
 "name": "JZ-STACK conceptual road network",
 "features": [
  {
   "type": "Feature",
   "id": "ROAD-001",
   "properties": {
    "id": "ROAD-001",
    "layer": "ROAD_CENTERLINE",
    "source_type": "agent_generated_design",
    "confidence": "medium",
    "geometry_role": "design_proposal",
    "name_zh": "京张主轴慢行与创新服务干道",
    "road_class": "greenway",
    "design_note_zh": "概念性慢行主轴，与绿廊平行。"
   },
   "geometry": {
    "type": "LineString",
    "coordinates": [
     [
      116.3457,
      39.939
     ],
     [
      116.3457,
      40.0265
     ]
    ]
   }
  },
  {
   "type": "Feature",
   "id": "ROAD-002",
   "properties": {
    "id": "ROAD-002",
    "layer": "ROAD_CENTERLINE",
    "source_type": "agent_generated_design",
    "confidence": "medium",
    "geometry_role": "design_proposal",
    "name_zh": "京张东侧生活性干道",
    "road_class": "secondary"
   },
   "geometry": {
    "type": "LineString",
    "coordinates": [
     [
      116.3489,
      39.939
     ],
     [
      116.3489,
      40.0265
     ]
    ]
   }
  },
  {
   "type": "Feature",
   "id": "ROAD-003",
   "properties": {
    "id": "ROAD-003",
    "layer": "ROAD_CENTERLINE",
    "source_type": "agent_generated_design",
    "confidence": "medium",
    "geometry_role": "design_proposal",
    "name_zh": "北缝合干道",
    "road_class": "branch",
    "design_note_zh": "东西缝合概念通道，打通铁路两侧。"
   },
   "geometry": {
    "type": "LineString",
    "coordinates": [
     [
      116.3397,
      40.0075
     ],
     [
      116.3553,
      40.0075
     ]
    ]
   }
  },
  {
   "type": "Feature",
   "id": "ROAD-004",
   "properties": {
    "id": "ROAD-004",
    "layer": "ROAD_CENTERLINE",
    "source_type": "agent_generated_design",
    "confidence": "medium",
    "geometry_role": "design_proposal",
    "name_zh": "中缝合干道",
    "road_class": "branch",
    "design_note_zh": "东西缝合概念通道，打通铁路两侧。"
   },
   "geometry": {
    "type": "LineString",
    "coordinates": [
     [
      116.3397,
      39.9955
     ],
     [
      116.3553,
      39.9955
     ]
    ]
   }
  },
  {
   "type": "Feature",
   "id": "ROAD-005",
   "properties": {
    "id": "ROAD-005",
    "layer": "ROAD_CENTERLINE",
    "source_type": "agent_generated_design",
    "confidence": "medium",
    "geometry_role": "design_proposal",
    "name_zh": "南缝合干道",
    "road_class": "branch",
    "design_note_zh": "东西缝合概念通道，打通铁路两侧。"
   },
   "geometry": {
    "type": "LineString",
    "coordinates": [
     [
      116.3397,
      39.9515
     ],
     [
      116.3553,
      39.9515
     ]
    ]
   }
  },
  {
   "type": "Feature",
   "id": "ROAD-006",
   "properties": {
    "id": "ROAD-006",
    "layer": "ROAD_CENTERLINE",
    "source_type": "agent_generated_design",
    "confidence": "medium",
    "geometry_role": "design_proposal",
    "name_zh": "众智园南侧服务路",
    "road_class": "local_access"
   },
   "geometry": {
    "type": "LineString",
    "coordinates": [
     [
      116.3442,
      40.0095
     ],
     [
      116.353,
      40.0095
     ]
    ]
   }
  },
  {
   "type": "Feature",
   "id": "ROAD-007",
   "properties": {
    "id": "ROAD-007",
    "layer": "ROAD_CENTERLINE",
    "source_type": "agent_generated_design",
    "confidence": "medium",
    "geometry_role": "design_proposal",
    "name_zh": "原点社区南侧服务路",
    "road_class": "local_access"
   },
   "geometry": {
    "type": "LineString",
    "coordinates": [
     [
      116.3432,
      39.9842
     ],
     [
      116.352,
      39.9842
     ]
    ]
   }
  },
  {
   "type": "Feature",
   "id": "ROAD-008",
   "properties": {
    "id": "ROAD-008",
    "layer": "ROAD_CENTERLINE",
    "source_type": "agent_generated_design",
    "confidence": "medium",
    "geometry_role": "design_proposal",
    "name_zh": "大钟寺南侧服务路",
    "road_class": "local_access"
   },
   "geometry": {
    "type": "LineString",
    "coordinates": [
     [
      116.3428,
      39.9445
     ],
     [
      116.3542,
      39.9445
     ]
    ]
   }
  }
 ]
}