{
 "type": "FeatureCollection",
 "name": "public_space",
 "features": [
  {
   "type": "Feature",
   "id": "PS-001",
   "properties": {
    "layer": "PUBLIC_SPACE",
    "name_zh": "众智园·签发广场",
    "key_area_id": "zhongzhiyuan_ai_acceleration_area",
    "source_type": "agent_inferred_from_public_data",
    "confidence": "low",
    "geometry_role": "design_proposal",
    "area_sqm_declared": 24269.2,
    "id": "PS-001"
   },
   "geometry": {
    "type": "Polygon",
    "coordinates": [
     [
      [
       116.3453,
       40.0157
      ],
      [
       116.3437,
       40.0157
      ],
      [
       116.3437,
       40.0173
      ],
      [
       116.3453,
       40.0173
      ],
      [
       116.3453,
       40.0157
      ]
     ]
    ]
   }
  },
  {
   "type": "Feature",
   "id": "PS-002",
   "properties": {
    "layer": "PUBLIC_SPACE",
    "name_zh": "原点·验签广场",
    "key_area_id": "beijing_ai_origin_community",
    "source_type": "agent_inferred_from_public_data",
    "confidence": "low",
    "geometry_role": "design_proposal",
    "area_sqm_declared": 24279.0,
    "id": "PS-002"
   },
   "geometry": {
    "type": "Polygon",
    "coordinates": [
     [
      [
       116.3488,
       39.987700000000004
      ],
      [
       116.3472,
       39.987700000000004
      ],
      [
       116.3472,
       39.9893
      ],
      [
       116.3488,
       39.9893
      ],
      [
       116.3488,
       39.987700000000004
      ]
     ]
    ]
   }
  },
  {
   "type": "Feature",
   "id": "PS-003",
   "properties": {
    "layer": "PUBLIC_SPACE",
    "name_zh": "大钟寺·路签广场",
    "key_area_id": "dazhongsi_ai_industry_cluster",
    "source_type": "agent_inferred_from_public_data",
    "confidence": "low",
    "geometry_role": "design_proposal",
    "area_sqm_declared": 24293.8,
    "id": "PS-003"
   },
   "geometry": {
    "type": "Polygon",
    "coordinates": [
     [
      [
       116.349,
       39.9452
      ],
      [
       116.34740000000001,
       39.9452
      ],
      [
       116.34740000000001,
       39.946799999999996
      ],
      [
       116.349,
       39.946799999999996
      ],
      [
       116.349,
       39.9452
      ]
     ]
    ]
   }
  },
  {
   "type": "Feature",
   "id": "PS-004",
   "properties": {
    "layer": "PUBLIC_SPACE",
    "name_zh": "信号柱·慢行驿站",
    "key_area_id": null,
    "source_type": "agent_inferred_from_public_data",
    "confidence": "low",
    "geometry_role": "design_proposal",
    "area_sqm_declared": 11479.0,
    "id": "PS-004"
   },
   "geometry": {
    "type": "Polygon",
    "coordinates": [
     [
      [
       116.34715,
       39.96745000000001
      ],
      [
       116.34604999999999,
       39.96745000000001
      ],
      [
       116.34604999999999,
       39.96855
      ],
      [
       116.34715,
       39.96855
      ],
      [
       116.34715,
       39.96745000000001
      ]
     ]
    ]
   }
  },
  {
   "type": "Feature",
   "id": "PS-005",
   "properties": {
    "layer": "PUBLIC_SPACE",
    "name_zh": "小月河·场景驿站",
    "key_area_id": null,
    "source_type": "agent_inferred_from_public_data",
    "confidence": "low",
    "geometry_role": "design_proposal",
    "area_sqm_declared": 11473.8,
    "id": "PS-005"
   },
   "geometry": {
    "type": "Polygon",
    "coordinates": [
     [
      [
       116.34535000000001,
       39.99895
      ],
      [
       116.34425,
       39.99895
      ],
      [
       116.34425,
       40.000049999999995
      ],
      [
       116.34535000000001,
       40.000049999999995
      ],
      [
       116.34535000000001,
       39.99895
      ]
     ]
    ]
   }
  },
  {
   "type": "Feature",
   "id": "PS-006",
   "properties": {
    "layer": "PUBLIC_SPACE",
    "name_zh": "五道口站·轨道接驳广场",
    "key_area_id": null,
    "source_type": "agent_inferred_from_public_data",
    "confidence": "low",
    "geometry_role": "design_proposal",
    "area_sqm_declared": 18587.5,
    "id": "PS-006"
   },
   "geometry": {
    "type": "Polygon",
    "coordinates": [
     [
      [
       116.3444,
       39.9918
      ],
      [
       116.343,
       39.9918
      ],
      [
       116.343,
       39.9932
      ],
      [
       116.3444,
       39.9932
      ],
      [
       116.3444,
       39.9918
      ]
     ]
    ]
   }
  },
  {
   "type": "Feature",
   "id": "PS-007",
   "properties": {
    "layer": "PUBLIC_SPACE",
    "name_zh": "大钟寺站·四象限步行广场",
    "key_area_id": null,
    "source_type": "agent_inferred_from_public_data",
    "confidence": "low",
    "geometry_role": "design_proposal",
    "area_sqm_declared": 18599.6,
    "id": "PS-007"
   },
   "geometry": {
    "type": "Polygon",
    "coordinates": [
     [
      [
       116.348,
       39.9465
      ],
      [
       116.34660000000001,
       39.9465
      ],
      [
       116.34660000000001,
       39.947900000000004
      ],
      [
       116.348,
       39.947900000000004
      ],
      [
       116.348,
       39.9465
      ]
     ]
    ]
   }
  },
  {
   "type": "Feature",
   "id": "PS-008",
   "properties": {
    "layer": "PUBLIC_SPACE",
    "name_zh": "北五环门户·签发所入口广场",
    "key_area_id": null,
    "source_type": "agent_inferred_from_public_data",
    "confidence": "low",
    "geometry_role": "design_proposal",
    "area_sqm_declared": 18580.1,
    "id": "PS-008"
   },
   "geometry": {
    "type": "Polygon",
    "coordinates": [
     [
      [
       116.3497,
       40.0193
      ],
      [
       116.34830000000001,
       40.0193
      ],
      [
       116.34830000000001,
       40.020700000000005
      ],
      [
       116.3497,
       40.020700000000005
      ],
      [
       116.3497,
       40.0193
      ]
     ]
    ]
   }
  },
  {
   "type": "Feature",
   "id": "PS-100",
   "properties": {
    "layer": "PUBLIC_SPACE",
    "name_zh": "京张遗址公园·公共客厅",
    "source_type": "agent_inferred_from_public_data",
    "confidence": "low",
    "geometry_role": "design_proposal",
    "area_sqm_declared": 13665.8,
    "id": "PS-100"
   },
   "geometry": {
    "type": "Polygon",
    "coordinates": [
     [
      [
       116.3481,
       39.9429
      ],
      [
       116.34689999999999,
       39.9429
      ],
      [
       116.34689999999999,
       39.9441
      ],
      [
       116.3481,
       39.9441
      ],
      [
       116.3481,
       39.9429
      ]
     ]
    ]
   }
  },
  {
   "type": "Feature",
   "id": "PS-101",
   "properties": {
    "layer": "PUBLIC_SPACE",
    "name_zh": "京张遗址公园·公共客厅",
    "source_type": "agent_inferred_from_public_data",
    "confidence": "low",
    "geometry_role": "design_proposal",
    "area_sqm_declared": 13658.9,
    "id": "PS-101"
   },
   "geometry": {
    "type": "Polygon",
    "coordinates": [
     [
      [
       116.34790000000001,
       39.9779
      ],
      [
       116.3467,
       39.9779
      ],
      [
       116.3467,
       39.979099999999995
      ],
      [
       116.34790000000001,
       39.979099999999995
      ],
      [
       116.34790000000001,
       39.9779
      ]
     ]
    ]
   }
  },
  {
   "type": "Feature",
   "id": "PS-102",
   "properties": {
    "layer": "PUBLIC_SPACE",
    "name_zh": "京张遗址公园·公共客厅",
    "source_type": "agent_inferred_from_public_data",
    "confidence": "low",
    "geometry_role": "design_proposal",
    "area_sqm_declared": 13653.9,
    "id": "PS-102"
   },
   "geometry": {
    "type": "Polygon",
    "coordinates": [
     [
      [
       116.3464,
       40.0034
      ],
      [
       116.34519999999999,
       40.0034
      ],
      [
       116.34519999999999,
       40.004599999999996
      ],
      [
       116.3464,
       40.004599999999996
      ],
      [
       116.3464,
       40.0034
      ]
     ]
    ]
   }
  },
  {
   "type": "Feature",
   "id": "PS-103",
   "properties": {
    "layer": "PUBLIC_SPACE",
    "name_zh": "京张遗址公园·公共客厅",
    "source_type": "agent_inferred_from_public_data",
    "confidence": "low",
    "geometry_role": "design_proposal",
    "area_sqm_declared": 13650.4,
    "id": "PS-103"
   },
   "geometry": {
    "type": "Polygon",
    "coordinates": [
     [
      [
       116.34530000000001,
       40.020900000000005
      ],
      [
       116.3441,
       40.020900000000005
      ],
      [
       116.3441,
       40.0221
      ],
      [
       116.34530000000001,
       40.0221
      ],
      [
       116.34530000000001,
       40.020900000000005
      ]
     ]
    ]
   }
  },
  {
   "type": "Feature",
   "id": "PS-104",
   "properties": {
    "layer": "PUBLIC_SPACE",
    "name_zh": "京张遗址公园·公共客厅",
    "source_type": "agent_inferred_from_public_data",
    "confidence": "low",
    "geometry_role": "design_proposal",
    "area_sqm_declared": 13662.9,
    "id": "PS-104"
   },
   "geometry": {
    "type": "Polygon",
    "coordinates": [
     [
      [
       116.34660000000001,
       39.9574
      ],
      [
       116.3454,
       39.9574
      ],
      [
       116.3454,
       39.9586
      ],
      [
       116.34660000000001,
       39.9586
      ],
      [
       116.34660000000001,
       39.9574
      ]
     ]
    ]
   }
  },
  {
   "type": "Feature",
   "id": "PS-105",
   "properties": {
    "layer": "PUBLIC_SPACE",
    "name_zh": "京张遗址公园·公共客厅",
    "source_type": "agent_inferred_from_public_data",
    "confidence": "low",
    "geometry_role": "design_proposal",
    "area_sqm_declared": 13652.3,
    "id": "PS-105"
   },
   "geometry": {
    "type": "Polygon",
    "coordinates": [
     [
      [
       116.34580000000001,
       40.0114
      ],
      [
       116.3446,
       40.0114
      ],
      [
       116.3446,
       40.0126
      ],
      [
       116.34580000000001,
       40.0126
      ],
      [
       116.34580000000001,
       40.0114
      ]
     ]
    ]
   }
  }
 ]
}