{
 "type": "FeatureCollection",
 "features": [
  {
   "type": "Feature",
   "id": "PHASE-001",
   "properties": {
    "id": "PHASE-001",
    "layer": "PHASE",
    "source_type": "agent_generated_design",
    "confidence": "medium",
    "geometry_role": "design_proposal",
    "phase": "phase_1",
    "name_zh": "一期·原点社区与遗址核心段",
    "area_sqm_declared": 2788792.577
   },
   "geometry": {
    "type": "Polygon",
    "coordinates": [
     [
      [
       116.3533,
       39.99
      ],
      [
       116.35394000000001,
       39.982
      ],
      [
       116.34015161290323,
       39.982
      ],
      [
       116.34163548387097,
       40.005
      ],
      [
       116.35412191780823,
       40.005
      ],
      [
       116.3533,
       39.99
      ]
     ]
    ]
   }
  },
  {
   "type": "Feature",
   "id": "PHASE-002",
   "properties": {
    "id": "PHASE-002",
    "layer": "PHASE",
    "source_type": "agent_generated_design",
    "confidence": "medium",
    "geometry_role": "design_proposal",
    "phase": "phase_2",
    "name_zh": "二期·众智园与北段",
    "area_sqm_declared": 2555092.323
   },
   "geometry": {
    "type": "Polygon",
    "coordinates": [
     [
      [
       116.3417,
       40.006
      ],
      [
       116.3427,
       40.0265
      ],
      [
       116.3553,
       40.0265
      ],
      [
       116.35412191780823,
       40.005
      ],
      [
       116.34163548387097,
       40.005
      ],
      [
       116.3417,
       40.006
      ]
     ]
    ]
   }
  },
  {
   "type": "Feature",
   "id": "PHASE-003",
   "properties": {
    "id": "PHASE-003",
    "layer": "PHASE",
    "source_type": "agent_generated_design",
    "confidence": "medium",
    "geometry_role": "design_proposal",
    "phase": "phase_3",
    "name_zh": "三期·大钟寺与南段两翼",
    "area_sqm_declared": 6068936.252
   },
   "geometry": {
    "type": "Polygon",
    "coordinates": [
     [
      [
       116.3553,
       39.965
      ],
      [
       116.3553,
       39.939
      ],
      [
       116.3407,
       39.939
      ],
      [
       116.3397,
       39.975
      ],
      [
       116.34015161290323,
       39.982
      ],
      [
       116.35394000000001,
       39.982
      ],
      [
       116.3553,
       39.965
      ]
     ]
    ]
   }
  }
 ]
}