{
  "type": "FeatureCollection",
  "name": "jingzhang_ai_public_loop_phasing",
  "features": [
    {
      "type": "Feature",
      "id": "PHASE-01",
      "properties": {
        "id": "PHASE-01",
        "layer": "PHASE",
        "source_type": "agent_generated_design",
        "confidence": "medium",
        "geometry_role": "design_proposal",
        "phase_name_zh": "先行公共性",
        "project_list_zh": "京张活力带、慢行连续、三处公共节点",
        "horizon_zh": "0—2年概念建议",
        "source_id": "AGENT-DESIGN-06",
        "area_sqm_declared": 3727410.62
      },
      "geometry": {
        "type": "Polygon",
        "coordinates": [
          [
            [
              116.3407,
              39.939
            ],
            [
              116.33997083333333,
              39.96525
            ],
            [
              116.35528,
              39.96525
            ],
            [
              116.3553,
              39.965
            ],
            [
              116.3553,
              39.939
            ],
            [
              116.3407,
              39.939
            ]
          ]
        ]
      }
    },
    {
      "type": "Feature",
      "id": "PHASE-02",
      "properties": {
        "id": "PHASE-02",
        "layer": "PHASE",
        "source_type": "agent_generated_design",
        "confidence": "medium",
        "geometry_role": "design_proposal",
        "phase_name_zh": "协同提升",
        "project_list_zh": "原点社区、开源发布、测试验证和人才服务",
        "horizon_zh": "2—5年概念建议",
        "source_id": "AGENT-DESIGN-06",
        "area_sqm_declared": 4358827.122
      },
      "geometry": {
        "type": "Polygon",
        "coordinates": [
          [
            [
              116.3533,
              39.99
            ],
            [
              116.35528,
              39.96525
            ],
            [
              116.33997083333333,
              39.96525
            ],
            [
              116.3397,
              39.975
            ],
            [
              116.34121612903226,
              39.9985
            ],
            [
              116.35376575342467,
              39.9985
            ],
            [
              116.3533,
              39.99
            ]
          ]
        ]
      }
    },
    {
      "type": "Feature",
      "id": "PHASE-03",
      "properties": {
        "id": "PHASE-03",
        "layer": "PHASE",
        "source_type": "agent_generated_design",
        "confidence": "medium",
        "geometry_role": "design_proposal",
        "phase_name_zh": "生态成环",
        "project_list_zh": "众智园全栈创新、国际传播和长期运营",
        "horizon_zh": "5年以上概念建议",
        "source_id": "AGENT-DESIGN-06",
        "area_sqm_declared": 3326616.036
      },
      "geometry": {
        "type": "Polygon",
        "coordinates": [
          [
            [
              116.35376575342467,
              39.9985
            ],
            [
              116.34121612903226,
              39.9985
            ],
            [
              116.3417,
              40.006
            ],
            [
              116.3427,
              40.0265
            ],
            [
              116.3553,
              40.0265
            ],
            [
              116.35376575342467,
              39.9985
            ]
          ]
        ]
      }
    }
  ],
  "metadata": {
    "note": "conceptual phasing; official controls, ownership and public process pending"
  }
}
