{
  "type": "FeatureCollection",
  "name": "jingzhang_commons_land_use_partition",
  "features": [
    {
      "type": "Feature",
      "id": "LU-001",
      "properties": {
        "id": "LU-001",
        "layer": "LAND_USE",
        "source_type": "agent_generated_design",
        "confidence": "medium",
        "geometry_role": "design_proposal",
        "land_use_code": "0802",
        "name_zh": "北部全栈研发与中试建议区",
        "usage_note": "概念性完整分区，用于拓扑与空间结构表达；不构成已批用地性质。",
        "area_sqm_declared": 860926.096
      },
      "geometry": {
        "type": "Polygon",
        "coordinates": [
          [
            [
              116.34500399999999,
              40.0265
            ],
            [
              116.34500399999999,
              39.99675
            ],
            [
              116.34110322580645,
              39.99675
            ],
            [
              116.3417,
              40.006
            ],
            [
              116.3427,
              40.0265
            ],
            [
              116.34500399999999,
              40.0265
            ]
          ]
        ]
      }
    },
    {
      "type": "Feature",
      "id": "LU-002",
      "properties": {
        "id": "LU-002",
        "layer": "LAND_USE",
        "source_type": "agent_generated_design",
        "confidence": "medium",
        "geometry_role": "design_proposal",
        "land_use_code": "0804",
        "name_zh": "中部近校教育科研协同建议区",
        "usage_note": "概念性完整分区，用于拓扑与空间结构表达；不构成已批用地性质。",
        "area_sqm_declared": 1301233.714
      },
      "geometry": {
        "type": "Polygon",
        "coordinates": [
          [
            [
              116.34110322580645,
              39.99675
            ],
            [
              116.34500399999999,
              39.99675
            ],
            [
              116.34500399999999,
              39.967875
            ],
            [
              116.33989791666666,
              39.967875
            ],
            [
              116.3397,
              39.975
            ],
            [
              116.34110322580645,
              39.99675
            ]
          ]
        ]
      }
    },
    {
      "type": "Feature",
      "id": "LU-003",
      "properties": {
        "id": "LU-003",
        "layer": "LAND_USE",
        "source_type": "agent_generated_design",
        "confidence": "medium",
        "geometry_role": "design_proposal",
        "land_use_code": "05",
        "name_zh": "南部智能原生商务服务建议区",
        "usage_note": "概念性完整分区，用于拓扑与空间结构表达；不构成已批用地性质。",
        "area_sqm_declared": 1289103.668
      },
      "geometry": {
        "type": "Polygon",
        "coordinates": [
          [
            [
              116.3407,
              39.939
            ],
            [
              116.33989791666666,
              39.967875
            ],
            [
              116.34500399999999,
              39.967875
            ],
            [
              116.34500399999999,
              39.939
            ],
            [
              116.3407,
              39.939
            ]
          ]
        ]
      }
    },
    {
      "type": "Feature",
      "id": "LU-004",
      "properties": {
        "id": "LU-004",
        "layer": "LAND_USE",
        "source_type": "agent_generated_design",
        "confidence": "medium",
        "geometry_role": "design_proposal",
        "land_use_code": "1401",
        "name_zh": "北段京张遗产公园绿廊建议区",
        "usage_note": "概念性完整分区，用于拓扑与空间结构表达；不构成已批用地性质。",
        "area_sqm_declared": 572005.929
      },
      "geometry": {
        "type": "Polygon",
        "coordinates": [
          [
            [
              116.347032,
              40.0265
            ],
            [
              116.347032,
              39.99675
            ],
            [
              116.34500399999999,
              39.99675
            ],
            [
              116.34500399999999,
              40.0265
            ],
            [
              116.347032,
              40.0265
            ]
          ]
        ]
      }
    },
    {
      "type": "Feature",
      "id": "LU-005",
      "properties": {
        "id": "LU-005",
        "layer": "LAND_USE",
        "source_type": "agent_generated_design",
        "confidence": "medium",
        "geometry_role": "design_proposal",
        "land_use_code": "1401",
        "name_zh": "中段京张遗产公园绿廊建议区",
        "usage_note": "概念性完整分区，用于拓扑与空间结构表达；不构成已批用地性质。",
        "area_sqm_declared": 555416.862
      },
      "geometry": {
        "type": "Polygon",
        "coordinates": [
          [
            [
              116.34500399999999,
              39.967875
            ],
            [
              116.34500399999999,
              39.99675
            ],
            [
              116.347032,
              39.99675
            ],
            [
              116.347032,
              39.967875
            ],
            [
              116.34500399999999,
              39.967875
            ]
          ]
        ]
      }
    },
    {
      "type": "Feature",
      "id": "LU-006",
      "properties": {
        "id": "LU-006",
        "layer": "LAND_USE",
        "source_type": "agent_generated_design",
        "confidence": "medium",
        "geometry_role": "design_proposal",
        "land_use_code": "1401",
        "name_zh": "南段京张遗产公园绿廊建议区",
        "usage_note": "概念性完整分区，用于拓扑与空间结构表达；不构成已批用地性质。",
        "area_sqm_declared": 555647.851
      },
      "geometry": {
        "type": "Polygon",
        "coordinates": [
          [
            [
              116.34500399999999,
              39.939
            ],
            [
              116.34500399999999,
              39.967875
            ],
            [
              116.347032,
              39.967875
            ],
            [
              116.347032,
              39.939
            ],
            [
              116.34500399999999,
              39.939
            ]
          ]
        ]
      }
    },
    {
      "type": "Feature",
      "id": "LU-007",
      "properties": {
        "id": "LU-007",
        "layer": "LAND_USE",
        "source_type": "agent_generated_design",
        "confidence": "medium",
        "geometry_role": "design_proposal",
        "land_use_code": "1207",
        "name_zh": "北段低碳接驳与慢行骨架建议区",
        "usage_note": "概念性完整分区，用于拓扑与空间结构表达；不构成已批用地性质。",
        "area_sqm_declared": 352003.513
      },
      "geometry": {
        "type": "Polygon",
        "coordinates": [
          [
            [
              116.34828,
              40.0265
            ],
            [
              116.34828,
              39.99675
            ],
            [
              116.347032,
              39.99675
            ],
            [
              116.347032,
              40.0265
            ],
            [
              116.34828,
              40.0265
            ]
          ]
        ]
      }
    },
    {
      "type": "Feature",
      "id": "LU-008",
      "properties": {
        "id": "LU-008",
        "layer": "LAND_USE",
        "source_type": "agent_generated_design",
        "confidence": "medium",
        "geometry_role": "design_proposal",
        "land_use_code": "1207",
        "name_zh": "中段低碳接驳与慢行骨架建议区",
        "usage_note": "概念性完整分区，用于拓扑与空间结构表达；不构成已批用地性质。",
        "area_sqm_declared": 341794.86
      },
      "geometry": {
        "type": "Polygon",
        "coordinates": [
          [
            [
              116.347032,
              39.967875
            ],
            [
              116.347032,
              39.99675
            ],
            [
              116.34828,
              39.99675
            ],
            [
              116.34828,
              39.967875
            ],
            [
              116.347032,
              39.967875
            ]
          ]
        ]
      }
    },
    {
      "type": "Feature",
      "id": "LU-009",
      "properties": {
        "id": "LU-009",
        "layer": "LAND_USE",
        "source_type": "agent_generated_design",
        "confidence": "medium",
        "geometry_role": "design_proposal",
        "land_use_code": "1207",
        "name_zh": "南段低碳接驳与慢行骨架建议区",
        "usage_note": "概念性完整分区，用于拓扑与空间结构表达；不构成已批用地性质。",
        "area_sqm_declared": 341937.007
      },
      "geometry": {
        "type": "Polygon",
        "coordinates": [
          [
            [
              116.347032,
              39.939
            ],
            [
              116.347032,
              39.967875
            ],
            [
              116.34828,
              39.967875
            ],
            [
              116.34828,
              39.939
            ],
            [
              116.347032,
              39.939
            ]
          ]
        ]
      }
    },
    {
      "type": "Feature",
      "id": "LU-010",
      "properties": {
        "id": "LU-010",
        "layer": "LAND_USE",
        "source_type": "agent_generated_design",
        "confidence": "medium",
        "geometry_role": "design_proposal",
        "land_use_code": "0702",
        "name_zh": "北部创新服务与花园社区建议区",
        "usage_note": "概念性完整分区，用于拓扑与空间结构表达；不构成已批用地性质。",
        "area_sqm_declared": 1750076.186
      },
      "geometry": {
        "type": "Polygon",
        "coordinates": [
          [
            [
              116.3536698630137,
              39.99675
            ],
            [
              116.34828,
              39.99675
            ],
            [
              116.34828,
              40.0265
            ],
            [
              116.3553,
              40.0265
            ],
            [
              116.3536698630137,
              39.99675
            ]
          ]
        ]
      }
    },
    {
      "type": "Feature",
      "id": "LU-011",
      "properties": {
        "id": "LU-011",
        "layer": "LAND_USE",
        "source_type": "agent_generated_design",
        "confidence": "medium",
        "geometry_role": "design_proposal",
        "land_use_code": "0701",
        "name_zh": "中部人才生活与开放协作建议区",
        "usage_note": "概念性完整分区，用于拓扑与空间结构表达；不构成已批用地性质。",
        "area_sqm_declared": 1572438.53
      },
      "geometry": {
        "type": "Polygon",
        "coordinates": [
          [
            [
              116.3533,
              39.99
            ],
            [
              116.35507,
              39.967875
            ],
            [
              116.34828,
              39.967875
            ],
            [
              116.34828,
              39.99675
            ],
            [
              116.3536698630137,
              39.99675
            ],
            [
              116.3533,
              39.99
            ]
          ]
        ]
      }
    },
    {
      "type": "Feature",
      "id": "LU-012",
      "properties": {
        "id": "LU-012",
        "layer": "LAND_USE",
        "source_type": "agent_generated_design",
        "confidence": "medium",
        "geometry_role": "design_proposal",
        "land_use_code": "1403",
        "name_zh": "南部城市客厅与公共活动建议区",
        "usage_note": "概念性完整分区，用于拓扑与空间结构表达；不构成已批用地性质。",
        "area_sqm_declared": 1920256.02
      },
      "geometry": {
        "type": "Polygon",
        "coordinates": [
          [
            [
              116.34828,
              39.939
            ],
            [
              116.34828,
              39.967875
            ],
            [
              116.35507,
              39.967875
            ],
            [
              116.3553,
              39.965
            ],
            [
              116.3553,
              39.939
            ],
            [
              116.34828,
              39.939
            ]
          ]
        ]
      }
    }
  ]
}
