{
  "type": "FeatureCollection",
  "name": "human_scale_discovery_loop_program_footprints",
  "features": [
    {
      "type": "Feature",
      "id": "BLDG-001",
      "properties": {
        "id": "BLDG-001",
        "layer": "BUILDING_FOOTPRINT",
        "source_type": "agent_generated_design",
        "confidence": "medium",
        "geometry_role": "design_proposal",
        "official_status": "concept_only",
        "building_type": "cultural",
        "name_zh": "公共科学前台",
        "name_en": "Public science front",
        "design_status": "conceptual_program_footprint_not_existing_survey",
        "human_scale_footprint": true,
        "adaptation_strategy": "prefer_existing_small_building_or_reversible_insert",
        "land_use_zone_id": "LU-001",
        "access_gradient": "P1",
        "area_sqm_declared": 664.277
      },
      "geometry": {
        "type": "Polygon",
        "coordinates": [
          [
            [
              116.34766,
              39.946675
            ],
            [
              116.34766,
              39.946925
            ],
            [
              116.34794,
              39.946925
            ],
            [
              116.34794,
              39.946675
            ],
            [
              116.34766,
              39.946675
            ]
          ]
        ]
      }
    },
    {
      "type": "Feature",
      "id": "BLDG-002",
      "properties": {
        "id": "BLDG-002",
        "layer": "BUILDING_FOOTPRINT",
        "source_type": "agent_generated_design",
        "confidence": "medium",
        "geometry_role": "design_proposal",
        "official_status": "concept_only",
        "building_type": "community_service",
        "name_zh": "人工放行与申诉台",
        "name_en": "Human release and appeal desk",
        "design_status": "conceptual_program_footprint_not_existing_survey",
        "human_scale_footprint": true,
        "adaptation_strategy": "prefer_existing_small_building_or_reversible_insert",
        "land_use_zone_id": "LU-001",
        "access_gradient": "P1",
        "area_sqm_declared": 375.788
      },
      "geometry": {
        "type": "Polygon",
        "coordinates": [
          [
            [
              116.34869,
              39.94721
            ],
            [
              116.34869,
              39.94739
            ],
            [
              116.34891,
              39.94739
            ],
            [
              116.34891,
              39.94721
            ],
            [
              116.34869,
              39.94721
            ]
          ]
        ]
      }
    },
    {
      "type": "Feature",
      "id": "BLDG-003",
      "properties": {
        "id": "BLDG-003",
        "layer": "BUILDING_FOOTPRINT",
        "source_type": "agent_generated_design",
        "confidence": "medium",
        "geometry_role": "design_proposal",
        "official_status": "concept_only",
        "building_type": "incubator",
        "name_zh": "标准与转化工作室",
        "name_en": "Standards and translation studio",
        "design_status": "conceptual_program_footprint_not_existing_survey",
        "human_scale_footprint": true,
        "adaptation_strategy": "prefer_existing_small_building_or_reversible_insert",
        "land_use_zone_id": "LU-001",
        "access_gradient": "P2",
        "area_sqm_declared": 830.334
      },
      "geometry": {
        "type": "Polygon",
        "coordinates": [
          [
            [
              116.350025,
              39.947675
            ],
            [
              116.350025,
              39.947925
            ],
            [
              116.350375,
              39.947925
            ],
            [
              116.350375,
              39.947675
            ],
            [
              116.350025,
              39.947675
            ]
          ]
        ]
      }
    },
    {
      "type": "Feature",
      "id": "BLDG-004",
      "properties": {
        "id": "BLDG-004",
        "layer": "BUILDING_FOOTPRINT",
        "source_type": "agent_generated_design",
        "confidence": "medium",
        "geometry_role": "design_proposal",
        "official_status": "concept_only",
        "building_type": "mixed_use",
        "name_zh": "维修与培训后场",
        "name_en": "Repair and training back-of-house",
        "design_status": "conceptual_program_footprint_not_existing_survey",
        "human_scale_footprint": true,
        "adaptation_strategy": "prefer_existing_small_building_or_reversible_insert",
        "land_use_zone_id": "LU-002",
        "access_gradient": "P2",
        "area_sqm_declared": 626.253
      },
      "geometry": {
        "type": "Polygon",
        "coordinates": [
          [
            [
              116.34735,
              39.95389
            ],
            [
              116.34735,
              39.95411
            ],
            [
              116.34765,
              39.95411
            ],
            [
              116.34765,
              39.95389
            ],
            [
              116.34735,
              39.95389
            ]
          ]
        ]
      }
    },
    {
      "type": "Feature",
      "id": "BLDG-005",
      "properties": {
        "id": "BLDG-005",
        "layer": "BUILDING_FOOTPRINT",
        "source_type": "agent_generated_design",
        "confidence": "medium",
        "geometry_role": "design_proposal",
        "official_status": "concept_only",
        "building_type": "education",
        "name_zh": "方法门诊",
        "name_en": "Methods clinic",
        "design_status": "conceptual_program_footprint_not_existing_survey",
        "human_scale_footprint": true,
        "adaptation_strategy": "prefer_existing_small_building_or_reversible_insert",
        "land_use_zone_id": "LU-006",
        "access_gradient": "P2",
        "area_sqm_declared": 474.219
      },
      "geometry": {
        "type": "Polygon",
        "coordinates": [
          [
            [
              116.343775,
              39.9854
            ],
            [
              116.343775,
              39.9856
            ],
            [
              116.344025,
              39.9856
            ],
            [
              116.344025,
              39.9854
            ],
            [
              116.343775,
              39.9854
            ]
          ]
        ]
      }
    },
    {
      "type": "Feature",
      "id": "BLDG-006",
      "properties": {
        "id": "BLDG-006",
        "layer": "BUILDING_FOOTPRINT",
        "source_type": "agent_generated_design",
        "confidence": "medium",
        "geometry_role": "design_proposal",
        "official_status": "concept_only",
        "building_type": "lab",
        "name_zh": "复现实验单元 A",
        "name_en": "Reproduction unit A",
        "design_status": "conceptual_program_footprint_not_existing_survey",
        "human_scale_footprint": true,
        "adaptation_strategy": "prefer_existing_small_building_or_reversible_insert",
        "land_use_zone_id": "LU-006",
        "access_gradient": "P3",
        "area_sqm_declared": 758.743
      },
      "geometry": {
        "type": "Polygon",
        "coordinates": [
          [
            [
              116.34764,
              39.986075
            ],
            [
              116.34764,
              39.986325
            ],
            [
              116.34796,
              39.986325
            ],
            [
              116.34796,
              39.986075
            ],
            [
              116.34764,
              39.986075
            ]
          ]
        ]
      }
    },
    {
      "type": "Feature",
      "id": "BLDG-007",
      "properties": {
        "id": "BLDG-007",
        "layer": "BUILDING_FOOTPRINT",
        "source_type": "agent_generated_design",
        "confidence": "medium",
        "geometry_role": "design_proposal",
        "official_status": "concept_only",
        "building_type": "lab",
        "name_zh": "复现实验单元 B",
        "name_en": "Reproduction unit B",
        "design_status": "conceptual_program_footprint_not_existing_survey",
        "human_scale_footprint": true,
        "adaptation_strategy": "prefer_existing_small_building_or_reversible_insert",
        "land_use_zone_id": "LU-006",
        "access_gradient": "P3",
        "area_sqm_declared": 758.743
      },
      "geometry": {
        "type": "Polygon",
        "coordinates": [
          [
            [
              116.34934,
              39.986075
            ],
            [
              116.34934,
              39.986325
            ],
            [
              116.34966,
              39.986325
            ],
            [
              116.34966,
              39.986075
            ],
            [
              116.34934,
              39.986075
            ]
          ]
        ]
      }
    },
    {
      "type": "Feature",
      "id": "BLDG-008",
      "properties": {
        "id": "BLDG-008",
        "layer": "BUILDING_FOOTPRINT",
        "source_type": "agent_generated_design",
        "confidence": "medium",
        "geometry_role": "design_proposal",
        "official_status": "concept_only",
        "building_type": "cultural",
        "name_zh": "未能复现档案厅",
        "name_en": "Non-reproduction archive",
        "design_status": "conceptual_program_footprint_not_existing_survey",
        "human_scale_footprint": true,
        "adaptation_strategy": "prefer_existing_small_building_or_reversible_insert",
        "land_use_zone_id": "LU-005",
        "access_gradient": "P1",
        "area_sqm_declared": 625.969
      },
      "geometry": {
        "type": "Polygon",
        "coordinates": [
          [
            [
              116.35085,
              39.98539
            ],
            [
              116.35085,
              39.98561
            ],
            [
              116.35115,
              39.98561
            ],
            [
              116.35115,
              39.98539
            ],
            [
              116.35085,
              39.98539
            ]
          ]
        ]
      }
    },
    {
      "type": "Feature",
      "id": "BLDG-009",
      "properties": {
        "id": "BLDG-009",
        "layer": "BUILDING_FOOTPRINT",
        "source_type": "agent_generated_design",
        "confidence": "medium",
        "geometry_role": "design_proposal",
        "official_status": "concept_only",
        "building_type": "ai_r_and_d",
        "name_zh": "科学模型协作室",
        "name_en": "Scientific model studio",
        "design_status": "conceptual_program_footprint_not_existing_survey",
        "human_scale_footprint": true,
        "adaptation_strategy": "prefer_existing_small_building_or_reversible_insert",
        "land_use_zone_id": "LU-008",
        "access_gradient": "P3",
        "area_sqm_declared": 584.015
      },
      "geometry": {
        "type": "Polygon",
        "coordinates": [
          [
            [
              116.34366,
              40.01189
            ],
            [
              116.34366,
              40.01211
            ],
            [
              116.34394,
              40.01211
            ],
            [
              116.34394,
              40.01189
            ],
            [
              116.34366,
              40.01189
            ]
          ]
        ]
      }
    },
    {
      "type": "Feature",
      "id": "BLDG-010",
      "properties": {
        "id": "BLDG-010",
        "layer": "BUILDING_FOOTPRINT",
        "source_type": "agent_generated_design",
        "confidence": "medium",
        "geometry_role": "design_proposal",
        "official_status": "concept_only",
        "building_type": "lab",
        "name_zh": "共享仪器与校准室",
        "name_en": "Shared instrument and calibration room",
        "design_status": "conceptual_program_footprint_not_existing_survey",
        "human_scale_footprint": true,
        "adaptation_strategy": "prefer_existing_small_building_or_reversible_insert",
        "land_use_zone_id": "LU-007",
        "access_gradient": "P3",
        "area_sqm_declared": 758.455
      },
      "geometry": {
        "type": "Polygon",
        "coordinates": [
          [
            [
              116.34764,
              40.012375
            ],
            [
              116.34764,
              40.012625
            ],
            [
              116.34796,
              40.012625
            ],
            [
              116.34796,
              40.012375
            ],
            [
              116.34764,
              40.012375
            ]
          ]
        ]
      }
    },
    {
      "type": "Feature",
      "id": "BLDG-011",
      "properties": {
        "id": "BLDG-011",
        "layer": "BUILDING_FOOTPRINT",
        "source_type": "agent_generated_design",
        "confidence": "medium",
        "geometry_role": "design_proposal",
        "official_status": "concept_only",
        "building_type": "lab",
        "name_zh": "非危险自主实验舱",
        "name_en": "Non-hazardous autonomous experiment bay",
        "design_status": "conceptual_program_footprint_not_existing_survey",
        "human_scale_footprint": true,
        "adaptation_strategy": "prefer_existing_small_building_or_reversible_insert",
        "land_use_zone_id": "LU-007",
        "access_gradient": "P3",
        "area_sqm_declared": 929.107
      },
      "geometry": {
        "type": "Polygon",
        "coordinates": [
          [
            [
              116.348425,
              40.01236
            ],
            [
              116.348425,
              40.01264
            ],
            [
              116.348775,
              40.01264
            ],
            [
              116.348775,
              40.01236
            ],
            [
              116.348425,
              40.01236
            ]
          ]
        ]
      }
    },
    {
      "type": "Feature",
      "id": "BLDG-012",
      "properties": {
        "id": "BLDG-012",
        "layer": "BUILDING_FOOTPRINT",
        "source_type": "agent_generated_design",
        "confidence": "medium",
        "geometry_role": "design_proposal",
        "official_status": "concept_only",
        "building_type": "office",
        "name_zh": "技术员与安全培训站",
        "name_en": "Technician and safety training station",
        "design_status": "conceptual_program_footprint_not_existing_survey",
        "human_scale_footprint": true,
        "adaptation_strategy": "prefer_existing_small_building_or_reversible_insert",
        "land_use_zone_id": "LU-007",
        "access_gradient": "P2",
        "area_sqm_declared": 474.038
      },
      "geometry": {
        "type": "Polygon",
        "coordinates": [
          [
            [
              116.350475,
              40.0119
            ],
            [
              116.350475,
              40.0121
            ],
            [
              116.350725,
              40.0121
            ],
            [
              116.350725,
              40.0119
            ],
            [
              116.350475,
              40.0119
            ]
          ]
        ]
      }
    }
  ]
}
