{"type": "FeatureCollection", "features": [{"type": "Feature", "properties": {"id": "GS-001", "layer": "GREEN_SPACE", "source_type": "agent_generated_design", "confidence": "medium", "geometry_role": "design_proposal", "green_type": "1402", "name_zh": "蓝绿生态廊道与防护绿地(概念)", "area_sqm_declared": 66546.446}, "geometry": {"type": "Polygon", "coordinates": [[[116.35520758249928, 39.93900000578234], [116.35380342745148, 39.939000084574225], [116.35369364570009, 39.9439897049394], [116.35509772915894, 39.94399752379388], [116.35520758249928, 39.93900000578234]]]}, "id": "GS-001"}, {"type": "Feature", "properties": {"id": "GS-002", "layer": "GREEN_SPACE", "source_type": "agent_generated_design", "confidence": "medium", "geometry_role": "design_proposal", "green_type": "1401", "name_zh": "京张遗址公园活力廊道(概念)", "area_sqm_declared": 58288.196}, "geometry": {"type": "Polygon", "coordinates": [[[116.3448132390369, 39.939000186029084], [116.34363031854524, 39.93900014747873], [116.34358318335904, 39.943932901165546], [116.34488864857795, 39.94394028525847], [116.3448132390369, 39.939000186029084]]]}, "id": "GS-002"}, {"type": "Feature", "properties": {"id": "GS-003", "layer": "GREEN_SPACE", "source_type": "agent_generated_design", "confidence": "medium", "geometry_role": "design_proposal", "green_type": "1401", "name_zh": "京张遗址公园活力廊道(概念)", "area_sqm_declared": 95026.518}, "geometry": {"type": "Polygon", "coordinates": [[[116.34363031854524, 39.93900014747873], [116.34153712741868, 39.93900004968853], [116.34161202091785, 39.94392172383766], [116.34358318335904, 39.943932901165546], [116.34363031854524, 39.93900014747873]]]}, "id": "GS-003"}, {"type": "Feature", "properties": {"id": "GS-004", "layer": "GREEN_SPACE", "source_type": "agent_generated_design", "confidence": "medium", "geometry_role": "design_proposal", "green_type": "1401", "name_zh": "京张遗址公园活力廊道(概念)", "area_sqm_declared": 98746.272}, "geometry": {"type": "Polygon", "coordinates": [[[116.34161202091785, 39.94392172383766], [116.34169522304067, 39.94938894543073], [116.34353093475706, 39.94939935479791], [116.34358318335904, 39.943932901165546], [116.34161202091785, 39.94392172383766]]]}, "id": "GS-004"}, {"type": "Feature", "properties": {"id": "GS-005", "layer": "GREEN_SPACE", "source_type": "agent_generated_design", "confidence": "medium", "geometry_role": "design_proposal", "green_type": "1401", "name_zh": "京张遗址公园活力廊道(概念)", "area_sqm_declared": 71244.703}, "geometry": {"type": "Polygon", "coordinates": [[[116.34497211158954, 39.9494075065935], [116.34488864857795, 39.94394028525847], [116.34358318335904, 39.943932901165546], [116.34353093475706, 39.94939935479791], [116.34497211158954, 39.9494075065935]]]}, "id": "GS-005"}, {"type": "Feature", "properties": {"id": "GS-006", "layer": "GREEN_SPACE", "source_type": "agent_generated_design", "confidence": "medium", "geometry_role": "design_proposal", "green_type": "1402", "name_zh": "蓝绿生态廊道与防护绿地(概念)", "area_sqm_declared": 72843.422}, "geometry": {"type": "Polygon", "coordinates": [[[116.35497755200417, 39.94946360685102], [116.35509772915894, 39.94399752379388], [116.35369364570009, 39.9439897049394], [116.35357335683042, 39.94945578565701], [116.35497755200417, 39.94946360685102]]]}, "id": "GS-006"}, {"type": "Feature", "properties": {"id": "GS-007", "layer": "GREEN_SPACE", "source_type": "agent_generated_design", "confidence": "medium", "geometry_role": "design_proposal", "green_type": "1402", "name_zh": "蓝绿生态廊道与防护绿地(概念)", "area_sqm_declared": 5525.758}, "geometry": {"type": "Polygon", "coordinates": [[[116.34041175570823, 39.949381650287236], [116.34039925249039, 39.94983188772625], [116.34170207691726, 39.94983929294627], [116.34169522304067, 39.94938894543073], [116.34041175570823, 39.949381650287236]]]}, "id": "GS-007"}, {"type": "Feature", "properties": {"id": "GS-008", "layer": "GREEN_SPACE", "source_type": "agent_generated_design", "confidence": "medium", "geometry_role": "design_proposal", "green_type": "1401", "name_zh": "京张遗址公园活力廊道(概念)", "area_sqm_declared": 7820.36}, "geometry": {"type": "Polygon", "coordinates": [[[116.34169522304067, 39.94938894543073], [116.34170207691726, 39.94983929294627], [116.34352663028221, 39.94984963904863], [116.34353093475706, 39.94939935479791], [116.34169522304067, 39.94938894543073]]]}, "id": "GS-008"}, {"type": "Feature", "properties": {"id": "GS-009", "layer": "GREEN_SPACE", "source_type": "agent_generated_design", "confidence": "medium", "geometry_role": "design_proposal", "green_type": "1401", "name_zh": "京张遗址公园活力廊道(概念)", "area_sqm_declared": 6182.192}, "geometry": {"type": "Polygon", "coordinates": [[[116.3449789869593, 39.949857854087746], [116.34497211158954, 39.9494075065935], [116.34353093475706, 39.94939935479791], [116.34352663028221, 39.94984963904863], [116.3449789869593, 39.949857854087746]]]}, "id": "GS-009"}, {"type": "Feature", "properties": {"id": "GS-010", "layer": "GREEN_SPACE", "source_type": "agent_generated_design", "confidence": "medium", "geometry_role": "design_proposal", "green_type": "1402", "name_zh": "蓝绿生态廊道与防护绿地(概念)", "area_sqm_declared": 6000.282}, "geometry": {"type": "Polygon", "coordinates": [[[116.35496765161933, 39.94991386056827], [116.35497755200417, 39.94946360685102], [116.35357335683042, 39.94945578565701], [116.353563447242, 39.94990603918153], [116.35496765161933, 39.94991386056827]]]}, "id": "GS-010"}, {"type": "Feature", "properties": {"id": "GS-011", "layer": "GREEN_SPACE", "source_type": "agent_generated_design", "confidence": "medium", "geometry_role": "design_proposal", "green_type": "1402", "name_zh": "蓝绿生态廊道与防护绿地(概念)", "area_sqm_declared": 1399.072}, "geometry": {"type": "Polygon", "coordinates": [[[116.35530001610384, 39.94991570934151], [116.35530001590034, 39.94946540053366], [116.35497755200417, 39.94946360685102], [116.35496765161933, 39.94991386056827], [116.35530001610384, 39.94991570934151]]]}, "id": "GS-011"}, {"type": "Feature", "properties": {"id": "GS-012", "layer": "GREEN_SPACE", "source_type": "agent_generated_design", "confidence": "medium", "geometry_role": "design_proposal", "green_type": "1402", "name_zh": "蓝绿生态廊道与防护绿地(概念)", "area_sqm_declared": 5608.437}, "geometry": {"type": "Polygon", "coordinates": [[[116.34039925249039, 39.94983188772625], [116.34038674906805, 39.95028212512773], [116.34170893084323, 39.95028964042728], [116.34170207691726, 39.94983929294627], [116.34039925249039, 39.94983188772625]]]}, "id": "GS-012"}, {"type": "Feature", "properties": {"id": "GS-013", "layer": "GREEN_SPACE", "source_type": "agent_generated_design", "confidence": "medium", "geometry_role": "design_proposal", "green_type": "1401", "name_zh": "京张遗址公园活力廊道(概念)", "area_sqm_declared": 7772.627}, "geometry": {"type": "Polygon", "coordinates": [[[116.34170207691726, 39.94983929294627], [116.34170893084323, 39.95028964042728], [116.34352232571052, 39.95029992326385], [116.34352663028221, 39.94984963904863], [116.34170207691726, 39.94983929294627]]]}, "id": "GS-013"}, {"type": "Feature", "properties": {"id": "GS-014", "layer": "GREEN_SPACE", "source_type": "agent_generated_design", "confidence": "medium", "geometry_role": "design_proposal", "green_type": "1401", "name_zh": "京张遗址公园活力廊道(概念)", "area_sqm_declared": 6229.924}, "geometry": {"type": "Polygon", "coordinates": [[[116.34498586237893, 39.950308201547465], [116.3449789869593, 39.949857854087746], [116.34352663028221, 39.94984963904863], [116.34352232571052, 39.95029992326385], [116.34498586237893, 39.950308201547465]]]}, "id": "GS-014"}, {"type": "Feature", "properties": {"id": "GS-015", "layer": "GREEN_SPACE", "source_type": "agent_generated_design", "confidence": "medium", "geometry_role": "design_proposal", "green_type": "1402", "name_zh": "蓝绿生态廊道与防护绿地(概念)", "area_sqm_declared": 1270.076}, "geometry": {"type": "Polygon", "coordinates": [[[116.3449789869593, 39.949857854087746], [116.34498586237893, 39.950308201547465], [116.34527750538504, 39.9503098489761], [116.34528179844989, 39.949859564603436], [116.3449789869593, 39.949857854087746]]]}, "id": "GS-015"}, {"type": "Feature", "properties": {"id": "GS-016", "layer": "GREEN_SPACE", "source_type": "agent_generated_design", "confidence": "medium", "geometry_role": "design_proposal", "green_type": "1402", "name_zh": "蓝绿生态廊道与防护绿地(概念)", "area_sqm_declared": 10500.0}, "geometry": {"type": "Polygon", "coordinates": [[[116.34527750538504, 39.9503098489761], [116.34773475838912, 39.950323700335545], [116.34773903534436, 39.94987341574318], [116.34528179844989, 39.949859564603436], [116.34527750538504, 39.9503098489761]]]}, "id": "GS-016"}, {"type": "Feature", "properties": {"id": "GS-017", "layer": "GREEN_SPACE", "source_type": "agent_generated_design", "confidence": "medium", "geometry_role": "design_proposal", "green_type": "1402", "name_zh": "蓝绿生态廊道与防护绿地(概念)", "area_sqm_declared": 12000.0}, "geometry": {"type": "Polygon", "coordinates": [[[116.34773475838912, 39.950323700335545], [116.35054304961454, 39.95033946669234], [116.35054730815874, 39.949889181849905], [116.34773903534436, 39.94987341574318], [116.34773475838912, 39.950323700335545]]]}, "id": "GS-017"}, {"type": "Feature", "properties": {"id": "GS-018", "layer": "GREEN_SPACE", "source_type": "agent_generated_design", "confidence": "medium", "geometry_role": "design_proposal", "green_type": "1402", "name_zh": "蓝绿生态廊道与防护绿地(概念)", "area_sqm_declared": 10000.0}, "geometry": {"type": "Polygon", "coordinates": [[[116.35054304961454, 39.95033946669234], [116.35288329398891, 39.95035255336357], [116.35288753719055, 39.94990226831356], [116.35054730815874, 39.949889181849905], [116.35054304961454, 39.95033946669234]]]}, "id": "GS-018"}, {"type": "Feature", "properties": {"id": "GS-019", "layer": "GREEN_SPACE", "source_type": "agent_generated_design", "confidence": "medium", "geometry_role": "design_proposal", "green_type": "1402", "name_zh": "蓝绿生态廊道与防护绿地(概念)", "area_sqm_declared": 2876.104}, "geometry": {"type": "Polygon", "coordinates": [[[116.35355353748389, 39.9503562926693], [116.353563447242, 39.94990603918153], [116.35288753719055, 39.94990226831356], [116.35288329398891, 39.95035255336357], [116.35355353748389, 39.9503562926693]]]}, "id": "GS-019"}, {"type": "Feature", "properties": {"id": "GS-020", "layer": "GREEN_SPACE", "source_type": "agent_generated_design", "confidence": "medium", "geometry_role": "design_proposal", "green_type": "1402", "name_zh": "蓝绿生态廊道与防护绿地(概念)", "area_sqm_declared": 6000.282}, "geometry": {"type": "Polygon", "coordinates": [[[116.35495775106499, 39.950364114248785], [116.35496765161933, 39.94991386056827], [116.353563447242, 39.94990603918153], [116.35355353748389, 39.9503562926693], [116.35495775106499, 39.950364114248785]]]}, "id": "GS-020"}, {"type": "Feature", "properties": {"id": "GS-021", "layer": "GREEN_SPACE", "source_type": "agent_generated_design", "confidence": "medium", "geometry_role": "design_proposal", "green_type": "1402", "name_zh": "蓝绿生态廊道与防护绿地(概念)", "area_sqm_declared": 1441.369}, "geometry": {"type": "Polygon", "coordinates": [[[116.35530001626768, 39.950366018114494], [116.35530001610384, 39.94991570934151], [116.35496765161933, 39.94991386056827], [116.35495775106499, 39.950364114248785], [116.35530001626768, 39.950366018114494]]]}, "id": "GS-021"}, {"type": "Feature", "properties": {"id": "GS-022", "layer": "GREEN_SPACE", "source_type": "agent_generated_design", "confidence": "medium", "geometry_role": "design_proposal", "green_type": "1401", "name_zh": "京张遗址公园活力廊道(概念)", "area_sqm_declared": 177480.089}, "geometry": {"type": "Polygon", "coordinates": [[[116.34518758275976, 39.95973917913418], [116.34509299339673, 39.957324973056664], [116.34498586237893, 39.950308201547465], [116.34352232571052, 39.95029992326385], [116.34341183727139, 39.96185420409485], [116.34516731229982, 39.96186413384757], [116.34518758275976, 39.95973917913418]]]}, "id": "GS-022"}, {"type": "Feature", "properties": {"id": "GS-023", "layer": "GREEN_SPACE", "source_type": "agent_generated_design", "confidence": "medium", "geometry_role": "design_proposal", "green_type": "1401", "name_zh": "京张遗址公园活力廊道(概念)", "area_sqm_declared": 180854.332}, "geometry": {"type": "Polygon", "coordinates": [[[116.34181663615627, 39.957366148640766], [116.341817266146, 39.95738933226192], [116.34199167730235, 39.96184615158074], [116.34341183727139, 39.96185420409485], [116.34352232571052, 39.95029992326385], [116.34170893084323, 39.95028964042728], [116.34181663615627, 39.957366148640766]]]}, "id": "GS-023"}, {"type": "Feature", "properties": {"id": "GS-024", "layer": "GREEN_SPACE", "source_type": "agent_generated_design", "confidence": "medium", "geometry_role": "design_proposal", "green_type": "1402", "name_zh": "蓝绿生态廊道与防护绿地(概念)", "area_sqm_declared": 153967.232}, "geometry": {"type": "Polygon", "coordinates": [[[116.35470364484966, 39.96191761112607], [116.35495775106499, 39.950364114248785], [116.35355353748389, 39.9503562926693], [116.35329919502874, 39.961909784599534], [116.35470364484966, 39.96191761112607]]]}, "id": "GS-024"}, {"type": "Feature", "properties": {"id": "GS-025", "layer": "GREEN_SPACE", "source_type": "agent_generated_design", "confidence": "medium", "geometry_role": "design_proposal", "green_type": "1401", "name_zh": "京张遗址公园活力廊道(概念)", "area_sqm_declared": 1043.923}, "geometry": {"type": "Polygon", "coordinates": [[[116.34527086666277, 39.96186471876702], [116.34518758275976, 39.95973917913418], [116.34516731229982, 39.96186413384757], [116.34527086666277, 39.96186471876702]]]}, "id": "GS-025"}, {"type": "Feature", "properties": {"id": "GS-026", "layer": "GREEN_SPACE", "source_type": "agent_generated_design", "confidence": "medium", "geometry_role": "design_proposal", "green_type": "1401", "name_zh": "京张遗址公园活力廊道(概念)", "area_sqm_declared": 139835.104}, "geometry": {"type": "Polygon", "coordinates": [[[116.34199167730235, 39.96184615158074], [116.34252057332915, 39.97535836702091], [116.3432825804832, 39.975362686753755], [116.34341183727139, 39.96185420409485], [116.34199167730235, 39.96184615158074]]]}, "id": "GS-026"}, {"type": "Feature", "properties": {"id": "GS-027", "layer": "GREEN_SPACE", "source_type": "agent_generated_design", "confidence": "medium", "geometry_role": "design_proposal", "green_type": "1401", "name_zh": "京张遗址公园活力廊道(概念)", "area_sqm_declared": 225000.0}, "geometry": {"type": "Polygon", "coordinates": [[[116.34516731229982, 39.96186413384757], [116.34341183727139, 39.96185420409485], [116.3432825804832, 39.975362686753755], [116.3450384010364, 39.97537262123201], [116.34516731229982, 39.96186413384757]]]}, "id": "GS-027"}, {"type": "Feature", "properties": {"id": "GS-028", "layer": "GREEN_SPACE", "source_type": "agent_generated_design", "confidence": "medium", "geometry_role": "design_proposal", "green_type": "1401", "name_zh": "京张遗址公园活力廊道(概念)", "area_sqm_declared": 55460.104}, "geometry": {"type": "Polygon", "coordinates": [[[116.34580040873287, 39.97537692441477], [116.34527086666277, 39.96186471876702], [116.34516731229982, 39.96186413384757], [116.3450384010364, 39.97537262123201], [116.34580040873287, 39.97537692441477]]]}, "id": "GS-028"}, {"type": "Feature", "properties": {"id": "GS-029", "layer": "GREEN_SPACE", "source_type": "agent_generated_design", "confidence": "medium", "geometry_role": "design_proposal", "green_type": "1402", "name_zh": "蓝绿生态廊道与防护绿地(概念)", "area_sqm_declared": 180026.816}, "geometry": {"type": "Polygon", "coordinates": [[[116.35320022118111, 39.96640428742317], [116.3528809363161, 39.97541666977297], [116.35428587737778, 39.97542450474691], [116.35460431146834, 39.966430940172934], [116.3546044712417, 39.96642537338248], [116.35470364484966, 39.96191761112607], [116.35329919502874, 39.961909784599534], [116.35320022118111, 39.96640428742317]]]}, "id": "GS-029"}, {"type": "Feature", "properties": {"id": "GS-030", "layer": "GREEN_SPACE", "source_type": "agent_generated_design", "confidence": "medium", "geometry_role": "design_proposal", "green_type": "1402", "name_zh": "蓝绿生态廊道与防护绿地(概念)", "area_sqm_declared": 98948.605}, "geometry": {"type": "Polygon", "coordinates": [[[116.35385613559772, 39.98305030229843], [116.35414261626372, 39.97946972247136], [116.35428587737778, 39.97542450474691], [116.3528809363161, 39.97541666977297], [116.35261066470555, 39.98304335256367], [116.35385613559772, 39.98305030229843]]]}, "id": "GS-030"}, {"type": "Feature", "properties": {"id": "GS-031", "layer": "GREEN_SPACE", "source_type": "agent_generated_design", "confidence": "medium", "geometry_role": "design_proposal", "green_type": "1401", "name_zh": "京张遗址公园活力廊道(概念)", "area_sqm_declared": 41686.929}, "geometry": {"type": "Polygon", "coordinates": [[[116.34252057332915, 39.97535836702091], [116.34281929924502, 39.982988250487054], [116.34320955493305, 39.98299046252503], [116.3432825804832, 39.975362686753755], [116.34252057332915, 39.97535836702091]]]}, "id": "GS-031"}, {"type": "Feature", "properties": {"id": "GS-032", "layer": "GREEN_SPACE", "source_type": "agent_generated_design", "confidence": "medium", "geometry_role": "design_proposal", "green_type": "1401", "name_zh": "京张遗址公园活力廊道(概念)", "area_sqm_declared": 127050.0}, "geometry": {"type": "Polygon", "coordinates": [[[116.34320955493305, 39.98299046252503], [116.34496557069563, 39.983000399672484], [116.3450384010364, 39.97537262123201], [116.3432825804832, 39.975362686753755], [116.34320955493305, 39.98299046252503]]]}, "id": "GS-032"}, {"type": "Feature", "properties": {"id": "GS-033", "layer": "GREEN_SPACE", "source_type": "agent_generated_design", "confidence": "medium", "geometry_role": "design_proposal", "green_type": "1401", "name_zh": "京张遗址公园活力廊道(概念)", "area_sqm_declared": 68589.766}, "geometry": {"type": "Polygon", "coordinates": [[[116.34609949964047, 39.98300680234513], [116.34580040873287, 39.97537692441477], [116.3450384010364, 39.97537262123201], [116.34496557069563, 39.983000399672484], [116.34609949964047, 39.98300680234513]]]}, "id": "GS-033"}, {"type": "Feature", "properties": {"id": "GS-034", "layer": "GREEN_SPACE", "source_type": "agent_generated_design", "confidence": "medium", "geometry_role": "design_proposal", "green_type": "1402", "name_zh": "蓝绿生态廊道与防护绿地(概念)", "area_sqm_declared": 11101.786}, "geometry": {"type": "Polygon", "coordinates": [[[116.34021426065777, 39.98297345100751], [116.3402433177536, 39.98342392239759], [116.3428369353114, 39.9834386565109], [116.34281929924502, 39.982988250487054], [116.34021426065777, 39.98297345100751]]]}, "id": "GS-034"}, {"type": "Feature", "properties": {"id": "GS-035", "layer": "GREEN_SPACE", "source_type": "agent_generated_design", "confidence": "medium", "geometry_role": "design_proposal", "green_type": "1401", "name_zh": "京张遗址公园活力廊道(概念)", "area_sqm_declared": 1619.92}, "geometry": {"type": "Polygon", "coordinates": [[[116.34281929924502, 39.982988250487054], [116.3428369353114, 39.9834386565109], [116.34320524322767, 39.983440744129574], [116.34320955493305, 39.98299046252503], [116.34281929924502, 39.982988250487054]]]}, "id": "GS-035"}, {"type": "Feature", "properties": {"id": "GS-036", "layer": "GREEN_SPACE", "source_type": "agent_generated_design", "confidence": "medium", "geometry_role": "design_proposal", "green_type": "1401", "name_zh": "京张遗址公园活力廊道(概念)", "area_sqm_declared": 7500.0}, "geometry": {"type": "Polygon", "coordinates": [[[116.34496557069563, 39.983000399672484], [116.34320955493305, 39.98299046252503], [116.34320524322767, 39.983440744129574], [116.34496127051611, 39.983450681434604], [116.34496557069563, 39.983000399672484]]]}, "id": "GS-036"}, {"type": "Feature", "properties": {"id": "GS-037", "layer": "GREEN_SPACE", "source_type": "agent_generated_design", "confidence": "medium", "geometry_role": "design_proposal", "green_type": "1401", "name_zh": "京张遗址公园活力廊道(概念)", "area_sqm_declared": 4889.92}, "geometry": {"type": "Polygon", "coordinates": [[[116.34611715725734, 39.98345720804205], [116.34609949964047, 39.98300680234513], [116.34496557069563, 39.983000399672484], [116.34496127051611, 39.983450681434604], [116.34611715725734, 39.98345720804205]]]}, "id": "GS-037"}, {"type": "Feature", "properties": {"id": "GS-038", "layer": "GREEN_SPACE", "source_type": "agent_generated_design", "confidence": "medium", "geometry_role": "design_proposal", "green_type": "1402", "name_zh": "蓝绿生态廊道与防护绿地(概念)", "area_sqm_declared": 5610.08}, "geometry": {"type": "Polygon", "coordinates": [[[116.34609949964047, 39.98300680234513], [116.34611715725734, 39.98345720804205], [116.34741971018242, 39.98346454897182], [116.34742399422562, 39.98301426698978], [116.34609949964047, 39.98300680234513]]]}, "id": "GS-038"}, {"type": "Feature", "properties": {"id": "GS-039", "layer": "GREEN_SPACE", "source_type": "agent_generated_design", "confidence": "medium", "geometry_role": "design_proposal", "green_type": "1402", "name_zh": "蓝绿生态廊道与防护绿地(概念)", "area_sqm_declared": 12000.0}, "geometry": {"type": "Polygon", "coordinates": [[[116.35023362319875, 39.983030051510674], [116.34742399422562, 39.98301426698978], [116.34741971018242, 39.98346454897182], [116.35022935759707, 39.983480333743024], [116.35023362319875, 39.983030051510674]]]}, "id": "GS-039"}, {"type": "Feature", "properties": {"id": "GS-040", "layer": "GREEN_SPACE", "source_type": "agent_generated_design", "confidence": "medium", "geometry_role": "design_proposal", "green_type": "1402", "name_zh": "蓝绿生态廊道与防护绿地(概念)", "area_sqm_declared": 10000.0}, "geometry": {"type": "Polygon", "coordinates": [[[116.35257498236595, 39.983043153258784], [116.35023362319875, 39.983030051510674], [116.35022935759707, 39.983480333743024], [116.35257073213226, 39.98349343569891], [116.35257498236595, 39.983043153258784]]]}, "id": "GS-040"}, {"type": "Feature", "properties": {"id": "GS-041", "layer": "GREEN_SPACE", "source_type": "agent_generated_design", "confidence": "medium", "geometry_role": "design_proposal", "green_type": "1402", "name_zh": "蓝绿生态廊道与防护绿地(概念)", "area_sqm_declared": 5276.581}, "geometry": {"type": "Polygon", "coordinates": [[[116.35382012054336, 39.983500407721834], [116.35385613559772, 39.98305030229843], [116.35261066470555, 39.98304335256367], [116.35259470782945, 39.98349356961841], [116.35382012054336, 39.983500407721834]]]}, "id": "GS-041"}, {"type": "Feature", "properties": {"id": "GS-042", "layer": "GREEN_SPACE", "source_type": "agent_generated_design", "confidence": "medium", "geometry_role": "design_proposal", "green_type": "1402", "name_zh": "蓝绿生态廊道与防护绿地(概念)", "area_sqm_declared": 11052.933}, "geometry": {"type": "Polygon", "coordinates": [[[116.3402433177536, 39.98342392239759], [116.34027237519057, 39.983874393748586], [116.34285457156899, 39.98388906249907], [116.3428369353114, 39.9834386565109], [116.3402433177536, 39.98342392239759]]]}, "id": "GS-042"}, {"type": "Feature", "properties": {"id": "GS-043", "layer": "GREEN_SPACE", "source_type": "agent_generated_design", "confidence": "medium", "geometry_role": "design_proposal", "green_type": "1401", "name_zh": "京张遗址公园活力廊道(概念)", "area_sqm_declared": 1526.17}, "geometry": {"type": "Polygon", "coordinates": [[[116.3428369353114, 39.9834386565109], [116.34285457156899, 39.98388906249907], [116.34320093142523, 39.983891025698625], [116.34320524322767, 39.983440744129574], [116.3428369353114, 39.9834386565109]]]}, "id": "GS-043"}, {"type": "Feature", "properties": {"id": "GS-044", "layer": "GREEN_SPACE", "source_type": "agent_generated_design", "confidence": "medium", "geometry_role": "design_proposal", "green_type": "1401", "name_zh": "京张遗址公园活力廊道(概念)", "area_sqm_declared": 7500.0}, "geometry": {"type": "Polygon", "coordinates": [[[116.34320093142523, 39.983891025698625], [116.34495697023985, 39.98390096316125], [116.34496127051611, 39.983450681434604], [116.34320524322767, 39.983440744129574], [116.34320093142523, 39.983891025698625]]]}, "id": "GS-044"}, {"type": "Feature", "properties": {"id": "GS-045", "layer": "GREEN_SPACE", "source_type": "agent_generated_design", "confidence": "medium", "geometry_role": "design_proposal", "green_type": "1401", "name_zh": "京张遗址公园活力廊道(概念)", "area_sqm_declared": 4983.67}, "geometry": {"type": "Polygon", "coordinates": [[[116.34613481506594, 39.98390761370327], [116.34611715725734, 39.98345720804205], [116.34496127051611, 39.983450681434604], [116.34495697023985, 39.98390096316125], [116.34613481506594, 39.98390761370327]]]}, "id": "GS-045"}, {"type": "Feature", "properties": {"id": "GS-046", "layer": "GREEN_SPACE", "source_type": "agent_generated_design", "confidence": "medium", "geometry_role": "design_proposal", "green_type": "1402", "name_zh": "蓝绿生态廊道与防护绿地(概念)", "area_sqm_declared": 5190.878}, "geometry": {"type": "Polygon", "coordinates": [[[116.35378410497671, 39.98395051309544], [116.35382012054336, 39.983500407721834], [116.35259470782945, 39.98349356961841], [116.35257875070411, 39.98394378663442], [116.35378410497671, 39.98395051309544]]]}, "id": "GS-046"}, {"type": "Feature", "properties": {"id": "GS-047", "layer": "GREEN_SPACE", "source_type": "agent_generated_design", "confidence": "medium", "geometry_role": "design_proposal", "green_type": "1402", "name_zh": "蓝绿生态廊道与防护绿地(概念)", "area_sqm_declared": 88457.458}, "geometry": {"type": "Polygon", "coordinates": [[[116.35256202735006, 39.9844156145658], [116.35247567192643, 39.99356174179757], [116.35349539284095, 39.99356743438948], [116.3533, 39.99], [116.35378410497671, 39.98395051309544], [116.35257875070411, 39.98394378663442], [116.35259470782945, 39.98349356961841], [116.35261066470555, 39.98304335256367], [116.35257498236595, 39.983043153258784], [116.35257073213226, 39.98349343569891], [116.35256648180292, 39.98394371810356], [116.35256202735006, 39.9844156145658]]]}, "id": "GS-047"}, {"type": "Feature", "properties": {"id": "GS-048", "layer": "GREEN_SPACE", "source_type": "agent_generated_design", "confidence": "medium", "geometry_role": "design_proposal", "green_type": "1401", "name_zh": "京张遗址公园活力廊道(概念)", "area_sqm_declared": 11671.009}, "geometry": {"type": "Polygon", "coordinates": [[[116.34285457156899, 39.98388906249907], [116.34313288201066, 39.99099608062241], [116.34320093142523, 39.983891025698625], [116.34285457156899, 39.98388906249907]]]}, "id": "GS-048"}, {"type": "Feature", "properties": {"id": "GS-049", "layer": "GREEN_SPACE", "source_type": "agent_generated_design", "confidence": "medium", "geometry_role": "design_proposal", "green_type": "1401", "name_zh": "京张遗址公园活力廊道(概念)", "area_sqm_declared": 158739.349}, "geometry": {"type": "Polygon", "coordinates": [[[116.34313288201066, 39.99099608062241], [116.34322788652509, 39.99342186365019], [116.34322910250162, 39.99344552536564], [116.34323318784013, 39.99350973642471], [116.34486509322821, 39.993518972371035], [116.34495697023985, 39.98390096316125], [116.34320093142523, 39.983891025698625], [116.34313288201066, 39.99099608062241]]]}, "id": "GS-049"}, {"type": "Feature", "properties": {"id": "GS-050", "layer": "GREEN_SPACE", "source_type": "agent_generated_design", "confidence": "medium", "geometry_role": "design_proposal", "green_type": "1401", "name_zh": "京张遗址公园活力廊道(概念)", "area_sqm_declared": 128843.519}, "geometry": {"type": "Polygon", "coordinates": [[[116.34651678348881, 39.993528296893295], [116.34650441575722, 39.99333405409772], [116.34613481506594, 39.98390761370327], [116.34495697023985, 39.98390096316125], [116.34486509322821, 39.993518972371035], [116.34651678348881, 39.993528296893295]]]}, "id": "GS-050"}, {"type": "Feature", "properties": {"id": "GS-051", "layer": "GREEN_SPACE", "source_type": "agent_generated_design", "confidence": "medium", "geometry_role": "design_proposal", "green_type": "1402", "name_zh": "蓝绿生态廊道与防护绿地(概念)", "area_sqm_declared": 10314.432}, "geometry": {"type": "Polygon", "coordinates": [[[116.35256202735006, 39.9844156145658], [116.35223784696467, 39.99356041284943], [116.35247567192643, 39.99356174179757], [116.35256202735006, 39.9844156145658]]]}, "id": "GS-051"}, {"type": "Feature", "properties": {"id": "GS-052", "layer": "GREEN_SPACE", "source_type": "agent_generated_design", "confidence": "medium", "geometry_role": "design_proposal", "green_type": "1402", "name_zh": "防护绿地(高校联络带东侧)", "area_sqm_declared": 183253.624}, "geometry": {"type": "Polygon", "coordinates": [[[116.35190635863918, 40.00333017826028], [116.35192353262768, 40.00242570410436], [116.3519237189404, 40.00241886086511], [116.35223784696467, 39.99356041284943], [116.35013395367271, 39.993548635195246], [116.35004131987694, 40.00331973369128], [116.35190635863918, 40.00333017826028]]]}, "id": "GS-052"}, {"type": "Feature", "properties": {"id": "GS-053", "layer": "GREEN_SPACE", "source_type": "agent_generated_design", "confidence": "medium", "geometry_role": "design_proposal", "green_type": "1402", "name_zh": "蓝绿生态廊道与防护绿地(概念)", "area_sqm_declared": 33746.376}, "geometry": {"type": "Polygon", "coordinates": [[[116.35223784696467, 39.99356041284943], [116.3519237189404, 40.00241886086511], [116.35192353262768, 40.00242570410436], [116.35190635863918, 40.00333017826028], [116.35238337186902, 40.00333284480416], [116.35247567192643, 39.99356174179757], [116.35223784696467, 39.99356041284943]]]}, "id": "GS-053"}, {"type": "Feature", "properties": {"id": "GS-054", "layer": "GREEN_SPACE", "source_type": "agent_generated_design", "confidence": "medium", "geometry_role": "design_proposal", "green_type": "1401", "name_zh": "京张遗址公园活力廊道(概念)", "area_sqm_declared": 118071.228}, "geometry": {"type": "Polygon", "coordinates": [[[116.34323318784013, 39.99350973642471], [116.3438551976287, 40.00328487534964], [116.34477170852418, 40.00329006065875], [116.34486509322821, 39.993518972371035], [116.34323318784013, 39.99350973642471]]]}, "id": "GS-054"}, {"type": "Feature", "properties": {"id": "GS-055", "layer": "GREEN_SPACE", "source_type": "agent_generated_design", "confidence": "medium", "geometry_role": "design_proposal", "green_type": "1401", "name_zh": "京张遗址公园活力廊道(概念)", "area_sqm_declared": 186210.272}, "geometry": {"type": "Polygon", "coordinates": [[[116.34713926191206, 40.00330342192947], [116.34651678348881, 39.993528296893295], [116.34486509322821, 39.993518972371035], [116.34477170852418, 40.00329006065875], [116.34713926191206, 40.00330342192947]]]}, "id": "GS-055"}, {"type": "Feature", "properties": {"id": "GS-056", "layer": "GREEN_SPACE", "source_type": "agent_generated_design", "confidence": "medium", "geometry_role": "design_proposal", "green_type": "1402", "name_zh": "防护绿地(高校联络带东侧)", "area_sqm_declared": 260400.0}, "geometry": {"type": "Polygon", "coordinates": [[[116.35013395367271, 39.993548635195246], [116.34732389379694, 39.99353284482618], [116.34723085951626, 40.003303937888035], [116.35004131987694, 40.00331973369128], [116.35013395367271, 39.993548635195246]]]}, "id": "GS-056"}, {"type": "Feature", "properties": {"id": "GS-057", "layer": "GREEN_SPACE", "source_type": "agent_generated_design", "confidence": "medium", "geometry_role": "design_proposal", "green_type": "1402", "name_zh": "蓝绿生态廊道与防护绿地(概念)", "area_sqm_declared": 95330.022}, "geometry": {"type": "Polygon", "coordinates": [[[116.35358513276373, 39.99520577386977], [116.35349539284095, 39.99356743438948], [116.35247567192643, 39.99356174179757], [116.35238337186902, 40.00333284480416], [116.35331162813515, 40.00333802820628], [116.35332856844363, 40.00244489667422], [116.35358513276373, 39.99520577386977]]]}, "id": "GS-057"}, {"type": "Feature", "properties": {"id": "GS-058", "layer": "GREEN_SPACE", "source_type": "agent_generated_design", "confidence": "medium", "geometry_role": "design_proposal", "green_type": "1402", "name_zh": "防护绿地(高校联络带东侧)", "area_sqm_declared": 28239.804}, "geometry": {"type": "Polygon", "coordinates": [[[116.35403085226156, 40.003342039256225], [116.35358513276373, 39.99520577386977], [116.35332856844363, 40.00244489667422], [116.35331162813515, 40.00333802820628], [116.35403085226156, 40.003342039256225]]]}, "id": "GS-058"}, {"type": "Feature", "properties": {"id": "GS-059", "layer": "GREEN_SPACE", "source_type": "agent_generated_design", "confidence": "medium", "geometry_role": "design_proposal", "green_type": "1401", "name_zh": "京张遗址公园活力廊道(概念)", "area_sqm_declared": 27465.195}, "geometry": {"type": "Polygon", "coordinates": [[[116.3438551976287, 40.00328487534964], [116.34409143086924, 40.00699672053447], [116.34473623621017, 40.00700036814845], [116.34477170852418, 40.00329006065875], [116.3438551976287, 40.00328487534964]]]}, "id": "GS-059"}, {"type": "Feature", "properties": {"id": "GS-060", "layer": "GREEN_SPACE", "source_type": "agent_generated_design", "confidence": "medium", "geometry_role": "design_proposal", "green_type": "1402", "name_zh": "蓝绿生态廊道与防护绿地(概念)", "area_sqm_declared": 17404.795}, "geometry": {"type": "Polygon", "coordinates": [[[116.35190635863918, 40.00333017826028], [116.35183590520539, 40.00704029319223], [116.35234831155957, 40.00704315788405], [116.35238337186902, 40.00333284480416], [116.35190635863918, 40.00333017826028]]]}, "id": "GS-060"}, {"type": "Feature", "properties": {"id": "GS-061", "layer": "GREEN_SPACE", "source_type": "agent_generated_design", "confidence": "medium", "geometry_role": "design_proposal", "green_type": "1402", "name_zh": "蓝绿生态廊道与防护绿地(概念)", "area_sqm_declared": 32036.534}, "geometry": {"type": "Polygon", "coordinates": [[[116.35324125075223, 40.00704814459273], [116.35331162813515, 40.00333802820628], [116.35238337186902, 40.00333284480416], [116.35234831155957, 40.00704315788405], [116.35324125075223, 40.00704814459273]]]}, "id": "GS-061"}, {"type": "Feature", "properties": {"id": "GS-062", "layer": "GREEN_SPACE", "source_type": "agent_generated_design", "confidence": "medium", "geometry_role": "design_proposal", "green_type": "1401", "name_zh": "京张遗址公园活力廊道(概念)", "area_sqm_declared": 86520.0}, "geometry": {"type": "Polygon", "coordinates": [[[116.34723085951626, 40.003303937888035], [116.34713926191206, 40.00330342192947], [116.34477170852418, 40.00329006065875], [116.34473623621017, 40.00700036814845], [116.34719552031103, 40.007014247190924], [116.34721894820672, 40.004554598965214], [116.34723085951626, 40.003303937888035]]]}, "id": "GS-062"}, {"type": "Feature", "properties": {"id": "GS-063", "layer": "GREEN_SPACE", "source_type": "agent_generated_design", "confidence": "medium", "geometry_role": "design_proposal", "green_type": "1401", "name_zh": "京张遗址公园活力廊道(概念)", "area_sqm_declared": 2100.786}, "geometry": {"type": "Polygon", "coordinates": [[[116.34737567316405, 40.007015261837225], [116.34721894820672, 40.004554598965214], [116.34719552031103, 40.007014247190924], [116.34737567316405, 40.007015261837225]]]}, "id": "GS-063"}, {"type": "Feature", "properties": {"id": "GS-064", "layer": "GREEN_SPACE", "source_type": "agent_generated_design", "confidence": "medium", "geometry_role": "design_proposal", "green_type": "1402", "name_zh": "蓝绿生态廊道与防护绿地(概念)", "area_sqm_declared": 5202.431}, "geometry": {"type": "Polygon", "coordinates": [[[116.34174796052979, 40.00698343348845], [116.3417699276503, 40.007433862426765], [116.34297528887573, 40.007440702312444], [116.34297960575553, 40.00699042259889], [116.34174796052979, 40.00698343348845]]]}, "id": "GS-064"}, {"type": "Feature", "properties": {"id": "GS-065", "layer": "GREEN_SPACE", "source_type": "agent_generated_design", "confidence": "medium", "geometry_role": "design_proposal", "green_type": "1402", "name_zh": "蓝绿生态廊道与防护绿地(概念)", "area_sqm_declared": 4817.384}, "geometry": {"type": "Polygon", "coordinates": [[[116.34412010150692, 40.00744718700321], [116.34409143086924, 40.00699672053447], [116.34297960575553, 40.00699042259889], [116.34297528887573, 40.007440702312444], [116.34412010150692, 40.00744718700321]]]}, "id": "GS-065"}, {"type": "Feature", "properties": {"id": "GS-066", "layer": "GREEN_SPACE", "source_type": "agent_generated_design", "confidence": "medium", "geometry_role": "design_proposal", "green_type": "1401", "name_zh": "京张遗址公园活力廊道(概念)", "area_sqm_declared": 2682.616}, "geometry": {"type": "Polygon", "coordinates": [[[116.34409143086924, 40.00699672053447], [116.34412010150692, 40.00744718700321], [116.34473193087011, 40.00745064801969], [116.34473623621017, 40.00700036814845], [116.34409143086924, 40.00699672053447]]]}, "id": "GS-066"}, {"type": "Feature", "properties": {"id": "GS-067", "layer": "GREEN_SPACE", "source_type": "agent_generated_design", "confidence": "medium", "geometry_role": "design_proposal", "green_type": "1401", "name_zh": "京张遗址公园活力廊道(概念)", "area_sqm_declared": 10500.0}, "geometry": {"type": "Polygon", "coordinates": [[[116.34719552031103, 40.007014247190924], [116.34473623621017, 40.00700036814845], [116.34473193087011, 40.00745064801969], [116.34719123112662, 40.00746452728224], [116.34719552031103, 40.007014247190924]]]}, "id": "GS-067"}, {"type": "Feature", "properties": {"id": "GS-068", "layer": "GREEN_SPACE", "source_type": "agent_generated_design", "confidence": "medium", "geometry_role": "design_proposal", "green_type": "1402", "name_zh": "蓝绿生态廊道与防护绿地(概念)", "area_sqm_declared": 7803.104}, "geometry": {"type": "Polygon", "coordinates": [[[116.35182735432818, 40.00749054969061], [116.35183590520539, 40.00704029319223], [116.3500061327965, 40.00703004505805], [116.35000186207576, 40.00748032539984], [116.35182735432818, 40.00749054969061]]]}, "id": "GS-068"}, {"type": "Feature", "properties": {"id": "GS-069", "layer": "GREEN_SPACE", "source_type": "agent_generated_design", "confidence": "medium", "geometry_role": "design_proposal", "green_type": "1402", "name_zh": "蓝绿生态廊道与防护绿地(概念)", "area_sqm_declared": 2196.896}, "geometry": {"type": "Polygon", "coordinates": [[[116.35183590520539, 40.00704029319223], [116.35182735432818, 40.00749054969061], [116.35234405622525, 40.00749343843377], [116.35234831155957, 40.00704315788405], [116.35183590520539, 40.00704029319223]]]}, "id": "GS-069"}, {"type": "Feature", "properties": {"id": "GS-070", "layer": "GREEN_SPACE", "source_type": "agent_generated_design", "confidence": "medium", "geometry_role": "design_proposal", "green_type": "1402", "name_zh": "蓝绿生态廊道与防护绿地(概念)", "area_sqm_declared": 3803.265}, "geometry": {"type": "Polygon", "coordinates": [[[116.35323270910546, 40.00749840126764], [116.35324125075223, 40.00704814459273], [116.35234831155957, 40.00704315788405], [116.35234405622525, 40.00749343843377], [116.35323270910546, 40.00749840126764]]]}, "id": "GS-070"}, {"type": "Feature", "properties": {"id": "GS-071", "layer": "GREEN_SPACE", "source_type": "agent_generated_design", "confidence": "medium", "geometry_role": "design_proposal", "green_type": "1402", "name_zh": "蓝绿生态廊道与防护绿地(概念)", "area_sqm_declared": 4310.39}, "geometry": {"type": "Polygon", "coordinates": [[[116.35425889502437, 40.007504123700016], [116.35423421389855, 40.00705368181544], [116.35324125075223, 40.00704814459273], [116.35323270910546, 40.00749840126764], [116.35425889502437, 40.007504123700016]]]}, "id": "GS-071"}, {"type": "Feature", "properties": {"id": "GS-072", "layer": "GREEN_SPACE", "source_type": "agent_generated_design", "confidence": "medium", "geometry_role": "design_proposal", "green_type": "1402", "name_zh": "蓝绿生态廊道与防护绿地(概念)", "area_sqm_declared": 5090.176}, "geometry": {"type": "Polygon", "coordinates": [[[116.3417699276503, 40.007433862426765], [116.34179189501916, 40.007884291328374], [116.34297097189881, 40.00789098199052], [116.34297528887573, 40.007440702312444], [116.3417699276503, 40.007433862426765]]]}, "id": "GS-072"}, {"type": "Feature", "properties": {"id": "GS-073", "layer": "GREEN_SPACE", "source_type": "agent_generated_design", "confidence": "medium", "geometry_role": "design_proposal", "green_type": "1401", "name_zh": "众智园中央绿谷(概念)", "area_sqm_declared": 4958.194}, "geometry": {"type": "Polygon", "coordinates": [[[116.34414877248125, 40.007897653432984], [116.34412010150692, 40.00744718700321], [116.34297528887573, 40.007440702312444], [116.34297097189881, 40.00789098199052], [116.34414877248125, 40.007897653432984]]]}, "id": "GS-073"}, {"type": "Feature", "properties": {"id": "GS-074", "layer": "GREEN_SPACE", "source_type": "agent_generated_design", "confidence": "medium", "geometry_role": "design_proposal", "green_type": "1401", "name_zh": "京张遗址公园活力廊道(概念)", "area_sqm_declared": 2541.806}, "geometry": {"type": "Polygon", "coordinates": [[[116.34412010150692, 40.00744718700321], [116.34414877248125, 40.007897653432984], [116.34472762543315, 40.00790092785546], [116.34473193087011, 40.00745064801969], [116.34412010150692, 40.00744718700321]]]}, "id": "GS-074"}, {"type": "Feature", "properties": {"id": "GS-075", "layer": "GREEN_SPACE", "source_type": "agent_generated_design", "confidence": "medium", "geometry_role": "design_proposal", "green_type": "1401", "name_zh": "京张遗址公园活力廊道(概念)", "area_sqm_declared": 10500.0}, "geometry": {"type": "Polygon", "coordinates": [[[116.34472762543315, 40.00790092785546], [116.3471869418457, 40.00791480733807], [116.34719123112662, 40.00746452728224], [116.34473193087011, 40.00745064801969], [116.34472762543315, 40.00790092785546]]]}, "id": "GS-075"}, {"type": "Feature", "properties": {"id": "GS-076", "layer": "GREEN_SPACE", "source_type": "agent_generated_design", "confidence": "medium", "geometry_role": "design_proposal", "green_type": "1401", "name_zh": "京张遗址公园活力廊道(概念)", "area_sqm_declared": 12980.383}, "geometry": {"type": "Polygon", "coordinates": [[[116.35000186207576, 40.00748032539984], [116.3500061327965, 40.00703004505805], [116.34737567316405, 40.007015261837225], [116.34719552031103, 40.007014247190924], [116.34719123112662, 40.00746452728224], [116.3471869418457, 40.00791480733807], [116.34743305798771, 40.00791619345464], [116.34740436540734, 40.00746572766542], [116.35000186207576, 40.00748032539984]]]}, "id": "GS-076"}, {"type": "Feature", "properties": {"id": "GS-077", "layer": "GREEN_SPACE", "source_type": "agent_generated_design", "confidence": "medium", "geometry_role": "design_proposal", "green_type": "1401", "name_zh": "众智园中央绿谷(概念)", "area_sqm_declared": 11019.617}, "geometry": {"type": "Polygon", "coordinates": [[[116.34740436540734, 40.00746572766542], [116.34743305798771, 40.00791619345464], [116.34999759125891, 40.00793060570618], [116.35000186207576, 40.00748032539984], [116.34740436540734, 40.00746572766542]]]}, "id": "GS-077"}, {"type": "Feature", "properties": {"id": "GS-078", "layer": "GREEN_SPACE", "source_type": "agent_generated_design", "confidence": "medium", "geometry_role": "design_proposal", "green_type": "1401", "name_zh": "众智园中央绿谷(概念)", "area_sqm_declared": 7784.779}, "geometry": {"type": "Polygon", "coordinates": [[[116.35181880329873, 40.0079408061526], [116.35182735432818, 40.00749054969061], [116.35000186207576, 40.00748032539984], [116.34999759125891, 40.00793060570618], [116.35181880329873, 40.0079408061526]]]}, "id": "GS-078"}, {"type": "Feature", "properties": {"id": "GS-079", "layer": "GREEN_SPACE", "source_type": "agent_generated_design", "confidence": "medium", "geometry_role": "design_proposal", "green_type": "1402", "name_zh": "蓝绿生态廊道与防护绿地(概念)", "area_sqm_declared": 2215.221}, "geometry": {"type": "Polygon", "coordinates": [[[116.35182735432818, 40.00749054969061], [116.35181880329873, 40.0079408061526], [116.35233980079518, 40.007943718948], [116.35234405622525, 40.00749343843377], [116.35182735432818, 40.00749054969061]]]}, "id": "GS-079"}, {"type": "Feature", "properties": {"id": "GS-080", "layer": "GREEN_SPACE", "source_type": "agent_generated_design", "confidence": "medium", "geometry_role": "design_proposal", "green_type": "1402", "name_zh": "蓝绿生态廊道与防护绿地(概念)", "area_sqm_declared": 3784.94}, "geometry": {"type": "Polygon", "coordinates": [[[116.35322416730665, 40.00794865790617], [116.35323270910546, 40.00749840126764], [116.35234405622525, 40.00749343843377], [116.35233980079518, 40.007943718948], [116.35322416730665, 40.00794865790617]]]}, "id": "GS-080"}, {"type": "Feature", "properties": {"id": "GS-081", "layer": "GREEN_SPACE", "source_type": "agent_generated_design", "confidence": "medium", "geometry_role": "design_proposal", "green_type": "1401", "name_zh": "众智园中央绿谷(概念)", "area_sqm_declared": 4452.207}, "geometry": {"type": "Polygon", "coordinates": [[[116.35428357643498, 40.00795456554702], [116.35425889502437, 40.007504123700016], [116.35323270910546, 40.00749840126764], [116.35322416730665, 40.00794865790617], [116.35428357643498, 40.00795456554702]]]}, "id": "GS-081"}, {"type": "Feature", "properties": {"id": "GS-082", "layer": "GREEN_SPACE", "source_type": "agent_generated_design", "confidence": "medium", "geometry_role": "design_proposal", "green_type": "1401", "name_zh": "京张遗址公园活力廊道(概念)", "area_sqm_declared": 21688.286}, "geometry": {"type": "Polygon", "coordinates": [[[116.34414877248125, 40.007897653432984], [116.34465204318876, 40.01580396594169], [116.34472762543315, 40.00790092785546], [116.34414877248125, 40.007897653432984]]]}, "id": "GS-082"}, {"type": "Feature", "properties": {"id": "GS-083", "layer": "GREEN_SPACE", "source_type": "agent_generated_design", "confidence": "medium", "geometry_role": "design_proposal", "green_type": "1401", "name_zh": "京张遗址公园活力廊道(概念)", "area_sqm_declared": 207480.0}, "geometry": {"type": "Polygon", "coordinates": [[[116.34710216585331, 40.016812333964694], [116.3471869418457, 40.00791480733807], [116.34472762543315, 40.00790092785546], [116.34465204318876, 40.01580396594169], [116.34464253012317, 40.01679845013302], [116.34471538000044, 40.01679886209679], [116.34710216585331, 40.016812333964694]]]}, "id": "GS-083"}, {"type": "Feature", "properties": {"id": "GS-084", "layer": "GREEN_SPACE", "source_type": "agent_generated_design", "confidence": "medium", "geometry_role": "design_proposal", "green_type": "1401", "name_zh": "京张遗址公园活力廊道(概念)", "area_sqm_declared": 48253.594}, "geometry": {"type": "Polygon", "coordinates": [[[116.34800009254225, 40.016817389455554], [116.34743305798771, 40.00791619345464], [116.3471869418457, 40.00791480733807], [116.34710216585331, 40.016812333964694], [116.34800009254225, 40.016817389455554]]]}, "id": "GS-084"}, {"type": "Feature", "properties": {"id": "GS-085", "layer": "GREEN_SPACE", "source_type": "agent_generated_design", "confidence": "medium", "geometry_role": "design_proposal", "green_type": "1402", "name_zh": "蓝绿生态廊道与防护绿地(概念)", "area_sqm_declared": 47531.485}, "geometry": {"type": "Polygon", "coordinates": [[[116.35181880329873, 40.0079408061526], [116.35164980372751, 40.01683786637711], [116.3522556938519, 40.016841254633945], [116.35233980079518, 40.007943718948], [116.35181880329873, 40.0079408061526]]]}, "id": "GS-085"}, {"type": "Feature", "properties": {"id": "GS-086", "layer": "GREEN_SPACE", "source_type": "agent_generated_design", "confidence": "medium", "geometry_role": "design_proposal", "green_type": "1402", "name_zh": "蓝绿生态廊道与防护绿地(概念)", "area_sqm_declared": 71031.7}, "geometry": {"type": "Polygon", "coordinates": [[[116.3530553501755, 40.01684572161971], [116.35322416730665, 40.00794865790617], [116.35233980079518, 40.007943718948], [116.3522556938519, 40.016841254633945], [116.3530553501755, 40.01684572161971]]]}, "id": "GS-086"}, {"type": "Feature", "properties": {"id": "GS-087", "layer": "GREEN_SPACE", "source_type": "agent_generated_design", "confidence": "medium", "geometry_role": "design_proposal", "green_type": "1401", "name_zh": "京张遗址公园活力廊道(概念)", "area_sqm_declared": 178994.919}, "geometry": {"type": "Polygon", "coordinates": [[[116.34471538000044, 40.01679886209679], [116.34530219826549, 40.02601538095069], [116.34701434692724, 40.02602504177506], [116.34710216585331, 40.016812333964694], [116.34471538000044, 40.01679886209679]]]}, "id": "GS-087"}, {"type": "Feature", "properties": {"id": "GS-088", "layer": "GREEN_SPACE", "source_type": "agent_generated_design", "confidence": "medium", "geometry_role": "design_proposal", "green_type": "1401", "name_zh": "京张遗址公园活力廊道(概念)", "area_sqm_declared": 107899.067}, "geometry": {"type": "Polygon", "coordinates": [[[116.34858735317027, 40.02603389518731], [116.34800009254225, 40.016817389455554], [116.34710216585331, 40.016812333964694], [116.34701434692724, 40.02602504177506], [116.34858735317027, 40.02603389518731]]]}, "id": "GS-088"}, {"type": "Feature", "properties": {"id": "GS-089", "layer": "GREEN_SPACE", "source_type": "agent_generated_design", "confidence": "medium", "geometry_role": "design_proposal", "green_type": "1402", "name_zh": "蓝绿生态廊道与防护绿地(概念)", "area_sqm_declared": 56755.31}, "geometry": {"type": "Polygon", "coordinates": [[[116.35164980372751, 40.01683786637711], [116.35147475465853, 40.026050090886436], [116.35216856798962, 40.02605397182702], [116.3522556938519, 40.016841254633945], [116.35164980372751, 40.01683786637711]]]}, "id": "GS-089"}, {"type": "Feature", "properties": {"id": "GS-090", "layer": "GREEN_SPACE", "source_type": "agent_generated_design", "confidence": "medium", "geometry_role": "design_proposal", "green_type": "1402", "name_zh": "蓝绿生态廊道与防护绿地(概念)", "area_sqm_declared": 66007.988}, "geometry": {"type": "Polygon", "coordinates": [[[116.35288049009503, 40.026057949743006], [116.3530553501755, 40.01684572161971], [116.3522556938519, 40.016841254633945], [116.35216856798962, 40.02605397182702], [116.35288049009503, 40.026057949743006]]]}, "id": "GS-090"}, {"type": "Feature", "properties": {"id": "GS-091", "layer": "GREEN_SPACE", "source_type": "agent_generated_design", "confidence": "medium", "geometry_role": "design_proposal", "green_type": "1402", "name_zh": "蓝绿生态廊道与防护绿地(概念)", "area_sqm_declared": 2988.573}, "geometry": {"type": "Polygon", "coordinates": [[[116.3521643476101, 40.02650012805725], [116.35287209577365, 40.026500106568186], [116.35288049009503, 40.026057949743006], [116.35216856798962, 40.02605397182702], [116.3521643476101, 40.02650012805725]]]}, "id": "GS-091"}, {"type": "Feature", "properties": {"id": "GS-092", "layer": "GREEN_SPACE", "source_type": "agent_generated_design", "confidence": "medium", "geometry_role": "design_proposal", "green_type": "1402", "name_zh": "蓝绿生态廊道与防护绿地(概念)", "area_sqm_declared": 2956.29}, "geometry": {"type": "Polygon", "coordinates": [[[116.35146620116744, 40.02650014501947], [116.3521643476101, 40.02650012805725], [116.35216856798962, 40.02605397182702], [116.35147475465853, 40.026050090886436], [116.35146620116744, 40.02650014501947]]]}, "id": "GS-092"}, {"type": "Feature", "properties": {"id": "GS-093", "layer": "GREEN_SPACE", "source_type": "agent_generated_design", "confidence": "medium", "geometry_role": "design_proposal", "green_type": "1401", "name_zh": "京张遗址公园活力廊道(概念)", "area_sqm_declared": 7094.016}, "geometry": {"type": "Polygon", "coordinates": [[[116.34700981688034, 40.02650015417309], [116.34861706725958, 40.02650017063151], [116.34858735317027, 40.02603389518731], [116.34701434692724, 40.02602504177506], [116.34700981688034, 40.02650015417309]]]}, "id": "GS-093"}, {"type": "Feature", "properties": {"id": "GS-094", "layer": "GREEN_SPACE", "source_type": "agent_generated_design", "confidence": "medium", "geometry_role": "design_proposal", "green_type": "1401", "name_zh": "京张遗址公园活力廊道(概念)", "area_sqm_declared": 7707.605}, "geometry": {"type": "Polygon", "coordinates": [[[116.3453330652369, 40.026500113242356], [116.34700981688034, 40.02650015417309], [116.34701434692724, 40.02602504177506], [116.34530219826549, 40.02601538095069], [116.3453330652369, 40.026500113242356]]]}, "id": "GS-094"}]}