{"type": "FeatureCollection", "features": [{"type": "Feature", "properties": {"id": "SITE-001", "layer": "SITE_BOUNDARY", "source_type": "agent_inferred_from_public_data", "confidence": "medium", "geometry_role": "provisional_constraint", "official_boundary": false, "boundary_precision": "provisional_rough", "scope_id": "overall_design_area", "name_zh": "总体设计范围(临时粗略边界)", "source_id": "DATA-SRC-PROVISIONAL-BOUNDARIES-20260605", "derived_from_source_ids": ["DATA-SRC-OFFICIAL-ANNOUNCEMENT-20260509"], "area_sqm_declared": 11400000, "area_sqm_calculated": 11412825.386, "usage_note": "仓库提供的临时粗略边界,仅用于生成/展示/自检;不得作为官方红线、审批依据或精确面积依据。官方polygon发布后将统一替换并复算全部图层与指标。"}, "geometry": {"type": "Polygon", "coordinates": [[[116.3407, 39.939], [116.3553, 39.939], [116.3553, 39.965], [116.3533, 39.99], [116.3553, 40.0265], [116.3427, 40.0265], [116.3417, 40.006], [116.3397, 39.975], [116.3407, 39.939]]]}, "id": "SITE-001"}]}