{
  "type": "FeatureCollection",
  "features": [
    {
      "type": "Feature",
      "id": "LU-001",
      "properties": {
        "id": "LU-001",
        "layer": "LAND_USE",
        "source_type": "agent_generated_design",
        "confidence": "medium",
        "geometry_role": "design_proposal",
        "land_use_code": "0802",
        "name_zh": "科研与受控验证",
        "name_en": "Research and controlled validation",
        "area_sqm_declared": 1033282.528,
        "status_note": "Conceptual partition for professional deepening; not an approved land-use plan."
      },
      "geometry": {
        "type": "Polygon",
        "coordinates": [
          [
            [
              116.34207954657339,
              39.939
            ],
            [
              116.3407,
              39.939
            ],
            [
              116.3397,
              39.975
            ],
            [
              116.3417,
              40.006
            ],
            [
              116.34202467495135,
              40.01265583650267
            ],
            [
              116.34199344525312,
              40.010574999999996
            ],
            [
              116.34196029411662,
              40.008256249999995
            ],
            [
              116.34192996660076,
              40.005937499999995
            ],
            [
              116.34190353707294,
              40.003618749999994
            ],
            [
              116.34188194181235,
              40.0013
            ],
            [
              116.34186594584183,
              39.99898125
            ],
            [
              116.34185611582666,
              39.9966625
            ],
            [
              116.3418528,
              39.99434375
            ],
            [
              116.34185611582666,
              39.992025
            ],
            [
              116.34186594584183,
              39.98970625
            ],
            [
              116.34188194181235,
              39.9873875
            ],
            [
              116.34190353707294,
              39.985068749999996
            ],
            [
              116.34192996660076,
              39.982749999999996
            ],
            [
              116.34196029411662,
              39.980431249999995
            ],
            [
              116.34199344525312,
              39.978112499999995
            ],
            [
              116.34202824561474,
              39.975793749999994
            ],
            [
              116.34206346238132,
              39.973475
            ],
            [
              116.34209784798134,
              39.97115625
            ],
            [
              116.34213018428778,
              39.9688375
            ],
            [
              116.34215932577088,
              39.96651875
            ],
            [
              116.34218424007904,
              39.9642
            ],
            [
              116.3422040446105,
              39.96188125
            ],
            [
              116.34221803777984,
              39.9595625
            ],
            [
              116.34222572387208,
              39.957243749999996
            ],
            [
              116.34222683060355,
              39.954924999999996
            ],
            [
              116.34222131876776,
              39.952606249999995
            ],
            [
              116.34220938362422,
              39.950287499999995
            ],
            [
              116.34219144798134,
              39.94796875
            ],
            [
              116.34216814721822,
              39.94565
            ],
            [
              116.34214030677602,
              39.94333125
            ],
            [
              116.34210891291626,
              39.9410125
            ],
            [
              116.34207954657339,
              39.939
            ]
          ]
        ]
      }
    },
    {
      "type": "Feature",
      "id": "LU-002",
      "properties": {
        "id": "LU-002",
        "layer": "LAND_USE",
        "source_type": "agent_generated_design",
        "confidence": "medium",
        "geometry_role": "design_proposal",
        "land_use_code": "0804",
        "name_zh": "公共学习与人才成长",
        "name_en": "Public learning and talent growth",
        "area_sqm_declared": 2055641.799,
        "status_note": "Conceptual partition for professional deepening; not an approved land-use plan."
      },
      "geometry": {
        "type": "Polygon",
        "coordinates": [
          [
            [
              116.34202467495135,
              40.01265583650267
            ],
            [
              116.3427,
              40.0265
            ],
            [
              116.34480588580828,
              40.0265
            ],
            [
              116.34481513814906,
              40.0244875
            ],
            [
              116.34481590984663,
              40.02216875
            ],
            [
              116.34480676559835,
              40.01985
            ],
            [
              116.34478802934376,
              40.01753125
            ],
            [
              116.34476036482403,
              40.0152125
            ],
            [
              116.34472475206853,
              40.012893749999996
            ],
            [
              116.34468245267692,
              40.010574999999996
            ],
            [
              116.3446349651262,
              40.008256249999995
            ],
            [
              116.34458397168656,
              40.005937499999995
            ],
            [
              116.34453127882601,
              40.003618749999994
            ],
            [
              116.3444787532154,
              40.0013
            ],
            [
              116.34442825560066,
              39.99898125
            ],
            [
              116.34438157488499,
              39.9966625
            ],
            [
              116.34434036475601,
              39.99434375
            ],
            [
              116.34430608510309,
              39.992025
            ],
            [
              116.34427995029999,
              39.98970625
            ],
            [
              116.34426288618518,
              39.9873875
            ],
            [
              116.34425549726342,
              39.985068749999996
            ],
            [
              116.34425804529094,
              39.982749999999996
            ],
            [
              116.3442704400026,
              39.980431249999995
            ],
            [
              116.34429224230956,
              39.978112499999995
            ],
            [
              116.34432267985424,
              39.975793749999994
            ],
            [
              116.34436067437143,
              39.973475
            ],
            [
              116.34440487988641,
              39.97115625
            ],
            [
              116.34445373039678,
              39.9688375
            ],
            [
              116.34450549534887,
              39.96651875
            ],
            [
              116.34455834094342,
              39.9642
            ],
            [
              116.34461039509893,
              39.96188125
            ],
            [
              116.34465981377096,
              39.9595625
            ],
            [
              116.34470484627842,
              39.957243749999996
            ],
            [
              116.3447438973223,
              39.954924999999996
            ],
            [
              116.3447755834999,
              39.952606249999995
            ],
            [
              116.34479878231255,
              39.950287499999995
            ],
            [
              116.34481267193078,
              39.94796875
            ],
            [
              116.34481676030794,
              39.94565
            ],
            [
              116.34481090261121,
              39.94333125
            ],
            [
              116.34479530635242,
              39.9410125
            ],
            [
              116.34477379717285,
              39.939
            ],
            [
              116.34207954657339,
              39.939
            ],
            [
              116.34210891291626,
              39.9410125
            ],
            [
              116.34214030677602,
              39.94333125
            ],
            [
              116.34216814721822,
              39.94565
            ],
            [
              116.34219144798134,
              39.94796875
            ],
            [
              116.34220938362422,
              39.950287499999995
            ],
            [
              116.34222131876776,
              39.952606249999995
            ],
            [
              116.34222683060355,
              39.954924999999996
            ],
            [
              116.34222572387208,
              39.957243749999996
            ],
            [
              116.34221803777984,
              39.9595625
            ],
            [
              116.3422040446105,
              39.96188125
            ],
            [
              116.34218424007904,
              39.9642
            ],
            [
              116.34215932577088,
              39.96651875
            ],
            [
              116.34213018428778,
              39.9688375
            ],
            [
              116.34209784798134,
              39.97115625
            ],
            [
              116.34206346238132,
              39.973475
            ],
            [
              116.34202824561474,
              39.975793749999994
            ],
            [
              116.34199344525312,
              39.978112499999995
            ],
            [
              116.34196029411662,
              39.980431249999995
            ],
            [
              116.34192996660076,
              39.982749999999996
            ],
            [
              116.34190353707294,
              39.985068749999996
            ],
            [
              116.34188194181235,
              39.9873875
            ],
            [
              116.34186594584183,
              39.98970625
            ],
            [
              116.34185611582666,
              39.992025
            ],
            [
              116.3418528,
              39.99434375
            ],
            [
              116.34185611582666,
              39.9966625
            ],
            [
              116.34186594584183,
              39.99898125
            ],
            [
              116.34188194181235,
              40.0013
            ],
            [
              116.34190353707294,
              40.003618749999994
            ],
            [
              116.34192996660076,
              40.005937499999995
            ],
            [
              116.34196029411662,
              40.008256249999995
            ],
            [
              116.34199344525312,
              40.010574999999996
            ],
            [
              116.34202467495135,
              40.01265583650267
            ]
          ]
        ]
      }
    },
    {
      "type": "Feature",
      "id": "LU-003",
      "properties": {
        "id": "LU-003",
        "layer": "LAND_USE",
        "source_type": "agent_generated_design",
        "confidence": "medium",
        "geometry_role": "design_proposal",
        "land_use_code": "1401",
        "name_zh": "京张共生长绿脊",
        "name_en": "Jingzhang co-growth green spine",
        "area_sqm_declared": 2187607.036,
        "status_note": "Conceptual partition for professional deepening; not an approved land-use plan."
      },
      "geometry": {
        "type": "Polygon",
        "coordinates": [
          [
            [
              116.34480588580828,
              40.0265
            ],
            [
              116.34726045015142,
              40.0265
            ],
            [
              116.34728774662791,
              40.0244875
            ],
            [
              116.34731566334204,
              40.02216875
            ],
            [
              116.34733905751862,
              40.01985
            ],
            [
              116.34735710040731,
              40.01753125
            ],
            [
              116.34736915282974,
              40.0152125
            ],
            [
              116.34737478782289,
              40.012893749999996
            ],
            [
              116.34737380576428,
              40.010574999999996
            ],
            [
              116.34736624144384,
              40.008256249999995
            ],
            [
              116.34735236283139,
              40.005937499999995
            ],
            [
              116.34733266158369,
              40.003618749999994
            ],
            [
              116.34730783562728,
              40.0013
            ],
            [
              116.34727876443402,
              39.99898125
            ],
            [
              116.34724647786544,
              39.9966625
            ],
            [
              116.34721211968933,
              39.99434375
            ],
            [
              116.3471769070612,
              39.992025
            ],
            [
              116.34714208740594,
              39.98970625
            ],
            [
              116.34710889422722,
              39.9873875
            ],
            [
              116.34707850340995,
              39.985068749999996
            ],
            [
              116.34705199156396,
              39.982749999999996
            ],
            [
              116.34703029788463,
              39.980431249999995
            ],
            [
              116.34701419088135,
              39.978112499999995
            ],
            [
              116.34700424115275,
              39.975793749999994
            ],
            [
              116.34700080117292,
              39.973475
            ],
            [
              116.34700399280489,
              39.97115625
            ],
            [
              116.34701370298346,
              39.9688375
            ],
            [
              116.34702958772074,
              39.96651875
            ],
            [
              116.34705108429199,
              39.9642
            ],
            [
              116.34707743117046,
              39.96188125
            ],
            [
              116.34710769500482,
              39.9595625
            ],
            [
              116.34714080368369,
              39.957243749999996
            ],
            [
              116.3471755843156,
              39.954924999999996
            ],
            [
              116.3472108047793,
              39.952606249999995
            ],
            [
              116.34724521737233,
              39.950287499999995
            ],
            [
              116.34727760301142,
              39.94796875
            ],
            [
              116.34730681441916,
              39.94565
            ],
            [
              116.34733181676687,
              39.94333125
            ],
            [
              116.3473517243339,
              39.9410125
            ],
            [
              116.34736396862336,
              39.939
            ],
            [
              116.34477379717285,
              39.939
            ],
            [
              116.34479530635242,
              39.9410125
            ],
            [
              116.34481090261121,
              39.94333125
            ],
            [
              116.34481676030794,
              39.94565
            ],
            [
              116.34481267193078,
              39.94796875
            ],
            [
              116.34479878231255,
              39.950287499999995
            ],
            [
              116.3447755834999,
              39.952606249999995
            ],
            [
              116.3447438973223,
              39.954924999999996
            ],
            [
              116.34470484627842,
              39.957243749999996
            ],
            [
              116.34465981377096,
              39.9595625
            ],
            [
              116.34461039509893,
              39.96188125
            ],
            [
              116.34455834094342,
              39.9642
            ],
            [
              116.34450549534887,
              39.96651875
            ],
            [
              116.34445373039678,
              39.9688375
            ],
            [
              116.34440487988641,
              39.97115625
            ],
            [
              116.34436067437143,
              39.973475
            ],
            [
              116.34432267985424,
              39.975793749999994
            ],
            [
              116.34429224230956,
              39.978112499999995
            ],
            [
              116.3442704400026,
              39.980431249999995
            ],
            [
              116.34425804529094,
              39.982749999999996
            ],
            [
              116.34425549726342,
              39.985068749999996
            ],
            [
              116.34426288618518,
              39.9873875
            ],
            [
              116.34427995029999,
              39.98970625
            ],
            [
              116.34430608510309,
              39.992025
            ],
            [
              116.34434036475601,
              39.99434375
            ],
            [
              116.34438157488499,
              39.9966625
            ],
            [
              116.34442825560066,
              39.99898125
            ],
            [
              116.3444787532154,
              40.0013
            ],
            [
              116.34453127882601,
              40.003618749999994
            ],
            [
              116.34458397168656,
              40.005937499999995
            ],
            [
              116.3446349651262,
              40.008256249999995
            ],
            [
              116.34468245267692,
              40.010574999999996
            ],
            [
              116.34472475206853,
              40.012893749999996
            ],
            [
              116.34476036482403,
              40.0152125
            ],
            [
              116.34478802934376,
              40.01753125
            ],
            [
              116.34480676559835,
              40.01985
            ],
            [
              116.34481590984663,
              40.02216875
            ],
            [
              116.34481513814906,
              40.0244875
            ],
            [
              116.34480588580828,
              40.0265
            ]
          ]
        ]
      }
    },
    {
      "type": "Feature",
      "id": "LU-004",
      "properties": {
        "id": "LU-004",
        "layer": "LAND_USE",
        "source_type": "agent_generated_design",
        "confidence": "medium",
        "geometry_role": "design_proposal",
        "land_use_code": "0702",
        "name_zh": "家庭与社区服务",
        "name_en": "Family and community services",
        "area_sqm_declared": 2061674.34,
        "status_note": "Conceptual partition for professional deepening; not an approved land-use plan."
      },
      "geometry": {
        "type": "Polygon",
        "coordinates": [
          [
            [
              116.34726045015142,
              40.0265
            ],
            [
              116.34960071890485,
              40.0265
            ],
            [
              116.34964535765535,
              40.0244875
            ],
            [
              116.34969815818351,
              40.02216875
            ],
            [
              116.34975045715096,
              40.01985
            ],
            [
              116.3498004018407,
              40.01753125
            ],
            [
              116.3498462229372,
              40.0152125
            ],
            [
              116.34988629720529,
              40.012893749999996
            ],
            [
              116.34991920499401,
              40.010574999999996
            ],
            [
              116.34994378052856,
              40.008256249999995
            ],
            [
              116.34995915320839,
              40.005937499999995
            ],
            [
              116.34996477844862,
              40.003618749999994
            ],
            [
              116.34996045697234,
              40.0013
            ],
            [
              116.34994634186998,
              39.99898125
            ],
            [
              116.34992293317609,
              39.9966625
            ],
            [
              116.34989106015531,
              39.99434375
            ],
            [
              116.34985185192532,
              39.992025
            ],
            [
              116.34980669745718,
              39.98970625
            ],
            [
              116.34975719637045,
              39.9873875
            ],
            [
              116.34970510226582,
              39.985068749999996
            ],
            [
              116.34965226060288,
              39.982749999999996
            ],
            [
              116.34960054332392,
              39.980431249999995
            ],
            [
              116.34955178253931,
              39.978112499999995
            ],
            [
              116.34950770562416,
              39.975793749999994
            ],
            [
              116.34946987402517,
              39.973475
            ],
            [
              116.34943962794559,
              39.97115625
            ],
            [
              116.34941803886787,
              39.9688375
            ],
            [
              116.34940587159583,
              39.96651875
            ],
            [
              116.34940355716118,
              39.9642
            ],
            [
              116.34941117755392,
              39.96188125
            ],
            [
              116.34942846281781,
              39.9595625
            ],
            [
              116.34945480061377,
              39.957243749999996
            ],
            [
              116.34948925791227,
              39.954924999999996
            ],
            [
              116.3495306140463,
              39.952606249999995
            ],
            [
              116.34957740395421,
              39.950287499999995
            ],
            [
              116.34962797008019,
              39.94796875
            ],
            [
              116.34968052109402,
              39.94565
            ],
            [
              116.34973319534981,
              39.94333125
            ],
            [
              116.34978412683583,
              39.9410125
            ],
            [
              116.3498252529561,
              39.939
            ],
            [
              116.34736396862336,
              39.939
            ],
            [
              116.3473517243339,
              39.9410125
            ],
            [
              116.34733181676687,
              39.94333125
            ],
            [
              116.34730681441916,
              39.94565
            ],
            [
              116.34727760301142,
              39.94796875
            ],
            [
              116.34724521737233,
              39.950287499999995
            ],
            [
              116.3472108047793,
              39.952606249999995
            ],
            [
              116.3471755843156,
              39.954924999999996
            ],
            [
              116.34714080368369,
              39.957243749999996
            ],
            [
              116.34710769500482,
              39.9595625
            ],
            [
              116.34707743117046,
              39.96188125
            ],
            [
              116.34705108429199,
              39.9642
            ],
            [
              116.34702958772074,
              39.96651875
            ],
            [
              116.34701370298346,
              39.9688375
            ],
            [
              116.34700399280489,
              39.97115625
            ],
            [
              116.34700080117292,
              39.973475
            ],
            [
              116.34700424115275,
              39.975793749999994
            ],
            [
              116.34701419088135,
              39.978112499999995
            ],
            [
              116.34703029788463,
              39.980431249999995
            ],
            [
              116.34705199156396,
              39.982749999999996
            ],
            [
              116.34707850340995,
              39.985068749999996
            ],
            [
              116.34710889422722,
              39.9873875
            ],
            [
              116.34714208740594,
              39.98970625
            ],
            [
              116.3471769070612,
              39.992025
            ],
            [
              116.34721211968933,
              39.99434375
            ],
            [
              116.34724647786544,
              39.9966625
            ],
            [
              116.34727876443402,
              39.99898125
            ],
            [
              116.34730783562728,
              40.0013
            ],
            [
              116.34733266158369,
              40.003618749999994
            ],
            [
              116.34735236283139,
              40.005937499999995
            ],
            [
              116.34736624144384,
              40.008256249999995
            ],
            [
              116.34737380576428,
              40.010574999999996
            ],
            [
              116.34737478782289,
              40.012893749999996
            ],
            [
              116.34736915282974,
              40.0152125
            ],
            [
              116.34735710040731,
              40.01753125
            ],
            [
              116.34733905751862,
              40.01985
            ],
            [
              116.34731566334204,
              40.02216875
            ],
            [
              116.34728774662791,
              40.0244875
            ],
            [
              116.34726045015142,
              40.0265
            ]
          ]
        ]
      }
    },
    {
      "type": "Feature",
      "id": "LU-005",
      "properties": {
        "id": "LU-005",
        "layer": "LAND_USE",
        "source_type": "agent_generated_design",
        "confidence": "medium",
        "geometry_role": "design_proposal",
        "land_use_code": "0701",
        "name_zh": "多阶段人才居住",
        "name_en": "Multi-stage talent housing",
        "area_sqm_declared": 2189877.436,
        "status_note": "Conceptual partition for professional deepening; not an approved land-use plan."
      },
      "geometry": {
        "type": "Polygon",
        "coordinates": [
          [
            [
              116.34960071890485,
              40.0265
            ],
            [
              116.35220485054607,
              40.0265
            ],
            [
              116.35222003859295,
              40.0244875
            ],
            [
              116.35224164585502,
              40.02216875
            ],
            [
              116.3522665956597,
              40.01985
            ],
            [
              116.35229400414774,
              40.01753125
            ],
            [
              116.35232290035978,
              40.0152125
            ],
            [
              116.35235226063311,
              40.012893749999996
            ],
            [
              116.35238104486541,
              40.010574999999996
            ],
            [
              116.35240823336089,
              40.008256249999995
            ],
            [
              116.35243286295355,
              40.005937499999995
            ],
            [
              116.35245406112779,
              40.003618749999994
            ],
            [
              116.35247107692773,
              40.0013
            ],
            [
              116.35248330756015,
              39.99898125
            ],
            [
              116.35249031974881,
              39.9966625
            ],
            [
              116.35249186508344,
              39.99434375
            ],
            [
              116.35248788881978,
              39.992025
            ],
            [
              116.35247853181896,
              39.98970625
            ],
            [
              116.3524641255574,
              39.9873875
            ],
            [
              116.35244518038408,
              39.985068749999996
            ],
            [
              116.35242236744124,
              39.982749999999996
            ],
            [
              116.35239649488872,
              39.980431249999995
            ],
            [
              116.35236847927462,
              39.978112499999995
            ],
            [
              116.35233931306601,
              39.975793749999994
            ],
            [
              116.3523100294904,
              39.973475
            ],
            [
              116.35228166593303,
              39.97115625
            ],
            [
              116.35225522718707,
              39.9688375
            ],
            [
              116.35223164985828,
              39.96651875
            ],
            [
              116.35221176918529,
              39.9642
            ],
            [
              116.35219628945083,
              39.96188125
            ],
            [
              116.35218575903224,
              39.9595625
            ],
            [
              116.35218055097482,
              39.957243749999996
            ],
            [
              116.35218084977663,
              39.954924999999996
            ],
            [
              116.35218664485245,
              39.952606249999995
            ],
            [
              116.35219773090883,
              39.950287499999995
            ],
            [
              116.35221371521669,
              39.94796875
            ],
            [
              116.35223403152396,
              39.94565
            ],
            [
              116.35225796011534,
              39.94333125
            ],
            [
              116.35228465330854,
              39.9410125
            ],
            [
              116.35230939972487,
              39.939
            ],
            [
              116.3498252529561,
              39.939
            ],
            [
              116.34978412683583,
              39.9410125
            ],
            [
              116.34973319534981,
              39.94333125
            ],
            [
              116.34968052109402,
              39.94565
            ],
            [
              116.34962797008019,
              39.94796875
            ],
            [
              116.34957740395421,
              39.950287499999995
            ],
            [
              116.3495306140463,
              39.952606249999995
            ],
            [
              116.34948925791227,
              39.954924999999996
            ],
            [
              116.34945480061377,
              39.957243749999996
            ],
            [
              116.34942846281781,
              39.9595625
            ],
            [
              116.34941117755392,
              39.96188125
            ],
            [
              116.34940355716118,
              39.9642
            ],
            [
              116.34940587159583,
              39.96651875
            ],
            [
              116.34941803886787,
              39.9688375
            ],
            [
              116.34943962794559,
              39.97115625
            ],
            [
              116.34946987402517,
              39.973475
            ],
            [
              116.34950770562416,
              39.975793749999994
            ],
            [
              116.34955178253931,
              39.978112499999995
            ],
            [
              116.34960054332392,
              39.980431249999995
            ],
            [
              116.34965226060288,
              39.982749999999996
            ],
            [
              116.34970510226582,
              39.985068749999996
            ],
            [
              116.34975719637045,
              39.9873875
            ],
            [
              116.34980669745718,
              39.98970625
            ],
            [
              116.34985185192532,
              39.992025
            ],
            [
              116.34989106015531,
              39.99434375
            ],
            [
              116.34992293317609,
              39.9966625
            ],
            [
              116.34994634186998,
              39.99898125
            ],
            [
              116.34996045697234,
              40.0013
            ],
            [
              116.34996477844862,
              40.003618749999994
            ],
            [
              116.34995915320839,
              40.005937499999995
            ],
            [
              116.34994378052856,
              40.008256249999995
            ],
            [
              116.34991920499401,
              40.010574999999996
            ],
            [
              116.34988629720529,
              40.012893749999996
            ],
            [
              116.3498462229372,
              40.0152125
            ],
            [
              116.3498004018407,
              40.01753125
            ],
            [
              116.34975045715096,
              40.01985
            ],
            [
              116.34969815818351,
              40.02216875
            ],
            [
              116.34964535765535,
              40.0244875
            ],
            [
              116.34960071890485,
              40.0265
            ]
          ]
        ]
      }
    },
    {
      "type": "Feature",
      "id": "LU-006",
      "properties": {
        "id": "LU-006",
        "layer": "LAND_USE",
        "source_type": "agent_generated_design",
        "confidence": "medium",
        "geometry_role": "design_proposal",
        "land_use_code": "05",
        "name_zh": "成果采用与城市会客",
        "name_en": "Adoption and city exchange",
        "area_sqm_declared": 1884744.234,
        "status_note": "Conceptual partition for professional deepening; not an approved land-use plan."
      },
      "geometry": {
        "type": "Polygon",
        "coordinates": [
          [
            [
              116.35220485054607,
              40.0265
            ],
            [
              116.3553,
              40.0265
            ],
            [
              116.3533,
              39.99
            ],
            [
              116.3553,
              39.965
            ],
            [
              116.3553,
              39.939
            ],
            [
              116.35230939972487,
              39.939
            ],
            [
              116.35228465330854,
              39.9410125
            ],
            [
              116.35225796011534,
              39.94333125
            ],
            [
              116.35223403152396,
              39.94565
            ],
            [
              116.35221371521669,
              39.94796875
            ],
            [
              116.35219773090883,
              39.950287499999995
            ],
            [
              116.35218664485245,
              39.952606249999995
            ],
            [
              116.35218084977663,
              39.954924999999996
            ],
            [
              116.35218055097482,
              39.957243749999996
            ],
            [
              116.35218575903224,
              39.9595625
            ],
            [
              116.35219628945083,
              39.96188125
            ],
            [
              116.35221176918529,
              39.9642
            ],
            [
              116.35223164985828,
              39.96651875
            ],
            [
              116.35225522718707,
              39.9688375
            ],
            [
              116.35228166593303,
              39.97115625
            ],
            [
              116.3523100294904,
              39.973475
            ],
            [
              116.35233931306601,
              39.975793749999994
            ],
            [
              116.35236847927462,
              39.978112499999995
            ],
            [
              116.35239649488872,
              39.980431249999995
            ],
            [
              116.35242236744124,
              39.982749999999996
            ],
            [
              116.35244518038408,
              39.985068749999996
            ],
            [
              116.3524641255574,
              39.9873875
            ],
            [
              116.35247853181896,
              39.98970625
            ],
            [
              116.35248788881978,
              39.992025
            ],
            [
              116.35249186508344,
              39.99434375
            ],
            [
              116.35249031974881,
              39.9966625
            ],
            [
              116.35248330756015,
              39.99898125
            ],
            [
              116.35247107692773,
              40.0013
            ],
            [
              116.35245406112779,
              40.003618749999994
            ],
            [
              116.35243286295355,
              40.005937499999995
            ],
            [
              116.35240823336089,
              40.008256249999995
            ],
            [
              116.35238104486541,
              40.010574999999996
            ],
            [
              116.35235226063311,
              40.012893749999996
            ],
            [
              116.35232290035978,
              40.0152125
            ],
            [
              116.35229400414774,
              40.01753125
            ],
            [
              116.3522665956597,
              40.01985
            ],
            [
              116.35224164585502,
              40.02216875
            ],
            [
              116.35222003859295,
              40.0244875
            ],
            [
              116.35220485054607,
              40.0265
            ]
          ]
        ]
      }
    }
  ]
}
