{
 "type": "FeatureCollection",
 "name": "public_space_system",
 "features": [
  {
   "type": "Feature",
   "id": "PS-0001",
   "properties": {
    "id": "PS-0001",
    "layer": "PUBLIC_SPACE",
    "source_type": "agent_generated_design",
    "confidence": "medium",
    "geometry_role": "design_proposal",
    "land_use_code": "1403",
    "public_space_type": "civic_square",
    "name_zh": "市民广场与站前公共空间",
    "name_en": "Civic square / station forecourt",
    "area_sqm_declared": 25576.187,
    "usage_note": "范围与重点区域沿用组织方临时边界，官方红线发布后需整体复算；本图层为 AI 生成的设计方案，不构成任何审批依据。"
   },
   "geometry": {
    "type": "Polygon",
    "coordinates": [
     [
      [
       116.35019601,
       40.02588377
      ],
      [
       116.35020734,
       40.02456755
      ],
      [
       116.35020903,
       40.02325142
      ],
      [
       116.35020731,
       40.02290867
      ],
      [
       116.34937907,
       40.02290402
      ],
      [
       116.34938149,
       40.02323915
      ],
      [
       116.34938469,
       40.02455884
      ],
      [
       116.34937766,
       40.02587945
      ],
      [
       116.34937323,
       40.02618497
      ],
      [
       116.3501924,
       40.02618496
      ],
      [
       116.35019601,
       40.02588377
      ]
     ]
    ]
   }
  },
  {
   "type": "Feature",
   "id": "PS-0002",
   "properties": {
    "id": "PS-0002",
    "layer": "PUBLIC_SPACE",
    "source_type": "agent_generated_design",
    "confidence": "medium",
    "geometry_role": "design_proposal",
    "land_use_code": "1403",
    "public_space_type": "civic_square",
    "name_zh": "市民广场与站前公共空间",
    "name_en": "Civic square / station forecourt",
    "area_sqm_declared": 26290.28,
    "usage_note": "范围与重点区域沿用组织方临时边界，官方红线发布后需整体复算；本图层为 AI 生成的设计方案，不构成任何审批依据。"
   },
   "geometry": {
    "type": "Polygon",
    "coordinates": [
     [
      [
       116.35024515,
       40.01930645
      ],
      [
       116.35024516,
       40.0193035
      ],
      [
       116.35017642,
       40.01798909
      ],
      [
       116.35010753,
       40.01667186
      ],
      [
       116.35007572,
       40.01606332
      ],
      [
       116.34922113,
       40.01605852
      ],
      [
       116.34925087,
       40.01663306
      ],
      [
       116.34931918,
       40.01795031
      ],
      [
       116.34938738,
       40.01926752
      ],
      [
       116.34938915,
       40.01930165
      ],
      [
       116.35024515,
       40.01930645
      ]
     ]
    ]
   }
  },
  {
   "type": "Feature",
   "id": "PS-0003",
   "properties": {
    "id": "PS-0003",
    "layer": "PUBLIC_SPACE",
    "source_type": "agent_generated_design",
    "confidence": "medium",
    "geometry_role": "design_proposal",
    "land_use_code": "1403",
    "public_space_type": "civic_square",
    "name_zh": "市民广场与站前公共空间",
    "name_en": "Civic square / station forecourt",
    "area_sqm_declared": 26179.121,
    "usage_note": "范围与重点区域沿用组织方临时边界，官方红线发布后需整体复算；本图层为 AI 生成的设计方案，不构成任何审批依据。"
   },
   "geometry": {
    "type": "Polygon",
    "coordinates": [
     [
      [
       116.3497066,
       40.00903651
      ],
      [
       116.34969228,
       40.00876862
      ],
      [
       116.34962064,
       40.00745146
      ],
      [
       116.34954774,
       40.00613431
      ],
      [
       116.34952853,
       40.00579332
      ],
      [
       116.34867717,
       40.00578854
      ],
      [
       116.34869432,
       40.00609362
      ],
      [
       116.34876709,
       40.00741132
      ],
      [
       116.34883856,
       40.00872897
      ],
      [
       116.34885472,
       40.00903172
      ],
      [
       116.3497066,
       40.00903651
      ]
     ]
    ]
   }
  },
  {
   "type": "Feature",
   "id": "PS-0004",
   "properties": {
    "id": "PS-0004",
    "layer": "PUBLIC_SPACE",
    "source_type": "agent_generated_design",
    "confidence": "medium",
    "geometry_role": "design_proposal",
    "land_use_code": "1403",
    "public_space_type": "civic_square",
    "name_zh": "市民广场与站前公共空间",
    "name_en": "Civic square / station forecourt",
    "area_sqm_declared": 24162.307,
    "usage_note": "范围与重点区域沿用组织方临时边界，官方红线发布后需整体复算；本图层为 AI 生成的设计方案，不构成任何审批依据。"
   },
   "geometry": {
    "type": "Polygon",
    "coordinates": [
     [
      [
       116.34617117,
       40.00235211
      ],
      [
       116.34623607,
       40.00346827
      ],
      [
       116.34631138,
       40.00478564
      ],
      [
       116.34635696,
       40.00559535
      ],
      [
       116.34714272,
       40.00559978
      ],
      [
       116.34709929,
       40.00482664
      ],
      [
       116.34702427,
       40.00350978
      ],
      [
       116.34695733,
       40.00235654
      ],
      [
       116.34617117,
       40.00235211
      ]
     ]
    ]
   }
  },
  {
   "type": "Feature",
   "id": "PS-0005",
   "properties": {
    "id": "PS-0005",
    "layer": "PUBLIC_SPACE",
    "source_type": "agent_generated_design",
    "confidence": "medium",
    "geometry_role": "design_proposal",
    "land_use_code": "1403",
    "public_space_type": "civic_square",
    "name_zh": "市民广场与站前公共空间",
    "name_en": "Civic square / station forecourt",
    "area_sqm_declared": 24137.016,
    "usage_note": "范围与重点区域沿用组织方临时边界，官方红线发布后需整体复算；本图层为 AI 生成的设计方案，不构成任何审批依据。"
   },
   "geometry": {
    "type": "Polygon",
    "coordinates": [
     [
      [
       116.34655461,
       40.0091989
      ],
      [
       116.34660037,
       40.01005504
      ],
      [
       116.34666968,
       40.01137232
      ],
      [
       116.34672555,
       40.01244205
      ],
      [
       116.34751025,
       40.01244647
      ],
      [
       116.34745667,
       40.01141088
      ],
      [
       116.3473876,
       40.010094
      ],
      [
       116.34734009,
       40.00920333
      ],
      [
       116.34655461,
       40.0091989
      ]
     ]
    ]
   }
  },
  {
   "type": "Feature",
   "id": "PS-0006",
   "properties": {
    "id": "PS-0006",
    "layer": "PUBLIC_SPACE",
    "source_type": "agent_generated_design",
    "confidence": "medium",
    "geometry_role": "design_proposal",
    "land_use_code": "1403",
    "public_space_type": "civic_square",
    "name_zh": "市民广场与站前公共空间",
    "name_en": "Civic square / station forecourt",
    "area_sqm_declared": 24095.157,
    "usage_note": "范围与重点区域沿用组织方临时边界，官方红线发布后需整体复算；本图层为 AI 生成的设计方案，不构成任何审批依据。"
   },
   "geometry": {
    "type": "Polygon",
    "coordinates": [
     [
      [
       116.34673496,
       40.01262223
      ],
      [
       116.34673848,
       40.01268955
      ],
      [
       116.3468073,
       40.01400679
      ],
      [
       116.34687606,
       40.01532402
      ],
      [
       116.34690434,
       40.01586537
      ],
      [
       116.3476875,
       40.01586978
      ],
      [
       116.34766124,
       40.01536241
      ],
      [
       116.34759309,
       40.0140452
      ],
      [
       116.34752481,
       40.01272795
      ],
      [
       116.34751957,
       40.01262665
      ],
      [
       116.34673496,
       40.01262223
      ]
     ]
    ]
   }
  },
  {
   "type": "Feature",
   "id": "PS-0007",
   "properties": {
    "id": "PS-0007",
    "layer": "PUBLIC_SPACE",
    "source_type": "agent_generated_design",
    "confidence": "medium",
    "geometry_role": "design_proposal",
    "land_use_code": "1403",
    "public_space_type": "civic_square",
    "name_zh": "市民广场与站前公共空间",
    "name_en": "Civic square / station forecourt",
    "area_sqm_declared": 25492.17,
    "usage_note": "范围与重点区域沿用组织方临时边界，官方红线发布后需整体复算；本图层为 AI 生成的设计方案，不构成任何审批依据。"
   },
   "geometry": {
    "type": "Polygon",
    "coordinates": [
     [
      [
       116.34704466,
       40.02289089
      ],
      [
       116.34704635,
       40.02323128
      ],
      [
       116.3470446,
       40.02454883
      ],
      [
       116.3470332,
       40.02586616
      ],
      [
       116.34702936,
       40.02618495
      ],
      [
       116.34785025,
       40.02618496
      ],
      [
       116.34785482,
       40.02587052
      ],
      [
       116.34786184,
       40.02455752
      ],
      [
       116.34785869,
       40.02324348
      ],
      [
       116.34785618,
       40.02289546
      ],
      [
       116.34704466,
       40.02289089
      ]
     ]
    ]
   }
  },
  {
   "type": "Feature",
   "id": "PS-0008",
   "properties": {
    "id": "PS-0008",
    "layer": "PUBLIC_SPACE",
    "source_type": "agent_generated_design",
    "confidence": "medium",
    "geometry_role": "design_proposal",
    "land_use_code": "1403",
    "public_space_type": "civic_square",
    "name_zh": "市民广场与站前公共空间",
    "name_en": "Civic square / station forecourt",
    "area_sqm_declared": 9786.854,
    "usage_note": "范围与重点区域沿用组织方临时边界，官方红线发布后需整体复算；本图层为 AI 生成的设计方案，不构成任何审批依据。"
   },
   "geometry": {
    "type": "Polygon",
    "coordinates": [
     [
      [
       116.34660956,
       39.94027177
      ],
      [
       116.34659825,
       39.9405724
      ],
      [
       116.34741719,
       39.94057701
      ],
      [
       116.34742917,
       39.94025749
      ],
      [
       116.34747592,
       39.93931544
      ],
      [
       116.34665715,
       39.93931543
      ],
      [
       116.34660956,
       39.94027177
      ]
     ]
    ]
   }
  },
  {
   "type": "Feature",
   "id": "PS-0009",
   "properties": {
    "id": "PS-0009",
    "layer": "PUBLIC_SPACE",
    "source_type": "agent_generated_design",
    "confidence": "medium",
    "geometry_role": "design_proposal",
    "land_use_code": "1403",
    "public_space_type": "civic_square",
    "name_zh": "市民广场与站前公共空间",
    "name_en": "Civic square / station forecourt",
    "area_sqm_declared": 25190.432,
    "usage_note": "范围与重点区域沿用组织方临时边界，官方红线发布后需整体复算；本图层为 AI 生成的设计方案，不构成任何审批依据。"
   },
   "geometry": {
    "type": "Polygon",
    "coordinates": [
     [
      [
       116.3464834,
       39.94417423
      ],
      [
       116.34648196,
       39.94422458
      ],
      [
       116.34632997,
       39.94553982
      ],
      [
       116.34631163,
       39.94685131
      ],
      [
       116.34630378,
       39.94741544
      ],
      [
       116.34712309,
       39.94742005
      ],
      [
       116.34713094,
       39.94685346
      ],
      [
       116.34714963,
       39.94551325
      ],
      [
       116.34730568,
       39.94419455
      ],
      [
       116.34730609,
       39.94417886
      ],
      [
       116.3464834,
       39.94417423
      ]
     ]
    ]
   }
  },
  {
   "type": "Feature",
   "id": "PS-0010",
   "properties": {
    "id": "PS-0010",
    "layer": "PUBLIC_SPACE",
    "source_type": "agent_generated_design",
    "confidence": "medium",
    "geometry_role": "design_proposal",
    "land_use_code": "1403",
    "public_space_type": "civic_square",
    "name_zh": "市民广场与站前公共空间",
    "name_en": "Civic square / station forecourt",
    "area_sqm_declared": 25213.304,
    "usage_note": "范围与重点区域沿用组织方临时边界，官方红线发布后需整体复算；本图层为 AI 生成的设计方案，不构成任何审批依据。"
   },
   "geometry": {
    "type": "Polygon",
    "coordinates": [
     [
      [
       116.34625357,
       39.95101762
      ],
      [
       116.34623825,
       39.95211834
      ],
      [
       116.34621983,
       39.95343509
      ],
      [
       116.34620836,
       39.95425959
      ],
      [
       116.34702797,
       39.95426421
      ],
      [
       116.34703944,
       39.95343725
      ],
      [
       116.34705781,
       39.95212051
      ],
      [
       116.34707304,
       39.95102224
      ],
      [
       116.34625357,
       39.95101762
      ]
     ]
    ]
   }
  },
  {
   "type": "Feature",
   "id": "PS-0011",
   "properties": {
    "id": "PS-0011",
    "layer": "PUBLIC_SPACE",
    "source_type": "agent_generated_design",
    "confidence": "medium",
    "geometry_role": "design_proposal",
    "land_use_code": "1403",
    "public_space_type": "civic_square",
    "name_zh": "市民广场与站前公共空间",
    "name_en": "Civic square / station forecourt",
    "area_sqm_declared": 25186.322,
    "usage_note": "范围与重点区域沿用组织方临时边界，官方红线发布后需整体复算；本图层为 AI 生成的设计方案，不构成任何审批依据。"
   },
   "geometry": {
    "type": "Polygon",
    "coordinates": [
     [
      [
       116.34936786,
       39.95427737
      ],
      [
       116.34937931,
       39.95345194
      ],
      [
       116.34939767,
       39.95213519
      ],
      [
       116.34941292,
       39.9510354
      ],
      [
       116.34859422,
       39.9510308
      ],
      [
       116.34857896,
       39.95213305
      ],
      [
       116.34856062,
       39.95344979
      ],
      [
       116.34854923,
       39.95427277
      ],
      [
       116.34936786,
       39.95427737
      ]
     ]
    ]
   }
  },
  {
   "type": "Feature",
   "id": "PS-0012",
   "properties": {
    "id": "PS-0012",
    "layer": "PUBLIC_SPACE",
    "source_type": "agent_generated_design",
    "confidence": "medium",
    "geometry_role": "design_proposal",
    "land_use_code": "1403",
    "public_space_type": "civic_square",
    "name_zh": "市民广场与站前公共空间",
    "name_en": "Civic square / station forecourt",
    "area_sqm_declared": 25169.873,
    "usage_note": "范围与重点区域沿用组织方临时边界，官方红线发布后需整体复算；本图层为 AI 生成的设计方案，不构成任何审批依据。"
   },
   "geometry": {
    "type": "Polygon",
    "coordinates": [
     [
      [
       116.34964756,
       39.9440119
      ],
      [
       116.34967889,
       39.94291711
      ],
      [
       116.34971908,
       39.9416
      ],
      [
       116.34975027,
       39.94077024
      ],
      [
       116.34893174,
       39.94076565
      ],
      [
       116.34890013,
       39.94160899
      ],
      [
       116.34886012,
       39.94292305
      ],
      [
       116.34883192,
       39.94400732
      ],
      [
       116.34964756,
       39.9440119
      ]
     ]
    ]
   }
  },
  {
   "type": "Feature",
   "id": "PS-0013",
   "properties": {
    "id": "PS-0013",
    "layer": "PUBLIC_SPACE",
    "source_type": "agent_generated_design",
    "confidence": "medium",
    "geometry_role": "design_proposal",
    "land_use_code": "1403",
    "public_space_type": "civic_square",
    "name_zh": "市民广场与站前公共空间",
    "name_en": "Civic square / station forecourt",
    "area_sqm_declared": 9886.38,
    "usage_note": "范围与重点区域沿用组织方临时边界，官方红线发布后需整体复算；本图层为 AI 生成的设计方案，不构成任何审批依据。"
   },
   "geometry": {
    "type": "Polygon",
    "coordinates": [
     [
      [
       116.34975704,
       39.94059016
      ],
      [
       116.34976861,
       39.94028242
      ],
      [
       116.34981668,
       39.93931542
      ],
      [
       116.34899799,
       39.93931543
      ],
      [
       116.34894931,
       39.94029671
      ],
      [
       116.34893848,
       39.94058557
      ],
      [
       116.34975704,
       39.94059016
      ]
     ]
    ]
   }
  },
  {
   "type": "Feature",
   "id": "PS-0014",
   "properties": {
    "id": "PS-0014",
    "layer": "PUBLIC_SPACE",
    "source_type": "agent_generated_design",
    "confidence": "medium",
    "geometry_role": "design_proposal",
    "land_use_code": "1403",
    "public_space_type": "civic_square",
    "name_zh": "市民广场与站前公共空间",
    "name_en": "Civic square / station forecourt",
    "area_sqm_declared": 25952.442,
    "usage_note": "范围与重点区域沿用组织方临时边界，官方红线发布后需整体复算；本图层为 AI 生成的设计方案，不构成任何审批依据。"
   },
   "geometry": {
    "type": "Polygon",
    "coordinates": [
     [
      [
       116.34891229,
       39.99534279
      ],
      [
       116.34885102,
       39.99427858
      ],
      [
       116.34878397,
       39.99296059
      ],
      [
       116.34874714,
       39.99209966
      ],
      [
       116.34790731,
       39.99209494
      ],
      [
       116.34794048,
       39.99292595
      ],
      [
       116.34800343,
       39.99423959
      ],
      [
       116.34806475,
       39.99533802
      ],
      [
       116.34891229,
       39.99534279
      ]
     ]
    ]
   }
  },
  {
   "type": "Feature",
   "id": "PS-0015",
   "properties": {
    "id": "PS-0015",
    "layer": "PUBLIC_SPACE",
    "source_type": "agent_generated_design",
    "confidence": "medium",
    "geometry_role": "design_proposal",
    "land_use_code": "1403",
    "public_space_type": "civic_square",
    "name_zh": "市民广场与站前公共空间",
    "name_en": "Civic square / station forecourt",
    "area_sqm_declared": 24974.703,
    "usage_note": "范围与重点区域沿用组织方临时边界，官方红线发布后需整体复算；本图层为 AI 生成的设计方案，不构成任何审批依据。"
   },
   "geometry": {
    "type": "Polygon",
    "coordinates": [
     [
      [
       116.3457038,
       39.97160259
      ],
      [
       116.3456915,
       39.97187115
      ],
      [
       116.34563837,
       39.97318714
      ],
      [
       116.34559251,
       39.97450316
      ],
      [
       116.3455841,
       39.97479009
      ],
      [
       116.3464086,
       39.97479474
      ],
      [
       116.34641767,
       39.9744949
      ],
      [
       116.34646483,
       39.97317585
      ],
      [
       116.34651914,
       39.97185688
      ],
      [
       116.34653075,
       39.97160726
      ],
      [
       116.3457038,
       39.97160259
      ]
     ]
    ]
   }
  },
  {
   "type": "Feature",
   "id": "PS-0016",
   "properties": {
    "id": "PS-0016",
    "layer": "PUBLIC_SPACE",
    "source_type": "agent_generated_design",
    "confidence": "medium",
    "geometry_role": "design_proposal",
    "land_use_code": "1403",
    "public_space_type": "civic_square",
    "name_zh": "市民广场与站前公共空间",
    "name_en": "Civic square / station forecourt",
    "area_sqm_declared": 24964.742,
    "usage_note": "范围与重点区域沿用组织方临时边界，官方红线发布后需整体复算；本图层为 AI 生成的设计方案，不构成任何审批依据。"
   },
   "geometry": {
    "type": "Polygon",
    "coordinates": [
     [
      [
       116.34544434,
       39.98523641
      ],
      [
       116.3454471,
       39.98635001
      ],
      [
       116.34546102,
       39.9876661
      ],
      [
       116.34547614,
       39.98847879
      ],
      [
       116.34628408,
       39.98848335
      ],
      [
       116.34627114,
       39.98768297
      ],
      [
       116.34626025,
       39.98636248
      ],
      [
       116.34625997,
       39.98524101
      ],
      [
       116.34544434,
       39.98523641
      ]
     ]
    ]
   }
  },
  {
   "type": "Feature",
   "id": "PS-0017",
   "properties": {
    "id": "PS-0017",
    "layer": "PUBLIC_SPACE",
    "source_type": "agent_generated_design",
    "confidence": "medium",
    "geometry_role": "design_proposal",
    "land_use_code": "1403",
    "public_space_type": "civic_square",
    "name_zh": "市民广场与站前公共空间",
    "name_en": "Civic square / station forecourt",
    "area_sqm_declared": 24388.805,
    "usage_note": "范围与重点区域沿用组织方临时边界，官方红线发布后需整体复算；本图层为 AI 生成的设计方案，不构成任何审批依据。"
   },
   "geometry": {
    "type": "Polygon",
    "coordinates": [
     [
      [
       116.34558618,
       39.99208186
      ],
      [
       116.34562247,
       39.99293108
      ],
      [
       116.34568937,
       39.99424754
      ],
      [
       116.34575136,
       39.99532499
      ],
      [
       116.34654067,
       39.99532944
      ],
      [
       116.34648246,
       39.99428625
      ],
      [
       116.3464192,
       39.99296547
      ],
      [
       116.34638413,
       39.99208636
      ],
      [
       116.34558618,
       39.99208186
      ]
     ]
    ]
   }
  }
 ]
}