{
  "type": "FeatureCollection",
  "features": [
    {
      "id": "GS-SPINE",
      "type": "Feature",
      "geometry": {
        "type": "Polygon",
        "coordinates": [
          [
            [
              116.34872704938395,
              39.939000227547346
            ],
            [
              116.34744098941997,
              39.93900022847937
            ],
            [
              116.34660801084186,
              40.02650014657523
            ],
            [
              116.34789571238474,
              40.026500166002265
            ],
            [
              116.34872704938395,
              39.939000227547346
            ]
          ]
        ]
      },
      "properties": {
        "id": "GS-SPINE",
        "layer": "GREEN_SPACE",
        "source_type": "agent_generated_design",
        "confidence": "low",
        "geometry_role": "provisional_constraint",
        "green_type": "linear_park",
        "label_zh": "京张遗址公园绿脊",
        "role": "central_spine",
        "official_boundary": false,
        "area_sqm": 1068001.7
      }
    },
    {
      "id": "GS-NORTH-WEDGE",
      "type": "Feature",
      "geometry": {
        "type": "Polygon",
        "coordinates": [
          [
            [
              116.3423581098959,
              40.019492448501644
            ],
            [
              116.34270000000001,
              40.026500000000006
            ],
            [
              116.3553,
              40.02649999999999
            ],
            [
              116.35491974846965,
              40.019563056042415
            ],
            [
              116.3423581098959,
              40.019492448501644
            ]
          ]
        ]
      },
      "properties": {
        "id": "GS-NORTH-WEDGE",
        "layer": "GREEN_SPACE",
        "source_type": "agent_generated_design",
        "confidence": "low",
        "geometry_role": "provisional_constraint",
        "green_type": "protective_green",
        "label_zh": "北五环防护绿带",
        "role": "north_wedge",
        "official_boundary": false,
        "area_sqm": 831366.7
      }
    },
    {
      "id": "GS-EW-1",
      "type": "Feature",
      "geometry": {
        "type": "Polygon",
        "coordinates": [
          [
            [
              116.3401308862288,
              39.95949389893693
            ],
            [
              116.34005791174023,
              39.96212061558777
            ],
            [
              116.35530000634132,
              39.96220638616616
            ],
            [
              116.35530001091145,
              39.95957925275721
            ],
            [
              116.3401308862288,
              39.95949389893693
            ]
          ]
        ]
      },
      "properties": {
        "id": "GS-EW-1",
        "layer": "GREEN_SPACE",
        "source_type": "agent_generated_design",
        "confidence": "low",
        "geometry_role": "provisional_constraint",
        "green_type": "linear_park",
        "label_zh": "东西缝合绿廊1",
        "role": "cross_corridor",
        "official_boundary": false,
        "area_sqm": 379008.6
      }
    },
    {
      "id": "GS-EW-2",
      "type": "Feature",
      "geometry": {
        "type": "Polygon",
        "coordinates": [
          [
            [
              116.34011190052225,
              39.981386522082296
            ],
            [
              116.34028141979852,
              39.98401460932118
            ],
            [
              116.35377289451753,
              39.9840906147502
            ],
            [
              116.35398300599019,
              39.981464662521724
            ],
            [
              116.34011190052225,
              39.981386522082296
            ]
          ]
        ]
      },
      "properties": {
        "id": "GS-EW-2",
        "layer": "GREEN_SPACE",
        "source_type": "agent_generated_design",
        "confidence": "low",
        "geometry_role": "provisional_constraint",
        "green_type": "linear_park",
        "label_zh": "东西缝合绿廊2",
        "role": "cross_corridor",
        "official_boundary": false,
        "area_sqm": 340905.4
      }
    },
    {
      "id": "GS-EW-3",
      "type": "Feature",
      "geometry": {
        "type": "Polygon",
        "coordinates": [
          [
            [
              116.34152491614653,
              40.003287208435864
            ],
            [
              116.34169453226968,
              40.00591528459074
            ],
            [
              116.3541756865453,
              40.00598550980673
            ],
            [
              116.35403170445139,
              40.00335759368853
            ],
            [
              116.34152491614653,
              40.003287208435864
            ]
          ]
        ]
      },
      "properties": {
        "id": "GS-EW-3",
        "layer": "GREEN_SPACE",
        "source_type": "agent_generated_design",
        "confidence": "low",
        "geometry_role": "provisional_constraint",
        "green_type": "linear_park",
        "label_zh": "东西缝合绿廊3",
        "role": "cross_corridor",
        "official_boundary": false,
        "area_sqm": 311220.7
      }
    }
  ]
}