{
  "type": "FeatureCollection",
  "name": "phasing",
  "features": [
    {
      "type": "Feature",
      "id": "PHASE-001",
      "properties": {
        "id": "PHASE-001",
        "layer": "PHASE",
        "source_type": "agent_generated_design",
        "confidence": "medium",
        "geometry_role": "design_proposal",
        "phase": "phase_1",
        "name_zh": "一期可讨论范围",
        "area_sqm_declared": 4587013.573
      },
      "geometry": {
        "type": "Polygon",
        "coordinates": [
          [
            [
              116.3417,
              40.006
            ],
            [
              116.34218780487805,
              40.016
            ],
            [
              116.34843599999999,
              40.016
            ],
            [
              116.34843599999999,
              39.9495
            ],
            [
              116.340948,
              39.9495
            ],
            [
              116.340948,
              39.99434399999997
            ],
            [
              116.3417,
              40.006
            ]
          ]
        ]
      }
    },
    {
      "type": "Feature",
      "id": "PHASE-002",
      "properties": {
        "id": "PHASE-002",
        "layer": "PHASE",
        "source_type": "agent_generated_design",
        "confidence": "medium",
        "geometry_role": "design_proposal",
        "phase": "phase_2",
        "name_zh": "二期AI产业深化与场景验证区",
        "area_sqm_declared": 895974.338
      },
      "geometry": {
        "type": "Polygon",
        "coordinates": [
          [
            [
              116.3412,
              40.002
            ],
            [
              116.3482,
              40.002
            ],
            [
              116.3482,
              40.0155
            ],
            [
              116.3412,
              40.0155
            ],
            [
              116.3412,
              40.002
            ]
          ]
        ]
      }
    },
    {
      "type": "Feature",
      "id": "PHASE-003",
      "properties": {
        "id": "PHASE-003",
        "layer": "PHASE",
        "source_type": "agent_generated_design",
        "confidence": "medium",
        "geometry_role": "design_proposal",
        "phase": "phase_3",
        "name_zh": "三期社群运营与持续迭代区",
        "area_sqm_declared": 3353226.007
      },
      "geometry": {
        "type": "Polygon",
        "coordinates": [
          [
            [
              116.3412,
              39.95
            ],
            [
              116.3482,
              39.95
            ],
            [
              116.3482,
              40.0005
            ],
            [
              116.3412,
              40.0005
            ],
            [
              116.3412,
              39.95
            ]
          ]
        ]
      }
    }
  ]
}
