{
  "type": "FeatureCollection",
  "crs": {
    "type": "name",
    "properties": {
      "name": "EPSG:4326"
    }
  },
  "features": [
    {
      "type": "Feature",
      "id": "PS-001",
      "geometry": {
        "type": "Polygon",
        "coordinates": [
          [
            [
              116.3475,
              39.987
            ],
            [
              116.3505,
              39.987
            ],
            [
              116.3505,
              39.99
            ],
            [
              116.3475,
              39.99
            ],
            [
              116.3475,
              39.987
            ]
          ]
        ]
      },
      "properties": {
        "id": "PS-001",
        "layer": "PUBLIC_SPACE",
        "source_type": "agent_inferred_from_public_data",
        "confidence": "medium",
        "geometry_role": "provisional_constraint",
        "official_boundary": false,
        "public_space_type_zh": "城市广场",
        "name_zh": "开源广场",
        "area_sqm_calculated": 85355.717,
        "is_ai_scenario": true,
        "is_landmark": true
      }
    },
    {
      "type": "Feature",
      "id": "PS-002",
      "geometry": {
        "type": "Polygon",
        "coordinates": [
          [
            [
              116.3475,
              40.008
            ],
            [
              116.3505,
              40.008
            ],
            [
              116.3505,
              40.01
            ],
            [
              116.3475,
              40.01
            ],
            [
              116.3475,
              40.008
            ]
          ]
        ]
      },
      "properties": {
        "id": "PS-002",
        "layer": "PUBLIC_SPACE",
        "source_type": "agent_inferred_from_public_data",
        "confidence": "medium",
        "geometry_role": "provisional_constraint",
        "official_boundary": false,
        "public_space_type_zh": "纪念广场",
        "name_zh": "荣誉墙广场",
        "area_sqm_calculated": 56886.998,
        "is_ai_scenario": true,
        "is_landmark": true
      }
    },
    {
      "type": "Feature",
      "id": "PS-003",
      "geometry": {
        "type": "Polygon",
        "coordinates": [
          [
            [
              116.3465,
              39.976
            ],
            [
              116.3495,
              39.976
            ],
            [
              116.3495,
              39.978
            ],
            [
              116.3465,
              39.978
            ],
            [
              116.3465,
              39.976
            ]
          ]
        ]
      },
      "properties": {
        "id": "PS-003",
        "layer": "PUBLIC_SPACE",
        "source_type": "agent_inferred_from_public_data",
        "confidence": "medium",
        "geometry_role": "provisional_constraint",
        "official_boundary": false,
        "public_space_type_zh": "纪念广场",
        "name_zh": "百年京张纪念广场",
        "area_sqm_calculated": 56913.254,
        "is_ai_scenario": true,
        "is_landmark": true
      }
    },
    {
      "type": "Feature",
      "id": "PS-004",
      "geometry": {
        "type": "Polygon",
        "coordinates": [
          [
            [
              116.348,
              40.014
            ],
            [
              116.35,
              40.014
            ],
            [
              116.35,
              40.016
            ],
            [
              116.348,
              40.016
            ],
            [
              116.348,
              40.014
            ]
          ]
        ]
      },
      "properties": {
        "id": "PS-004",
        "layer": "PUBLIC_SPACE",
        "source_type": "agent_inferred_from_public_data",
        "confidence": "medium",
        "geometry_role": "provisional_constraint",
        "official_boundary": false,
        "public_space_type_zh": "城市广场",
        "name_zh": "智源广场",
        "area_sqm_calculated": 37921.383,
        "is_ai_scenario": true
      }
    },
    {
      "type": "Feature",
      "id": "PS-005",
      "geometry": {
        "type": "Polygon",
        "coordinates": [
          [
            [
              116.348,
              39.946
            ],
            [
              116.35,
              39.946
            ],
            [
              116.35,
              39.948
            ],
            [
              116.348,
              39.948
            ],
            [
              116.348,
              39.946
            ]
          ]
        ]
      },
      "properties": {
        "id": "PS-005",
        "layer": "PUBLIC_SPACE",
        "source_type": "agent_inferred_from_public_data",
        "confidence": "medium",
        "geometry_role": "provisional_constraint",
        "official_boundary": false,
        "public_space_type_zh": "城市广场",
        "name_zh": "智产广场",
        "area_sqm_calculated": 37958.551,
        "is_ai_scenario": true
      }
    },
    {
      "type": "Feature",
      "id": "PS-006",
      "geometry": {
        "type": "Polygon",
        "coordinates": [
          [
            [
              116.349,
              39.984
            ],
            [
              116.351,
              39.984
            ],
            [
              116.351,
              39.986
            ],
            [
              116.349,
              39.986
            ],
            [
              116.349,
              39.984
            ]
          ]
        ]
      },
      "properties": {
        "id": "PS-006",
        "layer": "PUBLIC_SPACE",
        "source_type": "agent_inferred_from_public_data",
        "confidence": "medium",
        "geometry_role": "provisional_constraint",
        "official_boundary": false,
        "public_space_type_zh": "社区广场",
        "name_zh": "社区活动广场",
        "area_sqm_calculated": 37937.779,
        "is_ai_scenario": true
      }
    },
    {
      "type": "Feature",
      "id": "PS-007",
      "geometry": {
        "type": "Polygon",
        "coordinates": [
          [
            [
              116.3475,
              39.962
            ],
            [
              116.3495,
              39.962
            ],
            [
              116.3495,
              39.9635
            ],
            [
              116.3475,
              39.9635
            ],
            [
              116.3475,
              39.962
            ]
          ]
        ]
      },
      "properties": {
        "id": "PS-007",
        "layer": "PUBLIC_SPACE",
        "source_type": "agent_inferred_from_public_data",
        "confidence": "medium",
        "geometry_role": "provisional_constraint",
        "official_boundary": false,
        "public_space_type_zh": "AI场景节点",
        "name_zh": "AI场景节点-自动驾驶测试",
        "area_sqm_calculated": 28462.464,
        "is_ai_scenario": true
      }
    },
    {
      "type": "Feature",
      "id": "PS-008",
      "geometry": {
        "type": "Polygon",
        "coordinates": [
          [
            [
              116.3475,
              39.968
            ],
            [
              116.3495,
              39.968
            ],
            [
              116.3495,
              39.9695
            ],
            [
              116.3475,
              39.9695
            ],
            [
              116.3475,
              39.968
            ]
          ]
        ]
      },
      "properties": {
        "id": "PS-008",
        "layer": "PUBLIC_SPACE",
        "source_type": "agent_inferred_from_public_data",
        "confidence": "medium",
        "geometry_role": "provisional_constraint",
        "official_boundary": false,
        "public_space_type_zh": "AI场景节点",
        "name_zh": "AI场景节点-智能交互体验",
        "area_sqm_calculated": 28460.005,
        "is_ai_scenario": true
      }
    },
    {
      "type": "Feature",
      "id": "PS-009",
      "geometry": {
        "type": "Polygon",
        "coordinates": [
          [
            [
              116.3475,
              39.98
            ],
            [
              116.3495,
              39.98
            ],
            [
              116.3495,
              39.9815
            ],
            [
              116.3475,
              39.9815
            ],
            [
              116.3475,
              39.98
            ]
          ]
        ]
      },
      "properties": {
        "id": "PS-009",
        "layer": "PUBLIC_SPACE",
        "source_type": "agent_inferred_from_public_data",
        "confidence": "medium",
        "geometry_role": "provisional_constraint",
        "official_boundary": false,
        "public_space_type_zh": "AI场景节点",
        "name_zh": "AI场景节点-机器人应用示范",
        "area_sqm_calculated": 28455.086,
        "is_ai_scenario": true
      }
    },
    {
      "type": "Feature",
      "id": "PS-010",
      "geometry": {
        "type": "Polygon",
        "coordinates": [
          [
            [
              116.3475,
              40.012
            ],
            [
              116.3495,
              40.012
            ],
            [
              116.3495,
              40.0135
            ],
            [
              116.3475,
              40.0135
            ],
            [
              116.3475,
              40.012
            ]
          ]
        ]
      },
      "properties": {
        "id": "PS-010",
        "layer": "PUBLIC_SPACE",
        "source_type": "agent_inferred_from_public_data",
        "confidence": "medium",
        "geometry_role": "provisional_constraint",
        "official_boundary": false,
        "public_space_type_zh": "AI场景节点",
        "name_zh": "AI场景节点-数据可视化中心",
        "area_sqm_calculated": 28441.964,
        "is_ai_scenario": true
      }
    },
    {
      "type": "Feature",
      "id": "PS-011",
      "geometry": {
        "type": "Polygon",
        "coordinates": [
          [
            [
              116.3475,
              40.019
            ],
            [
              116.3495,
              40.019
            ],
            [
              116.3495,
              40.0205
            ],
            [
              116.3475,
              40.0205
            ],
            [
              116.3475,
              40.019
            ]
          ]
        ]
      },
      "properties": {
        "id": "PS-011",
        "layer": "PUBLIC_SPACE",
        "source_type": "agent_inferred_from_public_data",
        "confidence": "medium",
        "geometry_role": "provisional_constraint",
        "official_boundary": false,
        "public_space_type_zh": "AI场景节点",
        "name_zh": "AI场景节点-虚拟现实体验",
        "area_sqm_calculated": 28439.092,
        "is_ai_scenario": true
      }
    },
    {
      "type": "Feature",
      "id": "PS-012",
      "geometry": {
        "type": "Polygon",
        "coordinates": [
          [
            [
              116.3475,
              39.952
            ],
            [
              116.3495,
              39.952
            ],
            [
              116.3495,
              39.9535
            ],
            [
              116.3475,
              39.9535
            ],
            [
              116.3475,
              39.952
            ]
          ]
        ]
      },
      "properties": {
        "id": "PS-012",
        "layer": "PUBLIC_SPACE",
        "source_type": "agent_inferred_from_public_data",
        "confidence": "medium",
        "geometry_role": "provisional_constraint",
        "official_boundary": false,
        "public_space_type_zh": "AI场景节点",
        "name_zh": "AI场景节点-智能建造展示",
        "area_sqm_calculated": 28466.561,
        "is_ai_scenario": true
      }
    }
  ],
  "name": "public_space"
}