{
 "type": "FeatureCollection",
 "name": "jingzhang_thermal_belt_phasing",
 "features": [
  {
   "type": "Feature",
   "id": "PH-001",
   "properties": {
    "id": "PH-001",
    "layer": "PHASE",
    "source_type": "agent_generated_design",
    "confidence": "medium",
    "geometry_role": "design_proposal",
    "phase_term": "near_term",
    "name_zh": "近期（2026-2028）：原点社区与大钟寺先导更新",
    "note_zh": "分期为概念性实施建议，开发时序以政府审定与专业深化为准。"
   },
   "geometry": {
    "type": "MultiPolygon",
    "coordinates": [
     [
      [
       [
        116.3553,
        39.944
       ],
       [
        116.34056111111111,
        39.944
       ],
       [
        116.34039888888888,
        39.94984
       ],
       [
        116.3553,
        39.94984
       ],
       [
        116.3553,
        39.944
       ]
      ]
     ],
     [
      [
       [
        116.35349178082193,
        39.9935
       ],
       [
        116.3533,
        39.99
       ],
       [
        116.35382,
        39.9835
       ],
       [
        116.34024838709676,
        39.9835
       ],
       [
        116.3408935483871,
        39.9935
       ],
       [
        116.35349178082193,
        39.9935
       ]
      ]
     ]
    ]
   }
  },
  {
   "type": "Feature",
   "id": "PH-002",
   "properties": {
    "id": "PH-002",
    "layer": "PHASE",
    "source_type": "agent_generated_design",
    "confidence": "medium",
    "geometry_role": "design_proposal",
    "phase_term": "mid_term",
    "name_zh": "中期（2028-2031）：众智园热源区建设",
    "note_zh": "分期为概念性实施建议，开发时序以政府审定与专业深化为准。"
   },
   "geometry": {
    "type": "Polygon",
    "coordinates": [
     [
      [
       116.3553,
       40.0265
      ],
      [
       116.35425890410959,
       40.0075
      ],
      [
       116.34177317073171,
       40.0075
      ],
      [
       116.3427,
       40.0265
      ],
      [
       116.3553,
       40.0265
      ]
     ]
    ]
   }
  },
  {
   "type": "Feature",
   "id": "PH-003",
   "properties": {
    "id": "PH-003",
    "layer": "PHASE",
    "source_type": "agent_generated_design",
    "confidence": "medium",
    "geometry_role": "design_proposal",
    "phase_term": "long_term",
    "name_zh": "远期（2031-2035）：过渡带与两翼整备",
    "note_zh": "分期为概念性实施建议，开发时序以政府审定与专业深化为准。"
   },
   "geometry": {
    "type": "MultiPolygon",
    "coordinates": [
     [
      [
       [
        116.3553,
        39.939
       ],
       [
        116.3407,
        39.939
       ],
       [
        116.34056111111111,
        39.944
       ],
       [
        116.3553,
        39.944
       ],
       [
        116.3553,
        39.939
       ]
      ]
     ],
     [
      [
       [
        116.3553,
        39.94984
       ],
       [
        116.34039888888888,
        39.94984
       ],
       [
        116.3397,
        39.975
       ],
       [
        116.34024838709676,
        39.9835
       ],
       [
        116.35382,
        39.9835
       ],
       [
        116.3553,
        39.965
       ],
       [
        116.3553,
        39.94984
       ]
      ]
     ],
     [
      [
       [
        116.35425890410959,
        40.0075
       ],
       [
        116.35349178082193,
        39.9935
       ],
       [
        116.3408935483871,
        39.9935
       ],
       [
        116.3417,
        40.006
       ],
       [
        116.34177317073171,
        40.0075
       ],
       [
        116.35425890410959,
        40.0075
       ]
      ]
     ]
    ]
   }
  }
 ]
}