{
 "type": "FeatureCollection",
 "name": "jingzhang_thermal_belt_public_space",
 "features": [
  {
   "type": "Feature",
   "id": "PS-001",
   "properties": {
    "id": "PS-001",
    "layer": "PUBLIC_SPACE",
    "source_type": "agent_generated_design",
    "confidence": "medium",
    "geometry_role": "design_proposal",
    "name_zh": "热节点01广场（南门户）",
    "scenario_node": "TN01",
    "thermal_program_zh": "热记忆装置·城南入口"
   },
   "geometry": {
    "type": "Polygon",
    "coordinates": [
     [
      [
       116.34795,
       39.9425
      ],
      [
       116.34794903651546,
       39.94247056859185
      ],
      [
       116.34794615018761,
       39.9424412632135
      ],
      [
       116.34794135337617,
       39.9424122093551
      ],
      [
       116.34793466662182,
       39.942383531429705
      ],
      [
       116.34792611855826,
       39.94235535224062
      ],
      [
       116.34791574578962,
       39.94232779245544
      ],
      [
       116.34790359273369,
       39.942300970089406
      ],
      [
       116.3478897114317,
       39.942275
      ],
      [
       116.34787416132554,
       39.942249993395144
      ],
      [
       116.34785700900312,
       39.94222605735695
      ],
      [
       116.34783832791337,
       39.942203294383205
      ],
      [
       116.34781819805153,
       39.94218180194847
      ],
      [
       116.34779670561679,
       39.942161672086634
      ],
      [
       116.34777394264304,
       39.94214299099687
      ],
      [
       116.34775000660485,
       39.942125838674464
      ],
      [
       116.347725,
       39.9421102885683
      ],
      [
       116.3476990299106,
       39.94209640726631
      ],
      [
       116.34767220754456,
       39.94208425421037
      ],
      [
       116.34764464775938,
       39.94207388144173
      ],
      [
       116.3476164685703,
       39.942065333378174
      ],
      [
       116.34758779064491,
       39.94205864662382
      ],
      [
       116.3475587367865,
       39.94205384981238
      ],
      [
       116.34752943140815,
       39.94205096348455
      ],
      [
       116.3475,
       39.94205
      ],
      [
       116.34747056859185,
       39.94205096348455
      ],
      [
       116.3474412632135,
       39.94205384981238
      ],
      [
       116.34741220935508,
       39.94205864662382
      ],
      [
       116.3473835314297,
       39.942065333378174
      ],
      [
       116.34735535224061,
       39.94207388144173
      ],
      [
       116.34732779245543,
       39.94208425421037
      ],
      [
       116.34730097008939,
       39.94209640726631
      ],
      [
       116.347275,
       39.9421102885683
      ],
      [
       116.34724999339514,
       39.942125838674464
      ],
      [
       116.34722605735695,
       39.94214299099687
      ],
      [
       116.3472032943832,
       39.942161672086634
      ],
      [
       116.34718180194847,
       39.94218180194847
      ],
      [
       116.34716167208663,
       39.942203294383205
      ],
      [
       116.34714299099687,
       39.94222605735695
      ],
      [
       116.34712583867446,
       39.942249993395144
      ],
      [
       116.34711028856829,
       39.942275
      ],
      [
       116.3470964072663,
       39.942300970089406
      ],
      [
       116.34708425421037,
       39.94232779245544
      ],
      [
       116.34707388144173,
       39.94235535224062
      ],
      [
       116.34706533337817,
       39.942383531429705
      ],
      [
       116.34705864662382,
       39.9424122093551
      ],
      [
       116.34705384981238,
       39.9424412632135
      ],
      [
       116.34705096348453,
       39.94247056859185
      ],
      [
       116.34705,
       39.9425
      ],
      [
       116.34705096348453,
       39.942529431408154
      ],
      [
       116.34705384981238,
       39.9425587367865
      ],
      [
       116.34705864662382,
       39.94258779064491
      ],
      [
       116.34706533337817,
       39.9426164685703
      ],
      [
       116.34707388144173,
       39.94264464775939
      ],
      [
       116.34708425421037,
       39.94267220754457
      ],
      [
       116.3470964072663,
       39.9426990299106
      ],
      [
       116.34711028856829,
       39.942725
      ],
      [
       116.34712583867446,
       39.94275000660486
      ],
      [
       116.34714299099687,
       39.94277394264306
      ],
      [
       116.34716167208663,
       39.9427967056168
      ],
      [
       116.34718180194847,
       39.94281819805153
      ],
      [
       116.3472032943832,
       39.94283832791337
      ],
      [
       116.34722605735695,
       39.942857009003134
      ],
      [
       116.34724999339514,
       39.94287416132554
      ],
      [
       116.347275,
       39.942889711431704
      ],
      [
       116.34730097008939,
       39.94290359273369
      ],
      [
       116.34732779245543,
       39.942915745789634
      ],
      [
       116.34735535224061,
       39.942926118558276
      ],
      [
       116.3473835314297,
       39.94293466662183
      ],
      [
       116.34741220935508,
       39.942941353376185
      ],
      [
       116.3474412632135,
       39.94294615018762
      ],
      [
       116.34747056859185,
       39.94294903651546
      ],
      [
       116.3475,
       39.94295
      ],
      [
       116.34752943140815,
       39.94294903651546
      ],
      [
       116.3475587367865,
       39.94294615018762
      ],
      [
       116.34758779064491,
       39.942941353376185
      ],
      [
       116.3476164685703,
       39.94293466662183
      ],
      [
       116.34764464775938,
       39.942926118558276
      ],
      [
       116.34767220754456,
       39.942915745789634
      ],
      [
       116.3476990299106,
       39.94290359273369
      ],
      [
       116.347725,
       39.942889711431704
      ],
      [
       116.34775000660485,
       39.94287416132554
      ],
      [
       116.34777394264304,
       39.942857009003134
      ],
      [
       116.34779670561679,
       39.94283832791337
      ],
      [
       116.34781819805153,
       39.94281819805153
      ],
      [
       116.34783832791337,
       39.9427967056168
      ],
      [
       116.34785700900312,
       39.94277394264306
      ],
      [
       116.34787416132554,
       39.94275000660486
      ],
      [
       116.3478897114317,
       39.942725
      ],
      [
       116.34790359273369,
       39.9426990299106
      ],
      [
       116.34791574578962,
       39.94267220754457
      ],
      [
       116.34792611855826,
       39.94264464775939
      ],
      [
       116.34793466662182,
       39.9426164685703
      ],
      [
       116.34794135337617,
       39.94258779064491
      ],
      [
       116.34794615018761,
       39.9425587367865
      ],
      [
       116.34794903651546,
       39.942529431408154
      ],
      [
       116.34795,
       39.9425
      ]
     ]
    ]
   }
  },
  {
   "type": "Feature",
   "id": "PS-002",
   "properties": {
    "id": "PS-002",
    "layer": "PUBLIC_SPACE",
    "source_type": "agent_generated_design",
    "confidence": "medium",
    "geometry_role": "design_proposal",
    "name_zh": "热节点02广场（钟鼓回响）",
    "scenario_node": "TN02",
    "thermal_program_zh": "大钟寺报时声场与AI时刻屏"
   },
   "geometry": {
    "type": "Polygon",
    "coordinates": [
     [
      [
       116.34795,
       39.9482
      ],
      [
       116.34794903651546,
       39.94817056859185
      ],
      [
       116.34794615018761,
       39.9481412632135
      ],
      [
       116.34794135337617,
       39.948112209355095
      ],
      [
       116.34793466662182,
       39.9480835314297
      ],
      [
       116.34792611855826,
       39.948055352240615
      ],
      [
       116.34791574578962,
       39.948027792455434
      ],
      [
       116.34790359273369,
       39.9480009700894
      ],
      [
       116.3478897114317,
       39.947975
      ],
      [
       116.34787416132554,
       39.94794999339514
      ],
      [
       116.34785700900312,
       39.947926057356945
      ],
      [
       116.34783832791337,
       39.9479032943832
      ],
      [
       116.34781819805153,
       39.94788180194847
      ],
      [
       116.34779670561679,
       39.94786167208663
      ],
      [
       116.34777394264304,
       39.94784299099687
      ],
      [
       116.34775000660485,
       39.94782583867446
      ],
      [
       116.347725,
       39.9478102885683
      ],
      [
       116.3476990299106,
       39.94779640726631
      ],
      [
       116.34767220754456,
       39.94778425421037
      ],
      [
       116.34764464775938,
       39.94777388144173
      ],
      [
       116.3476164685703,
       39.94776533337817
      ],
      [
       116.34758779064491,
       39.94775864662382
      ],
      [
       116.3475587367865,
       39.94775384981238
      ],
      [
       116.34752943140815,
       39.947750963484545
      ],
      [
       116.3475,
       39.94775
      ],
      [
       116.34747056859185,
       39.947750963484545
      ],
      [
       116.3474412632135,
       39.94775384981238
      ],
      [
       116.34741220935508,
       39.94775864662382
      ],
      [
       116.3473835314297,
       39.94776533337817
      ],
      [
       116.34735535224061,
       39.94777388144173
      ],
      [
       116.34732779245543,
       39.94778425421037
      ],
      [
       116.34730097008939,
       39.94779640726631
      ],
      [
       116.347275,
       39.9478102885683
      ],
      [
       116.34724999339514,
       39.94782583867446
      ],
      [
       116.34722605735695,
       39.94784299099687
      ],
      [
       116.3472032943832,
       39.94786167208663
      ],
      [
       116.34718180194847,
       39.94788180194847
      ],
      [
       116.34716167208663,
       39.9479032943832
      ],
      [
       116.34714299099687,
       39.947926057356945
      ],
      [
       116.34712583867446,
       39.94794999339514
      ],
      [
       116.34711028856829,
       39.947975
      ],
      [
       116.3470964072663,
       39.9480009700894
      ],
      [
       116.34708425421037,
       39.948027792455434
      ],
      [
       116.34707388144173,
       39.948055352240615
      ],
      [
       116.34706533337817,
       39.9480835314297
      ],
      [
       116.34705864662382,
       39.948112209355095
      ],
      [
       116.34705384981238,
       39.9481412632135
      ],
      [
       116.34705096348453,
       39.94817056859185
      ],
      [
       116.34705,
       39.9482
      ],
      [
       116.34705096348453,
       39.94822943140815
      ],
      [
       116.34705384981238,
       39.9482587367865
      ],
      [
       116.34705864662382,
       39.948287790644905
      ],
      [
       116.34706533337817,
       39.9483164685703
      ],
      [
       116.34707388144173,
       39.948344647759384
      ],
      [
       116.34708425421037,
       39.948372207544566
      ],
      [
       116.3470964072663,
       39.9483990299106
      ],
      [
       116.34711028856829,
       39.948425
      ],
      [
       116.34712583867446,
       39.94845000660486
      ],
      [
       116.34714299099687,
       39.948473942643055
      ],
      [
       116.34716167208663,
       39.9484967056168
      ],
      [
       116.34718180194847,
       39.94851819805153
      ],
      [
       116.3472032943832,
       39.94853832791337
      ],
      [
       116.34722605735695,
       39.94855700900313
      ],
      [
       116.34724999339514,
       39.94857416132554
      ],
      [
       116.347275,
       39.9485897114317
      ],
      [
       116.34730097008939,
       39.94860359273369
      ],
      [
       116.34732779245543,
       39.94861574578963
      ],
      [
       116.34735535224061,
       39.94862611855827
      ],
      [
       116.3473835314297,
       39.94863466662183
      ],
      [
       116.34741220935508,
       39.94864135337618
      ],
      [
       116.3474412632135,
       39.94864615018762
      ],
      [
       116.34747056859185,
       39.948649036515455
      ],
      [
       116.3475,
       39.94865
      ],
      [
       116.34752943140815,
       39.948649036515455
      ],
      [
       116.3475587367865,
       39.94864615018762
      ],
      [
       116.34758779064491,
       39.94864135337618
      ],
      [
       116.3476164685703,
       39.94863466662183
      ],
      [
       116.34764464775938,
       39.94862611855827
      ],
      [
       116.34767220754456,
       39.94861574578963
      ],
      [
       116.3476990299106,
       39.94860359273369
      ],
      [
       116.347725,
       39.9485897114317
      ],
      [
       116.34775000660485,
       39.94857416132554
      ],
      [
       116.34777394264304,
       39.94855700900313
      ],
      [
       116.34779670561679,
       39.94853832791337
      ],
      [
       116.34781819805153,
       39.94851819805153
      ],
      [
       116.34783832791337,
       39.9484967056168
      ],
      [
       116.34785700900312,
       39.948473942643055
      ],
      [
       116.34787416132554,
       39.94845000660486
      ],
      [
       116.3478897114317,
       39.948425
      ],
      [
       116.34790359273369,
       39.9483990299106
      ],
      [
       116.34791574578962,
       39.948372207544566
      ],
      [
       116.34792611855826,
       39.948344647759384
      ],
      [
       116.34793466662182,
       39.9483164685703
      ],
      [
       116.34794135337617,
       39.948287790644905
      ],
      [
       116.34794615018761,
       39.9482587367865
      ],
      [
       116.34794903651546,
       39.94822943140815
      ],
      [
       116.34795,
       39.9482
      ]
     ]
    ]
   }
  },
  {
   "type": "Feature",
   "id": "PS-003",
   "properties": {
    "id": "PS-003",
    "layer": "PUBLIC_SPACE",
    "source_type": "agent_generated_design",
    "confidence": "medium",
    "geometry_role": "design_proposal",
    "name_zh": "热节点03广场（热市街口）",
    "scenario_node": "TN03",
    "thermal_program_zh": "热市烟火·24小时AI消费体验"
   },
   "geometry": {
    "type": "Polygon",
    "coordinates": [
     [
      [
       116.34795,
       39.9565
      ],
      [
       116.34794903651546,
       39.95647056859185
      ],
      [
       116.34794615018761,
       39.9564412632135
      ],
      [
       116.34794135337617,
       39.95641220935509
      ],
      [
       116.34793466662182,
       39.9563835314297
      ],
      [
       116.34792611855826,
       39.956355352240614
      ],
      [
       116.34791574578962,
       39.95632779245543
      ],
      [
       116.34790359273369,
       39.9563009700894
      ],
      [
       116.3478897114317,
       39.956275
      ],
      [
       116.34787416132554,
       39.95624999339514
      ],
      [
       116.34785700900312,
       39.95622605735694
      ],
      [
       116.34783832791337,
       39.9562032943832
      ],
      [
       116.34781819805153,
       39.95618180194847
      ],
      [
       116.34779670561679,
       39.95616167208663
      ],
      [
       116.34777394264304,
       39.95614299099687
      ],
      [
       116.34775000660485,
       39.95612583867446
      ],
      [
       116.347725,
       39.9561102885683
      ],
      [
       116.3476990299106,
       39.95609640726631
      ],
      [
       116.34767220754456,
       39.95608425421037
      ],
      [
       116.34764464775938,
       39.956073881441725
      ],
      [
       116.3476164685703,
       39.95606533337817
      ],
      [
       116.34758779064491,
       39.956058646623816
      ],
      [
       116.3475587367865,
       39.95605384981238
      ],
      [
       116.34752943140815,
       39.95605096348454
      ],
      [
       116.3475,
       39.95605
      ],
      [
       116.34747056859185,
       39.95605096348454
      ],
      [
       116.3474412632135,
       39.95605384981238
      ],
      [
       116.34741220935508,
       39.956058646623816
      ],
      [
       116.3473835314297,
       39.95606533337817
      ],
      [
       116.34735535224061,
       39.956073881441725
      ],
      [
       116.34732779245543,
       39.95608425421037
      ],
      [
       116.34730097008939,
       39.95609640726631
      ],
      [
       116.347275,
       39.9561102885683
      ],
      [
       116.34724999339514,
       39.95612583867446
      ],
      [
       116.34722605735695,
       39.95614299099687
      ],
      [
       116.3472032943832,
       39.95616167208663
      ],
      [
       116.34718180194847,
       39.95618180194847
      ],
      [
       116.34716167208663,
       39.9562032943832
      ],
      [
       116.34714299099687,
       39.95622605735694
      ],
      [
       116.34712583867446,
       39.95624999339514
      ],
      [
       116.34711028856829,
       39.956275
      ],
      [
       116.3470964072663,
       39.9563009700894
      ],
      [
       116.34708425421037,
       39.95632779245543
      ],
      [
       116.34707388144173,
       39.956355352240614
      ],
      [
       116.34706533337817,
       39.9563835314297
      ],
      [
       116.34705864662382,
       39.95641220935509
      ],
      [
       116.34705384981238,
       39.9564412632135
      ],
      [
       116.34705096348453,
       39.95647056859185
      ],
      [
       116.34705,
       39.9565
      ],
      [
       116.34705096348453,
       39.95652943140815
      ],
      [
       116.34705384981238,
       39.9565587367865
      ],
      [
       116.34705864662382,
       39.9565877906449
      ],
      [
       116.34706533337817,
       39.956616468570296
      ],
      [
       116.34707388144173,
       39.95664464775938
      ],
      [
       116.34708425421037,
       39.956672207544564
      ],
      [
       116.3470964072663,
       39.956699029910595
      ],
      [
       116.34711028856829,
       39.956725
      ],
      [
       116.34712583867446,
       39.95675000660486
      ],
      [
       116.34714299099687,
       39.95677394264305
      ],
      [
       116.34716167208663,
       39.956796705616796
      ],
      [
       116.34718180194847,
       39.95681819805153
      ],
      [
       116.3472032943832,
       39.95683832791337
      ],
      [
       116.34722605735695,
       39.95685700900313
      ],
      [
       116.34724999339514,
       39.95687416132554
      ],
      [
       116.347275,
       39.9568897114317
      ],
      [
       116.34730097008939,
       39.95690359273369
      ],
      [
       116.34732779245543,
       39.95691574578963
      ],
      [
       116.34735535224061,
       39.95692611855827
      ],
      [
       116.3473835314297,
       39.95693466662183
      ],
      [
       116.34741220935508,
       39.95694135337618
      ],
      [
       116.3474412632135,
       39.95694615018762
      ],
      [
       116.34747056859185,
       39.956949036515454
      ],
      [
       116.3475,
       39.95695
      ],
      [
       116.34752943140815,
       39.956949036515454
      ],
      [
       116.3475587367865,
       39.95694615018762
      ],
      [
       116.34758779064491,
       39.95694135337618
      ],
      [
       116.3476164685703,
       39.95693466662183
      ],
      [
       116.34764464775938,
       39.95692611855827
      ],
      [
       116.34767220754456,
       39.95691574578963
      ],
      [
       116.3476990299106,
       39.95690359273369
      ],
      [
       116.347725,
       39.9568897114317
      ],
      [
       116.34775000660485,
       39.95687416132554
      ],
      [
       116.34777394264304,
       39.95685700900313
      ],
      [
       116.34779670561679,
       39.95683832791337
      ],
      [
       116.34781819805153,
       39.95681819805153
      ],
      [
       116.34783832791337,
       39.956796705616796
      ],
      [
       116.34785700900312,
       39.95677394264305
      ],
      [
       116.34787416132554,
       39.95675000660486
      ],
      [
       116.3478897114317,
       39.956725
      ],
      [
       116.34790359273369,
       39.956699029910595
      ],
      [
       116.34791574578962,
       39.956672207544564
      ],
      [
       116.34792611855826,
       39.95664464775938
      ],
      [
       116.34793466662182,
       39.956616468570296
      ],
      [
       116.34794135337617,
       39.9565877906449
      ],
      [
       116.34794615018761,
       39.9565587367865
      ],
      [
       116.34794903651546,
       39.95652943140815
      ],
      [
       116.34795,
       39.9565
      ]
     ]
    ]
   }
  },
  {
   "type": "Feature",
   "id": "PS-004",
   "properties": {
    "id": "PS-004",
    "layer": "PUBLIC_SPACE",
    "source_type": "agent_generated_design",
    "confidence": "medium",
    "geometry_role": "design_proposal",
    "name_zh": "热节点04广场（遗址记忆）",
    "scenario_node": "TN04",
    "thermal_program_zh": "铁轨温度廊·历史触感步道"
   },
   "geometry": {
    "type": "Polygon",
    "coordinates": [
     [
      [
       116.34795,
       39.97
      ],
      [
       116.34794903651546,
       39.96997056859185
      ],
      [
       116.34794615018761,
       39.9699412632135
      ],
      [
       116.34794135337617,
       39.969912209355094
      ],
      [
       116.34793466662182,
       39.9698835314297
      ],
      [
       116.34792611855826,
       39.969855352240614
      ],
      [
       116.34791574578962,
       39.96982779245543
      ],
      [
       116.34790359273369,
       39.9698009700894
      ],
      [
       116.3478897114317,
       39.969775
      ],
      [
       116.34787416132554,
       39.96974999339514
      ],
      [
       116.34785700900312,
       39.969726057356944
      ],
      [
       116.34783832791337,
       39.9697032943832
      ],
      [
       116.34781819805153,
       39.96968180194847
      ],
      [
       116.34779670561679,
       39.96966167208663
      ],
      [
       116.34777394264304,
       39.96964299099687
      ],
      [
       116.34775000660485,
       39.96962583867446
      ],
      [
       116.347725,
       39.9696102885683
      ],
      [
       116.3476990299106,
       39.96959640726631
      ],
      [
       116.34767220754456,
       39.96958425421037
      ],
      [
       116.34764464775938,
       39.969573881441725
      ],
      [
       116.3476164685703,
       39.96956533337817
      ],
      [
       116.34758779064491,
       39.96955864662382
      ],
      [
       116.3475587367865,
       39.96955384981238
      ],
      [
       116.34752943140815,
       39.969550963484544
      ],
      [
       116.3475,
       39.96955
      ],
      [
       116.34747056859185,
       39.969550963484544
      ],
      [
       116.3474412632135,
       39.96955384981238
      ],
      [
       116.34741220935508,
       39.96955864662382
      ],
      [
       116.3473835314297,
       39.96956533337817
      ],
      [
       116.34735535224061,
       39.969573881441725
      ],
      [
       116.34732779245543,
       39.96958425421037
      ],
      [
       116.34730097008939,
       39.96959640726631
      ],
      [
       116.347275,
       39.9696102885683
      ],
      [
       116.34724999339514,
       39.96962583867446
      ],
      [
       116.34722605735695,
       39.96964299099687
      ],
      [
       116.3472032943832,
       39.96966167208663
      ],
      [
       116.34718180194847,
       39.96968180194847
      ],
      [
       116.34716167208663,
       39.9697032943832
      ],
      [
       116.34714299099687,
       39.969726057356944
      ],
      [
       116.34712583867446,
       39.96974999339514
      ],
      [
       116.34711028856829,
       39.969775
      ],
      [
       116.3470964072663,
       39.9698009700894
      ],
      [
       116.34708425421037,
       39.96982779245543
      ],
      [
       116.34707388144173,
       39.969855352240614
      ],
      [
       116.34706533337817,
       39.9698835314297
      ],
      [
       116.34705864662382,
       39.969912209355094
      ],
      [
       116.34705384981238,
       39.9699412632135
      ],
      [
       116.34705096348453,
       39.96997056859185
      ],
      [
       116.34705,
       39.97
      ],
      [
       116.34705096348453,
       39.97002943140815
      ],
      [
       116.34705384981238,
       39.9700587367865
      ],
      [
       116.34705864662382,
       39.970087790644904
      ],
      [
       116.34706533337817,
       39.970116468570296
      ],
      [
       116.34707388144173,
       39.97014464775938
      ],
      [
       116.34708425421037,
       39.970172207544564
      ],
      [
       116.3470964072663,
       39.970199029910596
      ],
      [
       116.34711028856829,
       39.970225
      ],
      [
       116.34712583867446,
       39.97025000660486
      ],
      [
       116.34714299099687,
       39.970273942643054
      ],
      [
       116.34716167208663,
       39.970296705616796
      ],
      [
       116.34718180194847,
       39.97031819805153
      ],
      [
       116.3472032943832,
       39.97033832791337
      ],
      [
       116.34722605735695,
       39.97035700900313
      ],
      [
       116.34724999339514,
       39.97037416132554
      ],
      [
       116.347275,
       39.9703897114317
      ],
      [
       116.34730097008939,
       39.97040359273369
      ],
      [
       116.34732779245543,
       39.97041574578963
      ],
      [
       116.34735535224061,
       39.97042611855827
      ],
      [
       116.3473835314297,
       39.97043466662183
      ],
      [
       116.34741220935508,
       39.97044135337618
      ],
      [
       116.3474412632135,
       39.97044615018762
      ],
      [
       116.34747056859185,
       39.970449036515454
      ],
      [
       116.3475,
       39.97045
      ],
      [
       116.34752943140815,
       39.970449036515454
      ],
      [
       116.3475587367865,
       39.97044615018762
      ],
      [
       116.34758779064491,
       39.97044135337618
      ],
      [
       116.3476164685703,
       39.97043466662183
      ],
      [
       116.34764464775938,
       39.97042611855827
      ],
      [
       116.34767220754456,
       39.97041574578963
      ],
      [
       116.3476990299106,
       39.97040359273369
      ],
      [
       116.347725,
       39.9703897114317
      ],
      [
       116.34775000660485,
       39.97037416132554
      ],
      [
       116.34777394264304,
       39.97035700900313
      ],
      [
       116.34779670561679,
       39.97033832791337
      ],
      [
       116.34781819805153,
       39.97031819805153
      ],
      [
       116.34783832791337,
       39.970296705616796
      ],
      [
       116.34785700900312,
       39.970273942643054
      ],
      [
       116.34787416132554,
       39.97025000660486
      ],
      [
       116.3478897114317,
       39.970225
      ],
      [
       116.34790359273369,
       39.970199029910596
      ],
      [
       116.34791574578962,
       39.970172207544564
      ],
      [
       116.34792611855826,
       39.97014464775938
      ],
      [
       116.34793466662182,
       39.970116468570296
      ],
      [
       116.34794135337617,
       39.970087790644904
      ],
      [
       116.34794615018761,
       39.9700587367865
      ],
      [
       116.34794903651546,
       39.97002943140815
      ],
      [
       116.34795,
       39.97
      ]
     ]
    ]
   }
  },
  {
   "type": "Feature",
   "id": "PS-005",
   "properties": {
    "id": "PS-005",
    "layer": "PUBLIC_SPACE",
    "source_type": "agent_generated_design",
    "confidence": "medium",
    "geometry_role": "design_proposal",
    "name_zh": "热节点05广场（学府热廊）",
    "scenario_node": "TN05",
    "thermal_program_zh": "高校共建实验室外展"
   },
   "geometry": {
    "type": "Polygon",
    "coordinates": [
     [
      [
       116.34795,
       39.979
      ],
      [
       116.34794903651546,
       39.97897056859185
      ],
      [
       116.34794615018761,
       39.9789412632135
      ],
      [
       116.34794135337617,
       39.978912209355094
      ],
      [
       116.34793466662182,
       39.9788835314297
      ],
      [
       116.34792611855826,
       39.978855352240615
      ],
      [
       116.34791574578962,
       39.978827792455434
      ],
      [
       116.34790359273369,
       39.9788009700894
      ],
      [
       116.3478897114317,
       39.978775
      ],
      [
       116.34787416132554,
       39.97874999339514
      ],
      [
       116.34785700900312,
       39.978726057356944
      ],
      [
       116.34783832791337,
       39.9787032943832
      ],
      [
       116.34781819805153,
       39.97868180194847
      ],
      [
       116.34779670561679,
       39.97866167208663
      ],
      [
       116.34777394264304,
       39.97864299099687
      ],
      [
       116.34775000660485,
       39.97862583867446
      ],
      [
       116.347725,
       39.9786102885683
      ],
      [
       116.3476990299106,
       39.97859640726631
      ],
      [
       116.34767220754456,
       39.97858425421037
      ],
      [
       116.34764464775938,
       39.978573881441726
      ],
      [
       116.3476164685703,
       39.97856533337817
      ],
      [
       116.34758779064491,
       39.97855864662382
      ],
      [
       116.3475587367865,
       39.97855384981238
      ],
      [
       116.34752943140815,
       39.978550963484544
      ],
      [
       116.3475,
       39.97855
      ],
      [
       116.34747056859185,
       39.978550963484544
      ],
      [
       116.3474412632135,
       39.97855384981238
      ],
      [
       116.34741220935508,
       39.97855864662382
      ],
      [
       116.3473835314297,
       39.97856533337817
      ],
      [
       116.34735535224061,
       39.978573881441726
      ],
      [
       116.34732779245543,
       39.97858425421037
      ],
      [
       116.34730097008939,
       39.97859640726631
      ],
      [
       116.347275,
       39.9786102885683
      ],
      [
       116.34724999339514,
       39.97862583867446
      ],
      [
       116.34722605735695,
       39.97864299099687
      ],
      [
       116.3472032943832,
       39.97866167208663
      ],
      [
       116.34718180194847,
       39.97868180194847
      ],
      [
       116.34716167208663,
       39.9787032943832
      ],
      [
       116.34714299099687,
       39.978726057356944
      ],
      [
       116.34712583867446,
       39.97874999339514
      ],
      [
       116.34711028856829,
       39.978775
      ],
      [
       116.3470964072663,
       39.9788009700894
      ],
      [
       116.34708425421037,
       39.978827792455434
      ],
      [
       116.34707388144173,
       39.978855352240615
      ],
      [
       116.34706533337817,
       39.9788835314297
      ],
      [
       116.34705864662382,
       39.978912209355094
      ],
      [
       116.34705384981238,
       39.9789412632135
      ],
      [
       116.34705096348453,
       39.97897056859185
      ],
      [
       116.34705,
       39.979
      ],
      [
       116.34705096348453,
       39.97902943140815
      ],
      [
       116.34705384981238,
       39.9790587367865
      ],
      [
       116.34705864662382,
       39.979087790644904
      ],
      [
       116.34706533337817,
       39.9791164685703
      ],
      [
       116.34707388144173,
       39.979144647759384
      ],
      [
       116.34708425421037,
       39.979172207544565
      ],
      [
       116.3470964072663,
       39.979199029910596
      ],
      [
       116.34711028856829,
       39.979225
      ],
      [
       116.34712583867446,
       39.97925000660486
      ],
      [
       116.34714299099687,
       39.979273942643054
      ],
      [
       116.34716167208663,
       39.9792967056168
      ],
      [
       116.34718180194847,
       39.97931819805153
      ],
      [
       116.3472032943832,
       39.97933832791337
      ],
      [
       116.34722605735695,
       39.97935700900313
      ],
      [
       116.34724999339514,
       39.97937416132554
      ],
      [
       116.347275,
       39.9793897114317
      ],
      [
       116.34730097008939,
       39.97940359273369
      ],
      [
       116.34732779245543,
       39.97941574578963
      ],
      [
       116.34735535224061,
       39.97942611855827
      ],
      [
       116.3473835314297,
       39.97943466662183
      ],
      [
       116.34741220935508,
       39.97944135337618
      ],
      [
       116.3474412632135,
       39.97944615018762
      ],
      [
       116.34747056859185,
       39.979449036515454
      ],
      [
       116.3475,
       39.97945
      ],
      [
       116.34752943140815,
       39.979449036515454
      ],
      [
       116.3475587367865,
       39.97944615018762
      ],
      [
       116.34758779064491,
       39.97944135337618
      ],
      [
       116.3476164685703,
       39.97943466662183
      ],
      [
       116.34764464775938,
       39.97942611855827
      ],
      [
       116.34767220754456,
       39.97941574578963
      ],
      [
       116.3476990299106,
       39.97940359273369
      ],
      [
       116.347725,
       39.9793897114317
      ],
      [
       116.34775000660485,
       39.97937416132554
      ],
      [
       116.34777394264304,
       39.97935700900313
      ],
      [
       116.34779670561679,
       39.97933832791337
      ],
      [
       116.34781819805153,
       39.97931819805153
      ],
      [
       116.34783832791337,
       39.9792967056168
      ],
      [
       116.34785700900312,
       39.979273942643054
      ],
      [
       116.34787416132554,
       39.97925000660486
      ],
      [
       116.3478897114317,
       39.979225
      ],
      [
       116.34790359273369,
       39.979199029910596
      ],
      [
       116.34791574578962,
       39.979172207544565
      ],
      [
       116.34792611855826,
       39.979144647759384
      ],
      [
       116.34793466662182,
       39.9791164685703
      ],
      [
       116.34794135337617,
       39.979087790644904
      ],
      [
       116.34794615018761,
       39.9790587367865
      ],
      [
       116.34794903651546,
       39.97902943140815
      ],
      [
       116.34795,
       39.979
      ]
     ]
    ]
   }
  },
  {
   "type": "Feature",
   "id": "PS-006",
   "properties": {
    "id": "PS-006",
    "layer": "PUBLIC_SPACE",
    "source_type": "agent_generated_design",
    "confidence": "medium",
    "geometry_role": "design_proposal",
    "name_zh": "热节点06广场（原点之心）",
    "scenario_node": "TN06",
    "thermal_program_zh": "原点零时刻·37°恒温广场"
   },
   "geometry": {
    "type": "Polygon",
    "coordinates": [
     [
      [
       116.34795,
       39.986
      ],
      [
       116.34794903651546,
       39.985970568591846
      ],
      [
       116.34794615018761,
       39.9859412632135
      ],
      [
       116.34794135337617,
       39.98591220935509
      ],
      [
       116.34793466662182,
       39.9858835314297
      ],
      [
       116.34792611855826,
       39.98585535224061
      ],
      [
       116.34791574578962,
       39.98582779245543
      ],
      [
       116.34790359273369,
       39.9858009700894
      ],
      [
       116.3478897114317,
       39.985775
      ],
      [
       116.34787416132554,
       39.98574999339514
      ],
      [
       116.34785700900312,
       39.98572605735694
      ],
      [
       116.34783832791337,
       39.9857032943832
      ],
      [
       116.34781819805153,
       39.985681801948466
      ],
      [
       116.34779670561679,
       39.98566167208663
      ],
      [
       116.34777394264304,
       39.985642990996865
      ],
      [
       116.34775000660485,
       39.98562583867446
      ],
      [
       116.347725,
       39.985610288568296
      ],
      [
       116.3476990299106,
       39.98559640726631
      ],
      [
       116.34767220754456,
       39.985584254210366
      ],
      [
       116.34764464775938,
       39.985573881441724
      ],
      [
       116.3476164685703,
       39.98556533337817
      ],
      [
       116.34758779064491,
       39.985558646623815
      ],
      [
       116.3475587367865,
       39.985553849812376
      ],
      [
       116.34752943140815,
       39.98555096348454
      ],
      [
       116.3475,
       39.985549999999996
      ],
      [
       116.34747056859185,
       39.98555096348454
      ],
      [
       116.3474412632135,
       39.985553849812376
      ],
      [
       116.34741220935508,
       39.985558646623815
      ],
      [
       116.3473835314297,
       39.98556533337817
      ],
      [
       116.34735535224061,
       39.985573881441724
      ],
      [
       116.34732779245543,
       39.985584254210366
      ],
      [
       116.34730097008939,
       39.98559640726631
      ],
      [
       116.347275,
       39.985610288568296
      ],
      [
       116.34724999339514,
       39.98562583867446
      ],
      [
       116.34722605735695,
       39.985642990996865
      ],
      [
       116.3472032943832,
       39.98566167208663
      ],
      [
       116.34718180194847,
       39.985681801948466
      ],
      [
       116.34716167208663,
       39.9857032943832
      ],
      [
       116.34714299099687,
       39.98572605735694
      ],
      [
       116.34712583867446,
       39.98574999339514
      ],
      [
       116.34711028856829,
       39.985775
      ],
      [
       116.3470964072663,
       39.9858009700894
      ],
      [
       116.34708425421037,
       39.98582779245543
      ],
      [
       116.34707388144173,
       39.98585535224061
      ],
      [
       116.34706533337817,
       39.9858835314297
      ],
      [
       116.34705864662382,
       39.98591220935509
      ],
      [
       116.34705384981238,
       39.9859412632135
      ],
      [
       116.34705096348453,
       39.985970568591846
      ],
      [
       116.34705,
       39.986
      ],
      [
       116.34705096348453,
       39.98602943140815
      ],
      [
       116.34705384981238,
       39.9860587367865
      ],
      [
       116.34705864662382,
       39.9860877906449
      ],
      [
       116.34706533337817,
       39.986116468570295
      ],
      [
       116.34707388144173,
       39.98614464775938
      ],
      [
       116.34708425421037,
       39.98617220754456
      ],
      [
       116.3470964072663,
       39.986199029910594
      ],
      [
       116.34711028856829,
       39.986225
      ],
      [
       116.34712583867446,
       39.986250006604855
      ],
      [
       116.34714299099687,
       39.98627394264305
      ],
      [
       116.34716167208663,
       39.986296705616795
      ],
      [
       116.34718180194847,
       39.98631819805153
      ],
      [
       116.3472032943832,
       39.986338327913366
      ],
      [
       116.34722605735695,
       39.98635700900313
      ],
      [
       116.34724999339514,
       39.986374161325536
      ],
      [
       116.347275,
       39.9863897114317
      ],
      [
       116.34730097008939,
       39.98640359273369
      ],
      [
       116.34732779245543,
       39.98641574578963
      ],
      [
       116.34735535224061,
       39.98642611855827
      ],
      [
       116.3473835314297,
       39.986434666621825
      ],
      [
       116.34741220935508,
       39.98644135337618
      ],
      [
       116.3474412632135,
       39.98644615018762
      ],
      [
       116.34747056859185,
       39.98644903651545
      ],
      [
       116.3475,
       39.98645
      ],
      [
       116.34752943140815,
       39.98644903651545
      ],
      [
       116.3475587367865,
       39.98644615018762
      ],
      [
       116.34758779064491,
       39.98644135337618
      ],
      [
       116.3476164685703,
       39.986434666621825
      ],
      [
       116.34764464775938,
       39.98642611855827
      ],
      [
       116.34767220754456,
       39.98641574578963
      ],
      [
       116.3476990299106,
       39.98640359273369
      ],
      [
       116.347725,
       39.9863897114317
      ],
      [
       116.34775000660485,
       39.986374161325536
      ],
      [
       116.34777394264304,
       39.98635700900313
      ],
      [
       116.34779670561679,
       39.986338327913366
      ],
      [
       116.34781819805153,
       39.98631819805153
      ],
      [
       116.34783832791337,
       39.986296705616795
      ],
      [
       116.34785700900312,
       39.98627394264305
      ],
      [
       116.34787416132554,
       39.986250006604855
      ],
      [
       116.3478897114317,
       39.986225
      ],
      [
       116.34790359273369,
       39.986199029910594
      ],
      [
       116.34791574578962,
       39.98617220754456
      ],
      [
       116.34792611855826,
       39.98614464775938
      ],
      [
       116.34793466662182,
       39.986116468570295
      ],
      [
       116.34794135337617,
       39.9860877906449
      ],
      [
       116.34794615018761,
       39.9860587367865
      ],
      [
       116.34794903651546,
       39.98602943140815
      ],
      [
       116.34795,
       39.986
      ]
     ]
    ]
   }
  },
  {
   "type": "Feature",
   "id": "PS-007",
   "properties": {
    "id": "PS-007",
    "layer": "PUBLIC_SPACE",
    "source_type": "agent_generated_design",
    "confidence": "medium",
    "geometry_role": "design_proposal",
    "name_zh": "热节点07广场（37°庭院）",
    "scenario_node": "TN07",
    "thermal_program_zh": "社区暖房·代际共学空间"
   },
   "geometry": {
    "type": "Polygon",
    "coordinates": [
     [
      [
       116.34795,
       39.991
      ],
      [
       116.34794903651546,
       39.99097056859185
      ],
      [
       116.34794615018761,
       39.9909412632135
      ],
      [
       116.34794135337617,
       39.990912209355095
      ],
      [
       116.34793466662182,
       39.9908835314297
      ],
      [
       116.34792611855826,
       39.990855352240615
      ],
      [
       116.34791574578962,
       39.990827792455434
      ],
      [
       116.34790359273369,
       39.9908009700894
      ],
      [
       116.3478897114317,
       39.990775
      ],
      [
       116.34787416132554,
       39.99074999339514
      ],
      [
       116.34785700900312,
       39.990726057356945
      ],
      [
       116.34783832791337,
       39.9907032943832
      ],
      [
       116.34781819805153,
       39.99068180194847
      ],
      [
       116.34779670561679,
       39.99066167208663
      ],
      [
       116.34777394264304,
       39.99064299099687
      ],
      [
       116.34775000660485,
       39.99062583867446
      ],
      [
       116.347725,
       39.9906102885683
      ],
      [
       116.3476990299106,
       39.99059640726631
      ],
      [
       116.34767220754456,
       39.99058425421037
      ],
      [
       116.34764464775938,
       39.990573881441726
      ],
      [
       116.3476164685703,
       39.99056533337817
      ],
      [
       116.34758779064491,
       39.99055864662382
      ],
      [
       116.3475587367865,
       39.99055384981238
      ],
      [
       116.34752943140815,
       39.990550963484544
      ],
      [
       116.3475,
       39.99055
      ],
      [
       116.34747056859185,
       39.990550963484544
      ],
      [
       116.3474412632135,
       39.99055384981238
      ],
      [
       116.34741220935508,
       39.99055864662382
      ],
      [
       116.3473835314297,
       39.99056533337817
      ],
      [
       116.34735535224061,
       39.990573881441726
      ],
      [
       116.34732779245543,
       39.99058425421037
      ],
      [
       116.34730097008939,
       39.99059640726631
      ],
      [
       116.347275,
       39.9906102885683
      ],
      [
       116.34724999339514,
       39.99062583867446
      ],
      [
       116.34722605735695,
       39.99064299099687
      ],
      [
       116.3472032943832,
       39.99066167208663
      ],
      [
       116.34718180194847,
       39.99068180194847
      ],
      [
       116.34716167208663,
       39.9907032943832
      ],
      [
       116.34714299099687,
       39.990726057356945
      ],
      [
       116.34712583867446,
       39.99074999339514
      ],
      [
       116.34711028856829,
       39.990775
      ],
      [
       116.3470964072663,
       39.9908009700894
      ],
      [
       116.34708425421037,
       39.990827792455434
      ],
      [
       116.34707388144173,
       39.990855352240615
      ],
      [
       116.34706533337817,
       39.9908835314297
      ],
      [
       116.34705864662382,
       39.990912209355095
      ],
      [
       116.34705384981238,
       39.9909412632135
      ],
      [
       116.34705096348453,
       39.99097056859185
      ],
      [
       116.34705,
       39.991
      ],
      [
       116.34705096348453,
       39.99102943140815
      ],
      [
       116.34705384981238,
       39.9910587367865
      ],
      [
       116.34705864662382,
       39.991087790644904
      ],
      [
       116.34706533337817,
       39.9911164685703
      ],
      [
       116.34707388144173,
       39.991144647759384
      ],
      [
       116.34708425421037,
       39.991172207544565
      ],
      [
       116.3470964072663,
       39.9911990299106
      ],
      [
       116.34711028856829,
       39.991225
      ],
      [
       116.34712583867446,
       39.99125000660486
      ],
      [
       116.34714299099687,
       39.991273942643055
      ],
      [
       116.34716167208663,
       39.9912967056168
      ],
      [
       116.34718180194847,
       39.99131819805153
      ],
      [
       116.3472032943832,
       39.99133832791337
      ],
      [
       116.34722605735695,
       39.99135700900313
      ],
      [
       116.34724999339514,
       39.99137416132554
      ],
      [
       116.347275,
       39.9913897114317
      ],
      [
       116.34730097008939,
       39.99140359273369
      ],
      [
       116.34732779245543,
       39.99141574578963
      ],
      [
       116.34735535224061,
       39.99142611855827
      ],
      [
       116.3473835314297,
       39.99143466662183
      ],
      [
       116.34741220935508,
       39.99144135337618
      ],
      [
       116.3474412632135,
       39.99144615018762
      ],
      [
       116.34747056859185,
       39.991449036515455
      ],
      [
       116.3475,
       39.99145
      ],
      [
       116.34752943140815,
       39.991449036515455
      ],
      [
       116.3475587367865,
       39.99144615018762
      ],
      [
       116.34758779064491,
       39.99144135337618
      ],
      [
       116.3476164685703,
       39.99143466662183
      ],
      [
       116.34764464775938,
       39.99142611855827
      ],
      [
       116.34767220754456,
       39.99141574578963
      ],
      [
       116.3476990299106,
       39.99140359273369
      ],
      [
       116.347725,
       39.9913897114317
      ],
      [
       116.34775000660485,
       39.99137416132554
      ],
      [
       116.34777394264304,
       39.99135700900313
      ],
      [
       116.34779670561679,
       39.99133832791337
      ],
      [
       116.34781819805153,
       39.99131819805153
      ],
      [
       116.34783832791337,
       39.9912967056168
      ],
      [
       116.34785700900312,
       39.991273942643055
      ],
      [
       116.34787416132554,
       39.99125000660486
      ],
      [
       116.3478897114317,
       39.991225
      ],
      [
       116.34790359273369,
       39.9911990299106
      ],
      [
       116.34791574578962,
       39.991172207544565
      ],
      [
       116.34792611855826,
       39.991144647759384
      ],
      [
       116.34793466662182,
       39.9911164685703
      ],
      [
       116.34794135337617,
       39.991087790644904
      ],
      [
       116.34794615018761,
       39.9910587367865
      ],
      [
       116.34794903651546,
       39.99102943140815
      ],
      [
       116.34795,
       39.991
      ]
     ]
    ]
   }
  },
  {
   "type": "Feature",
   "id": "PS-008",
   "properties": {
    "id": "PS-008",
    "layer": "PUBLIC_SPACE",
    "source_type": "agent_generated_design",
    "confidence": "medium",
    "geometry_role": "design_proposal",
    "name_zh": "热节点08广场（中关村窗口）",
    "scenario_node": "TN08",
    "thermal_program_zh": "中关村热流资讯亭"
   },
   "geometry": {
    "type": "Polygon",
    "coordinates": [
     [
      [
       116.34795,
       40.0
      ],
      [
       116.34794903651546,
       39.99997056859185
      ],
      [
       116.34794615018761,
       39.9999412632135
      ],
      [
       116.34794135337617,
       39.999912209355095
      ],
      [
       116.34793466662182,
       39.9998835314297
      ],
      [
       116.34792611855826,
       39.999855352240616
      ],
      [
       116.34791574578962,
       39.999827792455434
      ],
      [
       116.34790359273369,
       39.9998009700894
      ],
      [
       116.3478897114317,
       39.999775
      ],
      [
       116.34787416132554,
       39.99974999339514
      ],
      [
       116.34785700900312,
       39.999726057356945
      ],
      [
       116.34783832791337,
       39.9997032943832
      ],
      [
       116.34781819805153,
       39.99968180194847
      ],
      [
       116.34779670561679,
       39.99966167208663
      ],
      [
       116.34777394264304,
       39.99964299099687
      ],
      [
       116.34775000660485,
       39.99962583867446
      ],
      [
       116.347725,
       39.9996102885683
      ],
      [
       116.3476990299106,
       39.99959640726631
      ],
      [
       116.34767220754456,
       39.99958425421037
      ],
      [
       116.34764464775938,
       39.99957388144173
      ],
      [
       116.3476164685703,
       39.99956533337817
      ],
      [
       116.34758779064491,
       39.99955864662382
      ],
      [
       116.3475587367865,
       39.99955384981238
      ],
      [
       116.34752943140815,
       39.999550963484545
      ],
      [
       116.3475,
       39.99955
      ],
      [
       116.34747056859185,
       39.999550963484545
      ],
      [
       116.3474412632135,
       39.99955384981238
      ],
      [
       116.34741220935508,
       39.99955864662382
      ],
      [
       116.3473835314297,
       39.99956533337817
      ],
      [
       116.34735535224061,
       39.99957388144173
      ],
      [
       116.34732779245543,
       39.99958425421037
      ],
      [
       116.34730097008939,
       39.99959640726631
      ],
      [
       116.347275,
       39.9996102885683
      ],
      [
       116.34724999339514,
       39.99962583867446
      ],
      [
       116.34722605735695,
       39.99964299099687
      ],
      [
       116.3472032943832,
       39.99966167208663
      ],
      [
       116.34718180194847,
       39.99968180194847
      ],
      [
       116.34716167208663,
       39.9997032943832
      ],
      [
       116.34714299099687,
       39.999726057356945
      ],
      [
       116.34712583867446,
       39.99974999339514
      ],
      [
       116.34711028856829,
       39.999775
      ],
      [
       116.3470964072663,
       39.9998009700894
      ],
      [
       116.34708425421037,
       39.999827792455434
      ],
      [
       116.34707388144173,
       39.999855352240616
      ],
      [
       116.34706533337817,
       39.9998835314297
      ],
      [
       116.34705864662382,
       39.999912209355095
      ],
      [
       116.34705384981238,
       39.9999412632135
      ],
      [
       116.34705096348453,
       39.99997056859185
      ],
      [
       116.34705,
       40.0
      ],
      [
       116.34705096348453,
       40.00002943140815
      ],
      [
       116.34705384981238,
       40.0000587367865
      ],
      [
       116.34705864662382,
       40.000087790644905
      ],
      [
       116.34706533337817,
       40.0001164685703
      ],
      [
       116.34707388144173,
       40.000144647759384
      ],
      [
       116.34708425421037,
       40.000172207544566
      ],
      [
       116.3470964072663,
       40.0001990299106
      ],
      [
       116.34711028856829,
       40.000225
      ],
      [
       116.34712583867446,
       40.00025000660486
      ],
      [
       116.34714299099687,
       40.000273942643055
      ],
      [
       116.34716167208663,
       40.0002967056168
      ],
      [
       116.34718180194847,
       40.00031819805153
      ],
      [
       116.3472032943832,
       40.00033832791337
      ],
      [
       116.34722605735695,
       40.00035700900313
      ],
      [
       116.34724999339514,
       40.00037416132554
      ],
      [
       116.347275,
       40.0003897114317
      ],
      [
       116.34730097008939,
       40.00040359273369
      ],
      [
       116.34732779245543,
       40.00041574578963
      ],
      [
       116.34735535224061,
       40.00042611855827
      ],
      [
       116.3473835314297,
       40.00043466662183
      ],
      [
       116.34741220935508,
       40.00044135337618
      ],
      [
       116.3474412632135,
       40.00044615018762
      ],
      [
       116.34747056859185,
       40.000449036515455
      ],
      [
       116.3475,
       40.00045
      ],
      [
       116.34752943140815,
       40.000449036515455
      ],
      [
       116.3475587367865,
       40.00044615018762
      ],
      [
       116.34758779064491,
       40.00044135337618
      ],
      [
       116.3476164685703,
       40.00043466662183
      ],
      [
       116.34764464775938,
       40.00042611855827
      ],
      [
       116.34767220754456,
       40.00041574578963
      ],
      [
       116.3476990299106,
       40.00040359273369
      ],
      [
       116.347725,
       40.0003897114317
      ],
      [
       116.34775000660485,
       40.00037416132554
      ],
      [
       116.34777394264304,
       40.00035700900313
      ],
      [
       116.34779670561679,
       40.00033832791337
      ],
      [
       116.34781819805153,
       40.00031819805153
      ],
      [
       116.34783832791337,
       40.0002967056168
      ],
      [
       116.34785700900312,
       40.000273942643055
      ],
      [
       116.34787416132554,
       40.00025000660486
      ],
      [
       116.3478897114317,
       40.000225
      ],
      [
       116.34790359273369,
       40.0001990299106
      ],
      [
       116.34791574578962,
       40.000172207544566
      ],
      [
       116.34792611855826,
       40.000144647759384
      ],
      [
       116.34793466662182,
       40.0001164685703
      ],
      [
       116.34794135337617,
       40.000087790644905
      ],
      [
       116.34794615018761,
       40.0000587367865
      ],
      [
       116.34794903651546,
       40.00002943140815
      ],
      [
       116.34795,
       40.0
      ]
     ]
    ]
   }
  },
  {
   "type": "Feature",
   "id": "PS-009",
   "properties": {
    "id": "PS-009",
    "layer": "PUBLIC_SPACE",
    "source_type": "agent_generated_design",
    "confidence": "medium",
    "geometry_role": "design_proposal",
    "name_zh": "热节点09广场（热源之始）",
    "scenario_node": "TN09",
    "thermal_program_zh": "算力余热温室示范"
   },
   "geometry": {
    "type": "Polygon",
    "coordinates": [
     [
      [
       116.34795,
       40.0085
      ],
      [
       116.34794903651546,
       40.00847056859185
      ],
      [
       116.34794615018761,
       40.0084412632135
      ],
      [
       116.34794135337617,
       40.00841220935509
      ],
      [
       116.34793466662182,
       40.0083835314297
      ],
      [
       116.34792611855826,
       40.00835535224061
      ],
      [
       116.34791574578962,
       40.00832779245543
      ],
      [
       116.34790359273369,
       40.0083009700894
      ],
      [
       116.3478897114317,
       40.008275
      ],
      [
       116.34787416132554,
       40.00824999339514
      ],
      [
       116.34785700900312,
       40.00822605735694
      ],
      [
       116.34783832791337,
       40.0082032943832
      ],
      [
       116.34781819805153,
       40.00818180194847
      ],
      [
       116.34779670561679,
       40.00816167208663
      ],
      [
       116.34777394264304,
       40.008142990996866
      ],
      [
       116.34775000660485,
       40.00812583867446
      ],
      [
       116.347725,
       40.0081102885683
      ],
      [
       116.3476990299106,
       40.00809640726631
      ],
      [
       116.34767220754456,
       40.00808425421037
      ],
      [
       116.34764464775938,
       40.008073881441724
      ],
      [
       116.3476164685703,
       40.00806533337817
      ],
      [
       116.34758779064491,
       40.008058646623816
      ],
      [
       116.3475587367865,
       40.00805384981238
      ],
      [
       116.34752943140815,
       40.00805096348454
      ],
      [
       116.3475,
       40.00805
      ],
      [
       116.34747056859185,
       40.00805096348454
      ],
      [
       116.3474412632135,
       40.00805384981238
      ],
      [
       116.34741220935508,
       40.008058646623816
      ],
      [
       116.3473835314297,
       40.00806533337817
      ],
      [
       116.34735535224061,
       40.008073881441724
      ],
      [
       116.34732779245543,
       40.00808425421037
      ],
      [
       116.34730097008939,
       40.00809640726631
      ],
      [
       116.347275,
       40.0081102885683
      ],
      [
       116.34724999339514,
       40.00812583867446
      ],
      [
       116.34722605735695,
       40.008142990996866
      ],
      [
       116.3472032943832,
       40.00816167208663
      ],
      [
       116.34718180194847,
       40.00818180194847
      ],
      [
       116.34716167208663,
       40.0082032943832
      ],
      [
       116.34714299099687,
       40.00822605735694
      ],
      [
       116.34712583867446,
       40.00824999339514
      ],
      [
       116.34711028856829,
       40.008275
      ],
      [
       116.3470964072663,
       40.0083009700894
      ],
      [
       116.34708425421037,
       40.00832779245543
      ],
      [
       116.34707388144173,
       40.00835535224061
      ],
      [
       116.34706533337817,
       40.0083835314297
      ],
      [
       116.34705864662382,
       40.00841220935509
      ],
      [
       116.34705384981238,
       40.0084412632135
      ],
      [
       116.34705096348453,
       40.00847056859185
      ],
      [
       116.34705,
       40.0085
      ],
      [
       116.34705096348453,
       40.00852943140815
      ],
      [
       116.34705384981238,
       40.0085587367865
      ],
      [
       116.34705864662382,
       40.0085877906449
      ],
      [
       116.34706533337817,
       40.008616468570295
      ],
      [
       116.34707388144173,
       40.00864464775938
      ],
      [
       116.34708425421037,
       40.00867220754456
      ],
      [
       116.3470964072663,
       40.008699029910595
      ],
      [
       116.34711028856829,
       40.008725
      ],
      [
       116.34712583867446,
       40.008750006604856
      ],
      [
       116.34714299099687,
       40.00877394264305
      ],
      [
       116.34716167208663,
       40.008796705616795
      ],
      [
       116.34718180194847,
       40.00881819805153
      ],
      [
       116.3472032943832,
       40.00883832791337
      ],
      [
       116.34722605735695,
       40.00885700900313
      ],
      [
       116.34724999339514,
       40.00887416132554
      ],
      [
       116.347275,
       40.0088897114317
      ],
      [
       116.34730097008939,
       40.00890359273369
      ],
      [
       116.34732779245543,
       40.00891574578963
      ],
      [
       116.34735535224061,
       40.00892611855827
      ],
      [
       116.3473835314297,
       40.008934666621826
      ],
      [
       116.34741220935508,
       40.00894135337618
      ],
      [
       116.3474412632135,
       40.00894615018762
      ],
      [
       116.34747056859185,
       40.00894903651545
      ],
      [
       116.3475,
       40.00895
      ],
      [
       116.34752943140815,
       40.00894903651545
      ],
      [
       116.3475587367865,
       40.00894615018762
      ],
      [
       116.34758779064491,
       40.00894135337618
      ],
      [
       116.3476164685703,
       40.008934666621826
      ],
      [
       116.34764464775938,
       40.00892611855827
      ],
      [
       116.34767220754456,
       40.00891574578963
      ],
      [
       116.3476990299106,
       40.00890359273369
      ],
      [
       116.347725,
       40.0088897114317
      ],
      [
       116.34775000660485,
       40.00887416132554
      ],
      [
       116.34777394264304,
       40.00885700900313
      ],
      [
       116.34779670561679,
       40.00883832791337
      ],
      [
       116.34781819805153,
       40.00881819805153
      ],
      [
       116.34783832791337,
       40.008796705616795
      ],
      [
       116.34785700900312,
       40.00877394264305
      ],
      [
       116.34787416132554,
       40.008750006604856
      ],
      [
       116.3478897114317,
       40.008725
      ],
      [
       116.34790359273369,
       40.008699029910595
      ],
      [
       116.34791574578962,
       40.00867220754456
      ],
      [
       116.34792611855826,
       40.00864464775938
      ],
      [
       116.34793466662182,
       40.008616468570295
      ],
      [
       116.34794135337617,
       40.0085877906449
      ],
      [
       116.34794615018761,
       40.0085587367865
      ],
      [
       116.34794903651546,
       40.00852943140815
      ],
      [
       116.34795,
       40.0085
      ]
     ]
    ]
   }
  },
  {
   "type": "Feature",
   "id": "PS-010",
   "properties": {
    "id": "PS-010",
    "layer": "PUBLIC_SPACE",
    "source_type": "agent_generated_design",
    "confidence": "medium",
    "geometry_role": "design_proposal",
    "name_zh": "热节点10广场（算力观景台）",
    "scenario_node": "TN10",
    "thermal_program_zh": "数据中心余热利用展示平台"
   },
   "geometry": {
    "type": "Polygon",
    "coordinates": [
     [
      [
       116.34795,
       40.0135
      ],
      [
       116.34794903651546,
       40.01347056859185
      ],
      [
       116.34794615018761,
       40.0134412632135
      ],
      [
       116.34794135337617,
       40.013412209355096
      ],
      [
       116.34793466662182,
       40.0133835314297
      ],
      [
       116.34792611855826,
       40.013355352240616
      ],
      [
       116.34791574578962,
       40.013327792455435
      ],
      [
       116.34790359273369,
       40.013300970089404
      ],
      [
       116.3478897114317,
       40.013275
      ],
      [
       116.34787416132554,
       40.01324999339514
      ],
      [
       116.34785700900312,
       40.013226057356945
      ],
      [
       116.34783832791337,
       40.0132032943832
      ],
      [
       116.34781819805153,
       40.01318180194847
      ],
      [
       116.34779670561679,
       40.01316167208663
      ],
      [
       116.34777394264304,
       40.01314299099687
      ],
      [
       116.34775000660485,
       40.01312583867446
      ],
      [
       116.347725,
       40.0131102885683
      ],
      [
       116.3476990299106,
       40.01309640726631
      ],
      [
       116.34767220754456,
       40.01308425421037
      ],
      [
       116.34764464775938,
       40.01307388144173
      ],
      [
       116.3476164685703,
       40.01306533337817
      ],
      [
       116.34758779064491,
       40.01305864662382
      ],
      [
       116.3475587367865,
       40.01305384981238
      ],
      [
       116.34752943140815,
       40.013050963484545
      ],
      [
       116.3475,
       40.01305
      ],
      [
       116.34747056859185,
       40.013050963484545
      ],
      [
       116.3474412632135,
       40.01305384981238
      ],
      [
       116.34741220935508,
       40.01305864662382
      ],
      [
       116.3473835314297,
       40.01306533337817
      ],
      [
       116.34735535224061,
       40.01307388144173
      ],
      [
       116.34732779245543,
       40.01308425421037
      ],
      [
       116.34730097008939,
       40.01309640726631
      ],
      [
       116.347275,
       40.0131102885683
      ],
      [
       116.34724999339514,
       40.01312583867446
      ],
      [
       116.34722605735695,
       40.01314299099687
      ],
      [
       116.3472032943832,
       40.01316167208663
      ],
      [
       116.34718180194847,
       40.01318180194847
      ],
      [
       116.34716167208663,
       40.0132032943832
      ],
      [
       116.34714299099687,
       40.013226057356945
      ],
      [
       116.34712583867446,
       40.01324999339514
      ],
      [
       116.34711028856829,
       40.013275
      ],
      [
       116.3470964072663,
       40.013300970089404
      ],
      [
       116.34708425421037,
       40.013327792455435
      ],
      [
       116.34707388144173,
       40.013355352240616
      ],
      [
       116.34706533337817,
       40.0133835314297
      ],
      [
       116.34705864662382,
       40.013412209355096
      ],
      [
       116.34705384981238,
       40.0134412632135
      ],
      [
       116.34705096348453,
       40.01347056859185
      ],
      [
       116.34705,
       40.0135
      ],
      [
       116.34705096348453,
       40.01352943140815
      ],
      [
       116.34705384981238,
       40.0135587367865
      ],
      [
       116.34705864662382,
       40.013587790644905
      ],
      [
       116.34706533337817,
       40.0136164685703
      ],
      [
       116.34707388144173,
       40.013644647759385
      ],
      [
       116.34708425421037,
       40.013672207544566
      ],
      [
       116.3470964072663,
       40.0136990299106
      ],
      [
       116.34711028856829,
       40.013725
      ],
      [
       116.34712583867446,
       40.01375000660486
      ],
      [
       116.34714299099687,
       40.013773942643056
      ],
      [
       116.34716167208663,
       40.0137967056168
      ],
      [
       116.34718180194847,
       40.01381819805153
      ],
      [
       116.3472032943832,
       40.01383832791337
      ],
      [
       116.34722605735695,
       40.01385700900313
      ],
      [
       116.34724999339514,
       40.01387416132554
      ],
      [
       116.347275,
       40.0138897114317
      ],
      [
       116.34730097008939,
       40.01390359273369
      ],
      [
       116.34732779245543,
       40.01391574578963
      ],
      [
       116.34735535224061,
       40.013926118558274
      ],
      [
       116.3473835314297,
       40.01393466662183
      ],
      [
       116.34741220935508,
       40.01394135337618
      ],
      [
       116.3474412632135,
       40.01394615018762
      ],
      [
       116.34747056859185,
       40.013949036515456
      ],
      [
       116.3475,
       40.01395
      ],
      [
       116.34752943140815,
       40.013949036515456
      ],
      [
       116.3475587367865,
       40.01394615018762
      ],
      [
       116.34758779064491,
       40.01394135337618
      ],
      [
       116.3476164685703,
       40.01393466662183
      ],
      [
       116.34764464775938,
       40.013926118558274
      ],
      [
       116.34767220754456,
       40.01391574578963
      ],
      [
       116.3476990299106,
       40.01390359273369
      ],
      [
       116.347725,
       40.0138897114317
      ],
      [
       116.34775000660485,
       40.01387416132554
      ],
      [
       116.34777394264304,
       40.01385700900313
      ],
      [
       116.34779670561679,
       40.01383832791337
      ],
      [
       116.34781819805153,
       40.01381819805153
      ],
      [
       116.34783832791337,
       40.0137967056168
      ],
      [
       116.34785700900312,
       40.013773942643056
      ],
      [
       116.34787416132554,
       40.01375000660486
      ],
      [
       116.3478897114317,
       40.013725
      ],
      [
       116.34790359273369,
       40.0136990299106
      ],
      [
       116.34791574578962,
       40.013672207544566
      ],
      [
       116.34792611855826,
       40.013644647759385
      ],
      [
       116.34793466662182,
       40.0136164685703
      ],
      [
       116.34794135337617,
       40.013587790644905
      ],
      [
       116.34794615018761,
       40.0135587367865
      ],
      [
       116.34794903651546,
       40.01352943140815
      ],
      [
       116.34795,
       40.0135
      ]
     ]
    ]
   }
  },
  {
   "type": "Feature",
   "id": "PS-011",
   "properties": {
    "id": "PS-011",
    "layer": "PUBLIC_SPACE",
    "source_type": "agent_generated_design",
    "confidence": "medium",
    "geometry_role": "design_proposal",
    "name_zh": "热节点11广场（加速跑道）",
    "scenario_node": "TN11",
    "thermal_program_zh": "AI训练节拍跑道·开发者竞赛场"
   },
   "geometry": {
    "type": "Polygon",
    "coordinates": [
     [
      [
       116.34795,
       40.0195
      ],
      [
       116.34794903651546,
       40.01947056859185
      ],
      [
       116.34794615018761,
       40.0194412632135
      ],
      [
       116.34794135337617,
       40.019412209355096
      ],
      [
       116.34793466662182,
       40.0193835314297
      ],
      [
       116.34792611855826,
       40.019355352240616
      ],
      [
       116.34791574578962,
       40.019327792455435
      ],
      [
       116.34790359273369,
       40.019300970089404
      ],
      [
       116.3478897114317,
       40.019275
      ],
      [
       116.34787416132554,
       40.01924999339514
      ],
      [
       116.34785700900312,
       40.019226057356946
      ],
      [
       116.34783832791337,
       40.0192032943832
      ],
      [
       116.34781819805153,
       40.01918180194847
      ],
      [
       116.34779670561679,
       40.01916167208663
      ],
      [
       116.34777394264304,
       40.01914299099687
      ],
      [
       116.34775000660485,
       40.01912583867446
      ],
      [
       116.347725,
       40.0191102885683
      ],
      [
       116.3476990299106,
       40.01909640726631
      ],
      [
       116.34767220754456,
       40.01908425421037
      ],
      [
       116.34764464775938,
       40.01907388144173
      ],
      [
       116.3476164685703,
       40.01906533337817
      ],
      [
       116.34758779064491,
       40.01905864662382
      ],
      [
       116.3475587367865,
       40.01905384981238
      ],
      [
       116.34752943140815,
       40.019050963484545
      ],
      [
       116.3475,
       40.01905
      ],
      [
       116.34747056859185,
       40.019050963484545
      ],
      [
       116.3474412632135,
       40.01905384981238
      ],
      [
       116.34741220935508,
       40.01905864662382
      ],
      [
       116.3473835314297,
       40.01906533337817
      ],
      [
       116.34735535224061,
       40.01907388144173
      ],
      [
       116.34732779245543,
       40.01908425421037
      ],
      [
       116.34730097008939,
       40.01909640726631
      ],
      [
       116.347275,
       40.0191102885683
      ],
      [
       116.34724999339514,
       40.01912583867446
      ],
      [
       116.34722605735695,
       40.01914299099687
      ],
      [
       116.3472032943832,
       40.01916167208663
      ],
      [
       116.34718180194847,
       40.01918180194847
      ],
      [
       116.34716167208663,
       40.0192032943832
      ],
      [
       116.34714299099687,
       40.019226057356946
      ],
      [
       116.34712583867446,
       40.01924999339514
      ],
      [
       116.34711028856829,
       40.019275
      ],
      [
       116.3470964072663,
       40.019300970089404
      ],
      [
       116.34708425421037,
       40.019327792455435
      ],
      [
       116.34707388144173,
       40.019355352240616
      ],
      [
       116.34706533337817,
       40.0193835314297
      ],
      [
       116.34705864662382,
       40.019412209355096
      ],
      [
       116.34705384981238,
       40.0194412632135
      ],
      [
       116.34705096348453,
       40.01947056859185
      ],
      [
       116.34705,
       40.0195
      ],
      [
       116.34705096348453,
       40.01952943140815
      ],
      [
       116.34705384981238,
       40.0195587367865
      ],
      [
       116.34705864662382,
       40.019587790644906
      ],
      [
       116.34706533337817,
       40.0196164685703
      ],
      [
       116.34707388144173,
       40.019644647759385
      ],
      [
       116.34708425421037,
       40.019672207544566
      ],
      [
       116.3470964072663,
       40.0196990299106
      ],
      [
       116.34711028856829,
       40.019725
      ],
      [
       116.34712583867446,
       40.01975000660486
      ],
      [
       116.34714299099687,
       40.019773942643056
      ],
      [
       116.34716167208663,
       40.0197967056168
      ],
      [
       116.34718180194847,
       40.01981819805153
      ],
      [
       116.3472032943832,
       40.01983832791337
      ],
      [
       116.34722605735695,
       40.01985700900313
      ],
      [
       116.34724999339514,
       40.01987416132554
      ],
      [
       116.347275,
       40.0198897114317
      ],
      [
       116.34730097008939,
       40.01990359273369
      ],
      [
       116.34732779245543,
       40.01991574578963
      ],
      [
       116.34735535224061,
       40.019926118558274
      ],
      [
       116.3473835314297,
       40.01993466662183
      ],
      [
       116.34741220935508,
       40.01994135337618
      ],
      [
       116.3474412632135,
       40.01994615018762
      ],
      [
       116.34747056859185,
       40.019949036515456
      ],
      [
       116.3475,
       40.01995
      ],
      [
       116.34752943140815,
       40.019949036515456
      ],
      [
       116.3475587367865,
       40.01994615018762
      ],
      [
       116.34758779064491,
       40.01994135337618
      ],
      [
       116.3476164685703,
       40.01993466662183
      ],
      [
       116.34764464775938,
       40.019926118558274
      ],
      [
       116.34767220754456,
       40.01991574578963
      ],
      [
       116.3476990299106,
       40.01990359273369
      ],
      [
       116.347725,
       40.0198897114317
      ],
      [
       116.34775000660485,
       40.01987416132554
      ],
      [
       116.34777394264304,
       40.01985700900313
      ],
      [
       116.34779670561679,
       40.01983832791337
      ],
      [
       116.34781819805153,
       40.01981819805153
      ],
      [
       116.34783832791337,
       40.0197967056168
      ],
      [
       116.34785700900312,
       40.019773942643056
      ],
      [
       116.34787416132554,
       40.01975000660486
      ],
      [
       116.3478897114317,
       40.019725
      ],
      [
       116.34790359273369,
       40.0196990299106
      ],
      [
       116.34791574578962,
       40.019672207544566
      ],
      [
       116.34792611855826,
       40.019644647759385
      ],
      [
       116.34793466662182,
       40.0196164685703
      ],
      [
       116.34794135337617,
       40.019587790644906
      ],
      [
       116.34794615018761,
       40.0195587367865
      ],
      [
       116.34794903651546,
       40.01952943140815
      ],
      [
       116.34795,
       40.0195
      ]
     ]
    ]
   }
  },
  {
   "type": "Feature",
   "id": "PS-012",
   "properties": {
    "id": "PS-012",
    "layer": "PUBLIC_SPACE",
    "source_type": "agent_generated_design",
    "confidence": "medium",
    "geometry_role": "design_proposal",
    "name_zh": "热节点12广场（北望站）",
    "scenario_node": "TN12",
    "thermal_program_zh": "北望张家口·绿电算力对话台"
   },
   "geometry": {
    "type": "Polygon",
    "coordinates": [
     [
      [
       116.34795,
       40.024
      ],
      [
       116.34794903651546,
       40.02397056859185
      ],
      [
       116.34794615018761,
       40.0239412632135
      ],
      [
       116.34794135337617,
       40.023912209355096
      ],
      [
       116.34793466662182,
       40.0238835314297
      ],
      [
       116.34792611855826,
       40.023855352240616
      ],
      [
       116.34791574578962,
       40.023827792455435
      ],
      [
       116.34790359273369,
       40.023800970089404
      ],
      [
       116.3478897114317,
       40.023775
      ],
      [
       116.34787416132554,
       40.02374999339514
      ],
      [
       116.34785700900312,
       40.023726057356946
      ],
      [
       116.34783832791337,
       40.0237032943832
      ],
      [
       116.34781819805153,
       40.02368180194847
      ],
      [
       116.34779670561679,
       40.02366167208663
      ],
      [
       116.34777394264304,
       40.02364299099687
      ],
      [
       116.34775000660485,
       40.02362583867446
      ],
      [
       116.347725,
       40.0236102885683
      ],
      [
       116.3476990299106,
       40.02359640726631
      ],
      [
       116.34767220754456,
       40.02358425421037
      ],
      [
       116.34764464775938,
       40.02357388144173
      ],
      [
       116.3476164685703,
       40.02356533337817
      ],
      [
       116.34758779064491,
       40.02355864662382
      ],
      [
       116.3475587367865,
       40.02355384981238
      ],
      [
       116.34752943140815,
       40.023550963484546
      ],
      [
       116.3475,
       40.02355
      ],
      [
       116.34747056859185,
       40.023550963484546
      ],
      [
       116.3474412632135,
       40.02355384981238
      ],
      [
       116.34741220935508,
       40.02355864662382
      ],
      [
       116.3473835314297,
       40.02356533337817
      ],
      [
       116.34735535224061,
       40.02357388144173
      ],
      [
       116.34732779245543,
       40.02358425421037
      ],
      [
       116.34730097008939,
       40.02359640726631
      ],
      [
       116.347275,
       40.0236102885683
      ],
      [
       116.34724999339514,
       40.02362583867446
      ],
      [
       116.34722605735695,
       40.02364299099687
      ],
      [
       116.3472032943832,
       40.02366167208663
      ],
      [
       116.34718180194847,
       40.02368180194847
      ],
      [
       116.34716167208663,
       40.0237032943832
      ],
      [
       116.34714299099687,
       40.023726057356946
      ],
      [
       116.34712583867446,
       40.02374999339514
      ],
      [
       116.34711028856829,
       40.023775
      ],
      [
       116.3470964072663,
       40.023800970089404
      ],
      [
       116.34708425421037,
       40.023827792455435
      ],
      [
       116.34707388144173,
       40.023855352240616
      ],
      [
       116.34706533337817,
       40.0238835314297
      ],
      [
       116.34705864662382,
       40.023912209355096
      ],
      [
       116.34705384981238,
       40.0239412632135
      ],
      [
       116.34705096348453,
       40.02397056859185
      ],
      [
       116.34705,
       40.024
      ],
      [
       116.34705096348453,
       40.02402943140815
      ],
      [
       116.34705384981238,
       40.0240587367865
      ],
      [
       116.34705864662382,
       40.024087790644906
      ],
      [
       116.34706533337817,
       40.0241164685703
      ],
      [
       116.34707388144173,
       40.024144647759385
      ],
      [
       116.34708425421037,
       40.02417220754457
      ],
      [
       116.3470964072663,
       40.0241990299106
      ],
      [
       116.34711028856829,
       40.024225
      ],
      [
       116.34712583867446,
       40.02425000660486
      ],
      [
       116.34714299099687,
       40.024273942643056
      ],
      [
       116.34716167208663,
       40.0242967056168
      ],
      [
       116.34718180194847,
       40.02431819805153
      ],
      [
       116.3472032943832,
       40.02433832791337
      ],
      [
       116.34722605735695,
       40.02435700900313
      ],
      [
       116.34724999339514,
       40.02437416132554
      ],
      [
       116.347275,
       40.0243897114317
      ],
      [
       116.34730097008939,
       40.02440359273369
      ],
      [
       116.34732779245543,
       40.02441574578963
      ],
      [
       116.34735535224061,
       40.024426118558274
      ],
      [
       116.3473835314297,
       40.02443466662183
      ],
      [
       116.34741220935508,
       40.02444135337618
      ],
      [
       116.3474412632135,
       40.02444615018762
      ],
      [
       116.34747056859185,
       40.024449036515456
      ],
      [
       116.3475,
       40.02445
      ],
      [
       116.34752943140815,
       40.024449036515456
      ],
      [
       116.3475587367865,
       40.02444615018762
      ],
      [
       116.34758779064491,
       40.02444135337618
      ],
      [
       116.3476164685703,
       40.02443466662183
      ],
      [
       116.34764464775938,
       40.024426118558274
      ],
      [
       116.34767220754456,
       40.02441574578963
      ],
      [
       116.3476990299106,
       40.02440359273369
      ],
      [
       116.347725,
       40.0243897114317
      ],
      [
       116.34775000660485,
       40.02437416132554
      ],
      [
       116.34777394264304,
       40.02435700900313
      ],
      [
       116.34779670561679,
       40.02433832791337
      ],
      [
       116.34781819805153,
       40.02431819805153
      ],
      [
       116.34783832791337,
       40.0242967056168
      ],
      [
       116.34785700900312,
       40.024273942643056
      ],
      [
       116.34787416132554,
       40.02425000660486
      ],
      [
       116.3478897114317,
       40.024225
      ],
      [
       116.34790359273369,
       40.0241990299106
      ],
      [
       116.34791574578962,
       40.02417220754457
      ],
      [
       116.34792611855826,
       40.024144647759385
      ],
      [
       116.34793466662182,
       40.0241164685703
      ],
      [
       116.34794135337617,
       40.024087790644906
      ],
      [
       116.34794615018761,
       40.0240587367865
      ],
      [
       116.34794903651546,
       40.02402943140815
      ],
      [
       116.34795,
       40.024
      ]
     ]
    ]
   }
  },
  {
   "type": "Feature",
   "id": "PS-013",
   "properties": {
    "id": "PS-013",
    "layer": "PUBLIC_SPACE",
    "source_type": "agent_generated_design",
    "confidence": "medium",
    "geometry_role": "design_proposal",
    "name_zh": "大钟寺钟鼓广场"
   },
   "geometry": {
    "type": "Polygon",
    "coordinates": [
     [
      [
       116.3459,
       39.9463
      ],
      [
       116.3459,
       39.947700000000005
      ],
      [
       116.34909999999999,
       39.947700000000005
      ],
      [
       116.34909999999999,
       39.9463
      ],
      [
       116.3459,
       39.9463
      ]
     ]
    ]
   }
  },
  {
   "type": "Feature",
   "id": "PS-014",
   "properties": {
    "id": "PS-014",
    "layer": "PUBLIC_SPACE",
    "source_type": "agent_generated_design",
    "confidence": "medium",
    "geometry_role": "design_proposal",
    "name_zh": "原点37°广场"
   },
   "geometry": {
    "type": "Polygon",
    "coordinates": [
     [
      [
       116.3459,
       39.9873
      ],
      [
       116.3459,
       39.9887
      ],
      [
       116.34909999999999,
       39.9887
      ],
      [
       116.34909999999999,
       39.9873
      ],
      [
       116.3459,
       39.9873
      ]
     ]
    ]
   }
  },
  {
   "type": "Feature",
   "id": "PS-015",
   "properties": {
    "id": "PS-015",
    "layer": "PUBLIC_SPACE",
    "source_type": "agent_generated_design",
    "confidence": "medium",
    "geometry_role": "design_proposal",
    "name_zh": "众智园热源广场"
   },
   "geometry": {
    "type": "Polygon",
    "coordinates": [
     [
      [
       116.3459,
       40.015299999999996
      ],
      [
       116.3459,
       40.0167
      ],
      [
       116.34909999999999,
       40.0167
      ],
      [
       116.34909999999999,
       40.015299999999996
      ],
      [
       116.3459,
       40.015299999999996
      ]
     ]
    ]
   }
  },
  {
   "type": "Feature",
   "id": "PS-C001",
   "properties": {
    "id": "PS-C001",
    "layer": "PUBLIC_SPACE",
    "source_type": "agent_generated_design",
    "confidence": "medium",
    "geometry_role": "design_proposal",
    "name_zh": "大钟寺热流廊"
   },
   "geometry": {
    "type": "Polygon",
    "coordinates": [
     [
      [
       116.3407,
       39.946650000000005
      ],
      [
       116.3407,
       39.94735
      ],
      [
       116.355,
       39.94735
      ],
      [
       116.355,
       39.946650000000005
      ],
      [
       116.3407,
       39.946650000000005
      ]
     ]
    ]
   }
  },
  {
   "type": "Feature",
   "id": "PS-C002",
   "properties": {
    "id": "PS-C002",
    "layer": "PUBLIC_SPACE",
    "source_type": "agent_generated_design",
    "confidence": "medium",
    "geometry_role": "design_proposal",
    "name_zh": "原点热流廊"
   },
   "geometry": {
    "type": "Polygon",
    "coordinates": [
     [
      [
       116.3407,
       39.98765
      ],
      [
       116.3407,
       39.98835
      ],
      [
       116.353432,
       39.98835
      ],
      [
       116.353488,
       39.98765
      ],
      [
       116.3407,
       39.98765
      ]
     ]
    ]
   }
  },
  {
   "type": "Feature",
   "id": "PS-C003",
   "properties": {
    "id": "PS-C003",
    "layer": "PUBLIC_SPACE",
    "source_type": "agent_generated_design",
    "confidence": "medium",
    "geometry_role": "design_proposal",
    "name_zh": "众智园热流廊"
   },
   "geometry": {
    "type": "Polygon",
    "coordinates": [
     [
      [
       116.35474383561643,
       40.016349999999996
      ],
      [
       116.35470547945205,
       40.01565
      ],
      [
       116.34217073170731,
       40.01565
      ],
      [
       116.34220487804878,
       40.016349999999996
      ],
      [
       116.35474383561643,
       40.016349999999996
      ]
     ]
    ]
   }
  }
 ]
}