{
 "type": "FeatureCollection",
 "name": "roads",
 "features": [
  {
   "type": "Feature",
   "id": "ROAD-001",
   "properties": {
    "id": "ROAD-001",
    "layer": "ROAD_CENTERLINE",
    "source_type": "agent_generated_design",
    "confidence": "medium",
    "geometry_role": "design_proposal",
    "road_class": "branch",
    "name_zh": "西侧慢行联络路",
    "official_boundary": false
   },
   "geometry": {
    "type": "LineString",
    "coordinates": [
     [
      116.3415,
      39.94
     ],
     [
      116.3415,
      40.026
     ]
    ]
   }
  },
  {
   "type": "Feature",
   "id": "ROAD-002",
   "properties": {
    "id": "ROAD-002",
    "layer": "ROAD_CENTERLINE",
    "source_type": "agent_generated_design",
    "confidence": "medium",
    "geometry_role": "design_proposal",
    "road_class": "arterial",
    "name_zh": "京张智脉绿道/复合走廊",
    "official_boundary": false
   },
   "geometry": {
    "type": "LineString",
    "coordinates": [
     [
      116.3445,
      39.94
     ],
     [
      116.3445,
      40.026
     ]
    ]
   }
  },
  {
   "type": "Feature",
   "id": "ROAD-003",
   "properties": {
    "id": "ROAD-003",
    "layer": "ROAD_CENTERLINE",
    "source_type": "agent_generated_design",
    "confidence": "medium",
    "geometry_role": "design_proposal",
    "road_class": "arterial",
    "name_zh": "学院路创新轴",
    "official_boundary": false
   },
   "geometry": {
    "type": "LineString",
    "coordinates": [
     [
      116.3498,
      39.94
     ],
     [
      116.3498,
      40.026
     ]
    ]
   }
  },
  {
   "type": "Feature",
   "id": "ROAD-04",
   "properties": {
    "id": "ROAD-04",
    "layer": "ROAD_CENTERLINE",
    "source_type": "agent_generated_design",
    "confidence": "medium",
    "geometry_role": "design_proposal",
    "road_class": "secondary",
    "name_zh": "东西联络路-1",
    "official_boundary": false
   },
   "geometry": {
    "type": "LineString",
    "coordinates": [
     [
      116.34,
      39.952
     ],
     [
      116.3555,
      39.952
     ]
    ]
   }
  },
  {
   "type": "Feature",
   "id": "ROAD-05",
   "properties": {
    "id": "ROAD-05",
    "layer": "ROAD_CENTERLINE",
    "source_type": "agent_generated_design",
    "confidence": "medium",
    "geometry_role": "design_proposal",
    "road_class": "secondary",
    "name_zh": "东西联络路-2",
    "official_boundary": false
   },
   "geometry": {
    "type": "LineString",
    "coordinates": [
     [
      116.34,
      39.972
     ],
     [
      116.3555,
      39.972
     ]
    ]
   }
  },
  {
   "type": "Feature",
   "id": "ROAD-06",
   "properties": {
    "id": "ROAD-06",
    "layer": "ROAD_CENTERLINE",
    "source_type": "agent_generated_design",
    "confidence": "medium",
    "geometry_role": "design_proposal",
    "road_class": "secondary",
    "name_zh": "东西联络路-3",
    "official_boundary": false
   },
   "geometry": {
    "type": "LineString",
    "coordinates": [
     [
      116.34,
      39.987
     ],
     [
      116.3555,
      39.987
     ]
    ]
   }
  },
  {
   "type": "Feature",
   "id": "ROAD-07",
   "properties": {
    "id": "ROAD-07",
    "layer": "ROAD_CENTERLINE",
    "source_type": "agent_generated_design",
    "confidence": "medium",
    "geometry_role": "design_proposal",
    "road_class": "secondary",
    "name_zh": "东西联络路-4",
    "official_boundary": false
   },
   "geometry": {
    "type": "LineString",
    "coordinates": [
     [
      116.34,
      40.008
     ],
     [
      116.3555,
      40.008
     ]
    ]
   }
  }
 ]
}