{
  "type": "FeatureCollection",
  "name": "buildings",
  "features": [
    {
      "type": "Feature",
      "id": "BLDG-001",
      "properties": {
        "source_type": "agent_generated_design",
        "confidence": "low",
        "geometry_role": "design_proposal",
        "building_type": "ai_r_and_d",
        "name_zh": "众智园AI研发楼1",
        "usage_note": "概念示意建筑基底，不代表现状建筑或工程结论。",
        "id": "BLDG-001",
        "layer": "BUILDING_FOOTPRINT",
        "area_sqm_declared": 4027.507
      },
      "geometry": {
        "type": "Polygon",
        "coordinates": [
          [
            [
              116.34421485321722,
              40.009074625758814
            ],
            [
              116.34421485321722,
              40.009591993835585
            ],
            [
              116.34339379020675,
              40.009591993835585
            ],
            [
              116.34339379020675,
              40.009074625758814
            ],
            [
              116.34421485321722,
              40.009074625758814
            ]
          ]
        ]
      }
    },
    {
      "type": "Feature",
      "id": "BLDG-002",
      "properties": {
        "source_type": "agent_generated_design",
        "confidence": "low",
        "geometry_role": "design_proposal",
        "building_type": "ai_r_and_d",
        "name_zh": "众智园AI研发楼2",
        "usage_note": "概念示意建筑基底，不代表现状建筑或工程结论。",
        "id": "BLDG-002",
        "layer": "BUILDING_FOOTPRINT",
        "area_sqm_declared": 6946.531
      },
      "geometry": {
        "type": "Polygon",
        "coordinates": [
          [
            [
              116.34421334204697,
              40.009934072692424
            ],
            [
              116.34421334204697,
              40.01082642811105
            ],
            [
              116.3433922790365,
              40.01082642811105
            ],
            [
              116.3433922790365,
              40.009934072692424
            ],
            [
              116.34421334204697,
              40.009934072692424
            ]
          ]
        ]
      }
    },
    {
      "type": "Feature",
      "id": "BLDG-003",
      "properties": {
        "source_type": "agent_generated_design",
        "confidence": "low",
        "geometry_role": "design_proposal",
        "building_type": "ai_r_and_d",
        "name_zh": "众智园AI研发楼3",
        "usage_note": "概念示意建筑基底，不代表现状建筑或工程结论。",
        "id": "BLDG-003",
        "layer": "BUILDING_FOOTPRINT",
        "area_sqm_declared": 6378.455
      },
      "geometry": {
        "type": "Polygon",
        "coordinates": [
          [
            [
              116.34433369207557,
              40.0166652496872
            ],
            [
              116.34433369207557,
              40.01748470887214
            ],
            [
              116.34351262906509,
              40.01748470887214
            ],
            [
              116.34351262906509,
              40.0166652496872
            ],
            [
              116.34433369207557,
              40.0166652496872
            ]
          ]
        ]
      }
    },
    {
      "type": "Feature",
      "id": "BLDG-004",
      "properties": {
        "source_type": "agent_generated_design",
        "confidence": "low",
        "geometry_role": "design_proposal",
        "building_type": "ai_r_and_d",
        "name_zh": "众智园AI研发楼4",
        "usage_note": "概念示意建筑基底，不代表现状建筑或工程结论。",
        "id": "BLDG-004",
        "layer": "BUILDING_FOOTPRINT",
        "area_sqm_declared": 5436.516
      },
      "geometry": {
        "type": "Polygon",
        "coordinates": [
          [
            [
              116.34432713061796,
              40.023155570390585
            ],
            [
              116.34432713061796,
              40.0238540806362
            ],
            [
              116.34350606760748,
              40.0238540806362
            ],
            [
              116.34350606760748,
              40.023155570390585
            ],
            [
              116.34432713061796,
              40.023155570390585
            ]
          ]
        ]
      }
    },
    {
      "type": "Feature",
      "id": "BLDG-005",
      "properties": {
        "source_type": "agent_generated_design",
        "confidence": "low",
        "geometry_role": "design_proposal",
        "building_type": "ai_r_and_d",
        "name_zh": "众智园AI研发楼5",
        "usage_note": "概念示意建筑基底，不代表现状建筑或工程结论。",
        "id": "BLDG-005",
        "layer": "BUILDING_FOOTPRINT",
        "area_sqm_declared": 6922.458
      },
      "geometry": {
        "type": "Polygon",
        "coordinates": [
          [
            [
              116.3443035178689,
              40.012468222505376
            ],
            [
              116.3443035178689,
              40.01335751795669
            ],
            [
              116.34348245485842,
              40.01335751795669
            ],
            [
              116.34348245485842,
              40.012468222505376
            ],
            [
              116.3443035178689,
              40.012468222505376
            ]
          ]
        ]
      }
    },
    {
      "type": "Feature",
      "id": "BLDG-006",
      "properties": {
        "source_type": "agent_generated_design",
        "confidence": "low",
        "geometry_role": "design_proposal",
        "building_type": "ai_r_and_d",
        "name_zh": "众智园AI研发楼6",
        "usage_note": "概念示意建筑基底，不代表现状建筑或工程结论。",
        "id": "BLDG-006",
        "layer": "BUILDING_FOOTPRINT",
        "area_sqm_declared": 6647.322
      },
      "geometry": {
        "type": "Polygon",
        "coordinates": [
          [
            [
              116.34434816059894,
              40.019829361478266
            ],
            [
              116.34434816059894,
              40.020683402016864
            ],
            [
              116.34352709758846,
              40.020683402016864
            ],
            [
              116.34352709758846,
              40.019829361478266
            ],
            [
              116.34434816059894,
              40.019829361478266
            ]
          ]
        ]
      }
    },
    {
      "type": "Feature",
      "id": "BLDG-007",
      "properties": {
        "source_type": "agent_generated_design",
        "confidence": "low",
        "geometry_role": "design_proposal",
        "building_type": "ai_r_and_d",
        "name_zh": "众智园AI研发楼7",
        "usage_note": "概念示意建筑基底，不代表现状建筑或工程结论。",
        "id": "BLDG-007",
        "layer": "BUILDING_FOOTPRINT",
        "area_sqm_declared": 4011.836
      },
      "geometry": {
        "type": "Polygon",
        "coordinates": [
          [
            [
              116.34426346133843,
              40.02404861962743
            ],
            [
              116.34426346133843,
              40.024564085893395
            ],
            [
              116.34344239832795,
              40.024564085893395
            ],
            [
              116.34344239832795,
              40.02404861962743
            ],
            [
              116.34426346133843,
              40.02404861962743
            ]
          ]
        ]
      }
    },
    {
      "type": "Feature",
      "id": "BLDG-008",
      "properties": {
        "source_type": "agent_generated_design",
        "confidence": "low",
        "geometry_role": "design_proposal",
        "building_type": "ai_r_and_d",
        "name_zh": "众智园AI研发楼8",
        "usage_note": "概念示意建筑基底，不代表现状建筑或工程结论。",
        "id": "BLDG-008",
        "layer": "BUILDING_FOOTPRINT",
        "area_sqm_declared": 5724.138
      },
      "geometry": {
        "type": "Polygon",
        "coordinates": [
          [
            [
              116.3442487542288,
              40.01898416382461
            ],
            [
              116.3442487542288,
              40.01971958503647
            ],
            [
              116.34342769121832,
              40.01971958503647
            ],
            [
              116.34342769121832,
              40.01898416382461
            ],
            [
              116.3442487542288,
              40.01898416382461
            ]
          ]
        ]
      }
    },
    {
      "type": "Feature",
      "id": "BLDG-009",
      "properties": {
        "source_type": "agent_generated_design",
        "confidence": "low",
        "geometry_role": "design_proposal",
        "building_type": "ai_r_and_d",
        "name_zh": "众智园AI研发楼9",
        "usage_note": "概念示意建筑基底，不代表现状建筑或工程结论。",
        "id": "BLDG-009",
        "layer": "BUILDING_FOOTPRINT",
        "area_sqm_declared": 4818.437
      },
      "geometry": {
        "type": "Polygon",
        "coordinates": [
          [
            [
              116.34433070187958,
              40.01587537340737
            ],
            [
              116.34433070187958,
              40.01649440446889
            ],
            [
              116.34350963886911,
              40.01649440446889
            ],
            [
              116.34350963886911,
              40.01587537340737
            ],
            [
              116.34433070187958,
              40.01587537340737
            ]
          ]
        ]
      }
    },
    {
      "type": "Feature",
      "id": "BLDG-010",
      "properties": {
        "source_type": "agent_generated_design",
        "confidence": "low",
        "geometry_role": "design_proposal",
        "building_type": "ai_r_and_d",
        "name_zh": "众智园AI研发楼10",
        "usage_note": "概念示意建筑基底，不代表现状建筑或工程结论。",
        "id": "BLDG-010",
        "layer": "BUILDING_FOOTPRINT",
        "area_sqm_declared": 4640.027
      },
      "geometry": {
        "type": "Polygon",
        "coordinates": [
          [
            [
              116.34431425410695,
              40.01115940818524
            ],
            [
              116.34431425410695,
              40.01175547804069
            ],
            [
              116.34349319109647,
              40.01175547804069
            ],
            [
              116.34349319109647,
              40.01115940818524
            ],
            [
              116.34431425410695,
              40.01115940818524
            ]
          ]
        ]
      }
    },
    {
      "type": "Feature",
      "id": "BLDG-011",
      "properties": {
        "source_type": "agent_generated_design",
        "confidence": "low",
        "geometry_role": "design_proposal",
        "building_type": "ai_r_and_d",
        "name_zh": "众智园AI研发楼11",
        "usage_note": "概念示意建筑基底，不代表现状建筑或工程结论。",
        "id": "BLDG-011",
        "layer": "BUILDING_FOOTPRINT",
        "area_sqm_declared": 6756.651
      },
      "geometry": {
        "type": "Polygon",
        "coordinates": [
          [
            [
              116.34454055417889,
              40.0147390758538
            ],
            [
              116.34454055417889,
              40.01560709915947
            ],
            [
              116.34371949116841,
              40.01560709915947
            ],
            [
              116.34371949116841,
              40.0147390758538
            ],
            [
              116.34454055417889,
              40.0147390758538
            ]
          ]
        ]
      }
    },
    {
      "type": "Feature",
      "id": "BLDG-012",
      "properties": {
        "source_type": "agent_generated_design",
        "confidence": "low",
        "geometry_role": "design_proposal",
        "building_type": "ai_r_and_d",
        "name_zh": "众智园AI研发楼12",
        "usage_note": "概念示意建筑基底，不代表现状建筑或工程结论。",
        "id": "BLDG-012",
        "layer": "BUILDING_FOOTPRINT",
        "area_sqm_declared": 5428.744
      },
      "geometry": {
        "type": "Polygon",
        "coordinates": [
          [
            [
              116.34429910559805,
              40.02074563732315
            ],
            [
              116.34429910559805,
              40.02144312476417
            ],
            [
              116.34347804258758,
              40.02144312476417
            ],
            [
              116.34347804258758,
              40.02074563732315
            ],
            [
              116.34429910559805,
              40.02074563732315
            ]
          ]
        ]
      }
    },
    {
      "type": "Feature",
      "id": "BLDG-013",
      "properties": {
        "source_type": "agent_generated_design",
        "confidence": "low",
        "geometry_role": "design_proposal",
        "building_type": "ai_r_and_d",
        "name_zh": "众智园AI研发楼1",
        "usage_note": "概念示意建筑基底，不代表现状建筑或工程结论。",
        "id": "BLDG-013",
        "layer": "BUILDING_FOOTPRINT",
        "area_sqm_declared": 5290.089
      },
      "geometry": {
        "type": "Polygon",
        "coordinates": [
          [
            [
              116.35239323692782,
              40.00942956602178
            ],
            [
              116.35239323692782,
              40.010107460039805
            ],
            [
              116.35157015224026,
              40.010107460039805
            ],
            [
              116.35157015224026,
              40.00942956602178
            ],
            [
              116.35239323692782,
              40.00942956602178
            ]
          ]
        ]
      }
    },
    {
      "type": "Feature",
      "id": "BLDG-014",
      "properties": {
        "source_type": "agent_generated_design",
        "confidence": "low",
        "geometry_role": "design_proposal",
        "building_type": "ai_r_and_d",
        "name_zh": "众智园AI研发楼2",
        "usage_note": "概念示意建筑基底，不代表现状建筑或工程结论。",
        "id": "BLDG-014",
        "layer": "BUILDING_FOOTPRINT",
        "area_sqm_declared": 7233.752
      },
      "geometry": {
        "type": "Polygon",
        "coordinates": [
          [
            [
              116.35171736837734,
              40.01213432189861
            ],
            [
              116.35171736837734,
              40.01278837273039
            ],
            [
              116.35055079455395,
              40.01278837273039
            ],
            [
              116.35055079455395,
              40.01213432189861
            ],
            [
              116.35171736837734,
              40.01213432189861
            ]
          ]
        ]
      }
    },
    {
      "type": "Feature",
      "id": "BLDG-015",
      "properties": {
        "source_type": "agent_generated_design",
        "confidence": "low",
        "geometry_role": "design_proposal",
        "building_type": "ai_r_and_d",
        "name_zh": "众智园AI研发楼3",
        "usage_note": "概念示意建筑基底，不代表现状建筑或工程结论。",
        "id": "BLDG-015",
        "layer": "BUILDING_FOOTPRINT",
        "area_sqm_declared": 7599.446
      },
      "geometry": {
        "type": "Polygon",
        "coordinates": [
          [
            [
              116.35293270857049,
              40.01970259455488
            ],
            [
              116.35293270857049,
              40.02039218950501
            ],
            [
              116.35177020143983,
              40.02039218950501
            ],
            [
              116.35177020143983,
              40.01970259455488
            ],
            [
              116.35293270857049,
              40.01970259455488
            ]
          ]
        ]
      }
    },
    {
      "type": "Feature",
      "id": "BLDG-016",
      "properties": {
        "source_type": "agent_generated_design",
        "confidence": "low",
        "geometry_role": "design_proposal",
        "building_type": "ai_r_and_d",
        "name_zh": "众智园AI研发楼4",
        "usage_note": "概念示意建筑基底，不代表现状建筑或工程结论。",
        "id": "BLDG-016",
        "layer": "BUILDING_FOOTPRINT",
        "area_sqm_declared": 5342.852
      },
      "geometry": {
        "type": "Polygon",
        "coordinates": [
          [
            [
              116.35212201559452,
              40.0175964992217
            ],
            [
              116.35212201559452,
              40.01822686278964
            ],
            [
              116.35122793554024,
              40.01822686278964
            ],
            [
              116.35122793554024,
              40.0175964992217
            ],
            [
              116.35212201559452,
              40.0175964992217
            ]
          ]
        ]
      }
    },
    {
      "type": "Feature",
      "id": "BLDG-017",
      "properties": {
        "source_type": "agent_generated_design",
        "confidence": "low",
        "geometry_role": "design_proposal",
        "building_type": "ai_r_and_d",
        "name_zh": "众智园AI研发楼5",
        "usage_note": "概念示意建筑基底，不代表现状建筑或工程结论。",
        "id": "BLDG-017",
        "layer": "BUILDING_FOOTPRINT",
        "area_sqm_declared": 6212.107
      },
      "geometry": {
        "type": "Polygon",
        "coordinates": [
          [
            [
              116.35326810975279,
              40.01543293733427
            ],
            [
              116.35326810975279,
              40.016222636568486
            ],
            [
              116.35243833804391,
              40.016222636568486
            ],
            [
              116.35243833804391,
              40.01543293733427
            ],
            [
              116.35326810975279,
              40.01543293733427
            ]
          ]
        ]
      }
    },
    {
      "type": "Feature",
      "id": "BLDG-018",
      "properties": {
        "source_type": "agent_generated_design",
        "confidence": "low",
        "geometry_role": "design_proposal",
        "building_type": "ai_r_and_d",
        "name_zh": "众智园AI研发楼6",
        "usage_note": "概念示意建筑基底，不代表现状建筑或工程结论。",
        "id": "BLDG-018",
        "layer": "BUILDING_FOOTPRINT",
        "area_sqm_declared": 7394.91
      },
      "geometry": {
        "type": "Polygon",
        "coordinates": [
          [
            [
              116.35296759179451,
              40.00851316700668
            ],
            [
              116.35296759179451,
              40.00927401261225
            ],
            [
              116.35194247279566,
              40.00927401261225
            ],
            [
              116.35194247279566,
              40.00851316700668
            ],
            [
              116.35296759179451,
              40.00851316700668
            ]
          ]
        ]
      }
    },
    {
      "type": "Feature",
      "id": "BLDG-019",
      "properties": {
        "source_type": "agent_generated_design",
        "confidence": "low",
        "geometry_role": "design_proposal",
        "building_type": "ai_r_and_d",
        "name_zh": "众智园AI研发楼7",
        "usage_note": "概念示意建筑基底，不代表现状建筑或工程结论。",
        "id": "BLDG-019",
        "layer": "BUILDING_FOOTPRINT",
        "area_sqm_declared": 6271.125
      },
      "geometry": {
        "type": "Polygon",
        "coordinates": [
          [
            [
              116.3526284213189,
              40.02058604850025
            ],
            [
              116.3526284213189,
              40.021231465122824
            ],
            [
              116.35160343409758,
              40.021231465122824
            ],
            [
              116.35160343409758,
              40.02058604850025
            ],
            [
              116.3526284213189,
              40.02058604850025
            ]
          ]
        ]
      }
    },
    {
      "type": "Feature",
      "id": "BLDG-020",
      "properties": {
        "source_type": "agent_generated_design",
        "confidence": "low",
        "geometry_role": "design_proposal",
        "building_type": "ai_r_and_d",
        "name_zh": "众智园AI研发楼8",
        "usage_note": "概念示意建筑基底，不代表现状建筑或工程结论。",
        "id": "BLDG-020",
        "layer": "BUILDING_FOOTPRINT",
        "area_sqm_declared": 5151.914
      },
      "geometry": {
        "type": "Polygon",
        "coordinates": [
          [
            [
              116.35182100471393,
              40.01680159665605
            ],
            [
              116.35182100471393,
              40.01742401869383
            ],
            [
              116.35094788667037,
              40.01742401869383
            ],
            [
              116.35094788667037,
              40.01680159665605
            ],
            [
              116.35182100471393,
              40.01680159665605
            ]
          ]
        ]
      }
    },
    {
      "type": "Feature",
      "id": "BLDG-021",
      "properties": {
        "source_type": "agent_generated_design",
        "confidence": "low",
        "geometry_role": "design_proposal",
        "building_type": "ai_r_and_d",
        "name_zh": "众智园AI研发楼9",
        "usage_note": "概念示意建筑基底，不代表现状建筑或工程结论。",
        "id": "BLDG-021",
        "layer": "BUILDING_FOOTPRINT",
        "area_sqm_declared": 5859.071
      },
      "geometry": {
        "type": "Polygon",
        "coordinates": [
          [
            [
              116.35261240450514,
              40.01071200787743
            ],
            [
              116.35261240450514,
              40.01125781769889
            ],
            [
              116.35148016477048,
              40.01125781769889
            ],
            [
              116.35148016477048,
              40.01071200787743
            ],
            [
              116.35261240450514,
              40.01071200787743
            ]
          ]
        ]
      }
    },
    {
      "type": "Feature",
      "id": "BLDG-022",
      "properties": {
        "source_type": "agent_generated_design",
        "confidence": "low",
        "geometry_role": "design_proposal",
        "building_type": "ai_r_and_d",
        "name_zh": "众智园AI研发楼10",
        "usage_note": "概念示意建筑基底，不代表现状建筑或工程结论。",
        "id": "BLDG-022",
        "layer": "BUILDING_FOOTPRINT",
        "area_sqm_declared": 5863.638
      },
      "geometry": {
        "type": "Polygon",
        "coordinates": [
          [
            [
              116.35248656704734,
              40.02316346443658
            ],
            [
              116.35248656704734,
              40.02372257909889
            ],
            [
              116.35138021008136,
              40.02372257909889
            ],
            [
              116.35138021008136,
              40.02316346443658
            ],
            [
              116.35248656704734,
              40.02316346443658
            ]
          ]
        ]
      }
    },
    {
      "type": "Feature",
      "id": "BLDG-023",
      "properties": {
        "source_type": "agent_generated_design",
        "confidence": "low",
        "geometry_role": "design_proposal",
        "building_type": "ai_r_and_d",
        "name_zh": "众智园AI研发楼11",
        "usage_note": "概念示意建筑基底，不代表现状建筑或工程结论。",
        "id": "BLDG-023",
        "layer": "BUILDING_FOOTPRINT",
        "area_sqm_declared": 7410.043
      },
      "geometry": {
        "type": "Polygon",
        "coordinates": [
          [
            [
              116.35236575543941,
              40.013914047709335
            ],
            [
              116.35236575543941,
              40.01469386039784
            ],
            [
              116.35136344513997,
              40.01469386039784
            ],
            [
              116.35136344513997,
              40.013914047709335
            ],
            [
              116.35236575543941,
              40.013914047709335
            ]
          ]
        ]
      }
    },
    {
      "type": "Feature",
      "id": "BLDG-024",
      "properties": {
        "source_type": "agent_generated_design",
        "confidence": "low",
        "geometry_role": "design_proposal",
        "building_type": "ai_r_and_d",
        "name_zh": "众智园AI研发楼12",
        "usage_note": "概念示意建筑基底，不代表现状建筑或工程结论。",
        "id": "BLDG-024",
        "layer": "BUILDING_FOOTPRINT",
        "area_sqm_declared": 10080.201
      },
      "geometry": {
        "type": "Polygon",
        "coordinates": [
          [
            [
              116.35254020917651,
              40.01132176025961
            ],
            [
              116.35254020917651,
              40.01219402607823
            ],
            [
              116.35132128654757,
              40.01219402607823
            ],
            [
              116.35132128654757,
              40.01132176025961
            ],
            [
              116.35254020917651,
              40.01132176025961
            ]
          ]
        ]
      }
    },
    {
      "type": "Feature",
      "id": "BLDG-025",
      "properties": {
        "source_type": "agent_generated_design",
        "confidence": "low",
        "geometry_role": "design_proposal",
        "building_type": "incubator",
        "name_zh": "众智园加速器1",
        "usage_note": "概念示意建筑基底，不代表现状建筑或工程结论。",
        "id": "BLDG-025",
        "layer": "BUILDING_FOOTPRINT",
        "area_sqm_declared": 4822.415
      },
      "geometry": {
        "type": "Polygon",
        "coordinates": [
          [
            [
              116.34447187821247,
              40.02162301503569
            ],
            [
              116.34447187821247,
              40.022345874679694
            ],
            [
              116.34376810991778,
              40.022345874679694
            ],
            [
              116.34376810991778,
              40.02162301503569
            ],
            [
              116.34447187821247,
              40.02162301503569
            ]
          ]
        ]
      }
    },
    {
      "type": "Feature",
      "id": "BLDG-026",
      "properties": {
        "source_type": "agent_generated_design",
        "confidence": "low",
        "geometry_role": "design_proposal",
        "building_type": "incubator",
        "name_zh": "众智园加速器2",
        "usage_note": "概念示意建筑基底，不代表现状建筑或工程结论。",
        "id": "BLDG-026",
        "layer": "BUILDING_FOOTPRINT",
        "area_sqm_declared": 4093.667
      },
      "geometry": {
        "type": "Polygon",
        "coordinates": [
          [
            [
              116.34442345491784,
              40.016572389349236
            ],
            [
              116.34442345491784,
              40.01718596750143
            ],
            [
              116.34371968662315,
              40.01718596750143
            ],
            [
              116.34371968662315,
              40.016572389349236
            ],
            [
              116.34442345491784,
              40.016572389349236
            ]
          ]
        ]
      }
    },
    {
      "type": "Feature",
      "id": "BLDG-027",
      "properties": {
        "source_type": "agent_generated_design",
        "confidence": "low",
        "geometry_role": "design_proposal",
        "building_type": "incubator",
        "name_zh": "众智园加速器3",
        "usage_note": "概念示意建筑基底，不代表现状建筑或工程结论。",
        "id": "BLDG-027",
        "layer": "BUILDING_FOOTPRINT",
        "area_sqm_declared": 3858.552
      },
      "geometry": {
        "type": "Polygon",
        "coordinates": [
          [
            [
              116.34439051066059,
              40.01228262431897
            ],
            [
              116.34439051066059,
              40.012860926404
            ],
            [
              116.34368674236589,
              40.012860926404
            ],
            [
              116.34368674236589,
              40.01228262431897
            ],
            [
              116.34439051066059,
              40.01228262431897
            ]
          ]
        ]
      }
    },
    {
      "type": "Feature",
      "id": "BLDG-028",
      "properties": {
        "source_type": "agent_generated_design",
        "confidence": "low",
        "geometry_role": "design_proposal",
        "building_type": "incubator",
        "name_zh": "众智园加速器1",
        "usage_note": "概念示意建筑基底，不代表现状建筑或工程结论。",
        "id": "BLDG-028",
        "layer": "BUILDING_FOOTPRINT",
        "area_sqm_declared": 5946.765
      },
      "geometry": {
        "type": "Polygon",
        "coordinates": [
          [
            [
              116.35314506369585,
              40.01170509325131
            ],
            [
              116.35314506369585,
              40.012277071740556
            ],
            [
              116.35204843795242,
              40.012277071740556
            ],
            [
              116.35204843795242,
              40.01170509325131
            ],
            [
              116.35314506369585,
              40.01170509325131
            ]
          ]
        ]
      }
    },
    {
      "type": "Feature",
      "id": "BLDG-029",
      "properties": {
        "source_type": "agent_generated_design",
        "confidence": "low",
        "geometry_role": "design_proposal",
        "building_type": "incubator",
        "name_zh": "众智园加速器2",
        "usage_note": "概念示意建筑基底，不代表现状建筑或工程结论。",
        "id": "BLDG-029",
        "layer": "BUILDING_FOOTPRINT",
        "area_sqm_declared": 5172.967
      },
      "geometry": {
        "type": "Polygon",
        "coordinates": [
          [
            [
              116.35169565604703,
              40.0116990497572
            ],
            [
              116.35169565604703,
              40.012379456285714
            ],
            [
              116.35089374033892,
              40.012379456285714
            ],
            [
              116.35089374033892,
              40.0116990497572
            ],
            [
              116.35169565604703,
              40.0116990497572
            ]
          ]
        ]
      }
    },
    {
      "type": "Feature",
      "id": "BLDG-030",
      "properties": {
        "source_type": "agent_generated_design",
        "confidence": "low",
        "geometry_role": "design_proposal",
        "building_type": "incubator",
        "name_zh": "众智园加速器3",
        "usage_note": "概念示意建筑基底，不代表现状建筑或工程结论。",
        "id": "BLDG-030",
        "layer": "BUILDING_FOOTPRINT",
        "area_sqm_declared": 3692.172
      },
      "geometry": {
        "type": "Polygon",
        "coordinates": [
          [
            [
              116.3520810137239,
              40.02071173788288
            ],
            [
              116.3520810137239,
              40.02125239653935
            ],
            [
              116.35136061594079,
              40.02125239653935
            ],
            [
              116.35136061594079,
              40.02071173788288
            ],
            [
              116.3520810137239,
              40.02071173788288
            ]
          ]
        ]
      }
    },
    {
      "type": "Feature",
      "id": "BLDG-031",
      "properties": {
        "source_type": "agent_generated_design",
        "confidence": "low",
        "geometry_role": "design_proposal",
        "building_type": "ai_r_and_d",
        "name_zh": "原点转化研发楼1",
        "usage_note": "概念示意建筑基底，不代表现状建筑或工程结论。",
        "id": "BLDG-031",
        "layer": "BUILDING_FOOTPRINT",
        "area_sqm_declared": 4289.587
      },
      "geometry": {
        "type": "Polygon",
        "coordinates": [
          [
            [
              116.3440774903475,
              39.987420897594916
            ],
            [
              116.3440774903475,
              39.98798663491672
            ],
            [
              116.34327801509306,
              39.98798663491672
            ],
            [
              116.34327801509306,
              39.987420897594916
            ],
            [
              116.3440774903475,
              39.987420897594916
            ]
          ]
        ]
      }
    },
    {
      "type": "Feature",
      "id": "BLDG-032",
      "properties": {
        "source_type": "agent_generated_design",
        "confidence": "low",
        "geometry_role": "design_proposal",
        "building_type": "ai_r_and_d",
        "name_zh": "原点转化研发楼2",
        "usage_note": "概念示意建筑基底，不代表现状建筑或工程结论。",
        "id": "BLDG-032",
        "layer": "BUILDING_FOOTPRINT",
        "area_sqm_declared": 4238.102
      },
      "geometry": {
        "type": "Polygon",
        "coordinates": [
          [
            [
              116.3437638703478,
              39.988858795326585
            ],
            [
              116.3437638703478,
              39.989473793181325
            ],
            [
              116.34303724379811,
              39.989473793181325
            ],
            [
              116.34303724379811,
              39.988858795326585
            ],
            [
              116.3437638703478,
              39.988858795326585
            ]
          ]
        ]
      }
    },
    {
      "type": "Feature",
      "id": "BLDG-033",
      "properties": {
        "source_type": "agent_generated_design",
        "confidence": "low",
        "geometry_role": "design_proposal",
        "building_type": "ai_r_and_d",
        "name_zh": "原点转化研发楼3",
        "usage_note": "概念示意建筑基底，不代表现状建筑或工程结论。",
        "id": "BLDG-033",
        "layer": "BUILDING_FOOTPRINT",
        "area_sqm_declared": 4981.98
      },
      "geometry": {
        "type": "Polygon",
        "coordinates": [
          [
            [
              116.34437719274466,
              39.98624241148484
            ],
            [
              116.34437719274466,
              39.986946042772644
            ],
            [
              116.34363065058882,
              39.986946042772644
            ],
            [
              116.34363065058882,
              39.98624241148484
            ],
            [
              116.34437719274466,
              39.98624241148484
            ]
          ]
        ]
      }
    },
    {
      "type": "Feature",
      "id": "BLDG-034",
      "properties": {
        "source_type": "agent_generated_design",
        "confidence": "low",
        "geometry_role": "design_proposal",
        "building_type": "ai_r_and_d",
        "name_zh": "原点转化研发楼4",
        "usage_note": "概念示意建筑基底，不代表现状建筑或工程结论。",
        "id": "BLDG-034",
        "layer": "BUILDING_FOOTPRINT",
        "area_sqm_declared": 3432.912
      },
      "geometry": {
        "type": "Polygon",
        "coordinates": [
          [
            [
              116.3435723894947,
              39.9857232767317
            ],
            [
              116.3435723894947,
              39.98622387166969
            ],
            [
              116.34284933711997,
              39.98622387166969
            ],
            [
              116.34284933711997,
              39.9857232767317
            ],
            [
              116.3435723894947,
              39.9857232767317
            ]
          ]
        ]
      }
    },
    {
      "type": "Feature",
      "id": "BLDG-035",
      "properties": {
        "source_type": "agent_generated_design",
        "confidence": "low",
        "geometry_role": "design_proposal",
        "building_type": "ai_r_and_d",
        "name_zh": "原点转化研发楼5",
        "usage_note": "概念示意建筑基底，不代表现状建筑或工程结论。",
        "id": "BLDG-035",
        "layer": "BUILDING_FOOTPRINT",
        "area_sqm_declared": 5103.544
      },
      "geometry": {
        "type": "Polygon",
        "coordinates": [
          [
            [
              116.34374798196521,
              39.99161357439504
            ],
            [
              116.34374798196521,
              39.99228283085754
            ],
            [
              116.34294388173964,
              39.99228283085754
            ],
            [
              116.34294388173964,
              39.99161357439504
            ],
            [
              116.34374798196521,
              39.99161357439504
            ]
          ]
        ]
      }
    },
    {
      "type": "Feature",
      "id": "BLDG-036",
      "properties": {
        "source_type": "agent_generated_design",
        "confidence": "low",
        "geometry_role": "design_proposal",
        "building_type": "ai_r_and_d",
        "name_zh": "原点转化研发楼6",
        "usage_note": "概念示意建筑基底，不代表现状建筑或工程结论。",
        "id": "BLDG-036",
        "layer": "BUILDING_FOOTPRINT",
        "area_sqm_declared": 5657.43
      },
      "geometry": {
        "type": "Polygon",
        "coordinates": [
          [
            [
              116.34437389268665,
              39.9907519067666
            ],
            [
              116.34437389268665,
              39.99148476684123
            ],
            [
              116.34355989369566,
              39.99148476684123
            ],
            [
              116.34355989369566,
              39.9907519067666
            ],
            [
              116.34437389268665,
              39.9907519067666
            ]
          ]
        ]
      }
    },
    {
      "type": "Feature",
      "id": "BLDG-037",
      "properties": {
        "source_type": "agent_generated_design",
        "confidence": "low",
        "geometry_role": "design_proposal",
        "building_type": "talent_apartment",
        "name_zh": "原点人才公寓1",
        "usage_note": "概念示意建筑基底，不代表现状建筑或工程结论。",
        "id": "BLDG-037",
        "layer": "BUILDING_FOOTPRINT",
        "area_sqm_declared": 3649.947
      },
      "geometry": {
        "type": "Polygon",
        "coordinates": [
          [
            [
              116.35240756083145,
              39.98545818000037
            ],
            [
              116.35240756083145,
              39.98592410087314
            ],
            [
              116.3515815857058,
              39.98592410087314
            ],
            [
              116.3515815857058,
              39.98545818000037
            ],
            [
              116.35240756083145,
              39.98545818000037
            ]
          ]
        ]
      }
    },
    {
      "type": "Feature",
      "id": "BLDG-038",
      "properties": {
        "source_type": "agent_generated_design",
        "confidence": "low",
        "geometry_role": "design_proposal",
        "building_type": "talent_apartment",
        "name_zh": "原点人才公寓2",
        "usage_note": "概念示意建筑基底，不代表现状建筑或工程结论。",
        "id": "BLDG-038",
        "layer": "BUILDING_FOOTPRINT",
        "area_sqm_declared": 4182.327
      },
      "geometry": {
        "type": "Polygon",
        "coordinates": [
          [
            [
              116.35144341795359,
              39.989313129930686
            ],
            [
              116.35144341795359,
              39.98985986410164
            ],
            [
              116.35063681711938,
              39.98985986410164
            ],
            [
              116.35063681711938,
              39.989313129930686
            ],
            [
              116.35144341795359,
              39.989313129930686
            ]
          ]
        ]
      }
    },
    {
      "type": "Feature",
      "id": "BLDG-039",
      "properties": {
        "source_type": "agent_generated_design",
        "confidence": "low",
        "geometry_role": "design_proposal",
        "building_type": "talent_apartment",
        "name_zh": "原点人才公寓3",
        "usage_note": "概念示意建筑基底，不代表现状建筑或工程结论。",
        "id": "BLDG-039",
        "layer": "BUILDING_FOOTPRINT",
        "area_sqm_declared": 4242.734
      },
      "geometry": {
        "type": "Polygon",
        "coordinates": [
          [
            [
              116.35144090019136,
              39.99034003949931
            ],
            [
              116.35144090019136,
              39.99094560570415
            ],
            [
              116.3507021328825,
              39.99094560570415
            ],
            [
              116.3507021328825,
              39.99034003949931
            ],
            [
              116.35144090019136,
              39.99034003949931
            ]
          ]
        ]
      }
    },
    {
      "type": "Feature",
      "id": "BLDG-040",
      "properties": {
        "source_type": "agent_generated_design",
        "confidence": "low",
        "geometry_role": "design_proposal",
        "building_type": "talent_apartment",
        "name_zh": "原点人才公寓4",
        "usage_note": "概念示意建筑基底，不代表现状建筑或工程结论。",
        "id": "BLDG-040",
        "layer": "BUILDING_FOOTPRINT",
        "area_sqm_declared": 4993.505
      },
      "geometry": {
        "type": "Polygon",
        "coordinates": [
          [
            [
              116.35140290535512,
              39.99135262503493
            ],
            [
              116.35140290535512,
              39.99199519059784
            ],
            [
              116.35058346370437,
              39.99199519059784
            ],
            [
              116.35058346370437,
              39.99135262503493
            ],
            [
              116.35140290535512,
              39.99135262503493
            ]
          ]
        ]
      }
    },
    {
      "type": "Feature",
      "id": "BLDG-041",
      "properties": {
        "source_type": "agent_generated_design",
        "confidence": "low",
        "geometry_role": "design_proposal",
        "building_type": "cultural",
        "name_zh": "原点文化展示馆1",
        "usage_note": "概念示意建筑基底，不代表现状建筑或工程结论。",
        "id": "BLDG-041",
        "layer": "BUILDING_FOOTPRINT",
        "area_sqm_declared": 5583.67
      },
      "geometry": {
        "type": "Polygon",
        "coordinates": [
          [
            [
              116.35143291254487,
              39.98887431162428
            ],
            [
              116.35143291254487,
              39.98949769501319
            ],
            [
              116.35048846268087,
              39.98949769501319
            ],
            [
              116.35048846268087,
              39.98887431162428
            ],
            [
              116.35143291254487,
              39.98887431162428
            ]
          ]
        ]
      }
    },
    {
      "type": "Feature",
      "id": "BLDG-042",
      "properties": {
        "source_type": "agent_generated_design",
        "confidence": "low",
        "geometry_role": "design_proposal",
        "building_type": "cultural",
        "name_zh": "原点文化展示馆2",
        "usage_note": "概念示意建筑基底，不代表现状建筑或工程结论。",
        "id": "BLDG-042",
        "layer": "BUILDING_FOOTPRINT",
        "area_sqm_declared": 6210.178
      },
      "geometry": {
        "type": "Polygon",
        "coordinates": [
          [
            [
              116.35158204699383,
              39.99068979769791
            ],
            [
              116.35158204699383,
              39.99136191098627
            ],
            [
              116.35060775866674,
              39.99136191098627
            ],
            [
              116.35060775866674,
              39.99068979769791
            ],
            [
              116.35158204699383,
              39.99068979769791
            ]
          ]
        ]
      }
    },
    {
      "type": "Feature",
      "id": "BLDG-043",
      "properties": {
        "source_type": "agent_generated_design",
        "confidence": "low",
        "geometry_role": "design_proposal",
        "building_type": "mixed_use",
        "name_zh": "大钟寺智能商业体1",
        "usage_note": "概念示意建筑基底，不代表现状建筑或工程结论。",
        "id": "BLDG-043",
        "layer": "BUILDING_FOOTPRINT",
        "area_sqm_declared": 3940.809
      },
      "geometry": {
        "type": "Polygon",
        "coordinates": [
          [
            [
              116.34415163801954,
              39.948623749146535
            ],
            [
              116.34415163801954,
              39.94917891833927
            ],
            [
              116.34340360342289,
              39.94917891833927
            ],
            [
              116.34340360342289,
              39.948623749146535
            ],
            [
              116.34415163801954,
              39.948623749146535
            ]
          ]
        ]
      }
    },
    {
      "type": "Feature",
      "id": "BLDG-044",
      "properties": {
        "source_type": "agent_generated_design",
        "confidence": "low",
        "geometry_role": "design_proposal",
        "building_type": "mixed_use",
        "name_zh": "大钟寺智能商业体2",
        "usage_note": "概念示意建筑基底，不代表现状建筑或工程结论。",
        "id": "BLDG-044",
        "layer": "BUILDING_FOOTPRINT",
        "area_sqm_declared": 3519.322
      },
      "geometry": {
        "type": "Polygon",
        "coordinates": [
          [
            [
              116.34401836394767,
              39.94520946779943
            ],
            [
              116.34401836394767,
              39.945674339784446
            ],
            [
              116.34322061587048,
              39.945674339784446
            ],
            [
              116.34322061587048,
              39.94520946779943
            ],
            [
              116.34401836394767,
              39.94520946779943
            ]
          ]
        ]
      }
    },
    {
      "type": "Feature",
      "id": "BLDG-045",
      "properties": {
        "source_type": "agent_generated_design",
        "confidence": "low",
        "geometry_role": "design_proposal",
        "building_type": "mixed_use",
        "name_zh": "大钟寺智能商业体3",
        "usage_note": "概念示意建筑基底，不代表现状建筑或工程结论。",
        "id": "BLDG-045",
        "layer": "BUILDING_FOOTPRINT",
        "area_sqm_declared": 4856.511
      },
      "geometry": {
        "type": "Polygon",
        "coordinates": [
          [
            [
              116.34402731004926,
              39.94578038132259
            ],
            [
              116.34402731004926,
              39.94646739093473
            ],
            [
              116.34328239637912,
              39.94646739093473
            ],
            [
              116.34328239637912,
              39.94578038132259
            ],
            [
              116.34402731004926,
              39.94578038132259
            ]
          ]
        ]
      }
    },
    {
      "type": "Feature",
      "id": "BLDG-046",
      "properties": {
        "source_type": "agent_generated_design",
        "confidence": "low",
        "geometry_role": "design_proposal",
        "building_type": "mixed_use",
        "name_zh": "大钟寺智能商业体4",
        "usage_note": "概念示意建筑基底，不代表现状建筑或工程结论。",
        "id": "BLDG-046",
        "layer": "BUILDING_FOOTPRINT",
        "area_sqm_declared": 3802.699
      },
      "geometry": {
        "type": "Polygon",
        "coordinates": [
          [
            [
              116.34423527739561,
              39.94798978868983
            ],
            [
              116.34423527739561,
              39.948497852351046
            ],
            [
              116.34344654192704,
              39.948497852351046
            ],
            [
              116.34344654192704,
              39.94798978868983
            ],
            [
              116.34423527739561,
              39.94798978868983
            ]
          ]
        ]
      }
    },
    {
      "type": "Feature",
      "id": "BLDG-047",
      "properties": {
        "source_type": "agent_generated_design",
        "confidence": "low",
        "geometry_role": "design_proposal",
        "building_type": "mixed_use",
        "name_zh": "大钟寺智能商业体5",
        "usage_note": "概念示意建筑基底，不代表现状建筑或工程结论。",
        "id": "BLDG-047",
        "layer": "BUILDING_FOOTPRINT",
        "area_sqm_declared": 4046.873
      },
      "geometry": {
        "type": "Polygon",
        "coordinates": [
          [
            [
              116.34351297286007,
              39.94653668126099
            ],
            [
              116.34351297286007,
              39.94707052159523
            ],
            [
              116.34271413851546,
              39.94707052159523
            ],
            [
              116.34271413851546,
              39.94653668126099
            ],
            [
              116.34351297286007,
              39.94653668126099
            ]
          ]
        ]
      }
    },
    {
      "type": "Feature",
      "id": "BLDG-048",
      "properties": {
        "source_type": "agent_generated_design",
        "confidence": "low",
        "geometry_role": "design_proposal",
        "building_type": "mixed_use",
        "name_zh": "大钟寺智能商业体6",
        "usage_note": "概念示意建筑基底，不代表现状建筑或工程结论。",
        "id": "BLDG-048",
        "layer": "BUILDING_FOOTPRINT",
        "area_sqm_declared": 3659.628
      },
      "geometry": {
        "type": "Polygon",
        "coordinates": [
          [
            [
              116.3440507943078,
              39.94472450784209
            ],
            [
              116.3440507943078,
              39.945234263737085
            ],
            [
              116.34329428914236,
              39.945234263737085
            ],
            [
              116.34329428914236,
              39.94472450784209
            ],
            [
              116.3440507943078,
              39.94472450784209
            ]
          ]
        ]
      }
    },
    {
      "type": "Feature",
      "id": "BLDG-049",
      "properties": {
        "source_type": "agent_generated_design",
        "confidence": "low",
        "geometry_role": "design_proposal",
        "building_type": "mixed_use",
        "name_zh": "大钟寺智能商业体7",
        "usage_note": "概念示意建筑基底，不代表现状建筑或工程结论。",
        "id": "BLDG-049",
        "layer": "BUILDING_FOOTPRINT",
        "area_sqm_declared": 4970.62
      },
      "geometry": {
        "type": "Polygon",
        "coordinates": [
          [
            [
              116.34353240486905,
              39.947585070498306
            ],
            [
              116.34353240486905,
              39.94821846463206
            ],
            [
              116.3427054308008,
              39.94821846463206
            ],
            [
              116.3427054308008,
              39.947585070498306
            ],
            [
              116.34353240486905,
              39.947585070498306
            ]
          ]
        ]
      }
    },
    {
      "type": "Feature",
      "id": "BLDG-050",
      "properties": {
        "source_type": "agent_generated_design",
        "confidence": "low",
        "geometry_role": "design_proposal",
        "building_type": "mixed_use",
        "name_zh": "大钟寺智能商业体1",
        "usage_note": "概念示意建筑基底，不代表现状建筑或工程结论。",
        "id": "BLDG-050",
        "layer": "BUILDING_FOOTPRINT",
        "area_sqm_declared": 7793.372
      },
      "geometry": {
        "type": "Polygon",
        "coordinates": [
          [
            [
              116.3515999926349,
              39.94614195590959
            ],
            [
              116.3515999926349,
              39.94687194245122
            ],
            [
              116.35047497833864,
              39.94687194245122
            ],
            [
              116.35047497833864,
              39.94614195590959
            ],
            [
              116.3515999926349,
              39.94614195590959
            ]
          ]
        ]
      }
    },
    {
      "type": "Feature",
      "id": "BLDG-051",
      "properties": {
        "source_type": "agent_generated_design",
        "confidence": "low",
        "geometry_role": "design_proposal",
        "building_type": "mixed_use",
        "name_zh": "大钟寺智能商业体2",
        "usage_note": "概念示意建筑基底，不代表现状建筑或工程结论。",
        "id": "BLDG-051",
        "layer": "BUILDING_FOOTPRINT",
        "area_sqm_declared": 7863.73
      },
      "geometry": {
        "type": "Polygon",
        "coordinates": [
          [
            [
              116.35233036570389,
              39.94708028654871
            ],
            [
              116.35233036570389,
              39.947699055099235
            ],
            [
              116.35099114102252,
              39.947699055099235
            ],
            [
              116.35099114102252,
              39.94708028654871
            ],
            [
              116.35233036570389,
              39.94708028654871
            ]
          ]
        ]
      }
    },
    {
      "type": "Feature",
      "id": "BLDG-052",
      "properties": {
        "source_type": "agent_generated_design",
        "confidence": "low",
        "geometry_role": "design_proposal",
        "building_type": "mixed_use",
        "name_zh": "大钟寺智能商业体3",
        "usage_note": "概念示意建筑基底，不代表现状建筑或工程结论。",
        "id": "BLDG-052",
        "layer": "BUILDING_FOOTPRINT",
        "area_sqm_declared": 5921.726
      },
      "geometry": {
        "type": "Polygon",
        "coordinates": [
          [
            [
              116.35312013793133,
              39.94595401431054
            ],
            [
              116.35312013793133,
              39.946606196241
            ],
            [
              116.35216332772812,
              39.946606196241
            ],
            [
              116.35216332772812,
              39.94595401431054
            ],
            [
              116.35312013793133,
              39.94595401431054
            ]
          ]
        ]
      }
    },
    {
      "type": "Feature",
      "id": "BLDG-053",
      "properties": {
        "source_type": "agent_generated_design",
        "confidence": "low",
        "geometry_role": "design_proposal",
        "building_type": "mixed_use",
        "name_zh": "大钟寺智能商业体4",
        "usage_note": "概念示意建筑基底，不代表现状建筑或工程结论。",
        "id": "BLDG-053",
        "layer": "BUILDING_FOOTPRINT",
        "area_sqm_declared": 5079.499
      },
      "geometry": {
        "type": "Polygon",
        "coordinates": [
          [
            [
              116.35347675539339,
              39.94502457634175
            ],
            [
              116.35347675539339,
              39.94558484838454
            ],
            [
              116.352521406248,
              39.94558484838454
            ],
            [
              116.352521406248,
              39.94502457634175
            ],
            [
              116.35347675539339,
              39.94502457634175
            ]
          ]
        ]
      }
    },
    {
      "type": "Feature",
      "id": "BLDG-054",
      "properties": {
        "source_type": "agent_generated_design",
        "confidence": "low",
        "geometry_role": "design_proposal",
        "building_type": "mixed_use",
        "name_zh": "大钟寺智能商业体5",
        "usage_note": "概念示意建筑基底，不代表现状建筑或工程结论。",
        "id": "BLDG-054",
        "layer": "BUILDING_FOOTPRINT",
        "area_sqm_declared": 5579.088
      },
      "geometry": {
        "type": "Polygon",
        "coordinates": [
          [
            [
              116.35358443434825,
              39.94673328282678
            ],
            [
              116.35358443434825,
              39.94719042751667
            ],
            [
              116.35229837772778,
              39.94719042751667
            ],
            [
              116.35229837772778,
              39.94673328282678
            ],
            [
              116.35358443434825,
              39.94673328282678
            ]
          ]
        ]
      }
    },
    {
      "type": "Feature",
      "id": "BLDG-055",
      "properties": {
        "source_type": "agent_generated_design",
        "confidence": "low",
        "geometry_role": "design_proposal",
        "building_type": "mixed_use",
        "name_zh": "大钟寺智能商业体6",
        "usage_note": "概念示意建筑基底，不代表现状建筑或工程结论。",
        "id": "BLDG-055",
        "layer": "BUILDING_FOOTPRINT",
        "area_sqm_declared": 7050.035
      },
      "geometry": {
        "type": "Polygon",
        "coordinates": [
          [
            [
              116.35130054764348,
              39.948052435314196
            ],
            [
              116.35130054764348,
              39.94881572591342
            ],
            [
              116.35032721596322,
              39.94881572591342
            ],
            [
              116.35032721596322,
              39.948052435314196
            ],
            [
              116.35130054764348,
              39.948052435314196
            ]
          ]
        ]
      }
    },
    {
      "type": "Feature",
      "id": "BLDG-056",
      "properties": {
        "source_type": "agent_generated_design",
        "confidence": "low",
        "geometry_role": "design_proposal",
        "building_type": "mixed_use",
        "name_zh": "大钟寺智能商业体7",
        "usage_note": "概念示意建筑基底，不代表现状建筑或工程结论。",
        "id": "BLDG-056",
        "layer": "BUILDING_FOOTPRINT",
        "area_sqm_declared": 8079.527
      },
      "geometry": {
        "type": "Polygon",
        "coordinates": [
          [
            [
              116.35324895979775,
              39.94827181209795
            ],
            [
              116.35324895979775,
              39.9489144753831
            ],
            [
              116.3519241206495,
              39.9489144753831
            ],
            [
              116.3519241206495,
              39.94827181209795
            ],
            [
              116.35324895979775,
              39.94827181209795
            ]
          ]
        ]
      }
    },
    {
      "type": "Feature",
      "id": "BLDG-057",
      "properties": {
        "source_type": "agent_generated_design",
        "confidence": "low",
        "geometry_role": "design_proposal",
        "building_type": "retail",
        "name_zh": "大钟寺体验商业1",
        "usage_note": "概念示意建筑基底，不代表现状建筑或工程结论。",
        "id": "BLDG-057",
        "layer": "BUILDING_FOOTPRINT",
        "area_sqm_declared": 3127.776
      },
      "geometry": {
        "type": "Polygon",
        "coordinates": [
          [
            [
              116.3435680091435,
              39.94555413807831
            ],
            [
              116.3435680091435,
              39.945980699117115
            ],
            [
              116.34279533484002,
              39.945980699117115
            ],
            [
              116.34279533484002,
              39.94555413807831
            ],
            [
              116.3435680091435,
              39.94555413807831
            ]
          ]
        ]
      }
    },
    {
      "type": "Feature",
      "id": "BLDG-058",
      "properties": {
        "source_type": "agent_generated_design",
        "confidence": "low",
        "geometry_role": "design_proposal",
        "building_type": "retail",
        "name_zh": "大钟寺体验商业2",
        "usage_note": "概念示意建筑基底，不代表现状建筑或工程结论。",
        "id": "BLDG-058",
        "layer": "BUILDING_FOOTPRINT",
        "area_sqm_declared": 2479.149
      },
      "geometry": {
        "type": "Polygon",
        "coordinates": [
          [
            [
              116.34445208018079,
              39.946068977701266
            ],
            [
              116.34445208018079,
              39.94644868384457
            ],
            [
              116.34376406155499,
              39.94644868384457
            ],
            [
              116.34376406155499,
              39.946068977701266
            ],
            [
              116.34445208018079,
              39.946068977701266
            ]
          ]
        ]
      }
    },
    {
      "type": "Feature",
      "id": "BLDG-059",
      "properties": {
        "source_type": "agent_generated_design",
        "confidence": "low",
        "geometry_role": "design_proposal",
        "building_type": "retail",
        "name_zh": "大钟寺体验商业1",
        "usage_note": "概念示意建筑基底，不代表现状建筑或工程结论。",
        "id": "BLDG-059",
        "layer": "BUILDING_FOOTPRINT",
        "area_sqm_declared": 2698.224
      },
      "geometry": {
        "type": "Polygon",
        "coordinates": [
          [
            [
              116.35434390071536,
              39.94473624618052
            ],
            [
              116.35434390071536,
              39.94510752592962
            ],
            [
              116.35357810189775,
              39.94510752592962
            ],
            [
              116.35357810189775,
              39.94473624618052
            ],
            [
              116.35434390071536,
              39.94473624618052
            ]
          ]
        ]
      }
    },
    {
      "type": "Feature",
      "id": "BLDG-060",
      "properties": {
        "source_type": "agent_generated_design",
        "confidence": "low",
        "geometry_role": "design_proposal",
        "building_type": "retail",
        "name_zh": "大钟寺体验商业2",
        "usage_note": "概念示意建筑基底，不代表现状建筑或工程结论。",
        "id": "BLDG-060",
        "layer": "BUILDING_FOOTPRINT",
        "area_sqm_declared": 4179.917
      },
      "geometry": {
        "type": "Polygon",
        "coordinates": [
          [
            [
              116.35140074948967,
              39.94645676841924
            ],
            [
              116.35140074948967,
              39.946919158568036
            ],
            [
              116.35044815582333,
              39.946919158568036
            ],
            [
              116.35044815582333,
              39.94645676841924
            ],
            [
              116.35140074948967,
              39.94645676841924
            ]
          ]
        ]
      }
    },
    {
      "type": "Feature",
      "id": "BLDG-061",
      "properties": {
        "source_type": "agent_generated_design",
        "confidence": "low",
        "geometry_role": "design_proposal",
        "building_type": "education",
        "name_zh": "学院路教育科研配套1",
        "usage_note": "概念示意建筑基底，不代表现状建筑或工程结论。",
        "id": "BLDG-061",
        "layer": "BUILDING_FOOTPRINT",
        "area_sqm_declared": 6134.241
      },
      "geometry": {
        "type": "Polygon",
        "coordinates": [
          [
            [
              116.35363945614148,
              39.972454721307194
            ],
            [
              116.35363945614148,
              39.97315928454464
            ],
            [
              116.35272164568016,
              39.97315928454464
            ],
            [
              116.35272164568016,
              39.972454721307194
            ],
            [
              116.35363945614148,
              39.972454721307194
            ]
          ]
        ]
      }
    },
    {
      "type": "Feature",
      "id": "BLDG-062",
      "properties": {
        "source_type": "agent_generated_design",
        "confidence": "low",
        "geometry_role": "design_proposal",
        "building_type": "education",
        "name_zh": "学院路教育科研配套2",
        "usage_note": "概念示意建筑基底，不代表现状建筑或工程结论。",
        "id": "BLDG-062",
        "layer": "BUILDING_FOOTPRINT",
        "area_sqm_declared": 5487.557
      },
      "geometry": {
        "type": "Polygon",
        "coordinates": [
          [
            [
              116.35396478966575,
              39.97082494700316
            ],
            [
              116.35396478966575,
              39.97133266534545
            ],
            [
              116.35282543858563,
              39.97133266534545
            ],
            [
              116.35282543858563,
              39.97082494700316
            ],
            [
              116.35396478966575,
              39.97082494700316
            ]
          ]
        ]
      }
    },
    {
      "type": "Feature",
      "id": "BLDG-063",
      "properties": {
        "source_type": "agent_generated_design",
        "confidence": "low",
        "geometry_role": "design_proposal",
        "building_type": "education",
        "name_zh": "学院路教育科研配套3",
        "usage_note": "概念示意建筑基底，不代表现状建筑或工程结论。",
        "id": "BLDG-063",
        "layer": "BUILDING_FOOTPRINT",
        "area_sqm_declared": 4652.285
      },
      "geometry": {
        "type": "Polygon",
        "coordinates": [
          [
            [
              116.35334104174314,
              39.96748569181332
            ],
            [
              116.35334104174314,
              39.96800232126891
            ],
            [
              116.35239182030557,
              39.96800232126891
            ],
            [
              116.35239182030557,
              39.96748569181332
            ],
            [
              116.35334104174314,
              39.96748569181332
            ]
          ]
        ]
      }
    },
    {
      "type": "Feature",
      "id": "BLDG-064",
      "properties": {
        "source_type": "agent_generated_design",
        "confidence": "low",
        "geometry_role": "design_proposal",
        "building_type": "education",
        "name_zh": "学院路教育科研配套4",
        "usage_note": "概念示意建筑基底，不代表现状建筑或工程结论。",
        "id": "BLDG-064",
        "layer": "BUILDING_FOOTPRINT",
        "area_sqm_declared": 5591.222
      },
      "geometry": {
        "type": "Polygon",
        "coordinates": [
          [
            [
              116.35329103817928,
              39.969495297212404
            ],
            [
              116.35329103817928,
              39.970010966452975
            ],
            [
              116.35214808482878,
              39.970010966452975
            ],
            [
              116.35214808482878,
              39.969495297212404
            ],
            [
              116.35329103817928,
              39.969495297212404
            ]
          ]
        ]
      }
    },
    {
      "type": "Feature",
      "id": "BLDG-065",
      "properties": {
        "source_type": "agent_generated_design",
        "confidence": "low",
        "geometry_role": "design_proposal",
        "building_type": "cultural",
        "name_zh": "清华园车站旧址活化节点",
        "usage_note": "概念示意建筑基底，不代表现状建筑或工程结论。",
        "id": "BLDG-065",
        "layer": "BUILDING_FOOTPRINT",
        "area_sqm_declared": 9104.208
      },
      "geometry": {
        "type": "Polygon",
        "coordinates": [
          [
            [
              116.3472,
              39.9912
            ],
            [
              116.3472,
              39.992
            ],
            [
              116.346,
              39.992
            ],
            [
              116.346,
              39.9912
            ],
            [
              116.3472,
              39.9912
            ]
          ]
        ]
      }
    }
  ]
}