{
  "type": "FeatureCollection",
  "metadata": {
    "layer": "GREEN_SPACE",
    "status": "conceptual_design",
    "notes": "概念性绿地与蓝绿公共空间方案"
  },
  "features": [
    {
      "type": "Feature",
      "id": "GS-001",
      "properties": {
        "id": "GS-001",
        "name_zh": "京张铁路遗址绿带",
        "type": "linear_park",
        "design_concept": "以百年京张铁路为文化主线的线性公园，贯通南北，承载历史记忆与AI叙事",
        "area_sqm": 180000,
        "layer": "green_space",
        "source_type": "agent_inferred_from_public_data",
        "confidence": "medium",
        "geometry_role": "design_proposal"
      },
      "geometry": {
        "type": "Polygon",
        "coordinates": [
          [
            [
              116.347,
              39.944
            ],
            [
              116.349,
              39.944
            ],
            [
              116.349,
              40.026
            ],
            [
              116.347,
              40.026
            ],
            [
              116.347,
              39.944
            ]
          ]
        ]
      }
    },
    {
      "type": "Feature",
      "id": "GS-002",
      "properties": {
        "id": "GS-002",
        "name_zh": "小月河滨水绿廊",
        "type": "waterfront_park",
        "design_concept": "小月河沿岸AI场景体验绿廊，承载AI+生活体验",
        "area_sqm": 120000,
        "layer": "green_space",
        "source_type": "agent_inferred_from_public_data",
        "confidence": "medium",
        "geometry_role": "design_proposal"
      },
      "geometry": {
        "type": "Polygon",
        "coordinates": [
          [
            [
              116.3415,
              39.99
            ],
            [
              116.345,
              39.99
            ],
            [
              116.345,
              39.9975
            ],
            [
              116.3415,
              39.9975
            ],
            [
              116.3415,
              39.99
            ]
          ]
        ]
      }
    },
    {
      "type": "Feature",
      "id": "GS-003",
      "properties": {
        "id": "GS-003",
        "name_zh": "AI原点社区中央公园",
        "type": "community_park",
        "design_concept": "北京AI原点社区核心绿地，AI朝圣地标节点",
        "area_sqm": 85000,
        "layer": "green_space",
        "source_type": "agent_inferred_from_public_data",
        "confidence": "medium",
        "geometry_role": "design_proposal"
      },
      "geometry": {
        "type": "Polygon",
        "coordinates": [
          [
            [
              116.3455,
              39.987
            ],
            [
              116.3505,
              39.987
            ],
            [
              116.3505,
              39.991
            ],
            [
              116.3455,
              39.991
            ],
            [
              116.3455,
              39.987
            ]
          ]
        ]
      }
    }
  ]
}