{
  "type": "FeatureCollection",
  "name": "land_use_conceptual",
  "features": [
    {
      "type": "Feature",
      "id": "LU-001",
      "properties": {
        "id": "LU-001",
        "layer": "LAND_USE",
        "source_type": "agent_generated_design",
        "confidence": "medium",
        "geometry_role": "design_proposal",
        "land_use_code": "0701",
        "label_zh": "城镇住宅用地",
        "label_en": "Urban residential",
        "zone_role": "supporting_fabric",
        "phase_hint": "P3",
        "area_sqm_declared": 136160.843
      },
      "geometry": {
        "type": "Polygon",
        "coordinates": [
          [
            [
              116.3407,
              39.939
            ],
            [
              116.3405611,
              39.944
            ],
            [
              116.3435,
              39.944
            ],
            [
              116.3435,
              39.939
            ],
            [
              116.3407,
              39.939
            ]
          ]
        ]
      }
    },
    {
      "type": "Feature",
      "id": "LU-002",
      "properties": {
        "id": "LU-002",
        "layer": "LAND_USE",
        "source_type": "agent_generated_design",
        "confidence": "medium",
        "geometry_role": "design_proposal",
        "land_use_code": "05",
        "label_zh": "商业服务业用地",
        "label_en": "Commercial & services",
        "zone_role": "key_area_core",
        "phase_hint": "P3",
        "area_sqm_declared": 156591.557
      },
      "geometry": {
        "type": "Polygon",
        "coordinates": [
          [
            [
              116.3435,
              39.939
            ],
            [
              116.3435,
              39.944
            ],
            [
              116.3468,
              39.944
            ],
            [
              116.3468,
              39.939
            ],
            [
              116.3435,
              39.939
            ]
          ]
        ]
      }
    },
    {
      "type": "Feature",
      "id": "LU-003",
      "properties": {
        "id": "LU-003",
        "layer": "LAND_USE",
        "source_type": "agent_generated_design",
        "confidence": "medium",
        "geometry_role": "design_proposal",
        "land_use_code": "05",
        "label_zh": "商业服务业用地",
        "label_en": "Commercial & services",
        "zone_role": "key_area_core",
        "phase_hint": "P3",
        "area_sqm_declared": 161336.629
      },
      "geometry": {
        "type": "Polygon",
        "coordinates": [
          [
            [
              116.3468,
              39.939
            ],
            [
              116.3468,
              39.944
            ],
            [
              116.3502,
              39.944
            ],
            [
              116.3502,
              39.939
            ],
            [
              116.3468,
              39.939
            ]
          ]
        ]
      }
    },
    {
      "type": "Feature",
      "id": "LU-004",
      "properties": {
        "id": "LU-004",
        "layer": "LAND_USE",
        "source_type": "agent_generated_design",
        "confidence": "medium",
        "geometry_role": "design_proposal",
        "land_use_code": "0701",
        "label_zh": "城镇住宅用地",
        "label_en": "Urban residential",
        "zone_role": "supporting_fabric",
        "phase_hint": "P3",
        "area_sqm_declared": 242004.703
      },
      "geometry": {
        "type": "Polygon",
        "coordinates": [
          [
            [
              116.3502,
              39.939
            ],
            [
              116.3502,
              39.944
            ],
            [
              116.3553,
              39.944
            ],
            [
              116.3553,
              39.939
            ],
            [
              116.3502,
              39.939
            ]
          ]
        ]
      }
    },
    {
      "type": "Feature",
      "id": "LU-005",
      "properties": {
        "id": "LU-005",
        "layer": "LAND_USE",
        "source_type": "agent_generated_design",
        "confidence": "medium",
        "geometry_role": "design_proposal",
        "land_use_code": "0702",
        "label_zh": "城镇社区服务设施用地",
        "label_en": "Community service",
        "zone_role": "supporting_fabric",
        "phase_hint": "P1",
        "area_sqm_declared": 172078.874
      },
      "geometry": {
        "type": "Polygon",
        "coordinates": [
          [
            [
              116.3435,
              39.95
            ],
            [
              116.3435,
              39.944
            ],
            [
              116.3405611,
              39.944
            ],
            [
              116.3403944,
              39.95
            ],
            [
              116.3435,
              39.95
            ]
          ]
        ]
      }
    },
    {
      "type": "Feature",
      "id": "LU-006",
      "properties": {
        "id": "LU-006",
        "layer": "LAND_USE",
        "source_type": "agent_generated_design",
        "confidence": "medium",
        "geometry_role": "design_proposal",
        "land_use_code": "05",
        "label_zh": "商业服务业用地",
        "label_en": "Commercial & services",
        "zone_role": "key_area_core",
        "phase_hint": "P1",
        "area_sqm_declared": 187894.999
      },
      "geometry": {
        "type": "Polygon",
        "coordinates": [
          [
            [
              116.3435,
              39.95
            ],
            [
              116.3468,
              39.95
            ],
            [
              116.3468,
              39.944
            ],
            [
              116.3435,
              39.944
            ],
            [
              116.3435,
              39.95
            ]
          ]
        ]
      }
    },
    {
      "type": "Feature",
      "id": "LU-007",
      "properties": {
        "id": "LU-007",
        "layer": "LAND_USE",
        "source_type": "agent_generated_design",
        "confidence": "medium",
        "geometry_role": "design_proposal",
        "land_use_code": "05",
        "label_zh": "商业服务业用地",
        "label_en": "Commercial & services",
        "zone_role": "key_area_core",
        "phase_hint": "P1",
        "area_sqm_declared": 193588.634
      },
      "geometry": {
        "type": "Polygon",
        "coordinates": [
          [
            [
              116.3468,
              39.95
            ],
            [
              116.3502,
              39.95
            ],
            [
              116.3502,
              39.944
            ],
            [
              116.3468,
              39.944
            ],
            [
              116.3468,
              39.95
            ]
          ]
        ]
      }
    },
    {
      "type": "Feature",
      "id": "LU-008",
      "properties": {
        "id": "LU-008",
        "layer": "LAND_USE",
        "source_type": "agent_generated_design",
        "confidence": "medium",
        "geometry_role": "design_proposal",
        "land_use_code": "05",
        "label_zh": "商业服务业用地",
        "label_en": "Commercial & services",
        "zone_role": "supporting_fabric",
        "phase_hint": "P1",
        "area_sqm_declared": 290382.664
      },
      "geometry": {
        "type": "Polygon",
        "coordinates": [
          [
            [
              116.3502,
              39.944
            ],
            [
              116.3502,
              39.95
            ],
            [
              116.3553,
              39.95
            ],
            [
              116.3553,
              39.944
            ],
            [
              116.3502,
              39.944
            ]
          ]
        ]
      }
    },
    {
      "type": "Feature",
      "id": "LU-009",
      "properties": {
        "id": "LU-009",
        "layer": "LAND_USE",
        "source_type": "agent_generated_design",
        "confidence": "medium",
        "geometry_role": "design_proposal",
        "land_use_code": "0701",
        "label_zh": "城镇住宅用地",
        "label_en": "Urban residential",
        "zone_role": "supporting_fabric",
        "phase_hint": "P3",
        "area_sqm_declared": 244175.379
      },
      "geometry": {
        "type": "Polygon",
        "coordinates": [
          [
            [
              116.3435,
              39.958
            ],
            [
              116.3435,
              39.95
            ],
            [
              116.3403944,
              39.95
            ],
            [
              116.3401722,
              39.958
            ],
            [
              116.3435,
              39.958
            ]
          ]
        ]
      }
    },
    {
      "type": "Feature",
      "id": "LU-010",
      "properties": {
        "id": "LU-010",
        "layer": "LAND_USE",
        "source_type": "agent_generated_design",
        "confidence": "medium",
        "geometry_role": "design_proposal",
        "land_use_code": "1401",
        "label_zh": "公园绿地",
        "label_en": "Park & green",
        "zone_role": "jingzhang_heritage_belt",
        "phase_hint": "P3",
        "area_sqm_declared": 250501.429
      },
      "geometry": {
        "type": "Polygon",
        "coordinates": [
          [
            [
              116.3435,
              39.958
            ],
            [
              116.3468,
              39.958
            ],
            [
              116.3468,
              39.95
            ],
            [
              116.3435,
              39.95
            ],
            [
              116.3435,
              39.958
            ]
          ]
        ]
      }
    },
    {
      "type": "Feature",
      "id": "LU-011",
      "properties": {
        "id": "LU-011",
        "layer": "LAND_USE",
        "source_type": "agent_generated_design",
        "confidence": "medium",
        "geometry_role": "design_proposal",
        "land_use_code": "1403",
        "label_zh": "广场用地",
        "label_en": "Public square",
        "zone_role": "supporting_fabric",
        "phase_hint": "P3",
        "area_sqm_declared": 258092.178
      },
      "geometry": {
        "type": "Polygon",
        "coordinates": [
          [
            [
              116.3468,
              39.958
            ],
            [
              116.3502,
              39.958
            ],
            [
              116.3502,
              39.95
            ],
            [
              116.3468,
              39.95
            ],
            [
              116.3468,
              39.958
            ]
          ]
        ]
      }
    },
    {
      "type": "Feature",
      "id": "LU-012",
      "properties": {
        "id": "LU-012",
        "layer": "LAND_USE",
        "source_type": "agent_generated_design",
        "confidence": "medium",
        "geometry_role": "design_proposal",
        "land_use_code": "0804",
        "label_zh": "教育用地",
        "label_en": "Education",
        "zone_role": "supporting_fabric",
        "phase_hint": "P3",
        "area_sqm_declared": 387137.884
      },
      "geometry": {
        "type": "Polygon",
        "coordinates": [
          [
            [
              116.3502,
              39.95
            ],
            [
              116.3502,
              39.958
            ],
            [
              116.3553,
              39.958
            ],
            [
              116.3553,
              39.95
            ],
            [
              116.3502,
              39.95
            ]
          ]
        ]
      }
    },
    {
      "type": "Feature",
      "id": "LU-013",
      "properties": {
        "id": "LU-013",
        "layer": "LAND_USE",
        "source_type": "agent_generated_design",
        "confidence": "medium",
        "geometry_role": "design_proposal",
        "land_use_code": "0701",
        "label_zh": "城镇住宅用地",
        "label_en": "Urban residential",
        "zone_role": "supporting_fabric",
        "phase_hint": "P1",
        "area_sqm_declared": 397833.889
      },
      "geometry": {
        "type": "Polygon",
        "coordinates": [
          [
            [
              116.3435,
              39.97
            ],
            [
              116.3435,
              39.958
            ],
            [
              116.3401722,
              39.958
            ],
            [
              116.3398389,
              39.97
            ],
            [
              116.3435,
              39.97
            ]
          ]
        ]
      }
    },
    {
      "type": "Feature",
      "id": "LU-014",
      "properties": {
        "id": "LU-014",
        "layer": "LAND_USE",
        "source_type": "agent_generated_design",
        "confidence": "medium",
        "geometry_role": "design_proposal",
        "land_use_code": "1401",
        "label_zh": "公园绿地",
        "label_en": "Park & green",
        "zone_role": "jingzhang_heritage_belt",
        "phase_hint": "P1",
        "area_sqm_declared": 375698.055
      },
      "geometry": {
        "type": "Polygon",
        "coordinates": [
          [
            [
              116.3435,
              39.97
            ],
            [
              116.3468,
              39.97
            ],
            [
              116.3468,
              39.958
            ],
            [
              116.3435,
              39.958
            ],
            [
              116.3435,
              39.97
            ]
          ]
        ]
      }
    },
    {
      "type": "Feature",
      "id": "LU-015",
      "properties": {
        "id": "LU-015",
        "layer": "LAND_USE",
        "source_type": "agent_generated_design",
        "confidence": "medium",
        "geometry_role": "design_proposal",
        "land_use_code": "1401",
        "label_zh": "公园绿地",
        "label_en": "Park & green",
        "zone_role": "supporting_fabric",
        "phase_hint": "P1",
        "area_sqm_declared": 387082.541
      },
      "geometry": {
        "type": "Polygon",
        "coordinates": [
          [
            [
              116.3468,
              39.97
            ],
            [
              116.3502,
              39.97
            ],
            [
              116.3502,
              39.958
            ],
            [
              116.3468,
              39.958
            ],
            [
              116.3468,
              39.97
            ]
          ]
        ]
      }
    },
    {
      "type": "Feature",
      "id": "LU-016",
      "properties": {
        "id": "LU-016",
        "layer": "LAND_USE",
        "source_type": "agent_generated_design",
        "confidence": "medium",
        "geometry_role": "design_proposal",
        "land_use_code": "0802",
        "label_zh": "科研用地",
        "label_en": "Science & research",
        "zone_role": "supporting_fabric",
        "phase_hint": "P1",
        "area_sqm_declared": 571136.365
      },
      "geometry": {
        "type": "Polygon",
        "coordinates": [
          [
            [
              116.3502,
              39.958
            ],
            [
              116.3502,
              39.97
            ],
            [
              116.3549,
              39.97
            ],
            [
              116.3553,
              39.965
            ],
            [
              116.3553,
              39.958
            ],
            [
              116.3502,
              39.958
            ]
          ]
        ]
      }
    },
    {
      "type": "Feature",
      "id": "LU-017",
      "properties": {
        "id": "LU-017",
        "layer": "LAND_USE",
        "source_type": "agent_generated_design",
        "confidence": "medium",
        "geometry_role": "design_proposal",
        "land_use_code": "0701",
        "label_zh": "城镇住宅用地",
        "label_en": "Urban residential",
        "zone_role": "supporting_fabric",
        "phase_hint": "P2",
        "area_sqm_declared": 461211.656
      },
      "geometry": {
        "type": "Polygon",
        "coordinates": [
          [
            [
              116.3435,
              39.9835
            ],
            [
              116.3435,
              39.97
            ],
            [
              116.3398389,
              39.97
            ],
            [
              116.3397,
              39.975
            ],
            [
              116.3402484,
              39.9835
            ],
            [
              116.3435,
              39.9835
            ]
          ]
        ]
      }
    },
    {
      "type": "Feature",
      "id": "LU-018",
      "properties": {
        "id": "LU-018",
        "layer": "LAND_USE",
        "source_type": "agent_generated_design",
        "confidence": "medium",
        "geometry_role": "design_proposal",
        "land_use_code": "1401",
        "label_zh": "公园绿地",
        "label_en": "Park & green",
        "zone_role": "jingzhang_heritage_belt",
        "phase_hint": "P2",
        "area_sqm_declared": 422582.712
      },
      "geometry": {
        "type": "Polygon",
        "coordinates": [
          [
            [
              116.3435,
              39.9835
            ],
            [
              116.3468,
              39.9835
            ],
            [
              116.3468,
              39.97
            ],
            [
              116.3435,
              39.97
            ],
            [
              116.3435,
              39.9835
            ]
          ]
        ]
      }
    },
    {
      "type": "Feature",
      "id": "LU-019",
      "properties": {
        "id": "LU-019",
        "layer": "LAND_USE",
        "source_type": "agent_generated_design",
        "confidence": "medium",
        "geometry_role": "design_proposal",
        "land_use_code": "0802",
        "label_zh": "科研用地",
        "label_en": "Science & research",
        "zone_role": "supporting_fabric",
        "phase_hint": "P2",
        "area_sqm_declared": 435387.906
      },
      "geometry": {
        "type": "Polygon",
        "coordinates": [
          [
            [
              116.3468,
              39.9835
            ],
            [
              116.3502,
              39.9835
            ],
            [
              116.3502,
              39.97
            ],
            [
              116.3468,
              39.97
            ],
            [
              116.3468,
              39.9835
            ]
          ]
        ]
      }
    },
    {
      "type": "Feature",
      "id": "LU-020",
      "properties": {
        "id": "LU-020",
        "layer": "LAND_USE",
        "source_type": "agent_generated_design",
        "confidence": "medium",
        "geometry_role": "design_proposal",
        "land_use_code": "0802",
        "label_zh": "科研用地",
        "label_en": "Science & research",
        "zone_role": "supporting_fabric",
        "phase_hint": "P2",
        "area_sqm_declared": 532715.867
      },
      "geometry": {
        "type": "Polygon",
        "coordinates": [
          [
            [
              116.3502,
              39.97
            ],
            [
              116.3502,
              39.9835
            ],
            [
              116.35382,
              39.9835
            ],
            [
              116.3549,
              39.97
            ],
            [
              116.3502,
              39.97
            ]
          ]
        ]
      }
    },
    {
      "type": "Feature",
      "id": "LU-021",
      "properties": {
        "id": "LU-021",
        "layer": "LAND_USE",
        "source_type": "agent_generated_design",
        "confidence": "medium",
        "geometry_role": "design_proposal",
        "land_use_code": "0802",
        "label_zh": "科研用地",
        "label_en": "Science & research",
        "zone_role": "supporting_fabric",
        "phase_hint": "P1",
        "area_sqm_declared": 290073.663
      },
      "geometry": {
        "type": "Polygon",
        "coordinates": [
          [
            [
              116.3435,
              39.994
            ],
            [
              116.3435,
              39.9835
            ],
            [
              116.3402484,
              39.9835
            ],
            [
              116.3409258,
              39.994
            ],
            [
              116.3435,
              39.994
            ]
          ]
        ]
      }
    },
    {
      "type": "Feature",
      "id": "LU-022",
      "properties": {
        "id": "LU-022",
        "layer": "LAND_USE",
        "source_type": "agent_generated_design",
        "confidence": "medium",
        "geometry_role": "design_proposal",
        "land_use_code": "0803",
        "label_zh": "文化用地",
        "label_en": "Cultural",
        "zone_role": "key_area_core",
        "phase_hint": "P1",
        "area_sqm_declared": 328618.623
      },
      "geometry": {
        "type": "Polygon",
        "coordinates": [
          [
            [
              116.3435,
              39.994
            ],
            [
              116.3468,
              39.994
            ],
            [
              116.3468,
              39.9835
            ],
            [
              116.3435,
              39.9835
            ],
            [
              116.3435,
              39.994
            ]
          ]
        ]
      }
    },
    {
      "type": "Feature",
      "id": "LU-023",
      "properties": {
        "id": "LU-023",
        "layer": "LAND_USE",
        "source_type": "agent_generated_design",
        "confidence": "medium",
        "geometry_role": "design_proposal",
        "land_use_code": "0702",
        "label_zh": "城镇社区服务设施用地",
        "label_en": "Community service",
        "zone_role": "key_area_core",
        "phase_hint": "P1",
        "area_sqm_declared": 338576.497
      },
      "geometry": {
        "type": "Polygon",
        "coordinates": [
          [
            [
              116.3468,
              39.994
            ],
            [
              116.3502,
              39.994
            ],
            [
              116.3502,
              39.9835
            ],
            [
              116.3468,
              39.9835
            ],
            [
              116.3468,
              39.994
            ]
          ]
        ]
      }
    },
    {
      "type": "Feature",
      "id": "LU-024",
      "properties": {
        "id": "LU-024",
        "layer": "LAND_USE",
        "source_type": "agent_generated_design",
        "confidence": "medium",
        "geometry_role": "design_proposal",
        "land_use_code": "0802",
        "label_zh": "科研用地",
        "label_en": "Science & research",
        "zone_role": "supporting_fabric",
        "phase_hint": "P1",
        "area_sqm_declared": 328887.741
      },
      "geometry": {
        "type": "Polygon",
        "coordinates": [
          [
            [
              116.3502,
              39.9835
            ],
            [
              116.3502,
              39.994
            ],
            [
              116.3535192,
              39.994
            ],
            [
              116.3533,
              39.99
            ],
            [
              116.35382,
              39.9835
            ],
            [
              116.3502,
              39.9835
            ]
          ]
        ]
      }
    },
    {
      "type": "Feature",
      "id": "LU-025",
      "properties": {
        "id": "LU-025",
        "layer": "LAND_USE",
        "source_type": "agent_generated_design",
        "confidence": "medium",
        "geometry_role": "design_proposal",
        "land_use_code": "0804",
        "label_zh": "教育用地",
        "label_en": "Education",
        "zone_role": "supporting_fabric",
        "phase_hint": "P2",
        "area_sqm_declared": 273951.005
      },
      "geometry": {
        "type": "Polygon",
        "coordinates": [
          [
            [
              116.3435,
              40.0075
            ],
            [
              116.3435,
              39.994
            ],
            [
              116.3409258,
              39.994
            ],
            [
              116.3417,
              40.006
            ],
            [
              116.3417732,
              40.0075
            ],
            [
              116.3435,
              40.0075
            ]
          ]
        ]
      }
    },
    {
      "type": "Feature",
      "id": "LU-026",
      "properties": {
        "id": "LU-026",
        "layer": "LAND_USE",
        "source_type": "agent_generated_design",
        "confidence": "medium",
        "geometry_role": "design_proposal",
        "land_use_code": "1401",
        "label_zh": "公园绿地",
        "label_en": "Park & green",
        "zone_role": "jingzhang_heritage_belt",
        "phase_hint": "P2",
        "area_sqm_declared": 422436.584
      },
      "geometry": {
        "type": "Polygon",
        "coordinates": [
          [
            [
              116.3435,
              40.0075
            ],
            [
              116.3468,
              40.0075
            ],
            [
              116.3468,
              39.994
            ],
            [
              116.3435,
              39.994
            ],
            [
              116.3435,
              40.0075
            ]
          ]
        ]
      }
    },
    {
      "type": "Feature",
      "id": "LU-027",
      "properties": {
        "id": "LU-027",
        "layer": "LAND_USE",
        "source_type": "agent_generated_design",
        "confidence": "medium",
        "geometry_role": "design_proposal",
        "land_use_code": "0802",
        "label_zh": "科研用地",
        "label_en": "Science & research",
        "zone_role": "supporting_fabric",
        "phase_hint": "P2",
        "area_sqm_declared": 435237.35
      },
      "geometry": {
        "type": "Polygon",
        "coordinates": [
          [
            [
              116.3468,
              40.0075
            ],
            [
              116.3502,
              40.0075
            ],
            [
              116.3502,
              39.994
            ],
            [
              116.3468,
              39.994
            ],
            [
              116.3468,
              40.0075
            ]
          ]
        ]
      }
    },
    {
      "type": "Feature",
      "id": "LU-028",
      "properties": {
        "id": "LU-028",
        "layer": "LAND_USE",
        "source_type": "agent_generated_design",
        "confidence": "medium",
        "geometry_role": "design_proposal",
        "land_use_code": "0701",
        "label_zh": "城镇住宅用地",
        "label_en": "Urban residential",
        "zone_role": "supporting_fabric",
        "phase_hint": "P2",
        "area_sqm_declared": 472232.937
      },
      "geometry": {
        "type": "Polygon",
        "coordinates": [
          [
            [
              116.3502,
              39.994
            ],
            [
              116.3502,
              40.0075
            ],
            [
              116.3542589,
              40.0075
            ],
            [
              116.3535192,
              39.994
            ],
            [
              116.3502,
              39.994
            ]
          ]
        ]
      }
    },
    {
      "type": "Feature",
      "id": "LU-029",
      "properties": {
        "id": "LU-029",
        "layer": "LAND_USE",
        "source_type": "agent_generated_design",
        "confidence": "medium",
        "geometry_role": "design_proposal",
        "land_use_code": "0802",
        "label_zh": "科研用地",
        "label_en": "Science & research",
        "zone_role": "supporting_fabric",
        "phase_hint": "P2",
        "area_sqm_declared": 227579.853
      },
      "geometry": {
        "type": "Polygon",
        "coordinates": [
          [
            [
              116.3435,
              40.0075
            ],
            [
              116.3417732,
              40.0075
            ],
            [
              116.3427,
              40.0265
            ],
            [
              116.3435,
              40.0265
            ],
            [
              116.3435,
              40.0075
            ]
          ]
        ]
      }
    },
    {
      "type": "Feature",
      "id": "LU-030",
      "properties": {
        "id": "LU-030",
        "layer": "LAND_USE",
        "source_type": "agent_generated_design",
        "confidence": "medium",
        "geometry_role": "design_proposal",
        "land_use_code": "1401",
        "label_zh": "公园绿地",
        "label_en": "Park & green",
        "zone_role": "jingzhang_heritage_belt",
        "phase_hint": "P2",
        "area_sqm_declared": 594401.063
      },
      "geometry": {
        "type": "Polygon",
        "coordinates": [
          [
            [
              116.3468,
              40.0075
            ],
            [
              116.3435,
              40.0075
            ],
            [
              116.3435,
              40.0265
            ],
            [
              116.3468,
              40.0265
            ],
            [
              116.3468,
              40.0075
            ]
          ]
        ]
      }
    },
    {
      "type": "Feature",
      "id": "LU-031",
      "properties": {
        "id": "LU-031",
        "layer": "LAND_USE",
        "source_type": "agent_generated_design",
        "confidence": "medium",
        "geometry_role": "design_proposal",
        "land_use_code": "0802",
        "label_zh": "科研用地",
        "label_en": "Science & research",
        "zone_role": "key_area_core",
        "phase_hint": "P2",
        "area_sqm_declared": 612412.735
      },
      "geometry": {
        "type": "Polygon",
        "coordinates": [
          [
            [
              116.3502,
              40.0075
            ],
            [
              116.3468,
              40.0075
            ],
            [
              116.3468,
              40.0265
            ],
            [
              116.3502,
              40.0265
            ],
            [
              116.3502,
              40.0075
            ]
          ]
        ]
      }
    },
    {
      "type": "Feature",
      "id": "LU-032",
      "properties": {
        "id": "LU-032",
        "layer": "LAND_USE",
        "source_type": "agent_generated_design",
        "confidence": "medium",
        "geometry_role": "design_proposal",
        "land_use_code": "0701",
        "label_zh": "城镇住宅用地",
        "label_en": "Urban residential",
        "zone_role": "supporting_fabric",
        "phase_hint": "P2",
        "area_sqm_declared": 824843.954
      },
      "geometry": {
        "type": "Polygon",
        "coordinates": [
          [
            [
              116.3502,
              40.0075
            ],
            [
              116.3502,
              40.0265
            ],
            [
              116.3553,
              40.0265
            ],
            [
              116.3542589,
              40.0075
            ],
            [
              116.3502,
              40.0075
            ]
          ]
        ]
      }
    }
  ]
}
