{
  "type": "FeatureCollection",
  "name": "chrono_public_rooms",
  "features": [
    {
      "type": "Feature",
      "id": "PUBLIC-001",
      "properties": {
        "id": "PUBLIC-001",
        "layer": "PUBLIC_SPACE",
        "source_type": "agent_generated_design",
        "confidence": "medium",
        "geometry_role": "design_proposal",
        "name_zh": "百年时刻厅",
        "public_space_type": "landmark",
        "narrative_zh": "京张时刻表—城市时间史—AI版本史",
        "open_access_rule_zh": "保留人工与非数字等价通道；活动结束后恢复普通公共使用。",
        "area_sqm_declared": 4172.183
      },
      "geometry": {
        "type": "Polygon",
        "coordinates": [
          [
            [
              116.34787259716167,
              39.94858830238266
            ],
            [
              116.34786720600898,
              39.94855195818344
            ],
            [
              116.3478582784617,
              39.94851631741684
            ],
            [
              116.34784590049696,
              39.94848172332292
            ],
            [
              116.34783019132136,
              39.948448509061734
            ],
            [
              116.34781130222284,
              39.948416994504754
            ],
            [
              116.34778941511374,
              39.948387483154406
            ],
            [
              116.34776474077887,
              39.948360259221126
            ],
            [
              116.34773751684558,
              39.94833558488626
            ],
            [
              116.34770800549524,
              39.94831369777715
            ],
            [
              116.34767649093827,
              39.948294808678625
            ],
            [
              116.34764327667708,
              39.948279099503026
            ],
            [
              116.34760868258316,
              39.9482667215383
            ],
            [
              116.34757304181656,
              39.94825779399102
            ],
            [
              116.34753669761733,
              39.948252402838335
            ],
            [
              116.3475,
              39.9482506
            ],
            [
              116.34746330238266,
              39.948252402838335
            ],
            [
              116.34742695818343,
              39.94825779399102
            ],
            [
              116.34739131741684,
              39.9482667215383
            ],
            [
              116.34735672332292,
              39.948279099503026
            ],
            [
              116.34732350906172,
              39.948294808678625
            ],
            [
              116.34729199450476,
              39.94831369777715
            ],
            [
              116.34726248315441,
              39.94833558488626
            ],
            [
              116.34723525922112,
              39.948360259221126
            ],
            [
              116.34721058488626,
              39.948387483154406
            ],
            [
              116.34718869777716,
              39.948416994504754
            ],
            [
              116.34716980867863,
              39.948448509061734
            ],
            [
              116.34715409950303,
              39.94848172332292
            ],
            [
              116.34714172153829,
              39.94851631741684
            ],
            [
              116.34713279399101,
              39.94855195818344
            ],
            [
              116.34712740283832,
              39.94858830238266
            ],
            [
              116.3471256,
              39.948625
            ],
            [
              116.34712740283832,
              39.94866169761734
            ],
            [
              116.34713279399101,
              39.94869804181656
            ],
            [
              116.34714172153829,
              39.94873368258316
            ],
            [
              116.34715409950303,
              39.94876827667708
            ],
            [
              116.34716980867863,
              39.948801490938266
            ],
            [
              116.34718869777716,
              39.948833005495246
            ],
            [
              116.34721058488626,
              39.948862516845594
            ],
            [
              116.34723525922112,
              39.948889740778874
            ],
            [
              116.34726248315441,
              39.94891441511374
            ],
            [
              116.34729199450476,
              39.94893630222285
            ],
            [
              116.34732350906172,
              39.948955191321375
            ],
            [
              116.34735672332292,
              39.948970900496974
            ],
            [
              116.34739131741684,
              39.9489832784617
            ],
            [
              116.34742695818343,
              39.94899220600898
            ],
            [
              116.34746330238266,
              39.948997597161664
            ],
            [
              116.3475,
              39.9489994
            ],
            [
              116.34753669761733,
              39.948997597161664
            ],
            [
              116.34757304181656,
              39.94899220600898
            ],
            [
              116.34760868258316,
              39.9489832784617
            ],
            [
              116.34764327667708,
              39.948970900496974
            ],
            [
              116.34767649093827,
              39.948955191321375
            ],
            [
              116.34770800549524,
              39.94893630222285
            ],
            [
              116.34773751684558,
              39.94891441511374
            ],
            [
              116.34776474077887,
              39.948889740778874
            ],
            [
              116.34778941511374,
              39.948862516845594
            ],
            [
              116.34781130222284,
              39.948833005495246
            ],
            [
              116.34783019132136,
              39.948801490938266
            ],
            [
              116.34784590049696,
              39.94876827667708
            ],
            [
              116.3478582784617,
              39.94873368258316
            ],
            [
              116.34786720600898,
              39.94869804181656
            ],
            [
              116.34787259716167,
              39.94866169761734
            ],
            [
              116.3478744,
              39.948625
            ],
            [
              116.34787259716167,
              39.94858830238266
            ]
          ]
        ]
      }
    },
    {
      "type": "Feature",
      "id": "PUBLIC-002",
      "properties": {
        "id": "PUBLIC-002",
        "layer": "PUBLIC_SPACE",
        "source_type": "agent_generated_design",
        "confidence": "medium",
        "geometry_role": "design_proposal",
        "name_zh": "共时调度台",
        "public_space_type": "landmark",
        "narrative_zh": "公开显示空间可用时段、责任人和退出条件",
        "open_access_rule_zh": "保留人工与非数字等价通道；活动结束后恢复普通公共使用。",
        "area_sqm_declared": 4171.132
      },
      "geometry": {
        "type": "Polygon",
        "coordinates": [
          [
            [
              116.34756059716167,
              39.96608830238266
            ],
            [
              116.34755520600899,
              39.966051958183435
            ],
            [
              116.3475462784617,
              39.96601631741684
            ],
            [
              116.34753390049697,
              39.96598172332292
            ],
            [
              116.34751819132137,
              39.96594850906173
            ],
            [
              116.34749930222284,
              39.96591699450475
            ],
            [
              116.34747741511374,
              39.965887483154404
            ],
            [
              116.34745274077888,
              39.965860259221124
            ],
            [
              116.34742551684559,
              39.96583558488626
            ],
            [
              116.34739600549524,
              39.96581369777715
            ],
            [
              116.34736449093828,
              39.96579480867862
            ],
            [
              116.34733127667708,
              39.965779099503024
            ],
            [
              116.34729668258316,
              39.9657667215383
            ],
            [
              116.34726104181657,
              39.96575779399102
            ],
            [
              116.34722469761734,
              39.96575240283833
            ],
            [
              116.347188,
              39.9657506
            ],
            [
              116.34715130238267,
              39.96575240283833
            ],
            [
              116.34711495818344,
              39.96575779399102
            ],
            [
              116.34707931741684,
              39.9657667215383
            ],
            [
              116.34704472332292,
              39.965779099503024
            ],
            [
              116.34701150906173,
              39.96579480867862
            ],
            [
              116.34697999450476,
              39.96581369777715
            ],
            [
              116.34695048315442,
              39.96583558488626
            ],
            [
              116.34692325922113,
              39.965860259221124
            ],
            [
              116.34689858488626,
              39.965887483154404
            ],
            [
              116.34687669777716,
              39.96591699450475
            ],
            [
              116.34685780867864,
              39.96594850906173
            ],
            [
              116.34684209950304,
              39.96598172332292
            ],
            [
              116.3468297215383,
              39.96601631741684
            ],
            [
              116.34682079399101,
              39.966051958183435
            ],
            [
              116.34681540283833,
              39.96608830238266
            ],
            [
              116.3468136,
              39.966125
            ],
            [
              116.34681540283833,
              39.96616169761734
            ],
            [
              116.34682079399101,
              39.96619804181656
            ],
            [
              116.3468297215383,
              39.96623368258316
            ],
            [
              116.34684209950304,
              39.96626827667708
            ],
            [
              116.34685780867864,
              39.966301490938264
            ],
            [
              116.34687669777716,
              39.966333005495244
            ],
            [
              116.34689858488626,
              39.96636251684559
            ],
            [
              116.34692325922113,
              39.96638974077887
            ],
            [
              116.34695048315442,
              39.96641441511374
            ],
            [
              116.34697999450476,
              39.966436302222846
            ],
            [
              116.34701150906173,
              39.96645519132137
            ],
            [
              116.34704472332292,
              39.96647090049697
            ],
            [
              116.34707931741684,
              39.966483278461695
            ],
            [
              116.34711495818344,
              39.96649220600898
            ],
            [
              116.34715130238267,
              39.96649759716166
            ],
            [
              116.347188,
              39.9664994
            ],
            [
              116.34722469761734,
              39.96649759716166
            ],
            [
              116.34726104181657,
              39.96649220600898
            ],
            [
              116.34729668258316,
              39.966483278461695
            ],
            [
              116.34733127667708,
              39.96647090049697
            ],
            [
              116.34736449093828,
              39.96645519132137
            ],
            [
              116.34739600549524,
              39.966436302222846
            ],
            [
              116.34742551684559,
              39.96641441511374
            ],
            [
              116.34745274077888,
              39.96638974077887
            ],
            [
              116.34747741511374,
              39.96636251684559
            ],
            [
              116.34749930222284,
              39.966333005495244
            ],
            [
              116.34751819132137,
              39.966301490938264
            ],
            [
              116.34753390049697,
              39.96626827667708
            ],
            [
              116.3475462784617,
              39.96623368258316
            ],
            [
              116.34755520600899,
              39.96619804181656
            ],
            [
              116.34756059716167,
              39.96616169761734
            ],
            [
              116.3475624,
              39.966125
            ],
            [
              116.34756059716167,
              39.96608830238266
            ]
          ]
        ]
      }
    },
    {
      "type": "Feature",
      "id": "PUBLIC-003",
      "properties": {
        "id": "PUBLIC-003",
        "layer": "PUBLIC_SPACE",
        "source_type": "agent_generated_design",
        "confidence": "medium",
        "geometry_role": "design_proposal",
        "name_zh": "原点贡献钟",
        "public_space_type": "honor_node",
        "narrative_zh": "记录开源贡献、失败复盘与人工修正",
        "open_access_rule_zh": "保留人工与非数字等价通道；活动结束后恢复普通公共使用。",
        "area_sqm_declared": 4170.027
      },
      "geometry": {
        "type": "Polygon",
        "coordinates": [
          [
            [
              116.34849659716167,
              39.98446330238266
            ],
            [
              116.34849120600899,
              39.984426958183434
            ],
            [
              116.3484822784617,
              39.984391317416836
            ],
            [
              116.34846990049697,
              39.98435672332292
            ],
            [
              116.34845419132137,
              39.98432350906173
            ],
            [
              116.34843530222284,
              39.98429199450475
            ],
            [
              116.34841341511374,
              39.9842624831544
            ],
            [
              116.34838874077887,
              39.98423525922112
            ],
            [
              116.34836151684559,
              39.984210584886256
            ],
            [
              116.34833200549524,
              39.98418869777715
            ],
            [
              116.34830049093827,
              39.98416980867862
            ],
            [
              116.34826727667708,
              39.98415409950302
            ],
            [
              116.34823268258316,
              39.9841417215383
            ],
            [
              116.34819704181656,
              39.984132793991016
            ],
            [
              116.34816069761733,
              39.98412740283833
            ],
            [
              116.348124,
              39.9841256
            ],
            [
              116.34808730238267,
              39.98412740283833
            ],
            [
              116.34805095818344,
              39.984132793991016
            ],
            [
              116.34801531741684,
              39.9841417215383
            ],
            [
              116.34798072332292,
              39.98415409950302
            ],
            [
              116.34794750906173,
              39.98416980867862
            ],
            [
              116.34791599450476,
              39.98418869777715
            ],
            [
              116.34788648315441,
              39.984210584886256
            ],
            [
              116.34785925922112,
              39.98423525922112
            ],
            [
              116.34783458488626,
              39.9842624831544
            ],
            [
              116.34781269777716,
              39.98429199450475
            ],
            [
              116.34779380867863,
              39.98432350906173
            ],
            [
              116.34777809950303,
              39.98435672332292
            ],
            [
              116.3477657215383,
              39.984391317416836
            ],
            [
              116.34775679399101,
              39.984426958183434
            ],
            [
              116.34775140283833,
              39.98446330238266
            ],
            [
              116.3477496,
              39.9845
            ],
            [
              116.34775140283833,
              39.98453669761734
            ],
            [
              116.34775679399101,
              39.98457304181656
            ],
            [
              116.3477657215383,
              39.98460868258316
            ],
            [
              116.34777809950303,
              39.984643276677076
            ],
            [
              116.34779380867863,
              39.98467649093826
            ],
            [
              116.34781269777716,
              39.98470800549524
            ],
            [
              116.34783458488626,
              39.98473751684559
            ],
            [
              116.34785925922112,
              39.98476474077887
            ],
            [
              116.34788648315441,
              39.98478941511374
            ],
            [
              116.34791599450476,
              39.984811302222845
            ],
            [
              116.34794750906173,
              39.98483019132137
            ],
            [
              116.34798072332292,
              39.98484590049697
            ],
            [
              116.34801531741684,
              39.984858278461694
            ],
            [
              116.34805095818344,
              39.98486720600898
            ],
            [
              116.34808730238267,
              39.98487259716166
            ],
            [
              116.348124,
              39.984874399999995
            ],
            [
              116.34816069761733,
              39.98487259716166
            ],
            [
              116.34819704181656,
              39.98486720600898
            ],
            [
              116.34823268258316,
              39.984858278461694
            ],
            [
              116.34826727667708,
              39.98484590049697
            ],
            [
              116.34830049093827,
              39.98483019132137
            ],
            [
              116.34833200549524,
              39.984811302222845
            ],
            [
              116.34836151684559,
              39.98478941511374
            ],
            [
              116.34838874077887,
              39.98476474077887
            ],
            [
              116.34841341511374,
              39.98473751684559
            ],
            [
              116.34843530222284,
              39.98470800549524
            ],
            [
              116.34845419132137,
              39.98467649093826
            ],
            [
              116.34846990049697,
              39.984643276677076
            ],
            [
              116.3484822784617,
              39.98460868258316
            ],
            [
              116.34849120600899,
              39.98457304181656
            ],
            [
              116.34849659716167,
              39.98453669761734
            ],
            [
              116.3484984,
              39.9845
            ],
            [
              116.34849659716167,
              39.98446330238266
            ]
          ]
        ]
      }
    },
    {
      "type": "Feature",
      "id": "PUBLIC-004",
      "properties": {
        "id": "PUBLIC-004",
        "layer": "PUBLIC_SPACE",
        "source_type": "agent_generated_design",
        "confidence": "medium",
        "geometry_role": "design_proposal",
        "name_zh": "一小时礼物站",
        "public_space_type": "landmark",
        "narrative_zh": "展示技术为居民节省并由居民自主支配的时间",
        "open_access_rule_zh": "保留人工与非数字等价通道；活动结束后恢复普通公共使用。",
        "area_sqm_declared": 4169.081
      },
      "geometry": {
        "type": "Polygon",
        "coordinates": [
          [
            [
              116.34802859716167,
              40.00021330238266
            ],
            [
              116.34802320600899,
              40.00017695818344
            ],
            [
              116.3480142784617,
              40.00014131741684
            ],
            [
              116.34800190049697,
              40.00010672332292
            ],
            [
              116.34798619132137,
              40.000073509061735
            ],
            [
              116.34796730222284,
              40.000041994504755
            ],
            [
              116.34794541511374,
              40.00001248315441
            ],
            [
              116.34792074077887,
              39.99998525922113
            ],
            [
              116.34789351684559,
              39.99996058488626
            ],
            [
              116.34786400549524,
              39.999938697777154
            ],
            [
              116.34783249093827,
              39.99991980867863
            ],
            [
              116.34779927667708,
              39.99990409950303
            ],
            [
              116.34776468258316,
              39.999891721538305
            ],
            [
              116.34772904181656,
              39.99988279399102
            ],
            [
              116.34769269761733,
              39.99987740283834
            ],
            [
              116.347656,
              39.9998756
            ],
            [
              116.34761930238267,
              39.99987740283834
            ],
            [
              116.34758295818344,
              39.99988279399102
            ],
            [
              116.34754731741684,
              39.999891721538305
            ],
            [
              116.34751272332292,
              39.99990409950303
            ],
            [
              116.34747950906173,
              39.99991980867863
            ],
            [
              116.34744799450476,
              39.999938697777154
            ],
            [
              116.34741848315441,
              39.99996058488626
            ],
            [
              116.34739125922113,
              39.99998525922113
            ],
            [
              116.34736658488626,
              40.00001248315441
            ],
            [
              116.34734469777716,
              40.000041994504755
            ],
            [
              116.34732580867863,
              40.000073509061735
            ],
            [
              116.34731009950303,
              40.00010672332292
            ],
            [
              116.3472977215383,
              40.00014131741684
            ],
            [
              116.34728879399101,
              40.00017695818344
            ],
            [
              116.34728340283833,
              40.00021330238266
            ],
            [
              116.3472816,
              40.00025
            ],
            [
              116.34728340283833,
              40.00028669761734
            ],
            [
              116.34728879399101,
              40.000323041816564
            ],
            [
              116.3472977215383,
              40.00035868258316
            ],
            [
              116.34731009950303,
              40.00039327667708
            ],
            [
              116.34732580867863,
              40.00042649093827
            ],
            [
              116.34734469777716,
              40.00045800549525
            ],
            [
              116.34736658488626,
              40.000487516845595
            ],
            [
              116.34739125922113,
              40.000514740778875
            ],
            [
              116.34741848315441,
              40.00053941511374
            ],
            [
              116.34744799450476,
              40.00056130222285
            ],
            [
              116.34747950906173,
              40.000580191321376
            ],
            [
              116.34751272332292,
              40.000595900496975
            ],
            [
              116.34754731741684,
              40.0006082784617
            ],
            [
              116.34758295818344,
              40.00061720600898
            ],
            [
              116.34761930238267,
              40.000622597161666
            ],
            [
              116.347656,
              40.0006244
            ],
            [
              116.34769269761733,
              40.000622597161666
            ],
            [
              116.34772904181656,
              40.00061720600898
            ],
            [
              116.34776468258316,
              40.0006082784617
            ],
            [
              116.34779927667708,
              40.000595900496975
            ],
            [
              116.34783249093827,
              40.000580191321376
            ],
            [
              116.34786400549524,
              40.00056130222285
            ],
            [
              116.34789351684559,
              40.00053941511374
            ],
            [
              116.34792074077887,
              40.000514740778875
            ],
            [
              116.34794541511374,
              40.000487516845595
            ],
            [
              116.34796730222284,
              40.00045800549525
            ],
            [
              116.34798619132137,
              40.00042649093827
            ],
            [
              116.34800190049697,
              40.00039327667708
            ],
            [
              116.3480142784617,
              40.00035868258316
            ],
            [
              116.34802320600899,
              40.000323041816564
            ],
            [
              116.34802859716167,
              40.00028669761734
            ],
            [
              116.3480304,
              40.00025
            ],
            [
              116.34802859716167,
              40.00021330238266
            ]
          ]
        ]
      }
    },
    {
      "type": "Feature",
      "id": "PUBLIC-005",
      "properties": {
        "id": "PUBLIC-005",
        "layer": "PUBLIC_SPACE",
        "source_type": "agent_generated_design",
        "confidence": "medium",
        "geometry_role": "design_proposal",
        "name_zh": "大钟寺昼夜客厅",
        "public_space_type": "public_room",
        "narrative_zh": "通勤、商务、文化与安静时段切换",
        "open_access_rule_zh": "保留人工与非数字等价通道；活动结束后恢复普通公共使用。",
        "area_sqm_declared": 4168.345
      },
      "geometry": {
        "type": "Polygon",
        "coordinates": [
          [
            [
              116.34787259716167,
              40.012463302382656
            ],
            [
              116.34786720600898,
              40.01242695818343
            ],
            [
              116.3478582784617,
              40.012391317416835
            ],
            [
              116.34784590049696,
              40.01235672332292
            ],
            [
              116.34783019132136,
              40.01232350906173
            ],
            [
              116.34781130222284,
              40.01229199450475
            ],
            [
              116.34778941511374,
              40.0122624831544
            ],
            [
              116.34776474077887,
              40.01223525922112
            ],
            [
              116.34773751684558,
              40.012210584886255
            ],
            [
              116.34770800549524,
              40.01218869777715
            ],
            [
              116.34767649093827,
              40.01216980867862
            ],
            [
              116.34764327667708,
              40.01215409950302
            ],
            [
              116.34760868258316,
              40.0121417215383
            ],
            [
              116.34757304181656,
              40.012132793991015
            ],
            [
              116.34753669761733,
              40.01212740283833
            ],
            [
              116.3475,
              40.0121256
            ],
            [
              116.34746330238266,
              40.01212740283833
            ],
            [
              116.34742695818343,
              40.012132793991015
            ],
            [
              116.34739131741684,
              40.0121417215383
            ],
            [
              116.34735672332292,
              40.01215409950302
            ],
            [
              116.34732350906172,
              40.01216980867862
            ],
            [
              116.34729199450476,
              40.01218869777715
            ],
            [
              116.34726248315441,
              40.012210584886255
            ],
            [
              116.34723525922112,
              40.01223525922112
            ],
            [
              116.34721058488626,
              40.0122624831544
            ],
            [
              116.34718869777716,
              40.01229199450475
            ],
            [
              116.34716980867863,
              40.01232350906173
            ],
            [
              116.34715409950303,
              40.01235672332292
            ],
            [
              116.34714172153829,
              40.012391317416835
            ],
            [
              116.34713279399101,
              40.01242695818343
            ],
            [
              116.34712740283832,
              40.012463302382656
            ],
            [
              116.3471256,
              40.012499999999996
            ],
            [
              116.34712740283832,
              40.012536697617335
            ],
            [
              116.34713279399101,
              40.01257304181656
            ],
            [
              116.34714172153829,
              40.012608682583156
            ],
            [
              116.34715409950303,
              40.012643276677075
            ],
            [
              116.34716980867863,
              40.01267649093826
            ],
            [
              116.34718869777716,
              40.01270800549524
            ],
            [
              116.34721058488626,
              40.01273751684559
            ],
            [
              116.34723525922112,
              40.01276474077887
            ],
            [
              116.34726248315441,
              40.01278941511374
            ],
            [
              116.34729199450476,
              40.01281130222284
            ],
            [
              116.34732350906172,
              40.01283019132137
            ],
            [
              116.34735672332292,
              40.01284590049697
            ],
            [
              116.34739131741684,
              40.01285827846169
            ],
            [
              116.34742695818343,
              40.01286720600898
            ],
            [
              116.34746330238266,
              40.01287259716166
            ],
            [
              116.3475,
              40.012874399999994
            ],
            [
              116.34753669761733,
              40.01287259716166
            ],
            [
              116.34757304181656,
              40.01286720600898
            ],
            [
              116.34760868258316,
              40.01285827846169
            ],
            [
              116.34764327667708,
              40.01284590049697
            ],
            [
              116.34767649093827,
              40.01283019132137
            ],
            [
              116.34770800549524,
              40.01281130222284
            ],
            [
              116.34773751684558,
              40.01278941511374
            ],
            [
              116.34776474077887,
              40.01276474077887
            ],
            [
              116.34778941511374,
              40.01273751684559
            ],
            [
              116.34781130222284,
              40.01270800549524
            ],
            [
              116.34783019132136,
              40.01267649093826
            ],
            [
              116.34784590049696,
              40.012643276677075
            ],
            [
              116.3478582784617,
              40.012608682583156
            ],
            [
              116.34786720600898,
              40.01257304181656
            ],
            [
              116.34787259716167,
              40.012536697617335
            ],
            [
              116.3478744,
              40.012499999999996
            ],
            [
              116.34787259716167,
              40.012463302382656
            ]
          ]
        ]
      }
    },
    {
      "type": "Feature",
      "id": "PUBLIC-006",
      "properties": {
        "id": "PUBLIC-006",
        "layer": "PUBLIC_SPACE",
        "source_type": "agent_generated_design",
        "confidence": "medium",
        "geometry_role": "design_proposal",
        "name_zh": "无屏安静庭",
        "public_space_type": "quiet_room",
        "narrative_zh": "不扫码、不识别、不推荐的等价公共空间",
        "open_access_rule_zh": "保留人工与非数字等价通道；活动结束后恢复普通公共使用。",
        "area_sqm_declared": 4167.767
      },
      "geometry": {
        "type": "Polygon",
        "coordinates": [
          [
            [
              116.34771659716166,
              40.022088302382656
            ],
            [
              116.34771120600898,
              40.02205195818343
            ],
            [
              116.3477022784617,
              40.022016317416835
            ],
            [
              116.34768990049696,
              40.02198172332292
            ],
            [
              116.34767419132136,
              40.02194850906173
            ],
            [
              116.34765530222283,
              40.02191699450475
            ],
            [
              116.34763341511373,
              40.0218874831544
            ],
            [
              116.34760874077887,
              40.02186025922112
            ],
            [
              116.34758151684558,
              40.021835584886254
            ],
            [
              116.34755200549523,
              40.02181369777715
            ],
            [
              116.34752049093827,
              40.02179480867862
            ],
            [
              116.34748727667707,
              40.02177909950302
            ],
            [
              116.34745268258315,
              40.0217667215383
            ],
            [
              116.34741704181656,
              40.021757793991014
            ],
            [
              116.34738069761733,
              40.02175240283833
            ],
            [
              116.34734399999999,
              40.0217506
            ],
            [
              116.34730730238266,
              40.02175240283833
            ],
            [
              116.34727095818343,
              40.021757793991014
            ],
            [
              116.34723531741683,
              40.0217667215383
            ],
            [
              116.34720072332291,
              40.02177909950302
            ],
            [
              116.34716750906172,
              40.02179480867862
            ],
            [
              116.34713599450475,
              40.02181369777715
            ],
            [
              116.3471064831544,
              40.021835584886254
            ],
            [
              116.34707925922112,
              40.02186025922112
            ],
            [
              116.34705458488625,
              40.0218874831544
            ],
            [
              116.34703269777715,
              40.02191699450475
            ],
            [
              116.34701380867862,
              40.02194850906173
            ],
            [
              116.34699809950303,
              40.02198172332292
            ],
            [
              116.34698572153829,
              40.022016317416835
            ],
            [
              116.346976793991,
              40.02205195818343
            ],
            [
              116.34697140283832,
              40.022088302382656
            ],
            [
              116.3469696,
              40.022124999999996
            ],
            [
              116.34697140283832,
              40.022161697617335
            ],
            [
              116.346976793991,
              40.02219804181656
            ],
            [
              116.34698572153829,
              40.022233682583156
            ],
            [
              116.34699809950303,
              40.022268276677075
            ],
            [
              116.34701380867862,
              40.02230149093826
            ],
            [
              116.34703269777715,
              40.02233300549524
            ],
            [
              116.34705458488625,
              40.02236251684559
            ],
            [
              116.34707925922112,
              40.02238974077887
            ],
            [
              116.3471064831544,
              40.02241441511374
            ],
            [
              116.34713599450475,
              40.02243630222284
            ],
            [
              116.34716750906172,
              40.02245519132137
            ],
            [
              116.34720072332291,
              40.02247090049697
            ],
            [
              116.34723531741683,
              40.02248327846169
            ],
            [
              116.34727095818343,
              40.02249220600898
            ],
            [
              116.34730730238266,
              40.02249759716166
            ],
            [
              116.34734399999999,
              40.022499399999994
            ],
            [
              116.34738069761733,
              40.02249759716166
            ],
            [
              116.34741704181656,
              40.02249220600898
            ],
            [
              116.34745268258315,
              40.02248327846169
            ],
            [
              116.34748727667707,
              40.02247090049697
            ],
            [
              116.34752049093827,
              40.02245519132137
            ],
            [
              116.34755200549523,
              40.02243630222284
            ],
            [
              116.34758151684558,
              40.02241441511374
            ],
            [
              116.34760874077887,
              40.02238974077887
            ],
            [
              116.34763341511373,
              40.02236251684559
            ],
            [
              116.34765530222283,
              40.02233300549524
            ],
            [
              116.34767419132136,
              40.02230149093826
            ],
            [
              116.34768990049696,
              40.022268276677075
            ],
            [
              116.3477022784617,
              40.022233682583156
            ],
            [
              116.34771120600898,
              40.02219804181656
            ],
            [
              116.34771659716166,
              40.022161697617335
            ],
            [
              116.34771839999999,
              40.022124999999996
            ],
            [
              116.34771659716166,
              40.022088302382656
            ]
          ]
        ]
      }
    }
  ]
}
