{
  "type": "FeatureCollection",
  "name": "public_space",
  "features": [
    {
      "type": "Feature",
      "id": "PUBLIC-001",
      "properties": {
        "id": "PUBLIC-001",
        "layer": "PUBLIC_SPACE",
        "source_type": "agent_generated_design",
        "confidence": "medium",
        "geometry_role": "design_proposal",
        "name_zh": "一带三核公共活动界面",
        "name_en": "One-Belt Three-Core Public Interface",
        "area_sqm_declared": 507523.703
      },
      "geometry": {
        "type": "Polygon",
        "coordinates": [
          [
            [
              116.342196,
              39.96875
            ],
            [
              116.342196,
              39.993249999999996
            ],
            [
              116.34438,
              39.993249999999996
            ],
            [
              116.34438,
              39.96875
            ],
            [
              116.342196,
              39.96875
            ]
          ]
        ]
      }
    },
    {
      "type": "Feature",
      "id": "PUBLIC-002",
      "properties": {
        "id": "PUBLIC-002",
        "layer": "PUBLIC_SPACE",
        "source_type": "agent_generated_design",
        "confidence": "medium",
        "geometry_role": "design_proposal",
        "name_zh": "大钟寺站四象限广场",
        "name_en": "Dazhongsi Station Plaza",
        "area_sqm_declared": 362630.665
      },
      "geometry": {
        "type": "Polygon",
        "coordinates": [
          [
            [
              116.3475,
              39.953
            ],
            [
              116.3475,
              39.96525
            ],
            [
              116.35061999999999,
              39.96525
            ],
            [
              116.35061999999999,
              39.953
            ],
            [
              116.3475,
              39.953
            ]
          ]
        ]
      }
    }
  ]
}
