{
  "type": "FeatureCollection",
  "name": "jingzhang_ren_line_land_use",
  "features": [
    {
      "type": "Feature",
      "id": "LU-DZS-01",
      "properties": {
        "land_use_code": "05",
        "name_zh": "大钟寺智能原生商业街区",
        "design_intent_zh": "智能原生消费、AI体验零售与站前服务",
        "source_id": "DATA-SRC-MNR-LAND-USE-CLASSIFICATION-202311",
        "usage_note": "概念性用地布局建议，非法定控规结论；用地代码采用国土空间用地用海分类指南项目子集。",
        "id": "LU-DZS-01",
        "layer": "LAND_USE",
        "source_type": "agent_generated_design",
        "confidence": "medium",
        "geometry_role": "design_proposal",
        "area_sqm_declared": 725470.082
      },
      "geometry": {
        "type": "Polygon",
        "coordinates": [
          [
            [
              116.3438,
              39.952
            ],
            [
              116.3464,
              39.952
            ],
            [
              116.3464,
              39.939
            ],
            [
              116.3407,
              39.939
            ],
            [
              116.340339,
              39.952
            ],
            [
              116.3438,
              39.952
            ]
          ]
        ]
      }
    },
    {
      "type": "Feature",
      "id": "LU-DZS-02",
      "properties": {
        "land_use_code": "1403",
        "name_zh": "钟鸣广场（大钟寺站前）",
        "design_intent_zh": "大钟寺站前公共空间与AI应用发布场",
        "source_id": "DATA-SRC-MNR-LAND-USE-CLASSIFICATION-202311",
        "usage_note": "概念性用地布局建议，非法定控规结论；用地代码采用国土空间用地用海分类指南项目子集。",
        "id": "LU-DZS-02",
        "layer": "LAND_USE",
        "source_type": "agent_generated_design",
        "confidence": "medium",
        "geometry_role": "design_proposal",
        "area_sqm_declared": 345430.368
      },
      "geometry": {
        "type": "Polygon",
        "coordinates": [
          [
            [
              116.3464,
              39.952
            ],
            [
              116.3492,
              39.952
            ],
            [
              116.3492,
              39.939
            ],
            [
              116.3464,
              39.939
            ],
            [
              116.3464,
              39.952
            ]
          ]
        ]
      }
    },
    {
      "type": "Feature",
      "id": "LU-DZS-03",
      "properties": {
        "land_use_code": "05",
        "name_zh": "智能原生商务与创新办公",
        "design_intent_zh": "AI应用型企业总部与智能原生商务",
        "source_id": "DATA-SRC-MNR-LAND-USE-CLASSIFICATION-202311",
        "usage_note": "概念性用地布局建议，非法定控规结论；用地代码采用国土空间用地用海分类指南项目子集。",
        "id": "LU-DZS-03",
        "layer": "LAND_USE",
        "source_type": "agent_generated_design",
        "confidence": "medium",
        "geometry_role": "design_proposal",
        "area_sqm_declared": 752542.787
      },
      "geometry": {
        "type": "Polygon",
        "coordinates": [
          [
            [
              116.3492,
              39.952
            ],
            [
              116.3522,
              39.952
            ],
            [
              116.3553,
              39.952
            ],
            [
              116.3553,
              39.939
            ],
            [
              116.3492,
              39.939
            ],
            [
              116.3492,
              39.952
            ]
          ]
        ]
      }
    },
    {
      "type": "Feature",
      "id": "LU-NAN-01",
      "properties": {
        "land_use_code": "0701",
        "name_zh": "既有居住社区（南段）",
        "design_intent_zh": "既有居住社区，渐进式更新",
        "source_id": "DATA-SRC-MNR-LAND-USE-CLASSIFICATION-202311",
        "usage_note": "概念性用地布局建议，非法定控规结论；用地代码采用国土空间用地用海分类指南项目子集。",
        "id": "LU-NAN-01",
        "layer": "LAND_USE",
        "source_type": "agent_generated_design",
        "confidence": "medium",
        "geometry_role": "design_proposal",
        "area_sqm_declared": 449179.65
      },
      "geometry": {
        "type": "Polygon",
        "coordinates": [
          [
            [
              116.3438,
              39.965
            ],
            [
              116.3438,
              39.952
            ],
            [
              116.340339,
              39.952
            ],
            [
              116.339978,
              39.965
            ],
            [
              116.3438,
              39.965
            ]
          ]
        ]
      }
    },
    {
      "type": "Feature",
      "id": "LU-NAN-02",
      "properties": {
        "land_use_code": "0802",
        "name_zh": "AI应用研发与测试基地",
        "design_intent_zh": "AI产品测试验证与中试",
        "source_id": "DATA-SRC-MNR-LAND-USE-CLASSIFICATION-202311",
        "usage_note": "概念性用地布局建议，非法定控规结论；用地代码采用国土空间用地用海分类指南项目子集。",
        "id": "LU-NAN-02",
        "layer": "LAND_USE",
        "source_type": "agent_generated_design",
        "confidence": "medium",
        "geometry_role": "design_proposal",
        "area_sqm_declared": 320696.968
      },
      "geometry": {
        "type": "Polygon",
        "coordinates": [
          [
            [
              116.3438,
              39.952
            ],
            [
              116.3438,
              39.965
            ],
            [
              116.3464,
              39.965
            ],
            [
              116.3464,
              39.952
            ],
            [
              116.3438,
              39.952
            ]
          ]
        ]
      }
    },
    {
      "type": "Feature",
      "id": "LU-NAN-03",
      "properties": {
        "land_use_code": "1401",
        "name_zh": "京张遗址公园（南段）",
        "design_intent_zh": "遗址公园绿廊南段",
        "source_id": "DATA-SRC-MNR-LAND-USE-CLASSIFICATION-202311",
        "usage_note": "概念性用地布局建议，非法定控规结论；用地代码采用国土空间用地用海分类指南项目子集。",
        "id": "LU-NAN-03",
        "layer": "LAND_USE",
        "source_type": "agent_generated_design",
        "confidence": "medium",
        "geometry_role": "design_proposal",
        "area_sqm_declared": 345365.747
      },
      "geometry": {
        "type": "Polygon",
        "coordinates": [
          [
            [
              116.3464,
              39.952
            ],
            [
              116.3464,
              39.965
            ],
            [
              116.3492,
              39.965
            ],
            [
              116.3492,
              39.952
            ],
            [
              116.3464,
              39.952
            ]
          ]
        ]
      }
    },
    {
      "type": "Feature",
      "id": "LU-NAN-04",
      "properties": {
        "land_use_code": "05",
        "name_zh": "产业服务与商业配套",
        "design_intent_zh": "面向园区的商业与产业服务",
        "source_id": "DATA-SRC-MNR-LAND-USE-CLASSIFICATION-202311",
        "usage_note": "概念性用地布局建议，非法定控规结论；用地代码采用国土空间用地用海分类指南项目子集。",
        "id": "LU-NAN-04",
        "layer": "LAND_USE",
        "source_type": "agent_generated_design",
        "confidence": "medium",
        "geometry_role": "design_proposal",
        "area_sqm_declared": 370034.477
      },
      "geometry": {
        "type": "Polygon",
        "coordinates": [
          [
            [
              116.3492,
              39.952
            ],
            [
              116.3492,
              39.965
            ],
            [
              116.3522,
              39.965
            ],
            [
              116.3522,
              39.952
            ],
            [
              116.3492,
              39.952
            ]
          ]
        ]
      }
    },
    {
      "type": "Feature",
      "id": "LU-NAN-05",
      "properties": {
        "land_use_code": "0701",
        "name_zh": "既有居住社区（东侧）",
        "design_intent_zh": "既有居住社区，渐进式更新",
        "source_id": "DATA-SRC-MNR-LAND-USE-CLASSIFICATION-202311",
        "usage_note": "概念性用地布局建议，非法定控规结论；用地代码采用国土空间用地用海分类指南项目子集。",
        "id": "LU-NAN-05",
        "layer": "LAND_USE",
        "source_type": "agent_generated_design",
        "confidence": "medium",
        "geometry_role": "design_proposal",
        "area_sqm_declared": 382368.689
      },
      "geometry": {
        "type": "Polygon",
        "coordinates": [
          [
            [
              116.3522,
              39.952
            ],
            [
              116.3522,
              39.965
            ],
            [
              116.3553,
              39.965
            ],
            [
              116.3553,
              39.952
            ],
            [
              116.3522,
              39.952
            ]
          ]
        ]
      }
    },
    {
      "type": "Feature",
      "id": "LU-XYY-01",
      "properties": {
        "land_use_code": "0701",
        "name_zh": "居住社区（小月河南岸）",
        "design_intent_zh": "既有居住社区，渐进式更新",
        "source_id": "DATA-SRC-MNR-LAND-USE-CLASSIFICATION-202311",
        "usage_note": "概念性用地布局建议，非法定控规结论；用地代码采用国土空间用地用海分类指南项目子集。",
        "id": "LU-XYY-01",
        "layer": "LAND_USE",
        "source_type": "agent_generated_design",
        "confidence": "medium",
        "geometry_role": "design_proposal",
        "area_sqm_declared": 414356.089
      },
      "geometry": {
        "type": "Polygon",
        "coordinates": [
          [
            [
              116.3438,
              39.976
            ],
            [
              116.3438,
              39.965
            ],
            [
              116.339978,
              39.965
            ],
            [
              116.3397,
              39.975
            ],
            [
              116.339765,
              39.976
            ],
            [
              116.3438,
              39.976
            ]
          ]
        ]
      }
    },
    {
      "type": "Feature",
      "id": "LU-XYY-02",
      "properties": {
        "land_use_code": "1401",
        "name_zh": "小月河南岸绿道绿地",
        "design_intent_zh": "小月河蓝绿走廊南岸绿带",
        "source_id": "DATA-SRC-MNR-LAND-USE-CLASSIFICATION-202311",
        "usage_note": "概念性用地布局建议，非法定控规结论；用地代码采用国土空间用地用海分类指南项目子集。",
        "id": "LU-XYY-02",
        "layer": "LAND_USE",
        "source_type": "agent_generated_design",
        "confidence": "medium",
        "geometry_role": "design_proposal",
        "area_sqm_declared": 271312.093
      },
      "geometry": {
        "type": "Polygon",
        "coordinates": [
          [
            [
              116.3438,
              39.965
            ],
            [
              116.3438,
              39.976
            ],
            [
              116.3464,
              39.976
            ],
            [
              116.3464,
              39.965
            ],
            [
              116.3438,
              39.965
            ]
          ]
        ]
      }
    },
    {
      "type": "Feature",
      "id": "LU-XYY-03",
      "properties": {
        "land_use_code": "1401",
        "name_zh": "京张遗址公园（中南段）",
        "design_intent_zh": "遗址公园绿廊中南段",
        "source_id": "DATA-SRC-MNR-LAND-USE-CLASSIFICATION-202311",
        "usage_note": "概念性用地布局建议，非法定控规结论；用地代码采用国土空间用地用海分类指南项目子集。",
        "id": "LU-XYY-03",
        "layer": "LAND_USE",
        "source_type": "agent_generated_design",
        "confidence": "medium",
        "geometry_role": "design_proposal",
        "area_sqm_declared": 292182.068
      },
      "geometry": {
        "type": "Polygon",
        "coordinates": [
          [
            [
              116.3464,
              39.965
            ],
            [
              116.3464,
              39.976
            ],
            [
              116.3492,
              39.976
            ],
            [
              116.3492,
              39.965
            ],
            [
              116.3464,
              39.965
            ]
          ]
        ]
      }
    },
    {
      "type": "Feature",
      "id": "LU-XYY-04",
      "properties": {
        "land_use_code": "0802",
        "name_zh": "场景试验场（小月河赋能翼）",
        "design_intent_zh": "小月河场景赋能翼：AI场景测试验证",
        "source_id": "DATA-SRC-MNR-LAND-USE-CLASSIFICATION-202311",
        "usage_note": "概念性用地布局建议，非法定控规结论；用地代码采用国土空间用地用海分类指南项目子集。",
        "id": "LU-XYY-04",
        "layer": "LAND_USE",
        "source_type": "agent_generated_design",
        "confidence": "medium",
        "geometry_role": "design_proposal",
        "area_sqm_declared": 313052.004
      },
      "geometry": {
        "type": "Polygon",
        "coordinates": [
          [
            [
              116.3492,
              39.965
            ],
            [
              116.3492,
              39.976
            ],
            [
              116.3522,
              39.976
            ],
            [
              116.3522,
              39.965
            ],
            [
              116.3492,
              39.965
            ]
          ]
        ]
      }
    },
    {
      "type": "Feature",
      "id": "LU-XYY-05",
      "properties": {
        "land_use_code": "0702",
        "name_zh": "社区服务设施（南）",
        "design_intent_zh": "社区公共服务设施",
        "source_id": "DATA-SRC-MNR-LAND-USE-CLASSIFICATION-202311",
        "usage_note": "概念性用地布局建议，非法定控规结论；用地代码采用国土空间用地用海分类指南项目子集。",
        "id": "LU-XYY-05",
        "layer": "LAND_USE",
        "source_type": "agent_generated_design",
        "confidence": "medium",
        "geometry_role": "design_proposal",
        "area_sqm_declared": 277576.15
      },
      "geometry": {
        "type": "Polygon",
        "coordinates": [
          [
            [
              116.3522,
              39.965
            ],
            [
              116.3522,
              39.976
            ],
            [
              116.35442,
              39.976
            ],
            [
              116.3553,
              39.965
            ],
            [
              116.3522,
              39.965
            ]
          ]
        ]
      }
    },
    {
      "type": "Feature",
      "id": "LU-XYY-06",
      "properties": {
        "land_use_code": "0701",
        "name_zh": "居住社区（小月河北岸）",
        "design_intent_zh": "既有居住社区，渐进式更新",
        "source_id": "DATA-SRC-MNR-LAND-USE-CLASSIFICATION-202311",
        "usage_note": "概念性用地布局建议，非法定控规结论；用地代码采用国土空间用地用海分类指南项目子集。",
        "id": "LU-XYY-06",
        "layer": "LAND_USE",
        "source_type": "agent_generated_design",
        "confidence": "medium",
        "geometry_role": "design_proposal",
        "area_sqm_declared": 269869.473
      },
      "geometry": {
        "type": "Polygon",
        "coordinates": [
          [
            [
              116.3438,
              39.9835
            ],
            [
              116.3438,
              39.976
            ],
            [
              116.339765,
              39.976
            ],
            [
              116.340248,
              39.9835
            ],
            [
              116.3438,
              39.9835
            ]
          ]
        ]
      }
    },
    {
      "type": "Feature",
      "id": "LU-XYY-07",
      "properties": {
        "land_use_code": "0803",
        "name_zh": "京张文化展示廊",
        "design_intent_zh": "京张铁路文化展示与体验设施",
        "source_id": "DATA-SRC-MNR-LAND-USE-CLASSIFICATION-202311",
        "usage_note": "概念性用地布局建议，非法定控规结论；用地代码采用国土空间用地用海分类指南项目子集。",
        "id": "LU-XYY-07",
        "layer": "LAND_USE",
        "source_type": "agent_generated_design",
        "confidence": "medium",
        "geometry_role": "design_proposal",
        "area_sqm_declared": 184960.873
      },
      "geometry": {
        "type": "Polygon",
        "coordinates": [
          [
            [
              116.3438,
              39.976
            ],
            [
              116.3438,
              39.9835
            ],
            [
              116.3464,
              39.9835
            ],
            [
              116.3464,
              39.976
            ],
            [
              116.3438,
              39.976
            ]
          ]
        ]
      }
    },
    {
      "type": "Feature",
      "id": "LU-XYY-08",
      "properties": {
        "land_use_code": "1403",
        "name_zh": "原点广场（清华园站前）",
        "design_intent_zh": "AI原点门户广场与清华园站旧址展示",
        "source_id": "DATA-SRC-MNR-LAND-USE-CLASSIFICATION-202311",
        "usage_note": "概念性用地布局建议，非法定控规结论；用地代码采用国土空间用地用海分类指南项目子集。",
        "id": "LU-XYY-08",
        "layer": "LAND_USE",
        "source_type": "agent_generated_design",
        "confidence": "medium",
        "geometry_role": "design_proposal",
        "area_sqm_declared": 199188.507
      },
      "geometry": {
        "type": "Polygon",
        "coordinates": [
          [
            [
              116.3464,
              39.976
            ],
            [
              116.3464,
              39.9835
            ],
            [
              116.3492,
              39.9835
            ],
            [
              116.3492,
              39.976
            ],
            [
              116.3464,
              39.976
            ]
          ]
        ]
      }
    },
    {
      "type": "Feature",
      "id": "LU-XYY-09",
      "properties": {
        "land_use_code": "0802",
        "name_zh": "AI原点社区西拓区",
        "design_intent_zh": "原点社区孵化与研发",
        "source_id": "DATA-SRC-MNR-LAND-USE-CLASSIFICATION-202311",
        "usage_note": "概念性用地布局建议，非法定控规结论；用地代码采用国土空间用地用海分类指南项目子集。",
        "id": "LU-XYY-09",
        "layer": "LAND_USE",
        "source_type": "agent_generated_design",
        "confidence": "medium",
        "geometry_role": "design_proposal",
        "area_sqm_declared": 213416.112
      },
      "geometry": {
        "type": "Polygon",
        "coordinates": [
          [
            [
              116.3492,
              39.976
            ],
            [
              116.3492,
              39.9835
            ],
            [
              116.3522,
              39.9835
            ],
            [
              116.3522,
              39.976
            ],
            [
              116.3492,
              39.976
            ]
          ]
        ]
      }
    },
    {
      "type": "Feature",
      "id": "LU-XYY-10",
      "properties": {
        "land_use_code": "0702",
        "name_zh": "社区服务设施（北）",
        "design_intent_zh": "社区公共服务设施",
        "source_id": "DATA-SRC-MNR-LAND-USE-CLASSIFICATION-202311",
        "usage_note": "概念性用地布局建议，非法定控规结论；用地代码采用国土空间用地用海分类指南项目子集。",
        "id": "LU-XYY-10",
        "layer": "LAND_USE",
        "source_type": "agent_generated_design",
        "confidence": "medium",
        "geometry_role": "design_proposal",
        "area_sqm_declared": 136587.356
      },
      "geometry": {
        "type": "Polygon",
        "coordinates": [
          [
            [
              116.3522,
              39.976
            ],
            [
              116.3522,
              39.9835
            ],
            [
              116.35382,
              39.9835
            ],
            [
              116.35442,
              39.976
            ],
            [
              116.3522,
              39.976
            ]
          ]
        ]
      }
    },
    {
      "type": "Feature",
      "id": "LU-YD-01",
      "properties": {
        "land_use_code": "0701",
        "name_zh": "人才公寓与既有住宅",
        "design_intent_zh": "人才公寓与既有住宅",
        "source_id": "DATA-SRC-MNR-LAND-USE-CLASSIFICATION-202311",
        "usage_note": "概念性用地布局建议，非法定控规结论；用地代码采用国土空间用地用海分类指南项目子集。",
        "id": "LU-YD-01",
        "layer": "LAND_USE",
        "source_type": "agent_generated_design",
        "confidence": "medium",
        "geometry_role": "design_proposal",
        "area_sqm_declared": 306242.989
      },
      "geometry": {
        "type": "Polygon",
        "coordinates": [
          [
            [
              116.3438,
              39.9935
            ],
            [
              116.3438,
              39.9835
            ],
            [
              116.340248,
              39.9835
            ],
            [
              116.340894,
              39.9935
            ],
            [
              116.3438,
              39.9935
            ]
          ]
        ]
      }
    },
    {
      "type": "Feature",
      "id": "LU-YD-02",
      "properties": {
        "land_use_code": "0802",
        "name_zh": "原点实验室·孵化器",
        "design_intent_zh": "从0到1的原点实验室与孵化器",
        "source_id": "DATA-SRC-MNR-LAND-USE-CLASSIFICATION-202311",
        "usage_note": "概念性用地布局建议，非法定控规结论；用地代码采用国土空间用地用海分类指南项目子集。",
        "id": "LU-YD-02",
        "layer": "LAND_USE",
        "source_type": "agent_generated_design",
        "confidence": "medium",
        "geometry_role": "design_proposal",
        "area_sqm_declared": 246583.408
      },
      "geometry": {
        "type": "Polygon",
        "coordinates": [
          [
            [
              116.3438,
              39.9835
            ],
            [
              116.3438,
              39.9935
            ],
            [
              116.3464,
              39.9935
            ],
            [
              116.3464,
              39.9835
            ],
            [
              116.3438,
              39.9835
            ]
          ]
        ]
      }
    },
    {
      "type": "Feature",
      "id": "LU-YD-03",
      "properties": {
        "land_use_code": "1401",
        "name_zh": "京张遗址公园（原点段）",
        "design_intent_zh": "遗址公园绿廊原点段",
        "source_id": "DATA-SRC-MNR-LAND-USE-CLASSIFICATION-202311",
        "usage_note": "概念性用地布局建议，非法定控规结论；用地代码采用国土空间用地用海分类指南项目子集。",
        "id": "LU-YD-03",
        "layer": "LAND_USE",
        "source_type": "agent_generated_design",
        "confidence": "medium",
        "geometry_role": "design_proposal",
        "area_sqm_declared": 265551.194
      },
      "geometry": {
        "type": "Polygon",
        "coordinates": [
          [
            [
              116.3464,
              39.9835
            ],
            [
              116.3464,
              39.9935
            ],
            [
              116.3492,
              39.9935
            ],
            [
              116.3492,
              39.9835
            ],
            [
              116.3464,
              39.9835
            ]
          ]
        ]
      }
    },
    {
      "type": "Feature",
      "id": "LU-YD-04",
      "properties": {
        "land_use_code": "0802",
        "name_zh": "AI原点社区核心组团",
        "design_intent_zh": "原点社区核心研发组团",
        "source_id": "DATA-SRC-MNR-LAND-USE-CLASSIFICATION-202311",
        "usage_note": "概念性用地布局建议，非法定控规结论；用地代码采用国土空间用地用海分类指南项目子集。",
        "id": "LU-YD-04",
        "layer": "LAND_USE",
        "source_type": "agent_generated_design",
        "confidence": "medium",
        "geometry_role": "design_proposal",
        "area_sqm_declared": 284518.944
      },
      "geometry": {
        "type": "Polygon",
        "coordinates": [
          [
            [
              116.3492,
              39.9835
            ],
            [
              116.3492,
              39.9935
            ],
            [
              116.3522,
              39.9935
            ],
            [
              116.3522,
              39.9835
            ],
            [
              116.3492,
              39.9835
            ]
          ]
        ]
      }
    },
    {
      "type": "Feature",
      "id": "LU-YD-05",
      "properties": {
        "land_use_code": "0702",
        "name_zh": "原点社区公共服务",
        "design_intent_zh": "原点社区公共服务设施",
        "source_id": "DATA-SRC-MNR-LAND-USE-CLASSIFICATION-202311",
        "usage_note": "概念性用地布局建议，非法定控规结论；用地代码采用国土空间用地用海分类指南项目子集。",
        "id": "LU-YD-05",
        "layer": "LAND_USE",
        "source_type": "agent_generated_design",
        "confidence": "medium",
        "geometry_role": "design_proposal",
        "area_sqm_declared": 123535.24
      },
      "geometry": {
        "type": "Polygon",
        "coordinates": [
          [
            [
              116.3522,
              39.9835
            ],
            [
              116.3522,
              39.9935
            ],
            [
              116.353492,
              39.9935
            ],
            [
              116.3533,
              39.99
            ],
            [
              116.35382,
              39.9835
            ],
            [
              116.3522,
              39.9835
            ]
          ]
        ]
      }
    },
    {
      "type": "Feature",
      "id": "LU-DX-01",
      "properties": {
        "land_use_code": "0701",
        "name_zh": "居住社区（学院区）",
        "design_intent_zh": "既有居住社区，渐进式更新",
        "source_id": "DATA-SRC-MNR-LAND-USE-CLASSIFICATION-202311",
        "usage_note": "概念性用地布局建议，非法定控规结论；用地代码采用国土空间用地用海分类指南项目子集。",
        "id": "LU-DX-01",
        "layer": "LAND_USE",
        "source_type": "agent_generated_design",
        "confidence": "medium",
        "geometry_role": "design_proposal",
        "area_sqm_declared": 326059.51
      },
      "geometry": {
        "type": "Polygon",
        "coordinates": [
          [
            [
              116.3438,
              40.0075
            ],
            [
              116.3438,
              39.9935
            ],
            [
              116.340894,
              39.9935
            ],
            [
              116.3417,
              40.006
            ],
            [
              116.341773,
              40.0075
            ],
            [
              116.3438,
              40.0075
            ]
          ]
        ]
      }
    },
    {
      "type": "Feature",
      "id": "LU-DX-02",
      "properties": {
        "land_use_code": "0804",
        "name_zh": "院校协同教育用地",
        "design_intent_zh": "高校-社区协同教育与实训",
        "source_id": "DATA-SRC-MNR-LAND-USE-CLASSIFICATION-202311",
        "usage_note": "概念性用地布局建议，非法定控规结论；用地代码采用国土空间用地用海分类指南项目子集。",
        "id": "LU-DX-02",
        "layer": "LAND_USE",
        "source_type": "agent_generated_design",
        "confidence": "medium",
        "geometry_role": "design_proposal",
        "area_sqm_declared": 345157.065
      },
      "geometry": {
        "type": "Polygon",
        "coordinates": [
          [
            [
              116.3438,
              39.9935
            ],
            [
              116.3438,
              40.0075
            ],
            [
              116.3464,
              40.0075
            ],
            [
              116.3464,
              39.9935
            ],
            [
              116.3438,
              39.9935
            ]
          ]
        ]
      }
    },
    {
      "type": "Feature",
      "id": "LU-DX-03",
      "properties": {
        "land_use_code": "1401",
        "name_zh": "京张遗址公园（学院区段）",
        "design_intent_zh": "遗址公园绿廊学院区段",
        "source_id": "DATA-SRC-MNR-LAND-USE-CLASSIFICATION-202311",
        "usage_note": "概念性用地布局建议，非法定控规结论；用地代码采用国土空间用地用海分类指南项目子集。",
        "id": "LU-DX-03",
        "layer": "LAND_USE",
        "source_type": "agent_generated_design",
        "confidence": "medium",
        "geometry_role": "design_proposal",
        "area_sqm_declared": 371707.373
      },
      "geometry": {
        "type": "Polygon",
        "coordinates": [
          [
            [
              116.3464,
              39.9935
            ],
            [
              116.3464,
              40.0075
            ],
            [
              116.3492,
              40.0075
            ],
            [
              116.3492,
              39.9935
            ],
            [
              116.3464,
              39.9935
            ]
          ]
        ]
      }
    },
    {
      "type": "Feature",
      "id": "LU-DX-04",
      "properties": {
        "land_use_code": "0802",
        "name_zh": "院校附属创新平台",
        "design_intent_zh": "高校附属创新平台与转化基地",
        "source_id": "DATA-SRC-MNR-LAND-USE-CLASSIFICATION-202311",
        "usage_note": "概念性用地布局建议，非法定控规结论；用地代码采用国土空间用地用海分类指南项目子集。",
        "id": "LU-DX-04",
        "layer": "LAND_USE",
        "source_type": "agent_generated_design",
        "confidence": "medium",
        "geometry_role": "design_proposal",
        "area_sqm_declared": 398257.63
      },
      "geometry": {
        "type": "Polygon",
        "coordinates": [
          [
            [
              116.3492,
              39.9935
            ],
            [
              116.3492,
              40.0075
            ],
            [
              116.3522,
              40.0075
            ],
            [
              116.3522,
              39.9935
            ],
            [
              116.3492,
              39.9935
            ]
          ]
        ]
      }
    },
    {
      "type": "Feature",
      "id": "LU-DX-05",
      "properties": {
        "land_use_code": "16",
        "name_zh": "战略留白用地（学院区东）",
        "design_intent_zh": "战略留白，待官方数据与控规条件后启用",
        "source_id": "DATA-SRC-MNR-LAND-USE-CLASSIFICATION-202311",
        "usage_note": "概念性用地布局建议，非法定控规结论；用地代码采用国土空间用地用海分类指南项目子集。",
        "id": "LU-DX-05",
        "layer": "LAND_USE",
        "source_type": "agent_generated_design",
        "confidence": "medium",
        "geometry_role": "design_proposal",
        "area_sqm_declared": 222400.694
      },
      "geometry": {
        "type": "Polygon",
        "coordinates": [
          [
            [
              116.3522,
              39.9935
            ],
            [
              116.3522,
              40.0075
            ],
            [
              116.354259,
              40.0075
            ],
            [
              116.353492,
              39.9935
            ],
            [
              116.3522,
              39.9935
            ]
          ]
        ]
      }
    },
    {
      "type": "Feature",
      "id": "LU-ZZY-01",
      "properties": {
        "land_use_code": "16",
        "name_zh": "战略留白用地（众智园西）",
        "design_intent_zh": "战略留白，生态缓冲与远期预留",
        "source_id": "DATA-SRC-MNR-LAND-USE-CLASSIFICATION-202311",
        "usage_note": "概念性用地布局建议，非法定控规结论；用地代码采用国土空间用地用海分类指南项目子集。",
        "id": "LU-ZZY-01",
        "layer": "LAND_USE",
        "source_type": "agent_generated_design",
        "confidence": "medium",
        "geometry_role": "design_proposal",
        "area_sqm_declared": 281616.317
      },
      "geometry": {
        "type": "Polygon",
        "coordinates": [
          [
            [
              116.3438,
              40.0075
            ],
            [
              116.341773,
              40.0075
            ],
            [
              116.3427,
              40.0265
            ],
            [
              116.3438,
              40.0265
            ],
            [
              116.3438,
              40.0075
            ]
          ]
        ]
      }
    },
    {
      "type": "Feature",
      "id": "LU-ZZY-02",
      "properties": {
        "land_use_code": "0802",
        "name_zh": "全栈自主创新研发组团",
        "design_intent_zh": "芯片-框架-模型-应用全栈研发",
        "source_id": "DATA-SRC-MNR-LAND-USE-CLASSIFICATION-202311",
        "usage_note": "概念性用地布局建议，非法定控规结论；用地代码采用国土空间用地用海分类指南项目子集。",
        "id": "LU-ZZY-02",
        "layer": "LAND_USE",
        "source_type": "agent_generated_design",
        "confidence": "medium",
        "geometry_role": "design_proposal",
        "area_sqm_declared": 468315.994
      },
      "geometry": {
        "type": "Polygon",
        "coordinates": [
          [
            [
              116.3464,
              40.0075
            ],
            [
              116.3438,
              40.0075
            ],
            [
              116.3438,
              40.0265
            ],
            [
              116.3464,
              40.0265
            ],
            [
              116.3464,
              40.0075
            ]
          ]
        ]
      }
    },
    {
      "type": "Feature",
      "id": "LU-ZZY-03",
      "properties": {
        "land_use_code": "1403",
        "name_zh": "贡献者广场（众智站前）",
        "design_intent_zh": "众智站前广场与智能体贡献荣誉墙",
        "source_id": "DATA-SRC-MNR-LAND-USE-CLASSIFICATION-202311",
        "usage_note": "概念性用地布局建议，非法定控规结论；用地代码采用国土空间用地用海分类指南项目子集。",
        "id": "LU-ZZY-03",
        "layer": "LAND_USE",
        "source_type": "agent_generated_design",
        "confidence": "medium",
        "geometry_role": "design_proposal",
        "area_sqm_declared": 504339.982
      },
      "geometry": {
        "type": "Polygon",
        "coordinates": [
          [
            [
              116.3492,
              40.0075
            ],
            [
              116.3464,
              40.0075
            ],
            [
              116.3464,
              40.0265
            ],
            [
              116.3492,
              40.0265
            ],
            [
              116.3492,
              40.0075
            ]
          ]
        ]
      }
    },
    {
      "type": "Feature",
      "id": "LU-ZZY-04",
      "properties": {
        "land_use_code": "0802",
        "name_zh": "AI治理与标准试验区",
        "design_intent_zh": "AI治理、安全与标准测试验证",
        "source_id": "DATA-SRC-MNR-LAND-USE-CLASSIFICATION-202311",
        "usage_note": "概念性用地布局建议，非法定控规结论；用地代码采用国土空间用地用海分类指南项目子集。",
        "id": "LU-ZZY-04",
        "layer": "LAND_USE",
        "source_type": "agent_generated_design",
        "confidence": "medium",
        "geometry_role": "design_proposal",
        "area_sqm_declared": 540363.901
      },
      "geometry": {
        "type": "Polygon",
        "coordinates": [
          [
            [
              116.3522,
              40.0075
            ],
            [
              116.3492,
              40.0075
            ],
            [
              116.3492,
              40.0265
            ],
            [
              116.3522,
              40.0265
            ],
            [
              116.3522,
              40.0075
            ]
          ]
        ]
      }
    },
    {
      "type": "Feature",
      "id": "LU-ZZY-05",
      "properties": {
        "land_use_code": "0802",
        "name_zh": "加速器与中试基地",
        "design_intent_zh": "加速器、中试与产业转化",
        "source_id": "DATA-SRC-MNR-LAND-USE-CLASSIFICATION-202311",
        "usage_note": "概念性用地布局建议，非法定控规结论；用地代码采用国土空间用地用海分类指南项目子集。",
        "id": "LU-ZZY-05",
        "layer": "LAND_USE",
        "source_type": "agent_generated_design",
        "confidence": "medium",
        "geometry_role": "design_proposal",
        "area_sqm_declared": 464601.09
      },
      "geometry": {
        "type": "Polygon",
        "coordinates": [
          [
            [
              116.3522,
              40.0075
            ],
            [
              116.3522,
              40.0265
            ],
            [
              116.3553,
              40.0265
            ],
            [
              116.354259,
              40.0075
            ],
            [
              116.3522,
              40.0075
            ]
          ]
        ]
      }
    }
  ]
}
