{
  "type": "FeatureCollection",
  "features": [
    {
      "id": "BLD-ZJZ-001",
      "type": "Feature",
      "geometry": {
        "type": "Polygon",
        "coordinates": [
          [
            [
              116.34526000000001,
              40.017120000000006
            ],
            [
              116.34674,
              40.017120000000006
            ],
            [
              116.34674,
              40.018879999999996
            ],
            [
              116.34526000000001,
              40.018879999999996
            ],
            [
              116.34526000000001,
              40.017120000000006
            ]
          ]
        ]
      },
      "properties": {
        "id": "BLD-ZJZ-001",
        "layer": "BUILDING_FOOTPRINT",
        "station_code": "ZJZ-001",
        "building_prototype": "station_protocol_pavilion",
        "geometry_role": "design_proposal",
        "source_type": "agent_generated_design",
        "confidence": "low",
        "official_boundary": false,
        "source_id": "AGENT-JZRAIL-V1",
        "source_title": "JZ/RAIL ZJZ-001 站点协议亭建筑 footprint",
        "derivation_method": "在 ZJZ-001 站点中心设一个约 200m × 280m 的协议亭建筑 footprint。",
        "usage_note": "概念建议 / 参考方案 / 可供专业团队深化研究。"
      }
    },
    {
      "id": "BLD-QFY-002",
      "type": "Feature",
      "geometry": {
        "type": "Polygon",
        "coordinates": [
          [
            [
              116.34676,
              40.00712000000001
            ],
            [
              116.34823999999999,
              40.00712000000001
            ],
            [
              116.34823999999999,
              40.00888
            ],
            [
              116.34676,
              40.00888
            ],
            [
              116.34676,
              40.00712000000001
            ]
          ]
        ]
      },
      "properties": {
        "id": "BLD-QFY-002",
        "layer": "BUILDING_FOOTPRINT",
        "station_code": "QFY-002",
        "building_prototype": "station_protocol_pavilion",
        "geometry_role": "design_proposal",
        "source_type": "agent_generated_design",
        "confidence": "low",
        "official_boundary": false,
        "source_id": "AGENT-JZRAIL-V1",
        "source_title": "JZ/RAIL QFY-002 站点协议亭建筑 footprint",
        "derivation_method": "在 QFY-002 站点中心设一个约 200m × 280m 的协议亭建筑 footprint。",
        "usage_note": "概念建议 / 参考方案 / 可供专业团队深化研究。"
      }
    },
    {
      "id": "BLD-BHG-003",
      "type": "Feature",
      "geometry": {
        "type": "Polygon",
        "coordinates": [
          [
            [
              116.34826000000001,
              39.99512000000001
            ],
            [
              116.34974,
              39.99512000000001
            ],
            [
              116.34974,
              39.99688
            ],
            [
              116.34826000000001,
              39.99688
            ],
            [
              116.34826000000001,
              39.99512000000001
            ]
          ]
        ]
      },
      "properties": {
        "id": "BLD-BHG-003",
        "layer": "BUILDING_FOOTPRINT",
        "station_code": "BHG-003",
        "building_prototype": "station_protocol_pavilion",
        "geometry_role": "design_proposal",
        "source_type": "agent_generated_design",
        "confidence": "low",
        "official_boundary": false,
        "source_id": "AGENT-JZRAIL-V1",
        "source_title": "JZ/RAIL BHG-003 站点协议亭建筑 footprint",
        "derivation_method": "在 BHG-003 站点中心设一个约 200m × 280m 的协议亭建筑 footprint。",
        "usage_note": "概念建议 / 参考方案 / 可供专业团队深化研究。"
      }
    },
    {
      "id": "BLD-BUPT-004",
      "type": "Feature",
      "geometry": {
        "type": "Polygon",
        "coordinates": [
          [
            [
              116.34976,
              39.98312000000001
            ],
            [
              116.35123999999999,
              39.98312000000001
            ],
            [
              116.35123999999999,
              39.98488
            ],
            [
              116.34976,
              39.98488
            ],
            [
              116.34976,
              39.98312000000001
            ]
          ]
        ]
      },
      "properties": {
        "id": "BLD-BUPT-004",
        "layer": "BUILDING_FOOTPRINT",
        "station_code": "BUPT-004",
        "building_prototype": "station_protocol_pavilion",
        "geometry_role": "design_proposal",
        "source_type": "agent_generated_design",
        "confidence": "low",
        "official_boundary": false,
        "source_id": "AGENT-JZRAIL-V1",
        "source_title": "JZ/RAIL BUPT-004 站点协议亭建筑 footprint",
        "derivation_method": "在 BUPT-004 站点中心设一个约 200m × 280m 的协议亭建筑 footprint。",
        "usage_note": "概念建议 / 参考方案 / 可供专业团队深化研究。"
      }
    },
    {
      "id": "BLD-ZZY-005",
      "type": "Feature",
      "geometry": {
        "type": "Polygon",
        "coordinates": [
          [
            [
              116.35126000000001,
              39.971120000000006
            ],
            [
              116.35274,
              39.971120000000006
            ],
            [
              116.35274,
              39.972879999999996
            ],
            [
              116.35126000000001,
              39.972879999999996
            ],
            [
              116.35126000000001,
              39.971120000000006
            ]
          ]
        ]
      },
      "properties": {
        "id": "BLD-ZZY-005",
        "layer": "BUILDING_FOOTPRINT",
        "station_code": "ZZY-005",
        "building_prototype": "station_protocol_pavilion",
        "geometry_role": "design_proposal",
        "source_type": "agent_generated_design",
        "confidence": "low",
        "official_boundary": false,
        "source_id": "AGENT-JZRAIL-V1",
        "source_title": "JZ/RAIL ZZY-005 站点协议亭建筑 footprint",
        "derivation_method": "在 ZZY-005 站点中心设一个约 200m × 280m 的协议亭建筑 footprint。",
        "usage_note": "概念建议 / 参考方案 / 可供专业团队深化研究。"
      }
    },
    {
      "id": "BLD-DZS-006",
      "type": "Feature",
      "geometry": {
        "type": "Polygon",
        "coordinates": [
          [
            [
              116.34876000000001,
              39.959120000000006
            ],
            [
              116.35024,
              39.959120000000006
            ],
            [
              116.35024,
              39.960879999999996
            ],
            [
              116.34876000000001,
              39.960879999999996
            ],
            [
              116.34876000000001,
              39.959120000000006
            ]
          ]
        ]
      },
      "properties": {
        "id": "BLD-DZS-006",
        "layer": "BUILDING_FOOTPRINT",
        "station_code": "DZS-006",
        "building_prototype": "station_protocol_pavilion",
        "geometry_role": "design_proposal",
        "source_type": "agent_generated_design",
        "confidence": "low",
        "official_boundary": false,
        "source_id": "AGENT-JZRAIL-V1",
        "source_title": "JZ/RAIL DZS-006 站点协议亭建筑 footprint",
        "derivation_method": "在 DZS-006 站点中心设一个约 200m × 280m 的协议亭建筑 footprint。",
        "usage_note": "概念建议 / 参考方案 / 可供专业团队深化研究。"
      }
    },
    {
      "id": "BLD-RWS-007",
      "type": "Feature",
      "geometry": {
        "type": "Polygon",
        "coordinates": [
          [
            [
              116.34626,
              39.94912000000001
            ],
            [
              116.34773999999999,
              39.94912000000001
            ],
            [
              116.34773999999999,
              39.95088
            ],
            [
              116.34626,
              39.95088
            ],
            [
              116.34626,
              39.94912000000001
            ]
          ]
        ]
      },
      "properties": {
        "id": "BLD-RWS-007",
        "layer": "BUILDING_FOOTPRINT",
        "station_code": "RWS-007",
        "building_prototype": "station_protocol_pavilion",
        "geometry_role": "design_proposal",
        "source_type": "agent_generated_design",
        "confidence": "low",
        "official_boundary": false,
        "source_id": "AGENT-JZRAIL-V1",
        "source_title": "JZ/RAIL RWS-007 站点协议亭建筑 footprint",
        "derivation_method": "在 RWS-007 站点中心设一个约 200m × 280m 的协议亭建筑 footprint。",
        "usage_note": "概念建议 / 参考方案 / 可供专业团队深化研究。"
      }
    },
    {
      "id": "BLD-XYL-008",
      "type": "Feature",
      "geometry": {
        "type": "Polygon",
        "coordinates": [
          [
            [
              116.34626,
              39.94012000000001
            ],
            [
              116.34773999999999,
              39.94012000000001
            ],
            [
              116.34773999999999,
              39.94188
            ],
            [
              116.34626,
              39.94188
            ],
            [
              116.34626,
              39.94012000000001
            ]
          ]
        ]
      },
      "properties": {
        "id": "BLD-XYL-008",
        "layer": "BUILDING_FOOTPRINT",
        "station_code": "XYL-008",
        "building_prototype": "station_protocol_pavilion",
        "geometry_role": "design_proposal",
        "source_type": "agent_generated_design",
        "confidence": "low",
        "official_boundary": false,
        "source_id": "AGENT-JZRAIL-V1",
        "source_title": "JZ/RAIL XYL-008 站点协议亭建筑 footprint",
        "derivation_method": "在 XYL-008 站点中心设一个约 200m × 280m 的协议亭建筑 footprint。",
        "usage_note": "概念建议 / 参考方案 / 可供专业团队深化研究。"
      }
    }
  ]
}