{
  "type": "FeatureCollection",
  "name": "porous_ground_contract_provisional_context_constraints",
  "constraint_status": "provisional_context_only",
  "engineering_release": false,
  "section_c_boundary_present": false,
  "section_c_note": "No Phase-I Section C boundary or transect is fabricated in this layer.",
  "replacement_rule": "Replace only with authorised canonical/field evidence; never promote these carriers into engineering controls.",
  "features": [
    {
      "type": "Feature",
      "id": "CONSTRAINT-PGC-01",
      "properties": {
        "id": "CONSTRAINT-PGC-01",
        "layer": "REGULATORY_CONTROL",
        "source_type": "agent_inferred_from_public_data",
        "confidence": "low",
        "geometry_role": "provisional_constraint",
        "area_sqm_calculated": 11412825.386,
        "constraint_type": "canonical_base_missing",
        "constraint_status": "NON_ENGINEERING_RELEASE_BLOCK",
        "conceptual_only": true,
        "official_boundary": false,
        "authorization_status": "UNKNOWN",
        "engineering_release": false,
        "real_world_performance_claimed": false,
        "note_zh": "SITE-001 临时总体范围内缺 canonical base、官方红线、权属、建筑/道路/市政/文保/消防/无障碍及现状测绘；该覆盖只表达资料缺口，阻断工程放行。",
        "note_en": "Within provisional SITE-001, the canonical base, official redline, title, building/road/utility/heritage/fire/accessibility and current survey are missing. This coverage maps a data gap only and blocks engineering release."
      },
      "geometry": {
        "type": "Polygon",
        "coordinates": [
          [
            [
              116.3407,
              39.939
            ],
            [
              116.3553,
              39.939
            ],
            [
              116.3553,
              39.965
            ],
            [
              116.3533,
              39.99
            ],
            [
              116.3553,
              40.0265
            ],
            [
              116.3427,
              40.0265
            ],
            [
              116.3417,
              40.006
            ],
            [
              116.3397,
              39.975
            ],
            [
              116.3407,
              39.939
            ]
          ]
        ]
      }
    },
    {
      "type": "Feature",
      "id": "CONSTRAINT-PGC-02",
      "properties": {
        "id": "CONSTRAINT-PGC-02",
        "layer": "REGULATORY_CONTROL",
        "source_type": "agent_inferred_from_public_data",
        "confidence": "low",
        "geometry_role": "provisional_constraint",
        "area_sqm_calculated": 720454.219,
        "constraint_type": "prov_key_003_unanchored",
        "constraint_status": "NON_ENGINEERING_RELEASE_BLOCK",
        "conceptual_only": true,
        "official_boundary": false,
        "authorization_status": "UNKNOWN",
        "engineering_release": false,
        "real_world_performance_claimed": false,
        "note_zh": "PROV-KEY-003 仅是大钟寺任务名称的临时承载，未锚定真实站城、站口、象限、道路、容量或权属；不得据此选点或形成工程量。",
        "note_en": "PROV-KEY-003 is only a provisional carrier for the taskbook name. It is not anchored to real station-city, exit, quadrant, road, capacity or title conditions and supports no siting or quantity claim."
      },
      "geometry": {
        "type": "Polygon",
        "coordinates": [
          [
            [
              116.342,
              39.944
            ],
            [
              116.355,
              39.944
            ],
            [
              116.355,
              39.94984
            ],
            [
              116.342,
              39.94984
            ],
            [
              116.342,
              39.944
            ]
          ]
        ]
      }
    },
    {
      "type": "Feature",
      "id": "CONSTRAINT-PGC-03",
      "properties": {
        "id": "CONSTRAINT-PGC-03",
        "layer": "REGULATORY_CONTROL",
        "source_type": "agent_inferred_from_public_data",
        "confidence": "low",
        "geometry_role": "provisional_constraint",
        "area_sqm_calculated": 3692893.005,
        "constraint_type": "e3_e4_absent",
        "constraint_status": "NON_ENGINEERING_RELEASE_BLOCK",
        "conceptual_only": true,
        "official_boundary": false,
        "authorization_status": "UNKNOWN",
        "engineering_release": false,
        "real_world_performance_claimed": false,
        "note_zh": "三处临时重点区均无获授权真实断面、E3现场基线或E4书面许可/样段/恢复证据；现阶段只允许桌面研究，所有实体行为为 HOLD / NO-GO。",
        "note_en": "All three provisional key areas lack an authorised real transect, E3 field baseline and E4 written permission/mock-up/restoration evidence. Only desk research is allowed; all physical action remains HOLD / NO-GO."
      },
      "geometry": {
        "type": "MultiPolygon",
        "coordinates": [
          [
            [
              [
                116.342,
                39.94984
              ],
              [
                116.355,
                39.94984
              ],
              [
                116.355,
                39.944
              ],
              [
                116.342,
                39.944
              ],
              [
                116.342,
                39.94984
              ]
            ]
          ],
          [
            [
              [
                116.353,
                39.9935
              ],
              [
                116.353,
                39.9835
              ],
              [
                116.342,
                39.9835
              ],
              [
                116.342,
                39.9935
              ],
              [
                116.353,
                39.9935
              ]
            ]
          ],
          [
            [
              [
                116.354,
                40.026
              ],
              [
                116.354,
                40.0075
              ],
              [
                116.343,
                40.0075
              ],
              [
                116.343,
                40.026
              ],
              [
                116.354,
                40.026
              ]
            ]
          ]
        ]
      }
    }
  ]
}
