{
  "type": "FeatureCollection",
  "name": "porous_ground_contract_provisional_site",
  "boundary_status": "provisional_rough",
  "replacement_rule": "Regenerate all nine layers, metrics, figures, PDF and HTML after canonical geometry is published.",
  "features": [
    {
      "type": "Feature",
      "id": "SITE-001",
      "properties": {
        "id": "SITE-001",
        "layer": "SITE_BOUNDARY",
        "scope_id": "overall_design_area",
        "name_zh": "总体设计范围粗略替代边界",
        "source_type": "agent_inferred_from_public_data",
        "confidence": "low",
        "geometry_role": "provisional_constraint",
        "official_boundary": false,
        "boundary_precision": "provisional_rough",
        "source_id": "DATA-SRC-PROVISIONAL-BOUNDARIES-20260605",
        "derived_from_source_ids": [
          "DATA-SRC-OFFICIAL-ANNOUNCEMENT-20260509"
        ],
        "source_title": "依据公告文字四至、约11.4平方公里面积约束和道路名称形成的临时粗略范围",
        "derivation_method": "以公告所述京张遗址公园周边1—2公里城市地区和产业区为走廊，以北五环路、学院路/西土城路、西直门外大街、大钟寺东路/荷清路等文字四至定位，并在EPSG:4548下校核至公告约11.4平方公里；道路名称仅用于粗略定位，不代表道路红线。",
        "area_sqm_declared": 11412825.386,
        "area_sqm_calculated": 11412825.386,
        "usage_note": "仓库维护者提供的粗略临时工作边界，仅作概念生成、包内拓扑校验与低对比度展示；不是 official redline、测绘成果、权属边界、审批依据或精确面积依据。",
        "announced_area_sqm_approx": 11400000,
        "usage_note_en": "Maintainer-provided rough provisional working extent for concept generation, package topology checks and low-contrast display only; not an official redline, survey, title boundary, approval basis or precise-area basis."
      },
      "geometry": {
        "type": "Polygon",
        "coordinates": [
          [
            [
              116.3407,
              39.939
            ],
            [
              116.3553,
              39.939
            ],
            [
              116.3553,
              39.965
            ],
            [
              116.3533,
              39.99
            ],
            [
              116.3553,
              40.0265
            ],
            [
              116.3427,
              40.0265
            ],
            [
              116.3417,
              40.006
            ],
            [
              116.3397,
              39.975
            ],
            [
              116.3407,
              39.939
            ]
          ]
        ]
      }
    }
  ]
}
