{
  "type": "FeatureCollection",
  "name": "slow_variables_green_space",
  "features": [
    {
      "type": "Feature",
      "id": "GREEN-001",
      "properties": {
        "id": "GREEN-001",
        "layer": "GREEN_SPACE",
        "source_type": "agent_generated_design",
        "confidence": "medium",
        "geometry_role": "design_proposal",
        "land_use_code": "1401",
        "name_zh": "百年基线连续蓝绿公共脊",
        "name_en": "Continuous Century Baseline blue-green spine",
        "design_intent": "conceptual_continuity_not_statutory_green_control",
        "area_sqm_declared": 2589338.291
      },
      "geometry": {
        "type": "Polygon",
        "coordinates": [
          [
            [
              116.345628,
              39.939
            ],
            [
              116.345628,
              40.0265
            ],
            [
              116.348748,
              40.0265
            ],
            [
              116.348748,
              39.939
            ],
            [
              116.345628,
              39.939
            ]
          ]
        ]
      }
    }
  ],
  "boundary_status": "provisional"
}
