{
  "type": "FeatureCollection",
  "name": "interface_yards",
  "features": [
    {
      "type": "Feature",
      "id": "PUBLIC-001",
      "properties": {
        "id": "PUBLIC-001",
        "layer": "PUBLIC_SPACE",
        "source_type": "agent_generated_design",
        "confidence": "medium",
        "geometry_role": "design_proposal",
        "name_zh": "三座界面院与横向公共连接",
        "name_en": "Three interface yards and transverse public links",
        "design_status": "conceptual_recommendation_pending_ownership_and_operations_review",
        "area_sqm_declared": 261303.145
      },
      "geometry": {
        "type": "MultiPolygon",
        "coordinates": [
          [
            [
              [
                116.35016639948427,
                39.94667472646988
              ],
              [
                116.35012712072742,
                39.94655019237011
              ],
              [
                116.35007217212522,
                39.94642922117321
              ],
              [
                116.35000208293464,
                39.946312977876964
              ],
              [
                116.34991752821237,
                39.946202581941854
              ],
              [
                116.34981932231152,
                39.946099096511155
              ],
              [
                116.34970841103721,
                39.94600351817336
              ],
              [
                116.34958586253687,
                39.94591676736579
              ],
              [
                116.34945285701284,
                39.94583967951156
              ],
              [
                116.34931067535678,
                39.945772996975386
              ],
              [
                116.34916068681488,
                39.94571736191543
              ],
              [
                116.34900433580277,
                39.94567331010016
              ],
              [
                116.3488431279973,
                39.945641265749764
              ],
              [
                116.3486786158385,
                39.94562153745143
              ],
              [
                116.34851238358195,
                39.9456143151882
              ],
              [
                116.34834603204479,
                39.945619668509835
              ],
              [
                116.34818116319241,
                39.94563754586306
              ],
              [
                116.34801936471425,
                39.94566777508805
              ],
              [
                116.34786219473672,
                39.945710065076064
              ],
              [
                116.34771116682077,
                39.94576400857241
              ],
              [
                116.34756773538835,
                39.94582908609771
              ],
              [
                116.34743328171757,
                39.945904670949744
              ],
              [
                116.3473091006422,
                39.94599003523785
              ],
              [
                116.34719638808265,
                39.94608435689159
              ],
              [
                116.34709622952916,
                39.946186727576425
              ],
              [
                116.34700958958759,
                39.94629616144022
              ],
              [
                116.34693730268883,
                39.94641160460613
              ],
              [
                116.3468800650512,
                39.94653194532092
              ],
              [
                116.34683842797335,
                39.94665602466064
              ],
              [
                116.3468269756804,
                39.94671259185718
              ],
              [
                116.34350928266956,
                39.94669385237818
              ],
              [
                116.34350549497466,
                39.94709010270442
              ],
              [
                116.34682320712395,
                39.94710884244498
              ],
              [
                116.34683358235934,
                39.94716553261368
              ],
              [
                116.3468728554655,
                39.94729006777091
              ],
              [
                116.34692779907977,
                39.947411040426466
              ],
              [
                116.34699788413687,
                39.947527285526554
              ],
              [
                116.347082435739,
                39.94763768354135
              ],
              [
                116.34718063965289,
                39.94774117124765
              ],
              [
                116.34729155014979,
                39.94783675196951
              ],
              [
                116.34741409911223,
                39.94792350517802
              ],
              [
                116.34754710632002,
                39.948000595357755
              ],
              [
                116.3476892908168,
                39.94806728005466
              ],
              [
                116.34783928324727,
                39.94812291702754
              ],
              [
                116.34799563904629,
                39.948166970434386
              ],
              [
                116.34815685235313,
                39.948199015993886
              ],
              [
                116.34832137051629,
                39.94821874507237
              ],
              [
                116.34848760904947,
                39.94822596765678
              ],
              [
                116.3486539668943,
                39.94822061418507
              ],
              [
                116.34881884184303,
                39.94820273621626
              ],
              [
                116.3489806459719,
                39.94817250593381
              ],
              [
                116.34913782093736,
                39.94813021448712
              ],
              [
                116.34928885298675,
                39.94807626918694
              ],
              [
                116.34943228753936,
                39.94801118958196
              ],
              [
                116.34956674319709,
                39.94793560245432
              ],
              [
                116.34969092504984,
                39.94785023578215
              ],
              [
                116.34980363714732,
                39.947755911727484
              ],
              [
                116.34990379401704,
                39.94765353871713
              ],
              [
                116.34999043111787,
                39.9475441026926
              ],
              [
                116.35006271412809,
                39.94742865761377
              ],
              [
                116.35011994697881,
                39.947308315307396
              ],
              [
                116.35016157855527,
                39.94718423475859
              ],
              [
                116.35017302819,
                39.9471276672158
              ],
              [
                116.35250849773666,
                39.947140734432914
              ],
              [
                116.35251223349697,
                39.94674448339994
              ],
              [
                116.3501767774227,
                39.946731416365225
              ],
              [
                116.35016639948427,
                39.94667472646988
              ]
            ]
          ],
          [
            [
              [
                116.3490731387772,
                39.98800911550698
              ],
              [
                116.34900300976328,
                39.98789287211039
              ],
              [
                116.34891840631956,
                39.98778247583736
              ],
              [
                116.3488201432685,
                39.98767898983437
              ],
              [
                116.34870916696563,
                39.98758341069538
              ],
              [
                116.34858654618466,
                39.98749665886537
              ],
              [
                116.34845346182405,
                39.987419569777266
              ],
              [
                116.34831119553468,
                39.9873528858076
              ],
              [
                116.34816111737763,
                39.9872972491283
              ],
              [
                116.34800467263155,
                39.987253195523394
              ],
              [
                116.34784336787578,
                39.98722114923025
              ],
              [
                116.34767875648393,
                39.987201418854745
              ],
              [
                116.34751242366703,
                39.98719419439995
              ],
              [
                116.34734597121052,
                39.98719954543666
              ],
              [
                116.3471810020515,
                39.987217420433645
              ],
              [
                116.34701910484519,
                39.98724764725378
              ],
              [
                116.3468618386687,
                39.9872899348115
              ],
              [
                116.34671071800926,
                39.98734387587557
              ],
              [
                116.34656719818184,
                39.98740895099002
              ],
              [
                116.34643266131576,
                39.98748453347595
              ],
              [
                116.34630840304594,
                39.98756989546551
              ],
              [
                116.3461956200362,
                39.98766421491044
              ],
              [
                116.34609539845525,
                39.98776658349754
              ],
              [
                116.346008703516,
                39.98787601539492
              ],
              [
                116.34593637017906,
                39.98799145674472
              ],
              [
                116.34587909511012,
                39.988111795811236
              ],
              [
                116.34583742996847,
                39.98823587368642
              ],
              [
                116.34582596944398,
                39.98829244031709
              ],
              [
                116.34311138433462,
                39.98827708713991
              ],
              [
                116.3431075887618,
                39.98867333458347
              ],
              [
                116.34582218955359,
                39.98868868797489
              ],
              [
                116.34583256978118,
                39.988745377871986
              ],
              [
                116.34587186384107,
                39.98886991265541
              ],
              [
                116.3459268379864,
                39.98899088517493
              ],
              [
                116.34599696285814,
                39.98910713037798
              ],
              [
                116.34608156317503,
                39.98921752873374
              ],
              [
                116.34617982423484,
                39.98932101701569
              ],
              [
                116.34629079975852,
                39.98941659854227
              ],
              [
                116.34641342100232,
                39.98950335277677
              ],
              [
                116.34654650705001,
                39.989580444193834
              ],
              [
                116.3466887761859,
                39.98964713032746
              ],
              [
                116.34683885823941,
                39.98970276892255
              ],
              [
                116.34699530778227,
                39.98974682412144
              ],
              [
                116.34715661805075,
                39.98977887162551
              ],
              [
                116.34732123545939,
                39.98979860278235
              ],
              [
                116.34748757456593,
                39.98980582755889
              ],
              [
                116.34765403334326,
                39.98980047637192
              ],
              [
                116.34781900861135,
                39.98978260075849
              ],
              [
                116.34798091148019,
                39.989752372879394
              ],
              [
                116.34813818265512,
                39.98971008386088
              ],
              [
                116.34828930745675,
                39.98965614099035
              ],
              [
                116.348432830411,
                39.98959106379316
              ],
              [
                116.34856736926832,
                39.989515479028285
              ],
              [
                116.34869162831734,
                39.98943011465113
              ],
              [
                116.34880441086422,
                39.989335792801725
              ],
              [
                116.3489046307581,
                39.98923342188564
              ],
              [
                116.34899132285088,
                39.98912398782431
              ],
              [
                116.3490636522913,
                39.98900854455872
              ],
              [
                116.34912092256349,
                39.98888820389823
              ],
              [
                116.34916258219242,
                39.98876412481212
              ],
              [
                116.34917404005316,
                39.98870755783466
              ],
              [
                116.35211604737435,
                39.98872404052255
              ],
              [
                116.35211979090458,
                39.98832779237142
              ],
              [
                116.34917780057965,
                39.98831130991353
              ],
              [
                116.3491674176434,
                39.98825462029018
              ],
              [
                116.34912811792097,
                39.988130086565704
              ],
              [
                116.3490731387772,
                39.98800911550698
              ]
            ]
          ],
          [
            [
              [
                116.35012879194258,
                40.01637979006645
              ],
              [
                116.35007378903602,
                40.01625881987476
              ],
              [
                116.35000363005511,
                40.01614257740363
              ],
              [
                116.34991899072888,
                40.01603218210553
              ],
              [
                116.3498206862254,
                40.015928697117545
              ],
              [
                116.34970966329948,
                40.01583311902381
              ],
              [
                116.34958699117382,
                40.015746368259215
              ],
              [
                116.34945385124132,
                40.01566928024636
              ],
              [
                116.34931152568807,
                40.01560259735142
              ],
              [
                116.34916138514582,
                40.01554696173591
              ],
              [
                116.3490048754939,
                40.01550290917365
              ],
              [
                116.34884350393666,
                40.01547086389188
              ],
              [
                116.34867882449095,
                40.01545113448675
              ],
              [
                116.34851242302304,
                40.015443910951966
              ],
              [
                116.34834590197936,
                40.01544926284949
              ],
              [
                116.34818086495746,
                40.01546713863977
              ],
              [
                116.34801890126603,
                40.01549736617808
              ],
              [
                116.34786157062226,
                40.01553965437194
              ],
              [
                116.3477103881342,
                40.015593595984
              ],
              [
                116.34756680971216,
                40.01565867155308
              ],
              [
                116.3474322180497,
                40.01573425439591
              ],
              [
                116.34730790930942,
                40.01581961664122
              ],
              [
                116.34719508064123,
                40.01591393623834
              ],
              [
                116.3470948186535,
                40.01601630487264
              ],
              [
                116.34700808894834,
                40.016125736711814
              ],
              [
                116.34693572682126,
                40.016241177898586
              ],
              [
                116.34687842921528,
                40.01636151669882
              ],
              [
                116.34683674800684,
                40.01648559420711
              ],
              [
                116.34682528326442,
                40.01654216063049
              ],
              [
                116.3428406658106,
                40.016519633076186
              ],
              [
                116.34283686487679,
                40.01691587856142
              ],
              [
                116.34682150537319,
                40.01693840643003
              ],
              [
                116.3468318903902,
                40.016995096003264
              ],
              [
                116.34687120177185,
                40.01711962998768
              ],
              [
                116.3469261996731,
                40.01724060164177
              ],
              [
                116.3469963545062,
                40.017356845921306
              ],
              [
                116.34708099070143,
                40.0174672433043
              ],
              [
                116.34717929321111,
                40.01757073057359
              ],
              [
                116.34729031535704,
                40.01766631105735
              ],
              [
                116.3474129879465,
                40.01775306422884
              ],
              [
                116.3475461295687,
                40.01783015457296
              ],
              [
                116.34768845797271,
                40.017896839633934
              ],
              [
                116.34783860241717,
                40.01795247716704
              ],
              [
                116.34799511687281,
                40.01799653132475
              ],
              [
                116.34815649395068,
                40.018028577818505
              ],
              [
                116.3483211794218,
                40.01804830800558
              ],
              [
                116.34848758718829,
                40.01805553186224
              ],
              [
                116.34865411456168,
                40.01805017981414
              ],
              [
                116.34881915770116,
                40.018032303406606
              ],
              [
                116.34898112706304,
                40.0180020748081
              ],
              [
                116.34913846271212,
                40.01795978515184
              ],
              [
                116.349289649348,
                40.017905841731384
              ],
              [
                116.34943323090106,
                40.017840764077384
              ],
              [
                116.34956782455731,
                40.01776517895326
              ],
              [
                116.34969213407757,
                40.01767981431794
              ],
              [
                116.34980496228201,
                40.01758549231393
              ],
              [
                116.34990522257999,
                40.01748312134836
              ],
              [
                116.34999194943438,
                40.01737368734316
              ],
              [
                116.35006430765924,
                40.01725824423879
              ],
              [
                116.3501216004615,
                40.01713790384309
              ],
              [
                116.35016327614932,
                40.01701382512283
              ],
              [
                116.35017473822418,
                40.016957258352384
              ],
              [
                116.3518490354914,
                40.0169666349539
              ],
              [
                116.35185278430909,
                40.016570388760535
              ],
              [
                116.35017849672415,
                40.01656101228983
              ],
              [
                116.35016810899465,
                40.01650432299068
              ],
              [
                116.35012879194258,
                40.01637979006645
              ]
            ]
          ]
        ]
      }
    }
  ]
}
