{
  "type": "FeatureCollection",
  "features": [
    {
      "type": "Feature",
      "id": "GREEN-001",
      "properties": {
        "source_type": "agent_generated_design",
        "confidence": "medium",
        "geometry_role": "design_proposal",
        "layer": "GREEN_SPACE",
        "land_use_code": "1401",
        "name_zh": "京张铁路遗址公园可玩主线（9公里）",
        "name_en": "Jing-Zhang Railway Heritage Park playable spine (9 km)",
        "ludic_space_type": "path",
        "area_sqm_declared": 778372.376,
        "existing_status_zh": "二期已于2026年8月6日建成开放，本方案在既有绿廊上叠加可玩性运营层，不重复土建。",
        "note_zh": "本要素由仓库提供的 provisional 走廊边界切分派生，仅为概念建议与参考方案，不构成官方红线、法定管控或工程实施结论；正式边界补齐后需整体重算。",
        "note_en": "Derived by subdividing the repository's provisional corridor boundary. Conceptual reference only: not an official redline, statutory control, or engineering conclusion. Recalculate once official geometry is supplied.",
        "id": "GREEN-001"
      },
      "geometry": {
        "type": "Polygon",
        "coordinates": [
          [
            [
              116.34746187492497,
              39.944
            ],
            [
              116.3474300305219,
              39.94629166666667
            ],
            [
              116.34738072380262,
              39.94984
            ],
            [
              116.34737936896785,
              39.9499375
            ],
            [
              116.34732870740923,
              39.953583333333334
            ],
            [
              116.34727804584607,
              39.957229166666664
            ],
            [
              116.34723954305501,
              39.96
            ],
            [
              116.34722738427833,
              39.960875
            ],
            [
              116.34717672270604,
              39.96452083333333
            ],
            [
              116.34717006432763,
              39.965
            ],
            [
              116.3469993944625,
              39.96816666666667
            ],
            [
              116.34690058559165,
              39.97
            ],
            [
              116.34680289954774,
              39.9718125
            ],
            [
              116.3466311068471,
              39.975
            ],
            [
              116.3466275553154,
              39.975458333333336
            ],
            [
              116.34659930449246,
              39.979104166666666
            ],
            [
              116.34657105366493,
              39.982749999999996
            ],
            [
              116.34656524206557,
              39.9835
            ],
            [
              116.34654280283287,
              39.98639583333333
            ],
            [
              116.34651487486295,
              39.99
            ],
            [
              116.34651736021539,
              39.99004166666666
            ],
            [
              116.34672364446648,
              39.9935
            ],
            [
              116.34673482855226,
              39.9936875
            ],
            [
              116.34695229688455,
              39.99733333333333
            ],
            [
              116.34716976521226,
              40.00097916666667
            ],
            [
              116.34738723353543,
              40.004625
            ],
            [
              116.34746925015895,
              40.006
            ],
            [
              116.34754692110752,
              40.0075
            ],
            [
              116.34758683534467,
              40.008270833333334
            ],
            [
              116.34777561889601,
              40.011916666666664
            ],
            [
              116.34796440244277,
              40.0155625
            ],
            [
              116.34815318598497,
              40.01920833333333
            ],
            [
              116.34834196952256,
              40.02285416666667
            ],
            [
              116.34850486274276,
              40.026
            ],
            [
              116.34853075305558,
              40.0265
            ],
            [
              116.3494692469444,
              40.0265
            ],
            [
              116.34944334975306,
              40.026
            ],
            [
              116.34928041325948,
              40.02285416666667
            ],
            [
              116.34909157957914,
              40.01920833333333
            ],
            [
              116.34890274590337,
              40.0155625
            ],
            [
              116.34871391223217,
              40.011916666666664
            ],
            [
              116.34852507856557,
              40.008270833333334
            ],
            [
              116.34848515373378,
              40.0075
            ],
            [
              116.3484074621698,
              40.006
            ],
            [
              116.34832542665019,
              40.004625
            ],
            [
              116.34810790823006,
              40.00097916666667
            ],
            [
              116.34789038981452,
              39.99733333333333
            ],
            [
              116.34767287140355,
              39.9936875
            ],
            [
              116.34766168474253,
              39.9935
            ],
            [
              116.34745535299714,
              39.99004166666666
            ],
            [
              116.34745286707252,
              39.99
            ],
            [
              116.34748074555422,
              39.98639583333333
            ],
            [
              116.3475031450312,
              39.9835
            ],
            [
              116.34750894633505,
              39.982749999999996
            ],
            [
              116.34753714712045,
              39.979104166666666
            ],
            [
              116.3475653479104,
              39.975458333333336
            ],
            [
              116.3475688931529,
              39.975
            ],
            [
              116.34774064211892,
              39.9718125
            ],
            [
              116.34783830329722,
              39.97
            ],
            [
              116.34793708701898,
              39.96816666666667
            ],
            [
              116.34810771345016,
              39.965
            ],
            [
              116.34811436525693,
              39.96452083333333
            ],
            [
              116.34816497683276,
              39.960875
            ],
            [
              116.34817712361165,
              39.96
            ],
            [
              116.3482155884132,
              39.957229166666664
            ],
            [
              116.34826619999815,
              39.953583333333334
            ],
            [
              116.34831681158771,
              39.9499375
            ],
            [
              116.34831816508628,
              39.94984
            ],
            [
              116.3483674231818,
              39.94629166666667
            ],
            [
              116.34839923618615,
              39.944
            ],
            [
              116.34841803478047,
              39.94264583333333
            ],
            [
              116.34846864638368,
              39.939
            ],
            [
              116.34753135361632,
              39.939
            ],
            [
              116.34748069207139,
              39.94264583333333
            ],
            [
              116.34746187492497,
              39.944
            ]
          ]
        ]
      }
    },
    {
      "type": "Feature",
      "id": "GREEN-002",
      "properties": {
        "source_type": "agent_generated_design",
        "confidence": "medium",
        "geometry_role": "design_proposal",
        "layer": "GREEN_SPACE",
        "land_use_code": "1402",
        "name_zh": "南北门户与三环沿线防护绿地",
        "name_en": "Gateway and ring-road buffer green",
        "ludic_space_type": "boundary",
        "area_sqm_declared": 183047.079,
        "note_zh": "本要素由仓库提供的 provisional 走廊边界切分派生，仅为概念建议与参考方案，不构成官方红线、法定管控或工程实施结论；正式边界补齐后需整体重算。",
        "note_en": "Derived by subdividing the repository's provisional corridor boundary. Conceptual reference only: not an official redline, statutory control, or engineering conclusion. Recalculate once official geometry is supplied.",
        "id": "GREEN-002"
      },
      "geometry": {
        "type": "MultiPolygon",
        "coordinates": [
          [
            [
              [
                116.34592246852584,
                39.953583333333334
              ],
              [
                116.3458717319954,
                39.957229166666664
              ],
              [
                116.34583317222003,
                39.96
              ],
              [
                116.34723954305501,
                39.96
              ],
              [
                116.34727804584607,
                39.957229166666664
              ],
              [
                116.34732870740923,
                39.953583333333334
              ],
              [
                116.34737936896785,
                39.9499375
              ],
              [
                116.34738072380262,
                39.94984
              ],
              [
                116.34597456187713,
                39.94984
              ],
              [
                116.34597320503808,
                39.9499375
              ],
              [
                116.34592246852584,
                39.953583333333334
              ]
            ]
          ],
          [
            [
              [
                116.34630183006963,
                40.0265
              ],
              [
                116.34627595609328,
                40.026
              ],
              [
                116.34267560975609,
                40.026
              ],
              [
                116.3427,
                40.0265
              ],
              [
                116.34630183006963,
                40.0265
              ]
            ]
          ],
          [
            [
              [
                116.34850486274276,
                40.026
              ],
              [
                116.3470971322273,
                40.026
              ],
              [
                116.34712301222235,
                40.0265
              ],
              [
                116.34853075305558,
                40.0265
              ],
              [
                116.34850486274276,
                40.026
              ]
            ]
          ],
          [
            [
              [
                116.34944334975306,
                40.026
              ],
              [
                116.3494692469444,
                40.0265
              ],
              [
                116.35087698777762,
                40.0265
              ],
              [
                116.35085108026851,
                40.026
              ],
              [
                116.34944334975306,
                40.026
              ]
            ]
          ],
          [
            [
              [
                116.35167225640254,
                40.026
              ],
              [
                116.35169816993034,
                40.0265
              ],
              [
                116.3553,
                40.0265
              ],
              [
                116.35527260273973,
                40.026
              ],
              [
                116.35167225640254,
                40.026
              ]
            ]
          ]
        ]
      }
    }
  ]
}
