{
  "type": "FeatureCollection",
  "name": "known_constraints_and_data_gap_markers",
  "crs_note": "EPSG:4326; areas recomputed in EPSG:4548",
  "features": [
    {
      "type": "Feature",
      "id": "CONSTRAINT-BOUNDARY",
      "properties": {
        "id": "CONSTRAINT-BOUNDARY",
        "layer": "REGULATORY_CONTROL",
        "source_type": "agent_inferred_from_public_data",
        "confidence": "low",
        "geometry_role": "provisional_constraint",
        "name_zh": "临时边界精度警示",
        "name_en": "Provisional Boundary Precision Warning",
        "constraint_type": "official_polygon_missing"
      },
      "geometry": {
        "type": "LineString",
        "coordinates": [
          [
            116.3407,
            39.939
          ],
          [
            116.3553,
            39.939
          ],
          [
            116.3553,
            39.965
          ],
          [
            116.3533,
            39.99
          ],
          [
            116.3553,
            40.0265
          ],
          [
            116.3427,
            40.0265
          ],
          [
            116.3417,
            40.006
          ],
          [
            116.3397,
            39.975
          ],
          [
            116.3407,
            39.939
          ]
        ]
      }
    },
    {
      "type": "Feature",
      "id": "CONSTRAINT-HERITAGE",
      "properties": {
        "id": "CONSTRAINT-HERITAGE",
        "layer": "HERITAGE_PROTECTION",
        "source_type": "unknown",
        "confidence": "low",
        "geometry_role": "analysis_helper",
        "name_zh": "清华园车站文保控制线待正式图件",
        "name_en": "Qinghuayuan Conservation Control Drawing Pending",
        "area_sqm_declared": 963.766,
        "constraint_type": "heritage_control_geometry_missing",
        "concept_marker": true
      },
      "geometry": {
        "type": "Polygon",
        "coordinates": [
          [
            [
              116.34638,
              39.991
            ],
            [
              116.34637913325079,
              39.99098235691474
            ],
            [
              116.34637654135047,
              39.99096488374204
            ],
            [
              116.34637224926043,
              39.990947748758096
            ],
            [
              116.34636629831584,
              39.990931116982175
            ],
            [
              116.34635874582757,
              39.99091514858737
            ],
            [
              116.34634966453021,
              39.990899997358056
            ],
            [
              116.3463391418816,
              39.99088580920885
            ],
            [
              116.3463272792206,
              39.990872720779386
            ],
            [
              116.34631419079115,
              39.990860858118396
            ],
            [
              116.34630000264194,
              39.99085033546979
            ],
            [
              116.34628485141262,
              39.990841254172416
            ],
            [
              116.34626888301783,
              39.990833701684146
            ],
            [
              116.3462522512419,
              39.99082775073957
            ],
            [
              116.34623511625796,
              39.99082345864953
            ],
            [
              116.34621764308525,
              39.990820866749196
            ],
            [
              116.3462,
              39.99082
            ],
            [
              116.34618235691474,
              39.990820866749196
            ],
            [
              116.34616488374203,
              39.99082345864953
            ],
            [
              116.34614774875809,
              39.99082775073957
            ],
            [
              116.34613111698216,
              39.990833701684146
            ],
            [
              116.34611514858737,
              39.990841254172416
            ],
            [
              116.34609999735805,
              39.99085033546979
            ],
            [
              116.34608580920884,
              39.990860858118396
            ],
            [
              116.34607272077939,
              39.990872720779386
            ],
            [
              116.34606085811839,
              39.99088580920885
            ],
            [
              116.34605033546978,
              39.990899997358056
            ],
            [
              116.34604125417242,
              39.99091514858737
            ],
            [
              116.34603370168415,
              39.990931116982175
            ],
            [
              116.34602775073957,
              39.990947748758096
            ],
            [
              116.34602345864953,
              39.99096488374204
            ],
            [
              116.3460208667492,
              39.99098235691474
            ],
            [
              116.34602,
              39.991
            ],
            [
              116.3460208667492,
              39.99101764308526
            ],
            [
              116.34602345864953,
              39.99103511625796
            ],
            [
              116.34602775073957,
              39.9910522512419
            ],
            [
              116.34603370168415,
              39.991068883017824
            ],
            [
              116.34604125417242,
              39.99108485141263
            ],
            [
              116.34605033546978,
              39.99110000264194
            ],
            [
              116.34606085811839,
              39.99111419079115
            ],
            [
              116.34607272077939,
              39.99112727922061
            ],
            [
              116.34608580920884,
              39.991139141881604
            ],
            [
              116.34609999735805,
              39.99114966453021
            ],
            [
              116.34611514858737,
              39.99115874582758
            ],
            [
              116.34613111698216,
              39.991166298315854
            ],
            [
              116.34614774875809,
              39.99117224926043
            ],
            [
              116.34616488374203,
              39.99117654135047
            ],
            [
              116.34618235691474,
              39.9911791332508
            ],
            [
              116.3462,
              39.99118
            ],
            [
              116.34621764308525,
              39.9911791332508
            ],
            [
              116.34623511625796,
              39.99117654135047
            ],
            [
              116.3462522512419,
              39.99117224926043
            ],
            [
              116.34626888301783,
              39.991166298315854
            ],
            [
              116.34628485141262,
              39.99115874582758
            ],
            [
              116.34630000264194,
              39.99114966453021
            ],
            [
              116.34631419079115,
              39.991139141881604
            ],
            [
              116.3463272792206,
              39.99112727922061
            ],
            [
              116.3463391418816,
              39.99111419079115
            ],
            [
              116.34634966453021,
              39.99110000264194
            ],
            [
              116.34635874582757,
              39.99108485141263
            ],
            [
              116.34636629831584,
              39.991068883017824
            ],
            [
              116.34637224926043,
              39.9910522512419
            ],
            [
              116.34637654135047,
              39.99103511625796
            ],
            [
              116.34637913325079,
              39.99101764308526
            ],
            [
              116.34638,
              39.991
            ]
          ]
        ]
      }
    },
    {
      "type": "Feature",
      "id": "CONSTRAINT-DZS",
      "properties": {
        "id": "CONSTRAINT-DZS",
        "layer": "REGULATORY_CONTROL",
        "source_type": "unknown",
        "confidence": "low",
        "geometry_role": "analysis_helper",
        "name_zh": "大钟寺临时片区位置偏差风险",
        "name_en": "Dazhongsi Provisional Location Mismatch Risk",
        "area_sqm_declared": 964.377,
        "constraint_type": "named_location_mismatch",
        "concept_marker": true
      },
      "geometry": {
        "type": "Polygon",
        "coordinates": [
          [
            [
              116.34868,
              39.947
            ],
            [
              116.3486791332508,
              39.946982356914745
            ],
            [
              116.34867654135047,
              39.94696488374204
            ],
            [
              116.34867224926043,
              39.9469477487581
            ],
            [
              116.34866629831585,
              39.94693111698218
            ],
            [
              116.34865874582758,
              39.94691514858737
            ],
            [
              116.34864966453021,
              39.94689999735806
            ],
            [
              116.3486391418816,
              39.94688580920885
            ],
            [
              116.34862727922061,
              39.94687272077939
            ],
            [
              116.34861419079115,
              39.9468608581184
            ],
            [
              116.34860000264194,
              39.94685033546979
            ],
            [
              116.34858485141262,
              39.94684125417242
            ],
            [
              116.34856888301783,
              39.94683370168415
            ],
            [
              116.34855225124191,
              39.94682775073957
            ],
            [
              116.34853511625796,
              39.94682345864953
            ],
            [
              116.34851764308526,
              39.9468208667492
            ],
            [
              116.3485,
              39.94682
            ],
            [
              116.34848235691474,
              39.9468208667492
            ],
            [
              116.34846488374204,
              39.94682345864953
            ],
            [
              116.34844774875809,
              39.94682775073957
            ],
            [
              116.34843111698217,
              39.94683370168415
            ],
            [
              116.34841514858738,
              39.94684125417242
            ],
            [
              116.34839999735806,
              39.94685033546979
            ],
            [
              116.34838580920885,
              39.9468608581184
            ],
            [
              116.3483727207794,
              39.94687272077939
            ],
            [
              116.3483608581184,
              39.94688580920885
            ],
            [
              116.34835033546979,
              39.94689999735806
            ],
            [
              116.34834125417242,
              39.94691514858737
            ],
            [
              116.34833370168415,
              39.94693111698218
            ],
            [
              116.34832775073957,
              39.9469477487581
            ],
            [
              116.34832345864953,
              39.94696488374204
            ],
            [
              116.3483208667492,
              39.946982356914745
            ],
            [
              116.34832,
              39.947
            ],
            [
              116.3483208667492,
              39.94701764308526
            ],
            [
              116.34832345864953,
              39.947035116257965
            ],
            [
              116.34832775073957,
              39.94705225124191
            ],
            [
              116.34833370168415,
              39.94706888301783
            ],
            [
              116.34834125417242,
              39.94708485141263
            ],
            [
              116.34835033546979,
              39.947100002641946
            ],
            [
              116.3483608581184,
              39.947114190791154
            ],
            [
              116.3483727207794,
              39.94712727922062
            ],
            [
              116.34838580920885,
              39.94713914188161
            ],
            [
              116.34839999735806,
              39.947149664530215
            ],
            [
              116.34841514858738,
              39.947158745827586
            ],
            [
              116.34843111698217,
              39.94716629831586
            ],
            [
              116.34844774875809,
              39.94717224926043
            ],
            [
              116.34846488374204,
              39.94717654135047
            ],
            [
              116.34848235691474,
              39.947179133250806
            ],
            [
              116.3485,
              39.94718
            ],
            [
              116.34851764308526,
              39.947179133250806
            ],
            [
              116.34853511625796,
              39.94717654135047
            ],
            [
              116.34855225124191,
              39.94717224926043
            ],
            [
              116.34856888301783,
              39.94716629831586
            ],
            [
              116.34858485141262,
              39.947158745827586
            ],
            [
              116.34860000264194,
              39.947149664530215
            ],
            [
              116.34861419079115,
              39.94713914188161
            ],
            [
              116.34862727922061,
              39.94712727922062
            ],
            [
              116.3486391418816,
              39.947114190791154
            ],
            [
              116.34864966453021,
              39.947100002641946
            ],
            [
              116.34865874582758,
              39.94708485141263
            ],
            [
              116.34866629831585,
              39.94706888301783
            ],
            [
              116.34867224926043,
              39.94705225124191
            ],
            [
              116.34867654135047,
              39.947035116257965
            ],
            [
              116.3486791332508,
              39.94701764308526
            ],
            [
              116.34868,
              39.947
            ]
          ]
        ]
      }
    },
    {
      "type": "Feature",
      "id": "CONSTRAINT-MOBILITY",
      "properties": {
        "id": "CONSTRAINT-MOBILITY",
        "layer": "REGULATORY_CONTROL",
        "source_type": "unknown",
        "confidence": "low",
        "geometry_role": "analysis_helper",
        "name_zh": "交通流量与道路红线待补",
        "name_en": "Traffic Counts and Road Redlines Pending",
        "area_sqm_declared": 963.975,
        "constraint_type": "mobility_data_gap",
        "concept_marker": true
      },
      "geometry": {
        "type": "Polygon",
        "coordinates": [
          [
            [
              116.34638,
              39.976
            ],
            [
              116.34637913325079,
              39.97598235691474
            ],
            [
              116.34637654135047,
              39.97596488374204
            ],
            [
              116.34637224926043,
              39.975947748758095
            ],
            [
              116.34636629831584,
              39.975931116982174
            ],
            [
              116.34635874582757,
              39.97591514858737
            ],
            [
              116.34634966453021,
              39.975899997358056
            ],
            [
              116.3463391418816,
              39.97588580920885
            ],
            [
              116.3463272792206,
              39.975872720779385
            ],
            [
              116.34631419079115,
              39.975860858118395
            ],
            [
              116.34630000264194,
              39.97585033546979
            ],
            [
              116.34628485141262,
              39.975841254172416
            ],
            [
              116.34626888301783,
              39.975833701684145
            ],
            [
              116.3462522512419,
              39.97582775073957
            ],
            [
              116.34623511625796,
              39.97582345864953
            ],
            [
              116.34621764308525,
              39.975820866749196
            ],
            [
              116.3462,
              39.97582
            ],
            [
              116.34618235691474,
              39.975820866749196
            ],
            [
              116.34616488374203,
              39.97582345864953
            ],
            [
              116.34614774875809,
              39.97582775073957
            ],
            [
              116.34613111698216,
              39.975833701684145
            ],
            [
              116.34611514858737,
              39.975841254172416
            ],
            [
              116.34609999735805,
              39.97585033546979
            ],
            [
              116.34608580920884,
              39.975860858118395
            ],
            [
              116.34607272077939,
              39.975872720779385
            ],
            [
              116.34606085811839,
              39.97588580920885
            ],
            [
              116.34605033546978,
              39.975899997358056
            ],
            [
              116.34604125417242,
              39.97591514858737
            ],
            [
              116.34603370168415,
              39.975931116982174
            ],
            [
              116.34602775073957,
              39.975947748758095
            ],
            [
              116.34602345864953,
              39.97596488374204
            ],
            [
              116.3460208667492,
              39.97598235691474
            ],
            [
              116.34602,
              39.976
            ],
            [
              116.3460208667492,
              39.97601764308526
            ],
            [
              116.34602345864953,
              39.97603511625796
            ],
            [
              116.34602775073957,
              39.9760522512419
            ],
            [
              116.34603370168415,
              39.976068883017824
            ],
            [
              116.34604125417242,
              39.97608485141263
            ],
            [
              116.34605033546978,
              39.97610000264194
            ],
            [
              116.34606085811839,
              39.97611419079115
            ],
            [
              116.34607272077939,
              39.97612727922061
            ],
            [
              116.34608580920884,
              39.9761391418816
            ],
            [
              116.34609999735805,
              39.97614966453021
            ],
            [
              116.34611514858737,
              39.97615874582758
            ],
            [
              116.34613111698216,
              39.97616629831585
            ],
            [
              116.34614774875809,
              39.97617224926043
            ],
            [
              116.34616488374203,
              39.97617654135047
            ],
            [
              116.34618235691474,
              39.9761791332508
            ],
            [
              116.3462,
              39.97618
            ],
            [
              116.34621764308525,
              39.9761791332508
            ],
            [
              116.34623511625796,
              39.97617654135047
            ],
            [
              116.3462522512419,
              39.97617224926043
            ],
            [
              116.34626888301783,
              39.97616629831585
            ],
            [
              116.34628485141262,
              39.97615874582758
            ],
            [
              116.34630000264194,
              39.97614966453021
            ],
            [
              116.34631419079115,
              39.9761391418816
            ],
            [
              116.3463272792206,
              39.97612727922061
            ],
            [
              116.3463391418816,
              39.97611419079115
            ],
            [
              116.34634966453021,
              39.97610000264194
            ],
            [
              116.34635874582757,
              39.97608485141263
            ],
            [
              116.34636629831584,
              39.976068883017824
            ],
            [
              116.34637224926043,
              39.9760522512419
            ],
            [
              116.34637654135047,
              39.97603511625796
            ],
            [
              116.34637913325079,
              39.97601764308526
            ],
            [
              116.34638,
              39.976
            ]
          ]
        ]
      }
    }
  ]
}
