{
  "type": "FeatureCollection",
  "name": "concept_blue_green_network",
  "crs_note": "EPSG:4326; areas recomputed in EPSG:4548",
  "features": [
    {
      "type": "Feature",
      "id": "GREEN-SPINE",
      "properties": {
        "id": "GREEN-SPINE",
        "layer": "GREEN_SPACE",
        "source_type": "agent_generated_design",
        "confidence": "low",
        "geometry_role": "design_proposal",
        "name_zh": "京张遗产慢行蓝绿脊",
        "name_en": "Jing-Zhang Heritage Walking and Blue-Green Spine",
        "area_sqm_declared": 1430677.849,
        "land_use_code": "1401",
        "programme": "heritage_greenway"
      },
      "geometry": {
        "type": "Polygon",
        "coordinates": [
          [
            [
              116.3452,
              39.941
            ],
            [
              116.3452,
              40.0248
            ],
            [
              116.347,
              40.0248
            ],
            [
              116.347,
              39.941
            ],
            [
              116.3452,
              39.941
            ]
          ]
        ]
      }
    },
    {
      "type": "Feature",
      "id": "GREEN-XR",
      "properties": {
        "id": "GREEN-XR",
        "layer": "GREEN_SPACE",
        "source_type": "agent_generated_design",
        "confidence": "low",
        "geometry_role": "design_proposal",
        "name_zh": "小月河生态反馈试验带",
        "name_en": "Xiaoyue River Ecological Feedback Pilot Band",
        "area_sqm_declared": 758213.082,
        "land_use_code": "1401",
        "programme": "reversible_citizen_science",
        "hydrology_status": "pending_survey"
      },
      "geometry": {
        "type": "Polygon",
        "coordinates": [
          [
            [
              116.3533,
              39.99
            ],
            [
              116.3542,
              39.978749999999955
            ],
            [
              116.3542,
              39.952
            ],
            [
              116.3528,
              39.952
            ],
            [
              116.3528,
              40.018
            ],
            [
              116.3542,
              40.018
            ],
            [
              116.3542,
              40.006425000000064
            ],
            [
              116.3533,
              39.99
            ]
          ]
        ]
      }
    }
  ]
}
