{
  "type": "FeatureCollection",
  "name": "landmarks_and_ai_scenario_nodes",
  "crs_note": "EPSG:4326; areas recomputed in EPSG:4548",
  "features": [
    {
      "type": "Feature",
      "id": "PUBLIC-QST",
      "properties": {
        "id": "PUBLIC-QST",
        "layer": "PUBLIC_SPACE",
        "source_type": "agent_generated_design",
        "confidence": "low",
        "geometry_role": "design_proposal",
        "name_zh": "清华园城市提问站站外概念节点",
        "name_en": "Qinghuayuan City Question Station Outdoor Concept Node",
        "area_sqm_declared": 5247.172,
        "landmark": true,
        "siting_note": "heritage_control_line_pending",
        "reversible": true,
        "operating_state": "question_intake",
        "daily_mode_priority": true,
        "prototype_status": "not_authorized_not_run",
        "design_revision": "v0.7_95_sprint",
        "prototype_ref": "visual/assets/question-station-prototype.json",
        "spatial_sequence": ["ordinary_path", "question_threshold", "staffed_counter", "public_receipt_board", "quiet_heritage_edge"],
        "physical_stop": "close_digital_intake_keep_staffed_counter_remove_reversible_fixture",
        "stop_rule_zh": "日常开放；文保冲突、普通路径或疏散受阻、人工服务失效、责任或恢复资金缺失时不得进入现场并撤回站外原型"
      },
      "geometry": {
        "type": "Polygon",
        "coordinates": [
          [
            [
              116.3466179775852,
              39.99095883280106
            ],
            [
              116.34661192981777,
              39.99091806206475
            ],
            [
              116.346601914941,
              39.99087808043555
            ],
            [
              116.34658802940365,
              39.990839272958404
            ],
            [
              116.34657040693102,
              39.99080201337053
            ],
            [
              116.34654921723717,
              39.99076666050213
            ],
            [
              116.34652466439042,
              39.99073355482065
            ],
            [
              116.34649698484809,
              39.9907030151519
            ],
            [
              116.34646644517935,
              39.99067533560959
            ],
            [
              116.34643333949786,
              39.990650782762835
            ],
            [
              116.34639798662947,
              39.990629593068974
            ],
            [
              116.34636072704158,
              39.99061197059635
            ],
            [
              116.34632191956445,
              39.99059808505899
            ],
            [
              116.34628193793525,
              39.99058807018223
            ],
            [
              116.34624116719894,
              39.9905820224148
            ],
            [
              116.3462,
              39.99058
            ],
            [
              116.34615883280105,
              39.9905820224148
            ],
            [
              116.34611806206475,
              39.99058807018223
            ],
            [
              116.34607808043555,
              39.99059808505899
            ],
            [
              116.34603927295841,
              39.99061197059635
            ],
            [
              116.34600201337052,
              39.990629593068974
            ],
            [
              116.34596666050213,
              39.990650782762835
            ],
            [
              116.34593355482065,
              39.99067533560959
            ],
            [
              116.3459030151519,
              39.9907030151519
            ],
            [
              116.34587533560958,
              39.99073355482065
            ],
            [
              116.34585078276282,
              39.99076666050213
            ],
            [
              116.34582959306897,
              39.99080201337053
            ],
            [
              116.34581197059634,
              39.990839272958404
            ],
            [
              116.34579808505899,
              39.99087808043555
            ],
            [
              116.34578807018222,
              39.99091806206475
            ],
            [
              116.3457820224148,
              39.99095883280106
            ],
            [
              116.34577999999999,
              39.991
            ],
            [
              116.3457820224148,
              39.99104116719894
            ],
            [
              116.34578807018222,
              39.99108193793525
            ],
            [
              116.34579808505899,
              39.99112191956445
            ],
            [
              116.34581197059634,
              39.991160727041596
            ],
            [
              116.34582959306897,
              39.991197986629466
            ],
            [
              116.34585078276282,
              39.99123333949787
            ],
            [
              116.34587533560958,
              39.99126644517935
            ],
            [
              116.3459030151519,
              39.9912969848481
            ],
            [
              116.34593355482065,
              39.99132466439041
            ],
            [
              116.34596666050213,
              39.991349217237165
            ],
            [
              116.34600201337052,
              39.991370406931026
            ],
            [
              116.34603927295841,
              39.99138802940365
            ],
            [
              116.34607808043555,
              39.99140191494101
            ],
            [
              116.34611806206475,
              39.99141192981777
            ],
            [
              116.34615883280105,
              39.9914179775852
            ],
            [
              116.3462,
              39.99142
            ],
            [
              116.34624116719894,
              39.9914179775852
            ],
            [
              116.34628193793525,
              39.99141192981777
            ],
            [
              116.34632191956445,
              39.99140191494101
            ],
            [
              116.34636072704158,
              39.99138802940365
            ],
            [
              116.34639798662947,
              39.991370406931026
            ],
            [
              116.34643333949786,
              39.991349217237165
            ],
            [
              116.34646644517935,
              39.99132466439041
            ],
            [
              116.34649698484809,
              39.9912969848481
            ],
            [
              116.34652466439042,
              39.99126644517935
            ],
            [
              116.34654921723717,
              39.99123333949787
            ],
            [
              116.34657040693102,
              39.991197986629466
            ],
            [
              116.34658802940365,
              39.991160727041596
            ],
            [
              116.346601914941,
              39.99112191956445
            ],
            [
              116.34661192981777,
              39.99108193793525
            ],
            [
              116.3466179775852,
              39.99104116719894
            ],
            [
              116.34662,
              39.991
            ],
            [
              116.3466179775852,
              39.99095883280106
            ]
          ]
        ]
      }
    },
    {
      "type": "Feature",
      "id": "PUBLIC-MILESTONE",
      "properties": {
        "id": "PUBLIC-MILESTONE",
        "layer": "PUBLIC_SPACE",
        "source_type": "agent_generated_design",
        "confidence": "low",
        "geometry_role": "design_proposal",
        "name_zh": "原点开源里程碑庭",
        "name_en": "AI Origin Open-Source Milestone Court",
        "area_sqm_declared": 5247.513,
        "landmark": true,
        "siting_note": "reversible_public_installation",
        "reversible": true,
        "operating_state": "translation_and_co_creation",
        "daily_mode_priority": true,
        "stop_rule_zh": "日常通行优先，署名或知识产权争议未解决时暂停展示"
      },
      "geometry": {
        "type": "Polygon",
        "coordinates": [
          [
            [
              116.3466179775852,
              39.98645883280106
            ],
            [
              116.34661192981777,
              39.98641806206475
            ],
            [
              116.346601914941,
              39.98637808043555
            ],
            [
              116.34658802940365,
              39.9863392729584
            ],
            [
              116.34657040693102,
              39.98630201337053
            ],
            [
              116.34654921723717,
              39.98626666050213
            ],
            [
              116.34652466439042,
              39.98623355482065
            ],
            [
              116.34649698484809,
              39.9862030151519
            ],
            [
              116.34646644517935,
              39.98617533560959
            ],
            [
              116.34643333949786,
              39.986150782762834
            ],
            [
              116.34639798662947,
              39.98612959306897
            ],
            [
              116.34636072704158,
              39.98611197059635
            ],
            [
              116.34632191956445,
              39.98609808505899
            ],
            [
              116.34628193793525,
              39.98608807018223
            ],
            [
              116.34624116719894,
              39.9860820224148
            ],
            [
              116.3462,
              39.98608
            ],
            [
              116.34615883280105,
              39.9860820224148
            ],
            [
              116.34611806206475,
              39.98608807018223
            ],
            [
              116.34607808043555,
              39.98609808505899
            ],
            [
              116.34603927295841,
              39.98611197059635
            ],
            [
              116.34600201337052,
              39.98612959306897
            ],
            [
              116.34596666050213,
              39.986150782762834
            ],
            [
              116.34593355482065,
              39.98617533560959
            ],
            [
              116.3459030151519,
              39.9862030151519
            ],
            [
              116.34587533560958,
              39.98623355482065
            ],
            [
              116.34585078276282,
              39.98626666050213
            ],
            [
              116.34582959306897,
              39.98630201337053
            ],
            [
              116.34581197059634,
              39.9863392729584
            ],
            [
              116.34579808505899,
              39.98637808043555
            ],
            [
              116.34578807018222,
              39.98641806206475
            ],
            [
              116.3457820224148,
              39.98645883280106
            ],
            [
              116.34577999999999,
              39.9865
            ],
            [
              116.3457820224148,
              39.986541167198936
            ],
            [
              116.34578807018222,
              39.98658193793525
            ],
            [
              116.34579808505899,
              39.98662191956445
            ],
            [
              116.34581197059634,
              39.986660727041595
            ],
            [
              116.34582959306897,
              39.986697986629466
            ],
            [
              116.34585078276282,
              39.98673333949787
            ],
            [
              116.34587533560958,
              39.98676644517935
            ],
            [
              116.3459030151519,
              39.9867969848481
            ],
            [
              116.34593355482065,
              39.98682466439041
            ],
            [
              116.34596666050213,
              39.986849217237165
            ],
            [
              116.34600201337052,
              39.986870406931025
            ],
            [
              116.34603927295841,
              39.98688802940365
            ],
            [
              116.34607808043555,
              39.98690191494101
            ],
            [
              116.34611806206475,
              39.98691192981777
            ],
            [
              116.34615883280105,
              39.9869179775852
            ],
            [
              116.3462,
              39.98692
            ],
            [
              116.34624116719894,
              39.9869179775852
            ],
            [
              116.34628193793525,
              39.98691192981777
            ],
            [
              116.34632191956445,
              39.98690191494101
            ],
            [
              116.34636072704158,
              39.98688802940365
            ],
            [
              116.34639798662947,
              39.986870406931025
            ],
            [
              116.34643333949786,
              39.986849217237165
            ],
            [
              116.34646644517935,
              39.98682466439041
            ],
            [
              116.34649698484809,
              39.9867969848481
            ],
            [
              116.34652466439042,
              39.98676644517935
            ],
            [
              116.34654921723717,
              39.98673333949787
            ],
            [
              116.34657040693102,
              39.986697986629466
            ],
            [
              116.34658802940365,
              39.986660727041595
            ],
            [
              116.346601914941,
              39.98662191956445
            ],
            [
              116.34661192981777,
              39.98658193793525
            ],
            [
              116.3466179775852,
              39.986541167198936
            ],
            [
              116.34662,
              39.9865
            ],
            [
              116.3466179775852,
              39.98645883280106
            ]
          ]
        ]
      }
    },
    {
      "type": "Feature",
      "id": "PUBLIC-TRUST",
      "properties": {
        "id": "PUBLIC-TRUST",
        "layer": "PUBLIC_SPACE",
        "source_type": "agent_generated_design",
        "confidence": "low",
        "geometry_role": "design_proposal",
        "name_zh": "众智可信验证场",
        "name_en": "Zhongzhiyuan Trusted Validation Forum",
        "area_sqm_declared": 5245.281,
        "landmark": true,
        "siting_note": "controlled_public_demonstration",
        "reversible": true,
        "operating_state": "controlled_validation",
        "daily_mode_priority": true,
        "stop_rule_zh": "预约测试，安全边界或人工接管失效时立即停测"
      },
      "geometry": {
        "type": "Polygon",
        "coordinates": [
          [
            [
              116.3466179775852,
              40.01595883280106
            ],
            [
              116.34661192981777,
              40.01591806206475
            ],
            [
              116.346601914941,
              40.01587808043555
            ],
            [
              116.34658802940365,
              40.0158392729584
            ],
            [
              116.34657040693102,
              40.01580201337053
            ],
            [
              116.34654921723717,
              40.01576666050213
            ],
            [
              116.34652466439042,
              40.01573355482065
            ],
            [
              116.34649698484809,
              40.0157030151519
            ],
            [
              116.34646644517935,
              40.015675335609586
            ],
            [
              116.34643333949786,
              40.01565078276283
            ],
            [
              116.34639798662947,
              40.01562959306897
            ],
            [
              116.34636072704158,
              40.015611970596346
            ],
            [
              116.34632191956445,
              40.01559808505899
            ],
            [
              116.34628193793525,
              40.015588070182226
            ],
            [
              116.34624116719894,
              40.0155820224148
            ],
            [
              116.3462,
              40.01558
            ],
            [
              116.34615883280105,
              40.0155820224148
            ],
            [
              116.34611806206475,
              40.015588070182226
            ],
            [
              116.34607808043555,
              40.01559808505899
            ],
            [
              116.34603927295841,
              40.015611970596346
            ],
            [
              116.34600201337052,
              40.01562959306897
            ],
            [
              116.34596666050213,
              40.01565078276283
            ],
            [
              116.34593355482065,
              40.015675335609586
            ],
            [
              116.3459030151519,
              40.0157030151519
            ],
            [
              116.34587533560958,
              40.01573355482065
            ],
            [
              116.34585078276282,
              40.01576666050213
            ],
            [
              116.34582959306897,
              40.01580201337053
            ],
            [
              116.34581197059634,
              40.0158392729584
            ],
            [
              116.34579808505899,
              40.01587808043555
            ],
            [
              116.34578807018222,
              40.01591806206475
            ],
            [
              116.3457820224148,
              40.01595883280106
            ],
            [
              116.34577999999999,
              40.016
            ],
            [
              116.3457820224148,
              40.016041167198935
            ],
            [
              116.34578807018222,
              40.01608193793525
            ],
            [
              116.34579808505899,
              40.01612191956445
            ],
            [
              116.34581197059634,
              40.016160727041594
            ],
            [
              116.34582959306897,
              40.016197986629464
            ],
            [
              116.34585078276282,
              40.016233339497866
            ],
            [
              116.34587533560958,
              40.01626644517935
            ],
            [
              116.3459030151519,
              40.0162969848481
            ],
            [
              116.34593355482065,
              40.01632466439041
            ],
            [
              116.34596666050213,
              40.01634921723716
            ],
            [
              116.34600201337052,
              40.016370406931024
            ],
            [
              116.34603927295841,
              40.01638802940365
            ],
            [
              116.34607808043555,
              40.01640191494101
            ],
            [
              116.34611806206475,
              40.01641192981777
            ],
            [
              116.34615883280105,
              40.0164179775852
            ],
            [
              116.3462,
              40.01642
            ],
            [
              116.34624116719894,
              40.0164179775852
            ],
            [
              116.34628193793525,
              40.01641192981777
            ],
            [
              116.34632191956445,
              40.01640191494101
            ],
            [
              116.34636072704158,
              40.01638802940365
            ],
            [
              116.34639798662947,
              40.016370406931024
            ],
            [
              116.34643333949786,
              40.01634921723716
            ],
            [
              116.34646644517935,
              40.01632466439041
            ],
            [
              116.34649698484809,
              40.0162969848481
            ],
            [
              116.34652466439042,
              40.01626644517935
            ],
            [
              116.34654921723717,
              40.016233339497866
            ],
            [
              116.34657040693102,
              40.016197986629464
            ],
            [
              116.34658802940365,
              40.016160727041594
            ],
            [
              116.346601914941,
              40.01612191956445
            ],
            [
              116.34661192981777,
              40.01608193793525
            ],
            [
              116.3466179775852,
              40.016041167198935
            ],
            [
              116.34662,
              40.016
            ],
            [
              116.3466179775852,
              40.01595883280106
            ]
          ]
        ]
      }
    },
    {
      "type": "Feature",
      "id": "PUBLIC-LIFE",
      "properties": {
        "id": "PUBLIC-LIFE",
        "layer": "PUBLIC_SPACE",
        "source_type": "agent_generated_design",
        "confidence": "low",
        "geometry_role": "design_proposal",
        "name_zh": "大钟寺全球AI生活展厅概念节点",
        "name_en": "Dazhongsi Global AI Life Gallery Concept Node",
        "area_sqm_declared": 5250.498,
        "landmark": true,
        "siting_note": "named_location_requires_official_alignment",
        "reversible": true,
        "operating_state": "public_adoption",
        "daily_mode_priority": true,
        "stop_rule_zh": "分时体验，容量、退款或人工服务失效时停止入场"
      },
      "geometry": {
        "type": "Polygon",
        "coordinates": [
          [
            [
              116.3466179775852,
              39.946958832801066
            ],
            [
              116.34661192981777,
              39.94691806206475
            ],
            [
              116.346601914941,
              39.94687808043555
            ],
            [
              116.34658802940365,
              39.94683927295841
            ],
            [
              116.34657040693102,
              39.94680201337054
            ],
            [
              116.34654921723717,
              39.946766660502135
            ],
            [
              116.34652466439042,
              39.94673355482065
            ],
            [
              116.34649698484809,
              39.946703015151904
            ],
            [
              116.34646644517935,
              39.94667533560959
            ],
            [
              116.34643333949786,
              39.94665078276284
            ],
            [
              116.34639798662947,
              39.94662959306898
            ],
            [
              116.34636072704158,
              39.94661197059635
            ],
            [
              116.34632191956445,
              39.946598085058994
            ],
            [
              116.34628193793525,
              39.94658807018223
            ],
            [
              116.34624116719894,
              39.9465820224148
            ],
            [
              116.3462,
              39.946580000000004
            ],
            [
              116.34615883280105,
              39.9465820224148
            ],
            [
              116.34611806206475,
              39.94658807018223
            ],
            [
              116.34607808043555,
              39.946598085058994
            ],
            [
              116.34603927295841,
              39.94661197059635
            ],
            [
              116.34600201337052,
              39.94662959306898
            ],
            [
              116.34596666050213,
              39.94665078276284
            ],
            [
              116.34593355482065,
              39.94667533560959
            ],
            [
              116.3459030151519,
              39.946703015151904
            ],
            [
              116.34587533560958,
              39.94673355482065
            ],
            [
              116.34585078276282,
              39.946766660502135
            ],
            [
              116.34582959306897,
              39.94680201337054
            ],
            [
              116.34581197059634,
              39.94683927295841
            ],
            [
              116.34579808505899,
              39.94687808043555
            ],
            [
              116.34578807018222,
              39.94691806206475
            ],
            [
              116.3457820224148,
              39.946958832801066
            ],
            [
              116.34577999999999,
              39.947
            ],
            [
              116.3457820224148,
              39.94704116719894
            ],
            [
              116.34578807018222,
              39.94708193793525
            ],
            [
              116.34579808505899,
              39.94712191956445
            ],
            [
              116.34581197059634,
              39.9471607270416
            ],
            [
              116.34582959306897,
              39.94719798662947
            ],
            [
              116.34585078276282,
              39.94723333949787
            ],
            [
              116.34587533560958,
              39.94726644517935
            ],
            [
              116.3459030151519,
              39.9472969848481
            ],
            [
              116.34593355482065,
              39.947324664390415
            ],
            [
              116.34596666050213,
              39.94734921723717
            ],
            [
              116.34600201337052,
              39.94737040693103
            ],
            [
              116.34603927295841,
              39.947388029403655
            ],
            [
              116.34607808043555,
              39.94740191494101
            ],
            [
              116.34611806206475,
              39.947411929817775
            ],
            [
              116.34615883280105,
              39.947417977585204
            ],
            [
              116.3462,
              39.94742
            ],
            [
              116.34624116719894,
              39.947417977585204
            ],
            [
              116.34628193793525,
              39.947411929817775
            ],
            [
              116.34632191956445,
              39.94740191494101
            ],
            [
              116.34636072704158,
              39.947388029403655
            ],
            [
              116.34639798662947,
              39.94737040693103
            ],
            [
              116.34643333949786,
              39.94734921723717
            ],
            [
              116.34646644517935,
              39.947324664390415
            ],
            [
              116.34649698484809,
              39.9472969848481
            ],
            [
              116.34652466439042,
              39.94726644517935
            ],
            [
              116.34654921723717,
              39.94723333949787
            ],
            [
              116.34657040693102,
              39.94719798662947
            ],
            [
              116.34658802940365,
              39.9471607270416
            ],
            [
              116.346601914941,
              39.94712191956445
            ],
            [
              116.34661192981777,
              39.94708193793525
            ],
            [
              116.3466179775852,
              39.94704116719894
            ],
            [
              116.34662,
              39.947
            ],
            [
              116.3466179775852,
              39.946958832801066
            ]
          ]
        ]
      }
    },
    {
      "type": "Feature",
      "id": "SCN-01",
      "properties": {
        "id": "SCN-01",
        "layer": "SCENARIO_NODE",
        "source_type": "agent_generated_design",
        "confidence": "low",
        "geometry_role": "design_proposal",
        "name_zh": "城市提问站",
        "name_en": "City Question Station",
        "scenario_card": "SCN-01",
        "reversible": true,
        "passport_stage": "question_intake",
        "non_ai_equivalent_zh": "人工接待、纸质问题卡与电话受理",
        "same_task_equivalence_required": true,
        "evidence_gate_required": true,
        "daily_mode_priority": true
      },
      "geometry": {
        "type": "Point",
        "coordinates": [
          116.346,
          39.9918
        ]
      }
    },
    {
      "type": "Feature",
      "id": "SCN-02",
      "properties": {
        "id": "SCN-02",
        "layer": "SCENARIO_NODE",
        "source_type": "agent_generated_design",
        "confidence": "low",
        "geometry_role": "design_proposal",
        "name_zh": "多语公共服务",
        "name_en": "Multilingual Public Service",
        "scenario_card": "SCN-02",
        "reversible": true,
        "passport_stage": "public_adoption",
        "non_ai_equivalent_zh": "双语人员、人工窗口与纸质指南",
        "same_task_equivalence_required": true,
        "evidence_gate_required": true,
        "daily_mode_priority": true
      },
      "geometry": {
        "type": "Point",
        "coordinates": [
          116.346,
          39.9805
        ]
      }
    },
    {
      "type": "Feature",
      "id": "SCN-03",
      "properties": {
        "id": "SCN-03",
        "layer": "SCENARIO_NODE",
        "source_type": "agent_generated_design",
        "confidence": "low",
        "geometry_role": "design_proposal",
        "name_zh": "无障碍导航",
        "name_en": "Accessible Navigation",
        "scenario_card": "SCN-03",
        "reversible": true,
        "passport_stage": "public_adoption",
        "non_ai_equivalent_zh": "现场人员、可触读地图与人工带行",
        "same_task_equivalence_required": true,
        "evidence_gate_required": true,
        "daily_mode_priority": true
      },
      "geometry": {
        "type": "Point",
        "coordinates": [
          116.346,
          39.9745
        ]
      }
    },
    {
      "type": "Feature",
      "id": "SCN-04",
      "properties": {
        "id": "SCN-04",
        "layer": "SCENARIO_NODE",
        "source_type": "agent_generated_design",
        "confidence": "low",
        "geometry_role": "design_proposal",
        "name_zh": "AI学习街区",
        "name_en": "AI Learning Quarter",
        "scenario_card": "SCN-04",
        "reversible": true,
        "passport_stage": "translation_and_co_creation",
        "non_ai_equivalent_zh": "教师授课、纸质材料与现场辅导",
        "same_task_equivalence_required": true,
        "evidence_gate_required": true,
        "daily_mode_priority": true
      },
      "geometry": {
        "type": "Point",
        "coordinates": [
          116.346,
          39.986
        ]
      }
    },
    {
      "type": "Feature",
      "id": "SCN-05",
      "properties": {
        "id": "SCN-05",
        "layer": "SCENARIO_NODE",
        "source_type": "agent_generated_design",
        "confidence": "low",
        "geometry_role": "design_proposal",
        "name_zh": "健康资源导航",
        "name_en": "Health Resource Navigation",
        "scenario_card": "SCN-05",
        "reversible": true,
        "passport_stage": "public_adoption",
        "non_ai_equivalent_zh": "人工咨询、电话转介与纸质机构目录",
        "same_task_equivalence_required": true,
        "evidence_gate_required": true,
        "daily_mode_priority": true
      },
      "geometry": {
        "type": "Point",
        "coordinates": [
          116.346,
          39.968
        ]
      }
    },
    {
      "type": "Feature",
      "id": "SCN-06",
      "properties": {
        "id": "SCN-06",
        "layer": "SCENARIO_NODE",
        "source_type": "agent_generated_design",
        "confidence": "low",
        "geometry_role": "design_proposal",
        "name_zh": "历史导览",
        "name_en": "Heritage Interpretation",
        "scenario_card": "SCN-06",
        "reversible": true,
        "passport_stage": "public_adoption",
        "non_ai_equivalent_zh": "人工讲解、固定展签与纸质地图",
        "same_task_equivalence_required": true,
        "evidence_gate_required": true,
        "daily_mode_priority": true
      },
      "geometry": {
        "type": "Point",
        "coordinates": [
          116.346,
          39.9955
        ]
      }
    },
    {
      "type": "Feature",
      "id": "SCN-07",
      "properties": {
        "id": "SCN-07",
        "layer": "SCENARIO_NODE",
        "source_type": "agent_generated_design",
        "confidence": "low",
        "geometry_role": "design_proposal",
        "name_zh": "国际开放日",
        "name_en": "International Open Day",
        "scenario_card": "SCN-07",
        "reversible": true,
        "passport_stage": "public_adoption",
        "non_ai_equivalent_zh": "现场接待、人工预约与普通参观路线",
        "same_task_equivalence_required": true,
        "evidence_gate_required": true,
        "daily_mode_priority": true
      },
      "geometry": {
        "type": "Point",
        "coordinates": [
          116.346,
          39.958
        ]
      }
    },
    {
      "type": "Feature",
      "id": "SCN-08",
      "properties": {
        "id": "SCN-08",
        "layer": "SCENARIO_NODE",
        "source_type": "agent_generated_design",
        "confidence": "low",
        "geometry_role": "design_proposal",
        "name_zh": "企业合规服务",
        "name_en": "Enterprise Compliance Service",
        "scenario_card": "SCN-08",
        "reversible": true,
        "passport_stage": "translation_and_co_creation",
        "non_ai_equivalent_zh": "持证专业人员面谈和人工资料审查",
        "same_task_equivalence_required": true,
        "evidence_gate_required": true,
        "daily_mode_priority": true
      },
      "geometry": {
        "type": "Point",
        "coordinates": [
          116.3438,
          39.984
        ]
      }
    },
    {
      "type": "Feature",
      "id": "SCN-09",
      "properties": {
        "id": "SCN-09",
        "layer": "SCENARIO_NODE",
        "source_type": "agent_generated_design",
        "confidence": "low",
        "geometry_role": "design_proposal",
        "name_zh": "可信模型验证",
        "name_en": "Trustworthy Model Validation",
        "scenario_card": "SCN-09",
        "reversible": true,
        "passport_stage": "controlled_validation",
        "non_ai_equivalent_zh": "独立人工复核、基线测试和书面结论",
        "same_task_equivalence_required": true,
        "evidence_gate_required": true,
        "daily_mode_priority": true
      },
      "geometry": {
        "type": "Point",
        "coordinates": [
          116.349,
          40.018
        ]
      }
    },
    {
      "type": "Feature",
      "id": "SCN-10",
      "properties": {
        "id": "SCN-10",
        "layer": "SCENARIO_NODE",
        "source_type": "agent_generated_design",
        "confidence": "low",
        "geometry_role": "design_proposal",
        "name_zh": "机器人受控测试",
        "name_en": "Controlled Robot Testing",
        "scenario_card": "SCN-10",
        "reversible": true,
        "passport_stage": "controlled_validation",
        "non_ai_equivalent_zh": "现场安全员、人工搬运替代与实体急停",
        "same_task_equivalence_required": true,
        "evidence_gate_required": true,
        "daily_mode_priority": true
      },
      "geometry": {
        "type": "Point",
        "coordinates": [
          116.3532,
          40.01
        ]
      }
    },
    {
      "type": "Feature",
      "id": "SCN-11",
      "properties": {
        "id": "SCN-11",
        "layer": "SCENARIO_NODE",
        "source_type": "agent_generated_design",
        "confidence": "low",
        "geometry_role": "design_proposal",
        "name_zh": "智能商业验证",
        "name_en": "Smart Commerce Validation",
        "scenario_card": "SCN-11",
        "reversible": true,
        "passport_stage": "public_adoption",
        "non_ai_equivalent_zh": "人工客服、普通交易流程与现场退款",
        "same_task_equivalence_required": true,
        "evidence_gate_required": true,
        "daily_mode_priority": true
      },
      "geometry": {
        "type": "Point",
        "coordinates": [
          116.349,
          39.947
        ]
      }
    },
    {
      "type": "Feature",
      "id": "SCN-12",
      "properties": {
        "id": "SCN-12",
        "layer": "SCENARIO_NODE",
        "source_type": "agent_generated_design",
        "confidence": "low",
        "geometry_role": "design_proposal",
        "name_zh": "蓝绿公民科学",
        "name_en": "Blue-Green Citizen Science",
        "scenario_card": "SCN-12",
        "reversible": true,
        "passport_stage": "feedback_and_review",
        "non_ai_equivalent_zh": "人工观察、纸质记录和专业复测",
        "same_task_equivalence_required": true,
        "evidence_gate_required": true,
        "daily_mode_priority": true
      },
      "geometry": {
        "type": "Point",
        "coordinates": [
          116.3532,
          39.9705
        ]
      }
    }
  ]
}
