{
  "type": "FeatureCollection",
  "name": "ai_native_land_use",
  "metadata": {
    "layer": "LAND_USE",
    "crs": "EPSG:4326",
    "description": "AI native urban design land use layout",
    "disclaimer": "concept proposal"
  },
  "features": [
    {
      "type": "Feature",
      "id": "LU-001",
      "properties": {
        "id": "LU-001",
        "layer": "LAND_USE",
        "land_use_code": "0802",
        "land_use_name": "Research land",
        "area_sqm": 2850000,
        "source_type": "agent_generated_design",
        "confidence": "medium",
        "geometry_role": "design_proposal"
      },
      "geometry": {
        "type": "Polygon",
        "coordinates": [
          [
            [
              116.343,
              40.015
            ],
            [
              116.348,
              40.015
            ],
            [
              116.348,
              40.022
            ],
            [
              116.343,
              40.022
            ],
            [
              116.343,
              40.015
            ]
          ]
        ]
      }
    },
    {
      "type": "Feature",
      "id": "LU-002",
      "properties": {
        "id": "LU-002",
        "layer": "LAND_USE",
        "land_use_code": "05",
        "land_use_name": "Commercial land",
        "area_sqm": 1850000,
        "source_type": "agent_generated_design",
        "confidence": "medium",
        "geometry_role": "design_proposal"
      },
      "geometry": {
        "type": "Polygon",
        "coordinates": [
          [
            [
              116.348,
              40.015
            ],
            [
              116.352,
              40.015
            ],
            [
              116.352,
              40.02
            ],
            [
              116.348,
              40.02
            ],
            [
              116.348,
              40.015
            ]
          ]
        ]
      }
    },
    {
      "type": "Feature",
      "id": "LU-003",
      "properties": {
        "id": "LU-003",
        "layer": "LAND_USE",
        "land_use_code": "0701",
        "land_use_name": "Residential land",
        "area_sqm": 2450000,
        "source_type": "agent_generated_design",
        "confidence": "medium",
        "geometry_role": "design_proposal"
      },
      "geometry": {
        "type": "Polygon",
        "coordinates": [
          [
            [
              116.342,
              39.986
            ],
            [
              116.347,
              39.986
            ],
            [
              116.347,
              39.992
            ],
            [
              116.342,
              39.992
            ],
            [
              116.342,
              39.986
            ]
          ]
        ]
      }
    },
    {
      "type": "Feature",
      "id": "LU-004",
      "properties": {
        "id": "LU-004",
        "layer": "LAND_USE",
        "land_use_code": "1401",
        "land_use_name": "Park green space",
        "area_sqm": 1680000,
        "source_type": "agent_generated_design",
        "confidence": "medium",
        "geometry_role": "design_proposal"
      },
      "geometry": {
        "type": "Polygon",
        "coordinates": [
          [
            [
              116.347,
              39.986
            ],
            [
              116.351,
              39.986
            ],
            [
              116.351,
              39.991
            ],
            [
              116.347,
              39.991
            ],
            [
              116.347,
              39.986
            ]
          ]
        ]
      }
    },
    {
      "type": "Feature",
      "id": "LU-005",
      "properties": {
        "id": "LU-005",
        "layer": "LAND_USE",
        "land_use_code": "0802",
        "land_use_name": "Research land",
        "area_sqm": 1450000,
        "source_type": "agent_generated_design",
        "confidence": "medium",
        "geometry_role": "design_proposal"
      },
      "geometry": {
        "type": "Polygon",
        "coordinates": [
          [
            [
              116.343,
              39.945
            ],
            [
              116.348,
              39.945
            ],
            [
              116.348,
              39.948
            ],
            [
              116.343,
              39.948
            ],
            [
              116.343,
              39.945
            ]
          ]
        ]
      }
    },
    {
      "type": "Feature",
      "id": "LU-006",
      "properties": {
        "id": "LU-006",
        "layer": "LAND_USE",
        "land_use_code": "1207",
        "land_use_name": "Urban road land",
        "area_sqm": 1132825,
        "source_type": "agent_generated_design",
        "confidence": "medium",
        "geometry_role": "design_proposal"
      },
      "geometry": {
        "type": "Polygon",
        "coordinates": [
          [
            [
              116.348,
              39.945
            ],
            [
              116.354,
              39.945
            ],
            [
              116.354,
              39.949
            ],
            [
              116.348,
              39.949
            ],
            [
              116.348,
              39.945
            ]
          ]
        ]
      }
    }
  ]
}