{
  "type": "FeatureCollection",
  "features": [
    {
      "type": "Feature",
      "id": "PH-001",
      "properties": {
        "id": "PH-001",
        "layer": "PHASE",
        "name_zh": "第一阶段试点启动区（2026-2028）",
        "phase": 1,
        "source_type": "agent_generated_design",
        "confidence": "medium",
        "geometry_role": "design_proposal"
      },
      "geometry": {
        "type": "Polygon",
        "coordinates": [[[116.347,39.987],[116.350,39.987],[116.350,39.990],[116.347,39.990],[116.347,39.987]]]
      }
    },
    {
      "type": "Feature",
      "id": "PH-002",
      "properties": {
        "id": "PH-002",
        "layer": "PHASE",
        "name_zh": "第二阶段扩展深化区（2028-2032）",
        "phase": 2,
        "source_type": "agent_generated_design",
        "confidence": "medium",
        "geometry_role": "design_proposal"
      },
      "geometry": {
        "type": "Polygon",
        "coordinates": [[[116.343,40.015],[116.348,40.015],[116.348,40.022],[116.343,40.022],[116.343,40.015]]]
      }
    },
    {
      "type": "Feature",
      "id": "PH-003",
      "properties": {
        "id": "PH-003",
        "layer": "PHASE",
        "name_zh": "第三阶段成熟运营区（2032-2035）",
        "phase": 3,
        "source_type": "agent_generated_design",
        "confidence": "medium",
        "geometry_role": "design_proposal"
      },
      "geometry": {
        "type": "Polygon",
        "coordinates": [[[116.343,39.945],[116.348,39.945],[116.348,39.949],[116.343,39.949],[116.343,39.945]]]
      }
    }
  ]
}
