{
  "type": "FeatureCollection",
  "name": "roads_network",
  "features": [
    {
      "type": "Feature",
      "id": "ROAD-001",
      "properties": {
        "id": "ROAD-001",
        "layer": "EXISTING_PRIMARY_ROAD",
        "road_type": "arterial",
        "name_zh": "京藏高速",
        "name_en": "Jingzang Expressway",
        "width_m": 80,
        "lanes": 8,
        "crossing_type": "bridge",
        "note": "西侧边界，需跨线天桥缝合",
        "source_type": "agent_inferred_from_public_data",
        "confidence": "medium",
        "geometry_role": "provisional_constraint"
      },
      "geometry": {
        "type": "LineString",
        "coordinates": [
          [
            116.3407,
            39.939
          ],
          [
            116.3407,
            39.99
          ]
        ]
      }
    },
    {
      "type": "Feature",
      "id": "ROAD-002",
      "properties": {
        "id": "ROAD-002",
        "layer": "EXISTING_PRIMARY_ROAD",
        "road_type": "arterial",
        "name_zh": "北五环",
        "name_en": "North 5th Ring Road",
        "width_m": 70,
        "lanes": 8,
        "crossing_type": "bridge",
        "note": "北侧边界，桥下空间激活",
        "source_type": "agent_inferred_from_public_data",
        "confidence": "medium",
        "geometry_role": "provisional_constraint"
      },
      "geometry": {
        "type": "LineString",
        "coordinates": [
          [
            116.3427,
            40.0265
          ],
          [
            116.3553,
            40.0265
          ]
        ]
      }
    },
    {
      "type": "Feature",
      "id": "ROAD-003",
      "properties": {
        "id": "ROAD-003",
        "layer": "EXISTING_RAIL",
        "road_type": "subway",
        "name_zh": "地铁13号线",
        "name_en": "Line 13",
        "stations": [
          "五道口",
          "清华东路西口",
          "大钟寺"
        ],
        "note": "南北向轨道主干",
        "source_type": "agent_inferred_from_public_data",
        "confidence": "medium",
        "geometry_role": "provisional_constraint"
      },
      "geometry": {
        "type": "LineString",
        "coordinates": [
          [
            116.342,
            39.944
          ],
          [
            116.342,
            39.9835
          ],
          [
            116.342,
            40.0075
          ],
          [
            116.342,
            40.012
          ]
        ]
      }
    },
    {
      "type": "Feature",
      "id": "ROAD-004",
      "properties": {
        "id": "ROAD-004",
        "layer": "EXISTING_RAIL",
        "road_type": "subway",
        "name_zh": "地铁昌平线",
        "name_en": "Changping Line",
        "stations": [
          "西二旗",
          "清河",
          "六道口"
        ],
        "note": "西北-东南向轨道",
        "source_type": "agent_inferred_from_public_data",
        "confidence": "medium",
        "geometry_role": "provisional_constraint"
      },
      "geometry": {
        "type": "LineString",
        "coordinates": [
          [
            116.343,
            40.026
          ],
          [
            116.354,
            40.0075
          ],
          [
            116.355,
            39.944
          ]
        ]
      }
    },
    {
      "type": "Feature",
      "id": "ROAD-005",
      "properties": {
        "id": "ROAD-005",
        "layer": "ROAD_CENTERLINE",
        "road_type": "slow_traffic",
        "name_zh": "京张遗址公园步道",
        "name_en": "Jing-Zhang Heritage Trail",
        "width_m": 6,
        "length_km": 9,
        "surface": "permeable_paving",
        "note": "南北贯通慢行主轴",
        "source_type": "agent_inferred_from_public_data",
        "confidence": "medium",
        "geometry_role": "provisional_constraint"
      },
      "geometry": {
        "type": "LineString",
        "coordinates": [
          [
            116.345,
            39.944
          ],
          [
            116.348,
            39.9835
          ],
          [
            116.346,
            40.0075
          ],
          [
            116.347,
            40.026
          ]
        ]
      }
    },
    {
      "type": "Feature",
      "id": "ROAD-006",
      "properties": {
        "id": "ROAD-006",
        "layer": "ROAD_CENTERLINE",
        "road_type": "slow_traffic",
        "name_zh": "东西向慢行缝合廊",
        "name_en": "East-West Slow Traffic Corridor",
        "width_m": 4,
        "surface": "permeable_paving",
        "note": "跨京藏高速/北五环步行天桥",
        "source_type": "agent_inferred_from_public_data",
        "confidence": "medium",
        "geometry_role": "provisional_constraint"
      },
      "geometry": {
        "type": "LineString",
        "coordinates": [
          [
            116.3407,
            39.9835
          ],
          [
            116.3553,
            39.9835
          ]
        ]
      }
    }
  ]
}