{
  "type": "FeatureCollection",
  "name": "adaptive_three_phase_framework",
  "features": [
    {
      "type": "Feature",
      "id": "PHASE-001",
      "properties": {
        "id": "PHASE-001",
        "layer": "PHASE",
        "source_type": "agent_generated_design",
        "confidence": "medium",
        "geometry_role": "design_proposal",
        "name_zh": "先开放：公共协议与小尺度试点",
        "name_en": "Open first: public protocol and small pilots",
        "phase_order": 1,
        "trigger": "public_review_and_professional_confirmation",
        "area_sqm_declared": 4229811.537
      },
      "geometry": {
        "type": "Polygon",
        "coordinates": [
          [
            [
              116.3553,
              39.965
            ],
            [
              116.3553,
              39.939
            ],
            [
              116.34070000000001,
              39.93899999999999
            ],
            [
              116.3398754450381,
              39.96868740162649
            ],
            [
              116.35499829907123,
              39.96877253619742
            ],
            [
              116.3553,
              39.965
            ]
          ]
        ]
      }
    },
    {
      "type": "Feature",
      "id": "PHASE-002",
      "properties": {
        "id": "PHASE-002",
        "layer": "PHASE",
        "source_type": "agent_generated_design",
        "confidence": "medium",
        "geometry_role": "design_proposal",
        "name_zh": "再缝合：三站与慢行连续性",
        "name_en": "Then mend: three stations and slow-mobility continuity",
        "phase_order": 2,
        "trigger": "public_review_and_professional_confirmation",
        "area_sqm_declared": 3752656.775
      },
      "geometry": {
        "type": "Polygon",
        "coordinates": [
          [
            [
              116.3533,
              39.989999999999995
            ],
            [
              116.35499829907123,
              39.96877253619742
            ],
            [
              116.3398754450381,
              39.96868740162649
            ],
            [
              116.3397,
              39.975
            ],
            [
              116.34115745444255,
              39.997593038869724
            ],
            [
              116.35371977648572,
              39.99766377104547
            ],
            [
              116.3533,
              39.989999999999995
            ]
          ]
        ]
      }
    },
    {
      "type": "Feature",
      "id": "PHASE-003",
      "properties": {
        "id": "PHASE-003",
        "layer": "PHASE",
        "source_type": "agent_generated_design",
        "confidence": "medium",
        "geometry_role": "design_proposal",
        "name_zh": "后生长：生态与产业网络迭代",
        "name_en": "Then grow: ecological and industry-network iteration",
        "phase_order": 3,
        "trigger": "public_review_and_professional_confirmation",
        "area_sqm_declared": 3430357.073
      },
      "geometry": {
        "type": "Polygon",
        "coordinates": [
          [
            [
              116.34169999999999,
              40.00600000000001
            ],
            [
              116.34270000000001,
              40.0265
            ],
            [
              116.3553,
              40.0265
            ],
            [
              116.35371977648572,
              39.99766377104547
            ],
            [
              116.34115745444255,
              39.997593038869724
            ],
            [
              116.34169999999999,
              40.00600000000001
            ]
          ]
        ]
      }
    }
  ]
}
