{
 "type": "FeatureCollection",
 "name": "REN BELT · 公共空间",
 "features": [
  {
   "type": "Feature",
   "id": "PUBLIC-001",
   "properties": {
    "source_type": "agent_generated_design",
    "confidence": "medium",
    "geometry_role": "design_proposal",
    "id": "PUBLIC-001",
    "layer": "PUBLIC_SPACE",
    "name_zh": "广场用地·朝圣地标节点",
    "public_space_type": "landmark_plaza",
    "note": "朝圣地标广场为概念建议，需专业团队与权属主体深化。",
    "area_sqm_declared": 54378.484
   },
   "geometry": {
    "type": "Polygon",
    "coordinates": [
     [
      [
       116.34545162,
       39.99254146
      ],
      [
       116.34629834,
       39.99254624
      ],
      [
       116.34630262,
       39.99259045
      ],
      [
       116.34663456,
       39.99259233
      ],
      [
       116.34663285,
       39.99277244
      ],
      [
       116.3471189,
       39.99277518
      ],
      [
       116.34728336,
       39.9927761
      ],
      [
       116.34771002,
       39.99277851
      ],
      [
       116.34771174,
       39.99259839
      ],
      [
       116.34806475,
       39.99260038
      ],
      [
       116.34806047,
       39.99255617
      ],
      [
       116.34872997,
       39.99255993
      ],
      [
       116.34873144,
       39.99240599
      ],
      [
       116.3487458,
       39.99089389
      ],
      [
       116.34789909,
       39.99088913
      ],
      [
       116.34766484,
       39.99088781
      ],
      [
       116.34743705,
       39.99088653
      ],
      [
       116.34709637,
       39.99088461
      ],
      [
       116.34693169,
       39.99088368
      ],
      [
       116.34677626,
       39.99088281
      ],
      [
       116.34654847,
       39.99088152
      ],
      [
       116.34613701,
       39.9908792
      ],
      [
       116.34546752,
       39.99087542
      ],
      [
       116.34545309,
       39.99238753
      ],
      [
       116.34545162,
       39.99254146
      ]
     ]
    ]
   }
  },
  {
   "type": "Feature",
   "id": "PUBLIC-002",
   "properties": {
    "source_type": "agent_generated_design",
    "confidence": "medium",
    "geometry_role": "design_proposal",
    "id": "PUBLIC-002",
    "layer": "PUBLIC_SPACE",
    "name_zh": "广场用地·朝圣地标节点",
    "public_space_type": "landmark_plaza",
    "note": "朝圣地标广场为概念建议，需专业团队与权属主体深化。",
    "area_sqm_declared": 39200.147
   },
   "geometry": {
    "type": "Polygon",
    "coordinates": [
     [
      [
       116.34943279,
       40.02341565
      ],
      [
       116.35014743,
       40.02341966
      ],
      [
       116.35076981,
       40.02342315
      ],
      [
       116.35078347,
       40.02198226
      ],
      [
       116.35012929,
       40.02197859
      ],
      [
       116.34966495,
       40.02197598
      ],
      [
       116.34944896,
       40.02197477
      ],
      [
       116.34941467,
       40.02197458
      ],
      [
       116.34925066,
       40.02197366
      ],
      [
       116.34924818,
       40.02197365
      ],
      [
       116.34903219,
       40.02197243
      ],
      [
       116.34853604,
       40.02196964
      ],
      [
       116.34791367,
       40.02196614
      ],
      [
       116.34789995,
       40.02340704
      ],
      [
       116.34855414,
       40.02341072
      ],
      [
       116.34926878,
       40.02341473
      ],
      [
       116.34943279,
       40.02341565
      ]
     ]
    ]
   }
  },
  {
   "type": "Feature",
   "id": "PUBLIC-003",
   "properties": {
    "source_type": "agent_generated_design",
    "confidence": "medium",
    "geometry_role": "design_proposal",
    "id": "PUBLIC-003",
    "layer": "PUBLIC_SPACE",
    "name_zh": "广场用地·朝圣地标节点",
    "public_space_type": "landmark_plaza",
    "note": "朝圣地标广场为概念建议，需专业团队与权属主体深化。",
    "area_sqm_declared": 34499.964
   },
   "geometry": {
    "type": "Polygon",
    "coordinates": [
     [
      [
       116.34188272,
       39.94809952
      ],
      [
       116.34162587,
       39.94809806
      ],
      [
       116.34102132,
       39.94809463
      ],
      [
       116.3410212,
       39.94810646
      ],
      [
       116.34101961,
       39.94827242
      ],
      [
       116.34101567,
       39.9486826
      ],
      [
       116.34101377,
       39.94888073
      ],
      [
       116.34100835,
       39.94944548
      ],
      [
       116.342,
       39.94945111
      ],
      [
       116.34232775,
       39.94945297
      ],
      [
       116.34249189,
       39.9494539
      ],
      [
       116.34313675,
       39.94945756
      ],
      [
       116.34367562,
       39.94946061
      ],
      [
       116.34369959,
       39.94946075
      ],
      [
       116.34370108,
       39.94930533
      ],
      [
       116.34370499,
       39.94889599
      ],
      [
       116.34370688,
       39.94869787
      ],
      [
       116.3437125,
       39.94810989
      ],
      [
       116.34310795,
       39.94810647
      ],
      [
       116.34303798,
       39.94810607
      ],
      [
       116.3428511,
       39.94810502
      ],
      [
       116.34240078,
       39.94810246
      ],
      [
       116.34223689,
       39.94810153
      ],
      [
       116.342,
       39.94810019
      ],
      [
       116.34193588,
       39.94809982
      ],
      [
       116.34188272,
       39.94809952
      ]
     ]
    ]
   }
  },
  {
   "type": "Feature",
   "id": "PUBLIC-004",
   "properties": {
    "source_type": "agent_generated_design",
    "confidence": "medium",
    "geometry_role": "design_proposal",
    "id": "PUBLIC-004",
    "layer": "PUBLIC_SPACE",
    "name_zh": "广场用地·朝圣地标节点",
    "public_space_type": "landmark_plaza",
    "note": "朝圣地标广场为概念建议，需专业团队与权属主体深化。",
    "area_sqm_declared": 5703.989
   },
   "geometry": {
    "type": "Polygon",
    "coordinates": [
     [
      [
       116.34586172,
       39.9860135
      ],
      [
       116.34635419,
       39.98601628
      ],
      [
       116.34651891,
       39.98601721
      ],
      [
       116.34693879,
       39.98601958
      ],
      [
       116.34694051,
       39.98583947
      ],
      [
       116.34694239,
       39.98564134
      ],
      [
       116.34694411,
       39.98546123
      ],
      [
       116.34645164,
       39.98545845
      ],
      [
       116.34628692,
       39.98545752
      ],
      [
       116.34586704,
       39.98545516
      ],
      [
       116.34586533,
       39.98563527
      ],
      [
       116.34586344,
       39.98583339
      ],
      [
       116.34586172,
       39.9860135
      ]
     ]
    ]
   }
  },
  {
   "type": "Feature",
   "id": "PUBLIC-005",
   "properties": {
    "source_type": "agent_generated_design",
    "confidence": "medium",
    "geometry_role": "design_proposal",
    "id": "PUBLIC-005",
    "layer": "PUBLIC_SPACE",
    "name_zh": "广场用地·朝圣地标节点",
    "public_space_type": "landmark_plaza",
    "note": "朝圣地标广场为概念建议，需专业团队与权属主体深化。",
    "area_sqm_declared": 5704.04
   },
   "geometry": {
    "type": "Polygon",
    "coordinates": [
     [
      [
       116.34866043,
       40.0180009
      ],
      [
       116.34913528,
       40.01800357
      ],
      [
       116.34929947,
       40.01800449
      ],
      [
       116.34973801,
       40.01800695
      ],
      [
       116.34973972,
       40.01782684
      ],
      [
       116.3497416,
       40.01762871
      ],
      [
       116.34974331,
       40.0174486
      ],
      [
       116.34926846,
       40.01744594
      ],
      [
       116.34910428,
       40.01744502
      ],
      [
       116.34866574,
       40.01744255
      ],
      [
       116.34866403,
       40.01762266
      ],
      [
       116.34866214,
       40.01782079
      ],
      [
       116.34866043,
       40.0180009
      ]
     ]
    ]
   }
  },
  {
   "type": "Feature",
   "id": "PUBLIC-006",
   "properties": {
    "source_type": "agent_generated_design",
    "confidence": "medium",
    "geometry_role": "design_proposal",
    "id": "PUBLIC-006",
    "layer": "PUBLIC_SPACE",
    "name_zh": "广场用地·朝圣地标节点",
    "public_space_type": "landmark_plaza",
    "note": "朝圣地标广场为概念建议，需专业团队与权属主体深化。",
    "area_sqm_declared": 5086.278
   },
   "geometry": {
    "type": "Polygon",
    "coordinates": [
     [
      [
       116.34792105,
       40.00618077
      ],
      [
       116.34791985,
       40.0063062
      ],
      [
       116.34791933,
       40.00636088
      ],
      [
       116.34791745,
       40.006559
      ],
      [
       116.34808978,
       40.00655997
      ],
      [
       116.3481051,
       40.00674018
      ],
      [
       116.34839864,
       40.00674183
      ],
      [
       116.34856303,
       40.00674275
      ],
      [
       116.34885657,
       40.0067444
      ],
      [
       116.34890091,
       40.00674465
      ],
      [
       116.34899313,
       40.00674517
      ],
      [
       116.34899432,
       40.00661974
      ],
      [
       116.34899484,
       40.00656506
      ],
      [
       116.34899672,
       40.00636693
      ],
      [
       116.34882439,
       40.00636597
      ],
      [
       116.34880907,
       40.00618576
      ],
      [
       116.34851553,
       40.00618411
      ],
      [
       116.34835115,
       40.00618318
      ],
      [
       116.34805761,
       40.00618153
      ],
      [
       116.34801326,
       40.00618128
      ],
      [
       116.34792105,
       40.00618077
      ]
     ]
    ]
   }
  },
  {
   "type": "Feature",
   "id": "PUBLIC-007",
   "properties": {
    "source_type": "agent_generated_design",
    "confidence": "medium",
    "geometry_role": "design_proposal",
    "id": "PUBLIC-007",
    "layer": "PUBLIC_SPACE",
    "name_zh": "广场用地·朝圣地标节点",
    "public_space_type": "landmark_plaza",
    "note": "朝圣地标广场为概念建议，需专业团队与权属主体深化。",
    "area_sqm_declared": 4932.336
   },
   "geometry": {
    "type": "Polygon",
    "coordinates": [
     [
      [
       116.34187656,
       39.94508502
      ],
      [
       116.34171421,
       39.9450841
      ],
      [
       116.34171231,
       39.94528223
      ],
      [
       116.34187753,
       39.94528316
      ],
      [
       116.34187841,
       39.94546329
      ],
      [
       116.342,
       39.94546398
      ],
      [
       116.34217094,
       39.94546495
      ],
      [
       116.34233476,
       39.94546588
      ],
      [
       116.34278702,
       39.94546845
      ],
      [
       116.34278874,
       39.94528833
      ],
      [
       116.34279064,
       39.94509021
      ],
      [
       116.34279236,
       39.94491009
      ],
      [
       116.34233201,
       39.94490748
      ],
      [
       116.3421682,
       39.94490655
      ],
      [
       116.342,
       39.9449056
      ],
      [
       116.342,
       39.94508572
      ],
      [
       116.34187656,
       39.94508502
      ]
     ]
    ]
   }
  },
  {
   "type": "Feature",
   "id": "PUBLIC-008",
   "properties": {
    "source_type": "agent_generated_design",
    "confidence": "medium",
    "geometry_role": "design_proposal",
    "id": "PUBLIC-008",
    "layer": "PUBLIC_SPACE",
    "name_zh": "广场用地·朝圣地标节点",
    "public_space_type": "landmark_plaza",
    "note": "朝圣地标广场为概念建议，需专业团队与权属主体深化。",
    "area_sqm_declared": 4598.794
   },
   "geometry": {
    "type": "Polygon",
    "coordinates": [
     [
      [
       116.3452662,
       39.97952573
      ],
      [
       116.3452897,
       39.97970599
      ],
      [
       116.34558404,
       39.97970765
      ],
      [
       116.34574888,
       39.97970858
      ],
      [
       116.34604323,
       39.97971024
      ],
      [
       116.34601973,
       39.97952999
      ],
      [
       116.34616758,
       39.97953082
      ],
      [
       116.34616947,
       39.9793327
      ],
      [
       116.34599388,
       39.97933171
      ],
      [
       116.34597039,
       39.97915145
      ],
      [
       116.34567604,
       39.97914979
      ],
      [
       116.34551121,
       39.97914886
      ],
      [
       116.34521686,
       39.9791472
      ],
      [
       116.34524036,
       39.97932745
      ],
      [
       116.3450925,
       39.97932662
      ],
      [
       116.34509061,
       39.97952474
      ],
      [
       116.3452662,
       39.97952573
      ]
     ]
    ]
   }
  },
  {
   "type": "Feature",
   "id": "PUBLIC-009",
   "properties": {
    "source_type": "agent_generated_design",
    "confidence": "medium",
    "geometry_role": "design_proposal",
    "id": "PUBLIC-009",
    "layer": "PUBLIC_SPACE",
    "name_zh": "广场用地·朝圣地标节点",
    "public_space_type": "landmark_plaza",
    "note": "朝圣地标广场为概念建议，需专业团队与权属主体深化。",
    "area_sqm_declared": 4594.894
   },
   "geometry": {
    "type": "Polygon",
    "coordinates": [
     [
      [
       116.34386435,
       39.96871045
      ],
      [
       116.34388424,
       39.96889068
      ],
      [
       116.34418317,
       39.96889237
      ],
      [
       116.34434791,
       39.9688933
      ],
      [
       116.3446365,
       39.96889494
      ],
      [
       116.34461661,
       39.9687147
      ],
      [
       116.344767,
       39.96871555
      ],
      [
       116.34476889,
       39.96851743
      ],
      [
       116.34459474,
       39.96851644
      ],
      [
       116.34457485,
       39.96833621
      ],
      [
       116.344281,
       39.96833454
      ],
      [
       116.34411644,
       39.96833361
      ],
      [
       116.34382259,
       39.96833195
      ],
      [
       116.34384248,
       39.96851219
      ],
      [
       116.34369209,
       39.96851133
      ],
      [
       116.3436902,
       39.96870946
      ],
      [
       116.34386435,
       39.96871045
      ]
     ]
    ]
   }
  },
  {
   "type": "Feature",
   "id": "PUBLIC-010",
   "properties": {
    "source_type": "agent_generated_design",
    "confidence": "medium",
    "geometry_role": "design_proposal",
    "id": "PUBLIC-010",
    "layer": "PUBLIC_SPACE",
    "name_zh": "广场用地·朝圣地标节点",
    "public_space_type": "landmark_plaza",
    "note": "朝圣地标广场为概念建议，需专业团队与权属主体深化。",
    "area_sqm_declared": 4594.878
   },
   "geometry": {
    "type": "Polygon",
    "coordinates": [
     [
      [
       116.34254695,
       39.95834591
      ],
      [
       116.34272107,
       39.95834689
      ],
      [
       116.34274095,
       39.95852713
      ],
      [
       116.34303568,
       39.9585288
      ],
      [
       116.3432002,
       39.95852973
      ],
      [
       116.3434931,
       39.95853139
      ],
      [
       116.34347322,
       39.95835116
      ],
      [
       116.34362358,
       39.95835201
      ],
      [
       116.34362548,
       39.95815388
      ],
      [
       116.34345135,
       39.9581529
      ],
      [
       116.34343147,
       39.95797266
      ],
      [
       116.34313907,
       39.95797101
      ],
      [
       116.34297455,
       39.95797007
      ],
      [
       116.34267932,
       39.9579684
      ],
      [
       116.3426992,
       39.95814864
      ],
      [
       116.34254884,
       39.95814778
      ],
      [
       116.34254695,
       39.95834591
      ]
     ]
    ]
   }
  },
  {
   "type": "Feature",
   "id": "PUBLIC-011",
   "properties": {
    "source_type": "agent_generated_design",
    "confidence": "medium",
    "geometry_role": "design_proposal",
    "id": "PUBLIC-011",
    "layer": "PUBLIC_SPACE",
    "name_zh": "线性公共空间·人字缝合·城门点（大钟寺）·西撇",
    "public_space_type": "stitch_corridor",
    "note": "东西缝合与南北贯通的慢行公共空间建议，不构成道路红线或工程结论。",
    "area_sqm_declared": 3442.762
   },
   "geometry": {
    "type": "Polygon",
    "coordinates": [
     [
      [
       116.34049066,
       39.94654031
      ],
      [
       116.34048295,
       39.94681791
      ],
      [
       116.34162587,
       39.94809806
      ],
      [
       116.34188272,
       39.94809952
      ],
      [
       116.34049066,
       39.94654031
      ]
     ]
    ]
   }
  },
  {
   "type": "Feature",
   "id": "PUBLIC-012",
   "properties": {
    "source_type": "agent_generated_design",
    "confidence": "medium",
    "geometry_role": "design_proposal",
    "id": "PUBLIC-012",
    "layer": "PUBLIC_SPACE",
    "name_zh": "线性公共空间·人字缝合·城门点（大钟寺）·东捺",
    "public_space_type": "stitch_corridor",
    "note": "东西缝合与南北贯通的慢行公共空间建议，不构成道路红线或工程结论。",
    "area_sqm_declared": 8730.76
   },
   "geometry": {
    "type": "Polygon",
    "coordinates": [
     [
      [
       116.3428511,
       39.94810502
      ],
      [
       116.34310795,
       39.94810647
      ],
      [
       116.34634818,
       39.94458925
      ],
      [
       116.34617637,
       39.94449548
      ],
      [
       116.3428511,
       39.94810502
      ]
     ]
    ]
   }
  },
  {
   "type": "Feature",
   "id": "PUBLIC-013",
   "properties": {
    "source_type": "agent_generated_design",
    "confidence": "medium",
    "geometry_role": "design_proposal",
    "id": "PUBLIC-013",
    "layer": "PUBLIC_SPACE",
    "name_zh": "线性公共空间·人字缝合·原点（AI原点社区）·西撇",
    "public_space_type": "stitch_corridor",
    "note": "东西缝合与南北贯通的慢行公共空间建议，不构成道路红线或工程结论。",
    "area_sqm_declared": 13850.676
   },
   "geometry": {
    "type": "Polygon",
    "coordinates": [
     [
      [
       116.34654847,
       39.99088152
      ],
      [
       116.34677626,
       39.99088281
      ],
      [
       116.34340215,
       39.98442146
      ],
      [
       116.3432066,
       39.98448188
      ],
      [
       116.34654847,
       39.99088152
      ]
     ]
    ]
   }
  },
  {
   "type": "Feature",
   "id": "PUBLIC-014",
   "properties": {
    "source_type": "agent_generated_design",
    "confidence": "medium",
    "geometry_role": "design_proposal",
    "id": "PUBLIC-014",
    "layer": "PUBLIC_SPACE",
    "name_zh": "线性公共空间·人字缝合·原点（AI原点社区）·东捺",
    "public_space_type": "stitch_corridor",
    "note": "东西缝合与南北贯通的慢行公共空间建议，不构成道路红线或工程结论。",
    "area_sqm_declared": 13850.359
   },
   "geometry": {
    "type": "Polygon",
    "coordinates": [
     [
      [
       116.34743705,
       39.99088653
      ],
      [
       116.34766484,
       39.99088781
      ],
      [
       116.3511282,
       39.98452649
      ],
      [
       116.35093383,
       39.98446388
      ],
      [
       116.34743705,
       39.99088653
      ]
     ]
    ]
   }
  },
  {
   "type": "Feature",
   "id": "PUBLIC-015",
   "properties": {
    "source_type": "agent_generated_design",
    "confidence": "medium",
    "geometry_role": "design_proposal",
    "id": "PUBLIC-015",
    "layer": "PUBLIC_SPACE",
    "name_zh": "线性公共空间·人字缝合·上行点（众智园）·西撇",
    "public_space_type": "stitch_corridor",
    "note": "东西缝合与南北贯通的慢行公共空间建议，不构成道路红线或工程结论。",
    "area_sqm_declared": 25888.466
   },
   "geometry": {
    "type": "Polygon",
    "coordinates": [
     [
      [
       116.34903219,
       40.02197243
      ],
      [
       116.34924818,
       40.02197365
      ],
      [
       116.34570697,
       40.00929207
      ],
      [
       116.34550085,
       40.00932609
      ],
      [
       116.34903219,
       40.02197243
      ]
     ]
    ]
   }
  },
  {
   "type": "Feature",
   "id": "PUBLIC-016",
   "properties": {
    "source_type": "agent_generated_design",
    "confidence": "medium",
    "geometry_role": "design_proposal",
    "id": "PUBLIC-016",
    "layer": "PUBLIC_SPACE",
    "name_zh": "线性公共空间·人字缝合·上行点（众智园）·东捺",
    "public_space_type": "stitch_corridor",
    "note": "东西缝合与南北贯通的慢行公共空间建议，不构成道路红线或工程结论。",
    "area_sqm_declared": 25888.547
   },
   "geometry": {
    "type": "Polygon",
    "coordinates": [
     [
      [
       116.34944896,
       40.02197477
      ],
      [
       116.34966495,
       40.02197598
      ],
      [
       116.35343608,
       40.00937064
      ],
      [
       116.35323063,
       40.0093343
      ],
      [
       116.34944896,
       40.02197477
      ]
     ]
    ]
   }
  },
  {
   "type": "Feature",
   "id": "PUBLIC-017",
   "properties": {
    "source_type": "agent_generated_design",
    "confidence": "medium",
    "geometry_role": "design_proposal",
    "id": "PUBLIC-017",
    "layer": "PUBLIC_SPACE",
    "name_zh": "线性公共空间·开发者散步道（主轴慢行环，沿已建成绿廊）",
    "public_space_type": "developer_walk",
    "note": "东西缝合与南北贯通的慢行公共空间建议，不构成道路红线或工程结论。",
    "area_sqm_declared": 120010.096
   },
   "geometry": {
    "type": "MultiPolygon",
    "coordinates": [
     [
      [
       [
        116.3421682,
        39.94490655
       ],
       [
        116.34233201,
        39.94490748
       ],
       [
        116.34232648,
        39.94378098
       ],
       [
        116.34231541,
        39.94152937
       ],
       [
        116.34230435,
        39.93927776
       ],
       [
        116.34214056,
        39.93927824
       ],
       [
        116.34215162,
        39.94152985
       ],
       [
        116.34216267,
        39.94378145
       ],
       [
        116.3421682,
        39.94490655
       ]
      ]
     ],
     [
      [
       [
        116.34217373,
        39.94603368
       ],
       [
        116.34223689,
        39.94810153
       ],
       [
        116.34240078,
        39.94810246
       ],
       [
        116.34233754,
        39.94603196
       ],
       [
        116.34233476,
        39.94546588
       ],
       [
        116.34217094,
        39.94546495
       ],
       [
        116.34217373,
        39.94603368
       ]
      ]
     ],
     [
      [
       [
        116.34240723,
        39.95054077
       ],
       [
        116.34257184,
        39.95279325
       ],
       [
        116.34273645,
        39.95504572
       ],
       [
        116.34290113,
        39.95729907
       ],
       [
        116.34297455,
        39.95797007
       ],
       [
        116.34313907,
        39.95797101
       ],
       [
        116.34306458,
        39.95729024
       ],
       [
        116.34290002,
        39.95503864
       ],
       [
        116.3427354,
        39.95278617
       ],
       [
        116.3425708,
        39.95053369
       ],
       [
        116.34249189,
        39.9494539
       ],
       [
        116.34232775,
        39.94945297
       ],
       [
        116.34240723,
        39.95054077
       ]
      ]
     ],
     [
      [
       [
        116.34314773,
        39.95955288
       ],
       [
        116.34339626,
        39.96180587
       ],
       [
        116.34411644,
        39.96833361
       ],
       [
        116.344281,
        39.96833454
       ],
       [
        116.34355952,
        39.96179521
       ],
       [
        116.34331099,
        39.95954228
       ],
       [
        116.3432002,
        39.95852973
       ],
       [
        116.34303568,
        39.9585288
       ],
       [
        116.34314773,
        39.95955288
       ]
      ]
     ],
     [
      [
       [
        116.34442557,
        39.9708187
       ],
       [
        116.34530651,
        39.97757838
       ],
       [
        116.34551121,
        39.97914886
       ],
       [
        116.34567604,
        39.97914979
       ],
       [
        116.34546958,
        39.9775658
       ],
       [
        116.34458865,
        39.97080633
       ],
       [
        116.34434791,
        39.9688933
       ],
       [
        116.34418317,
        39.96889237
       ],
       [
        116.34442557,
        39.9708187
       ]
      ]
     ],
     [
      [
       [
        116.34560018,
        39.97983144
       ],
       [
        116.34588088,
        39.98208431
       ],
       [
        116.34628692,
        39.98545752
       ],
       [
        116.34645164,
        39.98545845
       ],
       [
        116.34604405,
        39.98207248
       ],
       [
        116.34576329,
        39.97981913
       ],
       [
        116.34574888,
        39.97970858
       ],
       [
        116.34558404,
        39.97970765
       ],
       [
        116.34560018,
        39.97983144
       ]
      ]
     ],
     [
      [
       [
        116.34669452,
        39.98884329
       ],
       [
        116.34693169,
        39.99088368
       ],
       [
        116.34709637,
        39.99088461
       ],
       [
        116.34685776,
        39.98883186
       ],
       [
        116.34651891,
        39.98601721
       ],
       [
        116.34635419,
        39.98601628
       ],
       [
        116.34669452,
        39.98884329
       ]
      ]
     ],
     [
      [
       [
        116.34717435,
        39.99334802
       ],
       [
        116.34782856,
        40.00010605
       ],
       [
        116.34802598,
        40.0023584
       ],
       [
        116.34835115,
        40.00618318
       ],
       [
        116.34851553,
        40.00618411
       ],
       [
        116.34818957,
        40.00235005
       ],
       [
        116.34799209,
        40.00009713
       ],
       [
        116.34733782,
        39.99333865
       ],
       [
        116.34728336,
        39.9927761
       ],
       [
        116.3471189,
        39.99277518
       ],
       [
        116.34717435,
        39.99334802
       ]
      ]
     ],
     [
      [
       [
        116.34860049,
        40.00911587
       ],
       [
        116.34876696,
        40.01136761
       ],
       [
        116.34910428,
        40.01744502
       ],
       [
        116.34926846,
        40.01744594
       ],
       [
        116.34893073,
        40.01136135
       ],
       [
        116.34876415,
        40.00910818
       ],
       [
        116.34856303,
        40.00674275
       ],
       [
        116.34839864,
        40.00674183
       ],
       [
        116.34860049,
        40.00911587
       ]
      ]
     ],
     [
      [
       [
        116.34914194,
        40.01812344
       ],
       [
        116.34923055,
        40.02037442
       ],
       [
        116.34925066,
        40.02197366
       ],
       [
        116.34941467,
        40.02197458
       ],
       [
        116.34939452,
        40.0203719
       ],
       [
        116.34930581,
        40.01811884
       ],
       [
        116.34929947,
        40.01800449
       ],
       [
        116.34913528,
        40.01800357
       ],
       [
        116.34914194,
        40.01812344
       ]
      ]
     ],
     [
      [
       [
        116.34928716,
        40.02487712
       ],
       [
        116.34945116,
        40.0248759
       ],
       [
        116.34943279,
        40.02341565
       ],
       [
        116.34926878,
        40.02341473
       ],
       [
        116.34928716,
        40.02487712
       ]
      ]
     ]
    ]
   }
  }
 ]
}
