{
  "type": "FeatureCollection",
  "name": "jzac_three_provisional_key_areas",
  "features": [
    {
      "type": "Feature",
      "id": "PROV-KEY-001",
      "properties": {
        "id": "PROV-KEY-001",
        "layer": "KEY_AREA",
        "parent_scope_id": "key_detailed_design_area",
        "area_id": "zhongzhiyuan_ai_acceleration_area",
        "name_zh": "众智园AI自主创新加速区粗略范围",
        "source_type": "agent_inferred_from_public_data",
        "confidence": "medium",
        "geometry_role": "provisional_constraint",
        "official_boundary": false,
        "boundary_precision": "provisional_rough",
        "announced_area_sqm": 1921000,
        "area_sqm_calculated": 1929201.877,
        "source_id": "DATA-SRC-PROVISIONAL-BOUNDARIES-20260605",
        "derived_from_source_ids": [
          "DATA-SRC-OFFICIAL-ANNOUNCEMENT-20260509"
        ],
        "source_title": "依据公告重点片区名称、南北顺序、公告约面积和临时 SITE_BOUNDARY 形成的临时粗略范围",
        "derivation_method": "按公告自北向南第一处、众智园AI自主创新加速区、约192.1公顷及五环路/清河相关任务线索，在临时总体设计范围内粗略定位并校核面积；公告未给出四至，矩形边不得解释为地块或道路红线。",
        "usage_note": "仅用于 AI agent 生成、展示和临时自检；不得作为 official key-area polygon、审批依据或精确面积复算依据。",
        "name_en": "Zhongzhiyuan AI Independent Innovation Acceleration Area",
        "design_focus_zh": "评测工坊、标准协作、全栈自主创新与清河公共界面",
        "design_focus_en": "evaluation, standards collaboration, full-stack innovation and the Qinghe public interface"
      },
      "geometry": {
        "type": "Polygon",
        "coordinates": [
          [
            [
              116.343,
              40.0075
            ],
            [
              116.354,
              40.0075
            ],
            [
              116.354,
              40.026
            ],
            [
              116.343,
              40.026
            ],
            [
              116.343,
              40.0075
            ]
          ]
        ]
      }
    },
    {
      "type": "Feature",
      "id": "PROV-KEY-002",
      "properties": {
        "id": "PROV-KEY-002",
        "layer": "KEY_AREA",
        "parent_scope_id": "key_detailed_design_area",
        "area_id": "beijing_ai_origin_community",
        "name_zh": "北京AI原点社区粗略范围",
        "source_type": "agent_inferred_from_public_data",
        "confidence": "medium",
        "geometry_role": "provisional_constraint",
        "official_boundary": false,
        "boundary_precision": "provisional_rough",
        "announced_area_sqm": 1043000,
        "area_sqm_calculated": 1043236.909,
        "source_id": "DATA-SRC-PROVISIONAL-BOUNDARIES-20260605",
        "derived_from_source_ids": [
          "DATA-SRC-OFFICIAL-ANNOUNCEMENT-20260509"
        ],
        "source_title": "依据公告重点片区名称、南北顺序、公告约面积和临时 SITE_BOUNDARY 形成的临时粗略范围",
        "derivation_method": "按公告自北向南第二处、北京AI原点社区、约104.3公顷及五道口/清华东路西口相关任务线索，在临时总体设计范围内粗略定位并校核面积；公告未给出四至，矩形边不得解释为地块或道路红线。",
        "usage_note": "仅用于 AI agent 生成、展示和临时自检；不得作为 official key-area polygon、审批依据或精确面积复算依据。",
        "name_en": "Beijing AI Origin Community",
        "design_focus_zh": "近校成果转化、开源发布、人才服务与纠错恢复",
        "design_focus_en": "near-campus translation, open-source release, talent services and correction"
      },
      "geometry": {
        "type": "Polygon",
        "coordinates": [
          [
            [
              116.342,
              39.9835
            ],
            [
              116.353,
              39.9835
            ],
            [
              116.353,
              39.9935
            ],
            [
              116.342,
              39.9935
            ],
            [
              116.342,
              39.9835
            ]
          ]
        ]
      }
    },
    {
      "type": "Feature",
      "id": "PROV-KEY-003",
      "properties": {
        "id": "PROV-KEY-003",
        "layer": "KEY_AREA",
        "parent_scope_id": "key_detailed_design_area",
        "area_id": "dazhongsi_ai_industry_cluster",
        "name_zh": "大钟寺AI产业聚集区粗略范围",
        "source_type": "agent_inferred_from_public_data",
        "confidence": "medium",
        "geometry_role": "provisional_constraint",
        "official_boundary": false,
        "boundary_precision": "provisional_rough",
        "announced_area_sqm": 720000,
        "area_sqm_calculated": 720454.221,
        "source_id": "DATA-SRC-PROVISIONAL-BOUNDARIES-20260605",
        "derived_from_source_ids": [
          "DATA-SRC-OFFICIAL-ANNOUNCEMENT-20260509"
        ],
        "source_title": "依据公告重点片区名称、南北顺序、公告约面积和临时 SITE_BOUNDARY 形成的临时粗略范围",
        "derivation_method": "按公告自北向南第三处、大钟寺AI产业聚集区、约72.0公顷及大钟寺站相关任务线索，在临时总体设计范围内粗略定位并校核面积；公告未给出四至，矩形边不得解释为地块或道路红线。",
        "usage_note": "仅用于 AI agent 生成、展示和临时自检；不得作为 official key-area polygon、审批依据或精确面积复算依据。",
        "name_en": "Dazhongsi AI Industry Cluster",
        "design_focus_zh": "可信采购、内容经济、无屏服务与轨道一体化",
        "design_focus_en": "trusted procurement, content economy, screenless service and transit integration"
      },
      "geometry": {
        "type": "Polygon",
        "coordinates": [
          [
            [
              116.342,
              39.944
            ],
            [
              116.355,
              39.944
            ],
            [
              116.355,
              39.94984
            ],
            [
              116.342,
              39.94984
            ],
            [
              116.342,
              39.944
            ]
          ]
        ]
      }
    }
  ],
  "metadata": {
    "official_boundary_available": false,
    "use_limit_zh": "占位仅用于方案生成、展示和复算；不代表地块、权属或道路红线。",
    "use_limit_en": "Placeholders only for design generation, display and recalculation; not parcel, ownership or road redlines."
  }
}
