{
  "type": "FeatureCollection",
  "name": "roads",
  "features": [
    {
      "type": "Feature",
      "id": "ROAD-001",
      "properties": {
        "id": "ROAD-001",
        "layer": "ROAD_CENTERLINE",
        "source_type": "agent_generated_design",
        "confidence": "low",
        "geometry_role": "design_proposal",
        "name_zh": "遗产公共环纵轴",
        "length_m_declared": 9660.0,
        "note": "概念连接线，非道路红线。"
      },
      "geometry": {
        "type": "LineString",
        "coordinates": [
          [
            116.346,
            39.939
          ],
          [
            116.346,
            40.0265
          ]
        ]
      }
    },
    {
      "type": "Feature",
      "id": "ROAD-002",
      "properties": {
        "id": "ROAD-002",
        "layer": "ROAD_CENTERLINE",
        "source_type": "agent_generated_design",
        "confidence": "low",
        "geometry_role": "design_proposal",
        "name_zh": "三芯横向连接线",
        "length_m_declared": 935.0,
        "note": "概念连接线，非道路红线。"
      },
      "geometry": {
        "type": "LineString",
        "coordinates": [
          [
            116.342,
            39.98
          ],
          [
            116.353,
            39.98
          ]
        ]
      }
    }
  ]
}
