{
 "type": "FeatureCollection",
 "name": "phasing_scaffold",
 "features": [
  {
   "type": "Feature",
   "id": "PHASE-001",
   "properties": {
    "id": "PHASE-001",
    "layer": "PHASE",
    "source_type": "agent_generated_design",
    "confidence": "medium",
    "geometry_role": "design_proposal",
    "phase": "phase_1",
    "name_zh": "近期更新范围（原点社区2.0+绿廊场景织入）",
    "name_en": "近期更新范围（原点社区2.0+绿廊场景织入）"
   },
   "geometry": {
    "type": "Polygon",
    "coordinates": [
     [
      [
       116.3417,
       40.006
      ],
      [
       116.34218780487805,
       40.016
      ],
      [
       116.34843599999999,
       40.016
      ],
      [
       116.34843599999999,
       39.9495
      ],
      [
       116.340948,
       39.9495
      ],
      [
       116.340948,
       39.99434399999997
      ],
      [
       116.3417,
       40.006
      ]
     ]
    ]
   }
  },
  {
   "type": "Feature",
   "id": "PHASE-002",
   "properties": {
    "id": "PHASE-002",
    "layer": "PHASE",
    "source_type": "agent_generated_design",
    "confidence": "medium",
    "geometry_role": "design_proposal",
    "phase": "phase_2",
    "name_zh": "中期更新范围（众智园开园+大钟寺更新）",
    "name_en": "中期更新范围（众智园开园+大钟寺更新）"
   },
   "geometry": {
    "type": "Polygon",
    "coordinates": [
     [
      [
       116.3417,
       40.006
      ],
      [
       116.34218780487805,
       40.016
      ],
      [
       116.34843599999999,
       40.016
      ],
      [
       116.34843599999999,
       39.9495
      ],
      [
       116.340948,
       39.9495
      ],
      [
       116.340948,
       39.99434399999997
      ],
      [
       116.3417,
       40.006
      ]
     ]
    ]
   }
  },
  {
   "type": "Feature",
   "id": "PHASE-003",
   "properties": {
    "id": "PHASE-003",
    "layer": "PHASE",
    "source_type": "agent_generated_design",
    "confidence": "medium",
    "geometry_role": "design_proposal",
    "phase": "phase_3",
    "name_zh": "远期扩展范围（两翼扩展+全域激活）",
    "name_en": "远期扩展范围（两翼扩展+全域激活）"
   },
   "geometry": {
    "type": "Polygon",
    "coordinates": [
     [
      [
       116.3417,
       40.006
      ],
      [
       116.34218780487805,
       40.016
      ],
      [
       116.34843599999999,
       40.016
      ],
      [
       116.34843599999999,
       39.9495
      ],
      [
       116.340948,
       39.9495
      ],
      [
       116.340948,
       39.99434399999997
      ],
      [
       116.3417,
       40.006
      ]
     ]
    ]
   }
  }
 ]
}