{
  "type": "FeatureCollection",
  "features": [
    {
      "type": "Feature",
      "id": "BLDG-001",
      "properties": {
        "id": "BLDG-001",
        "layer": "BUILDING_FOOTPRINT",
        "source_type": "agent_generated_design",
        "confidence": "medium",
        "geometry_role": "design_proposal",
        "building_type": "mixed_use",
        "renewal_action": "conceptual_reuse_or_infill",
        "height_status": "pending_official_control",
        "name_zh": "开放街区载体01",
        "area_sqm_declared": 7515.909
      },
      "geometry": {
        "type": "Polygon",
        "coordinates": [
          [
            [
              116.34405,
              39.94564
            ],
            [
              116.34405,
              39.94636
            ],
            [
              116.34515,
              39.94636
            ],
            [
              116.34515,
              39.94564
            ],
            [
              116.34405,
              39.94564
            ]
          ]
        ]
      }
    },
    {
      "type": "Feature",
      "id": "BLDG-002",
      "properties": {
        "id": "BLDG-002",
        "layer": "BUILDING_FOOTPRINT",
        "source_type": "agent_generated_design",
        "confidence": "medium",
        "geometry_role": "design_proposal",
        "building_type": "retail",
        "renewal_action": "conceptual_reuse_or_infill",
        "height_status": "pending_official_control",
        "name_zh": "开放街区载体02",
        "area_sqm_declared": 7515.905
      },
      "geometry": {
        "type": "Polygon",
        "coordinates": [
          [
            [
              116.34644999999999,
              39.94564
            ],
            [
              116.34644999999999,
              39.94636
            ],
            [
              116.34755,
              39.94636
            ],
            [
              116.34755,
              39.94564
            ],
            [
              116.34644999999999,
              39.94564
            ]
          ]
        ]
      }
    },
    {
      "type": "Feature",
      "id": "BLDG-003",
      "properties": {
        "id": "BLDG-003",
        "layer": "BUILDING_FOOTPRINT",
        "source_type": "agent_generated_design",
        "confidence": "medium",
        "geometry_role": "design_proposal",
        "building_type": "office",
        "renewal_action": "conceptual_reuse_or_infill",
        "height_status": "pending_official_control",
        "name_zh": "开放街区载体03",
        "area_sqm_declared": 7515.897
      },
      "geometry": {
        "type": "Polygon",
        "coordinates": [
          [
            [
              116.35065,
              39.94564
            ],
            [
              116.35065,
              39.94636
            ],
            [
              116.35175000000001,
              39.94636
            ],
            [
              116.35175000000001,
              39.94564
            ],
            [
              116.35065,
              39.94564
            ]
          ]
        ]
      }
    },
    {
      "type": "Feature",
      "id": "BLDG-004",
      "properties": {
        "id": "BLDG-004",
        "layer": "BUILDING_FOOTPRINT",
        "source_type": "agent_generated_design",
        "confidence": "medium",
        "geometry_role": "design_proposal",
        "building_type": "incubator",
        "renewal_action": "conceptual_reuse_or_infill",
        "height_status": "pending_official_control",
        "name_zh": "开放街区载体04",
        "area_sqm_declared": 7511.561
      },
      "geometry": {
        "type": "Polygon",
        "coordinates": [
          [
            [
              116.34365,
              39.985839999999996
            ],
            [
              116.34365,
              39.98656
            ],
            [
              116.34475,
              39.98656
            ],
            [
              116.34475,
              39.985839999999996
            ],
            [
              116.34365,
              39.985839999999996
            ]
          ]
        ]
      }
    },
    {
      "type": "Feature",
      "id": "BLDG-005",
      "properties": {
        "id": "BLDG-005",
        "layer": "BUILDING_FOOTPRINT",
        "source_type": "agent_generated_design",
        "confidence": "medium",
        "geometry_role": "design_proposal",
        "building_type": "ai_r_and_d",
        "renewal_action": "conceptual_reuse_or_infill",
        "height_status": "pending_official_control",
        "name_zh": "开放街区载体05",
        "area_sqm_declared": 7511.556
      },
      "geometry": {
        "type": "Polygon",
        "coordinates": [
          [
            [
              116.34644999999999,
              39.985839999999996
            ],
            [
              116.34644999999999,
              39.98656
            ],
            [
              116.34755,
              39.98656
            ],
            [
              116.34755,
              39.985839999999996
            ],
            [
              116.34644999999999,
              39.985839999999996
            ]
          ]
        ]
      }
    },
    {
      "type": "Feature",
      "id": "BLDG-006",
      "properties": {
        "id": "BLDG-006",
        "layer": "BUILDING_FOOTPRINT",
        "source_type": "agent_generated_design",
        "confidence": "medium",
        "geometry_role": "design_proposal",
        "building_type": "education",
        "renewal_action": "conceptual_reuse_or_infill",
        "height_status": "pending_official_control",
        "name_zh": "开放街区载体06",
        "area_sqm_declared": 7511.55
      },
      "geometry": {
        "type": "Polygon",
        "coordinates": [
          [
            [
              116.34944999999999,
              39.985839999999996
            ],
            [
              116.34944999999999,
              39.98656
            ],
            [
              116.35055,
              39.98656
            ],
            [
              116.35055,
              39.985839999999996
            ],
            [
              116.34944999999999,
              39.985839999999996
            ]
          ]
        ]
      }
    },
    {
      "type": "Feature",
      "id": "BLDG-007",
      "properties": {
        "id": "BLDG-007",
        "layer": "BUILDING_FOOTPRINT",
        "source_type": "agent_generated_design",
        "confidence": "medium",
        "geometry_role": "design_proposal",
        "building_type": "talent_apartment",
        "renewal_action": "conceptual_reuse_or_infill",
        "height_status": "pending_official_control",
        "name_zh": "开放街区载体07",
        "area_sqm_declared": 7511.095
      },
      "geometry": {
        "type": "Polygon",
        "coordinates": [
          [
            [
              116.34384999999999,
              39.99014
            ],
            [
              116.34384999999999,
              39.99086
            ],
            [
              116.34495,
              39.99086
            ],
            [
              116.34495,
              39.99014
            ],
            [
              116.34384999999999,
              39.99014
            ]
          ]
        ]
      }
    },
    {
      "type": "Feature",
      "id": "BLDG-008",
      "properties": {
        "id": "BLDG-008",
        "layer": "BUILDING_FOOTPRINT",
        "source_type": "agent_generated_design",
        "confidence": "medium",
        "geometry_role": "design_proposal",
        "building_type": "community_service",
        "renewal_action": "conceptual_reuse_or_infill",
        "height_status": "pending_official_control",
        "name_zh": "开放街区载体08",
        "area_sqm_declared": 7511.088
      },
      "geometry": {
        "type": "Polygon",
        "coordinates": [
          [
            [
              116.34745,
              39.99014
            ],
            [
              116.34745,
              39.99086
            ],
            [
              116.34855,
              39.99086
            ],
            [
              116.34855,
              39.99014
            ],
            [
              116.34745,
              39.99014
            ]
          ]
        ]
      }
    },
    {
      "type": "Feature",
      "id": "BLDG-009",
      "properties": {
        "id": "BLDG-009",
        "layer": "BUILDING_FOOTPRINT",
        "source_type": "agent_generated_design",
        "confidence": "medium",
        "geometry_role": "design_proposal",
        "building_type": "cultural",
        "renewal_action": "conceptual_reuse_or_infill",
        "height_status": "pending_official_control",
        "name_zh": "开放街区载体09",
        "area_sqm_declared": 7511.082
      },
      "geometry": {
        "type": "Polygon",
        "coordinates": [
          [
            [
              116.35085,
              39.99014
            ],
            [
              116.35085,
              39.99086
            ],
            [
              116.35195,
              39.99086
            ],
            [
              116.35195,
              39.99014
            ],
            [
              116.35085,
              39.99014
            ]
          ]
        ]
      }
    },
    {
      "type": "Feature",
      "id": "BLDG-010",
      "properties": {
        "id": "BLDG-010",
        "layer": "BUILDING_FOOTPRINT",
        "source_type": "agent_generated_design",
        "confidence": "medium",
        "geometry_role": "design_proposal",
        "building_type": "lab",
        "renewal_action": "conceptual_reuse_or_infill",
        "height_status": "pending_official_control",
        "name_zh": "开放街区载体10",
        "area_sqm_declared": 7508.875
      },
      "geometry": {
        "type": "Polygon",
        "coordinates": [
          [
            [
              116.34415,
              40.01064
            ],
            [
              116.34415,
              40.01136
            ],
            [
              116.34525000000001,
              40.01136
            ],
            [
              116.34525000000001,
              40.01064
            ],
            [
              116.34415,
              40.01064
            ]
          ]
        ]
      }
    },
    {
      "type": "Feature",
      "id": "BLDG-011",
      "properties": {
        "id": "BLDG-011",
        "layer": "BUILDING_FOOTPRINT",
        "source_type": "agent_generated_design",
        "confidence": "medium",
        "geometry_role": "design_proposal",
        "building_type": "ai_r_and_d",
        "renewal_action": "conceptual_reuse_or_infill",
        "height_status": "pending_official_control",
        "name_zh": "开放街区载体11",
        "area_sqm_declared": 7508.87
      },
      "geometry": {
        "type": "Polygon",
        "coordinates": [
          [
            [
              116.34694999999999,
              40.01064
            ],
            [
              116.34694999999999,
              40.01136
            ],
            [
              116.34805,
              40.01136
            ],
            [
              116.34805,
              40.01064
            ],
            [
              116.34694999999999,
              40.01064
            ]
          ]
        ]
      }
    },
    {
      "type": "Feature",
      "id": "BLDG-012",
      "properties": {
        "id": "BLDG-012",
        "layer": "BUILDING_FOOTPRINT",
        "source_type": "agent_generated_design",
        "confidence": "medium",
        "geometry_role": "design_proposal",
        "building_type": "incubator",
        "renewal_action": "conceptual_reuse_or_infill",
        "height_status": "pending_official_control",
        "name_zh": "开放街区载体12",
        "area_sqm_declared": 7508.864
      },
      "geometry": {
        "type": "Polygon",
        "coordinates": [
          [
            [
              116.35045,
              40.01064
            ],
            [
              116.35045,
              40.01136
            ],
            [
              116.35155,
              40.01136
            ],
            [
              116.35155,
              40.01064
            ],
            [
              116.35045,
              40.01064
            ]
          ]
        ]
      }
    },
    {
      "type": "Feature",
      "id": "BLDG-013",
      "properties": {
        "id": "BLDG-013",
        "layer": "BUILDING_FOOTPRINT",
        "source_type": "agent_generated_design",
        "confidence": "medium",
        "geometry_role": "design_proposal",
        "building_type": "lab",
        "renewal_action": "conceptual_reuse_or_infill",
        "height_status": "pending_official_control",
        "name_zh": "开放街区载体13",
        "area_sqm_declared": 7508.116
      },
      "geometry": {
        "type": "Polygon",
        "coordinates": [
          [
            [
              116.34425,
              40.01764
            ],
            [
              116.34425,
              40.01836
            ],
            [
              116.34535000000001,
              40.01836
            ],
            [
              116.34535000000001,
              40.01764
            ],
            [
              116.34425,
              40.01764
            ]
          ]
        ]
      }
    },
    {
      "type": "Feature",
      "id": "BLDG-014",
      "properties": {
        "id": "BLDG-014",
        "layer": "BUILDING_FOOTPRINT",
        "source_type": "agent_generated_design",
        "confidence": "medium",
        "geometry_role": "design_proposal",
        "building_type": "office",
        "renewal_action": "conceptual_reuse_or_infill",
        "height_status": "pending_official_control",
        "name_zh": "开放街区载体14",
        "area_sqm_declared": 7508.11
      },
      "geometry": {
        "type": "Polygon",
        "coordinates": [
          [
            [
              116.34765,
              40.01764
            ],
            [
              116.34765,
              40.01836
            ],
            [
              116.34875000000001,
              40.01836
            ],
            [
              116.34875000000001,
              40.01764
            ],
            [
              116.34765,
              40.01764
            ]
          ]
        ]
      }
    },
    {
      "type": "Feature",
      "id": "BLDG-015",
      "properties": {
        "id": "BLDG-015",
        "layer": "BUILDING_FOOTPRINT",
        "source_type": "agent_generated_design",
        "confidence": "medium",
        "geometry_role": "design_proposal",
        "building_type": "cultural",
        "renewal_action": "conceptual_reuse_or_infill",
        "height_status": "pending_official_control",
        "name_zh": "开放街区载体15",
        "area_sqm_declared": 7508.105
      },
      "geometry": {
        "type": "Polygon",
        "coordinates": [
          [
            [
              116.35065,
              40.01764
            ],
            [
              116.35065,
              40.01836
            ],
            [
              116.35175000000001,
              40.01836
            ],
            [
              116.35175000000001,
              40.01764
            ],
            [
              116.35065,
              40.01764
            ]
          ]
        ]
      }
    }
  ]
}
