{
  "type": "FeatureCollection",
  "features": [
    {
      "type": "Feature",
      "id": "PUBLIC-001",
      "properties": {
        "id": "PUBLIC-001",
        "layer": "PUBLIC_SPACE",
        "source_type": "agent_generated_design",
        "confidence": "medium",
        "geometry_role": "design_proposal",
        "name_zh": "三区公共创新交往空间",
        "area_sqm_declared": 2056534.49
      },
      "geometry": {
        "type": "MultiPolygon",
        "coordinates": [
          [
            [
              [
                116.3468,
                40.01
              ],
              [
                116.3536,
                40.01
              ],
              [
                116.3536,
                40.002
              ],
              [
                116.3468,
                40.002
              ],
              [
                116.3468,
                40.01
              ]
            ]
          ],
          [
            [
              [
                116.3443,
                39.982
              ],
              [
                116.3525,
                39.982
              ],
              [
                116.3525,
                39.97
              ],
              [
                116.3443,
                39.97
              ],
              [
                116.3443,
                39.982
              ]
            ]
          ],
          [
            [
              [
                116.3408,
                39.95
              ],
              [
                116.3488,
                39.95
              ],
              [
                116.3488,
                39.942
              ],
              [
                116.3408,
                39.942
              ],
              [
                116.3408,
                39.95
              ]
            ]
          ]
        ]
      }
    }
  ]
}