{
  "type": "FeatureCollection",
  "name": "provisional_constraints_and_dependencies",
  "features": [
    {
      "type": "Feature",
      "id": "CONSTRAINT-001",
      "properties": {
        "id": "CONSTRAINT-001",
        "layer": "REGULATORY_CONTROL",
        "source_type": "agent_inferred_from_public_data",
        "confidence": "medium",
        "geometry_role": "provisional_constraint",
        "official_boundary": false,
        "boundary_precision": "provisional_rough",
        "name_zh": "临时总体设计约束包络",
        "name_en": "Provisional overall-design envelope",
        "usage_note": "Not an official redline; replace when organiser polygon is published."
      },
      "geometry": {
        "type": "Polygon",
        "coordinates": [
          [
            [
              116.3407,
              39.939
            ],
            [
              116.3553,
              39.939
            ],
            [
              116.3553,
              39.965
            ],
            [
              116.3533,
              39.99
            ],
            [
              116.3553,
              40.0265
            ],
            [
              116.3427,
              40.0265
            ],
            [
              116.3417,
              40.006
            ],
            [
              116.3397,
              39.975
            ],
            [
              116.3407,
              39.939
            ]
          ]
        ]
      }
    },
    {
      "type": "Feature",
      "id": "CONSTRAINT-002",
      "properties": {
        "id": "CONSTRAINT-002",
        "layer": "REGULATORY_CONTROL",
        "source_type": "agent_inferred_from_public_data",
        "confidence": "low",
        "geometry_role": "provisional_constraint",
        "name_zh": "京张遗产公共界面概念轴",
        "name_en": "Conceptual Jing-Zhang heritage public interface",
        "usage_note": "A design proxy, not a surveyed railway, park, or heritage protection boundary."
      },
      "geometry": {
        "type": "LineString",
        "coordinates": [
          [
            116.347963542,
            39.941625
          ],
          [
            116.347732639,
            39.95825
          ],
          [
            116.347094194,
            39.97575
          ],
          [
            116.347177751,
            39.99325
          ],
          [
            116.348184347,
            40.01075
          ],
          [
            116.348864058,
            40.023875
          ]
        ]
      }
    }
  ]
}
