{
  "type": "FeatureCollection",
  "name": "public_space_scaffold",
  "features": [
    {
      "type": "Feature",
      "id": "PUBLIC-001",
      "properties": {
        "id": "PUBLIC-001",
        "layer": "PUBLIC_SPACE",
        "source_type": "agent_generated_design",
        "confidence": "medium",
        "geometry_role": "design_proposal",
        "name_zh": "京张智脉公共活动界面",
        "name_en": "Jing-Zhang Contribution Walk public interface",
        "design_note_zh": "参与者提出的步行优先、荣誉展示与公共体验概念界面；不构成法定空间控制。",
        "design_note_en": "Participant-proposed walk-first public interface for contribution reading, honour display and optional civic experience; not a statutory spatial control.",
        "area_sqm_declared": 836345.643
      },
      "geometry": {
        "type": "Polygon",
        "coordinates": [
          [
            [
              116.34734399999999,
              39.967
            ],
            [
              116.34734399999999,
              40.00025
            ],
            [
              116.349996,
              40.00025
            ],
            [
              116.349996,
              39.967
            ],
            [
              116.34734399999999,
              39.967
            ]
          ]
        ]
      }
    }
  ]
}
