{
  "type": "FeatureCollection",
  "name": "symbiotic_spine_mobility_concepts",
  "features": [
    {
      "type": "Feature",
      "id": "ROAD-001",
      "properties": {
        "id": "ROAD-001",
        "layer": "ROAD_CENTERLINE",
        "source_type": "agent_generated_design",
        "confidence": "medium",
        "geometry_role": "design_proposal",
        "road_class": "greenway",
        "name_zh": "公共知识轨·遗产慢行主脊",
        "usage_note": "概念慢行或接驳关系，非道路红线、工程线位或已批准实施方案。"
      },
      "geometry": {
        "type": "LineString",
        "coordinates": [
          [
            116.345,
            39.944
          ],
          [
            116.3454,
            39.962
          ],
          [
            116.3458,
            39.982
          ],
          [
            116.3462,
            40.003
          ],
          [
            116.346,
            40.021
          ]
        ]
      }
    },
    {
      "type": "Feature",
      "id": "ROAD-002",
      "properties": {
        "id": "ROAD-002",
        "layer": "ROAD_CENTERLINE",
        "source_type": "agent_generated_design",
        "confidence": "medium",
        "geometry_role": "design_proposal",
        "road_class": "pedestrian",
        "name_zh": "众智园东西缝合支线",
        "usage_note": "概念慢行或接驳关系，非道路红线、工程线位或已批准实施方案。"
      },
      "geometry": {
        "type": "LineString",
        "coordinates": [
          [
            116.3413,
            40.011
          ],
          [
            116.3458,
            40.01
          ],
          [
            116.353,
            40.009
          ]
        ]
      }
    },
    {
      "type": "Feature",
      "id": "ROAD-003",
      "properties": {
        "id": "ROAD-003",
        "layer": "ROAD_CENTERLINE",
        "source_type": "agent_generated_design",
        "confidence": "medium",
        "geometry_role": "design_proposal",
        "road_class": "cycleway",
        "name_zh": "原点社区开源转化环",
        "usage_note": "概念慢行或接驳关系，非道路红线、工程线位或已批准实施方案。"
      },
      "geometry": {
        "type": "LineString",
        "coordinates": [
          [
            116.341,
            39.981
          ],
          [
            116.3457,
            39.98
          ],
          [
            116.3528,
            39.979
          ]
        ]
      }
    },
    {
      "type": "Feature",
      "id": "ROAD-004",
      "properties": {
        "id": "ROAD-004",
        "layer": "ROAD_CENTERLINE",
        "source_type": "agent_generated_design",
        "confidence": "medium",
        "geometry_role": "design_proposal",
        "road_class": "transit_connection",
        "name_zh": "大钟寺城市发布接驳",
        "usage_note": "概念慢行或接驳关系，非道路红线、工程线位或已批准实施方案。"
      },
      "geometry": {
        "type": "LineString",
        "coordinates": [
          [
            116.3412,
            39.956
          ],
          [
            116.3452,
            39.955
          ],
          [
            116.3536,
            39.954
          ]
        ]
      }
    },
    {
      "type": "Feature",
      "id": "ROAD-005",
      "properties": {
        "id": "ROAD-005",
        "layer": "ROAD_CENTERLINE",
        "source_type": "agent_generated_design",
        "confidence": "medium",
        "geometry_role": "design_proposal",
        "road_class": "greenway",
        "name_zh": "小月河场景赋能联络",
        "usage_note": "概念慢行或接驳关系，非道路红线、工程线位或已批准实施方案。"
      },
      "geometry": {
        "type": "LineString",
        "coordinates": [
          [
            116.3515,
            39.945
          ],
          [
            116.3503,
            39.968
          ],
          [
            116.3492,
            39.991
          ],
          [
            116.348,
            40.018
          ]
        ]
      }
    }
  ]
}
