{
 "type": "FeatureCollection",
 "name": "phasing",
 "features": [
  {
   "type": "Feature",
   "id": "PH-001",
   "properties": {
    "id": "PH-001",
    "layer": "PHASE",
    "name_zh": "近期重点（主轴+蓝绿）",
    "phase": "near_term",
    "source_type": "agent_inferred_from_public_data",
    "confidence": "medium",
    "geometry_role": "design_proposal",
    "note": "分期地理重点，概念性"
   },
   "geometry": {
    "type": "MultiPolygon",
    "coordinates": [
     [
      [
       [
        116.349,
        39.97350000000001
       ],
       [
        116.35700000000001,
        39.9735
       ],
       [
        116.35700000000001,
        39.967000000000006
       ],
       [
        116.349,
        39.967
       ],
       [
        116.349,
        39.97350000000001
       ]
      ]
     ],
     [
      [
       [
        116.34444290977733,
        39.99996958528367
       ],
       [
        116.34384441262137,
        39.9899961946229
       ],
       [
        116.34444345960387,
        39.97501650279433
       ],
       [
        116.34514315621584,
        39.96001999289651
       ],
       [
        116.34584272973206,
        39.94802537961255
       ],
       [
        116.34644241768981,
        39.940028543071165
       ],
       [
        116.34644295859363,
        39.93997993575962
       ],
       [
        116.34643730745941,
        39.93993152169434
       ],
       [
        116.34642551872358,
        39.93988376712848
       ],
       [
        116.34640770593037,
        39.939837131962854
       ],
       [
        116.34638404063779,
        39.939792065317015
       ],
       [
        116.34635475076504,
        39.939749001204014
       ],
       [
        116.34632011839723,
        39.93970835435077
       ],
       [
        116.34628047706828,
        39.93967051620414
       ],
       [
        116.3462362085488,
        39.93963585116134
       ],
       [
        116.34618773916921,
        39.93960469306071
       ],
       [
        116.3461355357139,
        39.93957734196685
       ],
       [
        116.346080100926,
        39.93955406128109
       ],
       [
        116.34602196866587,
        39.93953507520491
       ],
       [
        116.34596169876997,
        39.93952056658096
       ],
       [
        116.34589987165961,
        39.93951067513226
       ],
       [
        116.34583708275174,
        39.93950549611682
       ],
       [
        116.34577393672508,
        39.93950507941021
       ],
       [
        116.34571104169727,
        39.93950942902536
       ],
       [
        116.34564900336896,
        39.93951850307388
       ],
       [
        116.3455884191909,
        39.939532214169446
       ],
       [
        116.34552987261071,
        39.93955043026934
       ],
       [
        116.3454739274545,
        39.939572975945914
       ],
       [
        116.34542112249716,
        39.93959963407605
       ],
       [
        116.34537196627386,
        39.93963014793188
       ],
       [
        116.34532693218308,
        39.93966422365315
       ],
       [
        116.34528645392732,
        39.939701533077
       ],
       [
        116.3452509213365,
        39.93974171689824
       ],
       [
        116.34522067661362,
        39.939784388129326
       ],
       [
        116.34519601103882,
        39.93982913582727
       ],
       [
        116.34517716216409,
        39.939875529050894
       ],
       [
        116.34516431152511,
        39.939923121011056
       ],
       [
        116.34515758289247,
        39.939971453373204
       ],
       [
        116.34455750840235,
        39.9479714494843
       ],
       [
        116.34455708591504,
        39.94797778625406
       ],
       [
        116.34385697387205,
        39.95997778151005
       ],
       [
        116.3438567404805,
        39.959982226372574
       ],
       [
        116.3431566001525,
        39.974982221397035
       ],
       [
        116.34315648985735,
        39.97498476609293
       ],
       [
        116.34255634933635,
        39.98998476166277
       ],
       [
        116.34255672876293,
        39.99002283070019
       ],
       [
        116.34315663503791,
        40.000022833234375
       ],
       [
        116.34315784589079,
        40.000037974793564
       ],
       [
        116.34415718491118,
        40.010032302980576
       ],
       [
        116.34432991131706,
        40.01250040070771
       ],
       [
        116.337,
        40.0125
       ],
       [
        116.337,
        40.019499999999994
       ],
       [
        116.34481985894499,
        40.01950041097825
       ],
       [
        116.3448566933365,
        40.020026620995125
       ],
       [
        116.34486318461396,
        40.020074972521925
       ],
       [
        116.34487580879109,
        40.0201226020381
       ],
       [
        116.34489444430237,
        40.02016905084353
       ],
       [
        116.34491891168851,
        40.02021387160808
       ],
       [
        116.34494897532458,
        40.02025663267981
       ],
       [
        116.34498434568864,
        40.0202969222421
       ],
       [
        116.34502468214976,
        40.02033435227984
       ],
       [
        116.34506959624836,
        40.02036856231644
       ],
       [
        116.34511865543716,
        40.02039922288551
       ],
       [
        116.34517138724678,
        40.020426038704144
       ],
       [
        116.34522728383605,
        40.02044875151667
       ],
       [
        116.34528580688296,
        40.02046714258211
       ],
       [
        116.34534639276927,
        40.02048103478089
       ],
       [
        116.3454084580089,
        40.02049029432072
       ],
       [
        116.34547140486748,
        40.02049483202518
       ],
       [
        116.34553462711948,
        40.020494604192656
       ],
       [
        116.34559751588687,
        40.02048961301728
       ],
       [
        116.34565946550356,
        40.02047990656769
       ],
       [
        116.34571987934872,
        40.02046557832418
       ],
       [
        116.34577817559304,
        40.020446766278255
       ],
       [
        116.34583379280254,
        40.02042365160372
       ],
       [
        116.34588619534576,
        40.02039645691166
       ],
       [
        116.34593487855247,
        40.020365444106396
       ],
       [
        116.34597937357425,
        40.020330911863084
       ],
       [
        116.34601925189972,
        40.02029319275111
       ],
       [
        116.3460541294813,
        40.02025265003107
       ],
       [
        116.34608367043386,
        40.020209674156135
       ],
       [
        116.34610759026918,
        40.020164679011664
       ],
       [
        116.34612565863543,
        40.02011809792908
       ],
       [
        116.34613770153534,
        40.020070379512504
       ],
       [
        116.34614360300132,
        40.020021983318316
       ],
       [
        116.3461433062119,
        40.01997337542936
       ],
       [
        116.34611019126368,
        40.019500428070515
       ],
       [
        116.35700000000001,
        40.0195
       ],
       [
        116.35700000000001,
        40.0125
       ],
       [
        116.34562011179904,
        40.01250042325314
       ],
       [
        116.34544321248639,
        40.00997337851646
       ],
       [
        116.34544224674673,
        40.00996201691653
       ],
       [
        116.34444290977733,
        39.99996958528367
       ]
      ]
     ]
    ]
   }
  },
  {
   "type": "Feature",
   "id": "PH-002",
   "properties": {
    "id": "PH-002",
    "layer": "PHASE",
    "name_zh": "中期重点（三处重点区）",
    "phase": "mid_term",
    "source_type": "agent_inferred_from_public_data",
    "confidence": "medium",
    "geometry_role": "design_proposal",
    "note": "分期地理重点，概念性"
   },
   "geometry": {
    "type": "MultiPolygon",
    "coordinates": [
     [
      [
       [
        116.34200000000001,
        39.94984
       ],
       [
        116.35500000000002,
        39.94983999999999
       ],
       [
        116.35500000000002,
        39.943999999999996
       ],
       [
        116.34200000000001,
        39.943999999999996
       ],
       [
        116.34200000000001,
        39.94984
       ]
      ]
     ],
     [
      [
       [
        116.353,
        39.99349999999999
       ],
       [
        116.353,
        39.9835
       ],
       [
        116.34200000000001,
        39.98349999999999
       ],
       [
        116.34200000000001,
        39.99349999999999
       ],
       [
        116.353,
        39.99349999999999
       ]
      ]
     ],
     [
      [
       [
        116.354,
        40.026
       ],
       [
        116.354,
        40.0075
       ],
       [
        116.34299999999999,
        40.0075
       ],
       [
        116.34299999999999,
        40.025999999999996
       ],
       [
        116.354,
        40.026
       ]
      ]
     ]
    ]
   }
  },
  {
   "type": "Feature",
   "id": "PH-003",
   "properties": {
    "id": "PH-003",
    "layer": "PHASE",
    "name_zh": "长期重点（其余更新）",
    "phase": "long_term",
    "source_type": "agent_inferred_from_public_data",
    "confidence": "medium",
    "geometry_role": "design_proposal",
    "note": "分期地理重点，概念性"
   },
   "geometry": {
    "type": "MultiPolygon",
    "coordinates": [
     [
      [
       [
        116.34169999999999,
        40.00600000000001
       ],
       [
        116.34201703286683,
        40.01250032433523
       ],
       [
        116.34300000672786,
        40.012500362433975
       ],
       [
        116.34299999999999,
        40.0075
       ],
       [
        116.34390395639481,
        40.00750003937629
       ],
       [
        116.34315784589079,
        40.000037974793564
       ],
       [
        116.34315663503791,
        40.000022833234375
       ],
       [
        116.34276531058771,
        39.99350003379183
       ],
       [
        116.34200000000001,
        39.99349999999999
       ],
       [
        116.34200000000001,
        39.98349999999999
       ],
       [
        116.34281583712144,
        39.98350003584281
       ],
       [
        116.34315648985735,
        39.97498476609293
       ],
       [
        116.3431566001525,
        39.974982221397035
       ],
       [
        116.3438567404805,
        39.959982226372574
       ],
       [
        116.34385697387205,
        39.95997778151005
       ],
       [
        116.34444845088255,
        39.94984011142737
       ],
       [
        116.34200000000001,
        39.94984
       ],
       [
        116.34200000000001,
        39.943999999999996
       ],
       [
        116.34485541406697,
        39.94400012493156
       ],
       [
        116.34515758289247,
        39.939971453373204
       ],
       [
        116.34516431152511,
        39.939923121011056
       ],
       [
        116.34517716216409,
        39.939875529050894
       ],
       [
        116.34519601103882,
        39.93982913582727
       ],
       [
        116.34522067661362,
        39.939784388129326
       ],
       [
        116.3452509213365,
        39.93974171689824
       ],
       [
        116.34528645392732,
        39.939701533077
       ],
       [
        116.34532693218308,
        39.93966422365315
       ],
       [
        116.34537196627386,
        39.93963014793188
       ],
       [
        116.34542112249716,
        39.93959963407605
       ],
       [
        116.3454739274545,
        39.939572975945914
       ],
       [
        116.34552987261071,
        39.93955043026934
       ],
       [
        116.3455884191909,
        39.939532214169446
       ],
       [
        116.34564900336896,
        39.93951850307388
       ],
       [
        116.34571104169727,
        39.93950942902536
       ],
       [
        116.34577393672508,
        39.93950507941021
       ],
       [
        116.34583708275174,
        39.93950549611682
       ],
       [
        116.34589987165961,
        39.93951067513226
       ],
       [
        116.34596169876997,
        39.93952056658096
       ],
       [
        116.34602196866587,
        39.93953507520491
       ],
       [
        116.346080100926,
        39.93955406128109
       ],
       [
        116.3461355357139,
        39.93957734196685
       ],
       [
        116.34618773916921,
        39.93960469306071
       ],
       [
        116.3462362085488,
        39.93963585116134
       ],
       [
        116.34628047706828,
        39.93967051620414
       ],
       [
        116.34632011839723,
        39.93970835435077
       ],
       [
        116.34635475076504,
        39.939749001204014
       ],
       [
        116.34638404063779,
        39.939792065317015
       ],
       [
        116.34640770593037,
        39.939837131962854
       ],
       [
        116.34642551872358,
        39.93988376712848
       ],
       [
        116.34643730745941,
        39.93993152169434
       ],
       [
        116.34644295859363,
        39.93997993575962
       ],
       [
        116.34644241768981,
        39.940028543071165
       ],
       [
        116.34614460286677,
        39.944000158292276
       ],
       [
        116.35500000000002,
        39.943999999999996
       ],
       [
        116.35500000000002,
        39.94983999999999
       ],
       [
        116.34573690278958,
        39.94984014929741
       ],
       [
        116.34514315621584,
        39.96001999289651
       ],
       [
        116.34444345960387,
        39.97501650279433
       ],
       [
        116.34410423398968,
        39.98350008075149
       ],
       [
        116.353,
        39.9835
       ],
       [
        116.353,
        39.99349999999999
       ],
       [
        116.3440546609078,
        39.99350007929328
       ],
       [
        116.34444290977733,
        39.99996958528367
       ],
       [
        116.34519600484315,
        40.00750008341596
       ],
       [
        116.354,
        40.0075
       ],
       [
        116.3540000066151,
        40.01250022004857
       ],
       [
        116.35453266424393,
        40.01250018664884
       ],
       [
        116.3533,
        39.99
       ],
       [
        116.35462017398442,
        39.973500057695404
       ],
       [
        116.349,
        39.97350000000001
       ],
       [
        116.349,
        39.967
       ],
       [
        116.35514005462944,
        39.96700004926082
       ],
       [
        116.3553,
        39.965
       ],
       [
        116.3553,
        39.939
       ],
       [
        116.34070000000001,
        39.93899999999999
       ],
       [
        116.3397,
        39.975
       ],
       [
        116.34169999999999,
        40.00600000000001
       ]
      ]
     ],
     [
      [
       [
        116.34270000000001,
        40.026500000000006
       ],
       [
        116.3553,
        40.02649999999999
       ],
       [
        116.3549163011673,
        40.01950016108337
       ],
       [
        116.35400000764433,
        40.01950022005777
       ],
       [
        116.354,
        40.026
       ],
       [
        116.34299999999999,
        40.025999999999996
       ],
       [
        116.34300000777439,
        40.01950036244927
       ],
       [
        116.34235849480689,
        40.01950033852923
       ],
       [
        116.34270000000001,
        40.026500000000006
       ]
      ]
     ]
    ]
   }
  }
 ]
}