{
  "type": "FeatureCollection",
  "name": "constraints.geojson",
  "features": [
    {
      "type": "Feature",
      "id": "CONSTRAINTS-001",
      "properties": {
        "id": "CONSTRAINTS-001",
        "layer": "REGULATORY_CONTROL",
        "source_type": "agent_inferred_from_public_data",
        "confidence": "low",
        "geometry_role": "analysis_helper",
        "name_zh": "京张铁路旧址走廊（示意约束）"
      },
      "geometry": {
        "type": "LineString",
        "coordinates": [
          [
            116.346,
            39.95
          ],
          [
            116.346,
            39.976
          ],
          [
            116.3458,
            39.991
          ],
          [
            116.3458,
            40.026
          ]
        ]
      }
    },
    {
      "type": "Feature",
      "id": "CONSTRAINTS-002",
      "properties": {
        "id": "CONSTRAINTS-002",
        "layer": "EXISTING_RAIL",
        "source_type": "agent_inferred_from_public_data",
        "confidence": "low",
        "geometry_role": "analysis_helper",
        "name_zh": "地铁13号线走廊（示意，需官方核线）"
      },
      "geometry": {
        "type": "LineString",
        "coordinates": [
          [
            116.352,
            39.95
          ],
          [
            116.352,
            39.966
          ],
          [
            116.3524,
            39.983
          ],
          [
            116.3524,
            40.0
          ],
          [
            116.3528,
            40.026
          ]
        ]
      }
    },
    {
      "type": "Feature",
      "id": "CONSTRAINTS-003",
      "properties": {
        "id": "CONSTRAINTS-003",
        "layer": "EXISTING_WATER",
        "source_type": "agent_inferred_from_public_data",
        "confidence": "low",
        "geometry_role": "analysis_helper",
        "name_zh": "清河蓝线（示意，需官方核线）"
      },
      "geometry": {
        "type": "LineString",
        "coordinates": [
          [
            116.342,
            40.0225
          ],
          [
            116.345,
            40.0225
          ],
          [
            116.348,
            40.0225
          ],
          [
            116.351,
            40.0225
          ],
          [
            116.354,
            40.0225
          ]
        ]
      }
    },
    {
      "type": "Feature",
      "id": "CONSTRAINTS-004",
      "properties": {
        "id": "CONSTRAINTS-004",
        "layer": "EXISTING_WATER",
        "source_type": "agent_inferred_from_public_data",
        "confidence": "low",
        "geometry_role": "analysis_helper",
        "name_zh": "小月河河道（示意，需官方核线）"
      },
      "geometry": {
        "type": "LineString",
        "coordinates": [
          [
            116.3456,
            39.972
          ],
          [
            116.3456,
            39.99
          ],
          [
            116.3456,
            40.006
          ],
          [
            116.3456,
            40.021
          ]
        ]
      }
    },
    {
      "type": "Feature",
      "id": "CONSTRAINTS-005",
      "properties": {
        "id": "CONSTRAINTS-005",
        "layer": "REGULATORY_CONTROL",
        "source_type": "agent_inferred_from_public_data",
        "confidence": "low",
        "geometry_role": "analysis_helper",
        "name_zh": "北五环高架走廊缓冲（示意）"
      },
      "geometry": {
        "type": "LineString",
        "coordinates": [
          [
            116.3405,
            39.9975
          ],
          [
            116.343,
            39.9975
          ],
          [
            116.346,
            39.9975
          ],
          [
            116.349,
            39.9975
          ],
          [
            116.3515,
            39.9975
          ],
          [
            116.3545,
            39.9975
          ]
        ]
      }
    },
    {
      "type": "Feature",
      "id": "CONSTRAINTS-006",
      "properties": {
        "id": "CONSTRAINTS-006",
        "layer": "AI_SERVICE_ZONE",
        "source_type": "agent_generated_design",
        "confidence": "medium",
        "geometry_role": "design_proposal",
        "name_zh": "众智园无人配送低速试点区（概念建议）",
        "concept_note": "低速、可监管、可撤回的试点范围示意；试点边界、速度与避让规则需交通/安全/运营/公众团队复核。"
      },
      "geometry": {
        "type": "Polygon",
        "coordinates": [
          [
            [
              116.3428,
              40.008
            ],
            [
              116.3428,
              40.02
            ],
            [
              116.3445,
              40.02
            ],
            [
              116.3458,
              40.02
            ],
            [
              116.3458,
              40.008
            ],
            [
              116.3445,
              40.008
            ],
            [
              116.3428,
              40.008
            ]
          ]
        ]
      }
    },
    {
      "type": "Feature",
      "id": "SCN-001",
      "properties": {
        "id": "SCN-001",
        "layer": "SCENARIO_NODE",
        "source_type": "agent_generated_design",
        "confidence": "medium",
        "geometry_role": "design_proposal",
        "name_zh": "无人配送测试环线",
        "scenario_type": "delivery"
      },
      "geometry": {
        "type": "Point",
        "coordinates": [
          116.3442,
          40.016
        ]
      }
    },
    {
      "type": "Feature",
      "id": "SCN-002",
      "properties": {
        "id": "SCN-002",
        "layer": "SCENARIO_NODE",
        "source_type": "agent_generated_design",
        "confidence": "medium",
        "geometry_role": "design_proposal",
        "name_zh": "无人接驳试乘点",
        "scenario_type": "autonomous_shuttle"
      },
      "geometry": {
        "type": "Point",
        "coordinates": [
          116.3498,
          39.9644
        ]
      }
    },
    {
      "type": "Feature",
      "id": "SCN-003",
      "properties": {
        "id": "SCN-003",
        "layer": "SCENARIO_NODE",
        "source_type": "agent_generated_design",
        "confidence": "medium",
        "geometry_role": "design_proposal",
        "name_zh": "机器人巡检维护驿站",
        "scenario_type": "robot_inspection"
      },
      "geometry": {
        "type": "Point",
        "coordinates": [
          116.3438,
          40.0185
        ]
      }
    },
    {
      "type": "Feature",
      "id": "SCN-004",
      "properties": {
        "id": "SCN-004",
        "layer": "SCENARIO_NODE",
        "source_type": "agent_generated_design",
        "confidence": "medium",
        "geometry_role": "design_proposal",
        "name_zh": "AI健康服务导航驿站",
        "scenario_type": "health_navigation"
      },
      "geometry": {
        "type": "Point",
        "coordinates": [
          116.3452,
          39.9858
        ]
      }
    },
    {
      "type": "Feature",
      "id": "SCN-005",
      "properties": {
        "id": "SCN-005",
        "layer": "SCENARIO_NODE",
        "source_type": "agent_generated_design",
        "confidence": "medium",
        "geometry_role": "design_proposal",
        "name_zh": "AI教育科普驿站",
        "scenario_type": "education"
      },
      "geometry": {
        "type": "Point",
        "coordinates": [
          116.3452,
          39.9892
        ]
      }
    },
    {
      "type": "Feature",
      "id": "SCN-006",
      "properties": {
        "id": "SCN-006",
        "layer": "SCENARIO_NODE",
        "source_type": "agent_generated_design",
        "confidence": "medium",
        "geometry_role": "design_proposal",
        "name_zh": "无障碍慢行导航点",
        "scenario_type": "accessible_navigation"
      },
      "geometry": {
        "type": "Point",
        "coordinates": [
          116.3475,
          39.979
        ]
      }
    },
    {
      "type": "Feature",
      "id": "SCN-007",
      "properties": {
        "id": "SCN-007",
        "layer": "SCENARIO_NODE",
        "source_type": "agent_generated_design",
        "confidence": "medium",
        "geometry_role": "design_proposal",
        "name_zh": "AI文化导览站",
        "scenario_type": "cultural_guide"
      },
      "geometry": {
        "type": "Point",
        "coordinates": [
          116.347,
          39.976
        ]
      }
    },
    {
      "type": "Feature",
      "id": "SCN-008",
      "properties": {
        "id": "SCN-008",
        "layer": "SCENARIO_NODE",
        "source_type": "agent_generated_design",
        "confidence": "medium",
        "geometry_role": "design_proposal",
        "name_zh": "智能终端体验街",
        "scenario_type": "smart_retail"
      },
      "geometry": {
        "type": "Point",
        "coordinates": [
          116.3432,
          39.959
        ]
      }
    },
    {
      "type": "Feature",
      "id": "SCN-009",
      "properties": {
        "id": "SCN-009",
        "layer": "SCENARIO_NODE",
        "source_type": "agent_generated_design",
        "confidence": "medium",
        "geometry_role": "design_proposal",
        "name_zh": "社区综合服务驿站",
        "scenario_type": "community_service"
      },
      "geometry": {
        "type": "Point",
        "coordinates": [
          116.3532,
          39.987
        ]
      }
    },
    {
      "type": "Feature",
      "id": "SCN-010",
      "properties": {
        "id": "SCN-010",
        "layer": "SCENARIO_NODE",
        "source_type": "agent_generated_design",
        "confidence": "medium",
        "geometry_role": "design_proposal",
        "name_zh": "活动日配送调度点",
        "scenario_type": "event_delivery"
      },
      "geometry": {
        "type": "Point",
        "coordinates": [
          116.344,
          40.0235
        ]
      }
    },
    {
      "type": "Feature",
      "id": "SCN-011",
      "properties": {
        "id": "SCN-011",
        "layer": "SCENARIO_NODE",
        "source_type": "agent_generated_design",
        "confidence": "medium",
        "geometry_role": "design_proposal",
        "name_zh": "校园-社区接驳点",
        "scenario_type": "campus_shuttle"
      },
      "geometry": {
        "type": "Point",
        "coordinates": [
          116.3435,
          39.98
        ]
      }
    },
    {
      "type": "Feature",
      "id": "SCN-012",
      "properties": {
        "id": "SCN-012",
        "layer": "SCENARIO_NODE",
        "source_type": "agent_generated_design",
        "confidence": "medium",
        "geometry_role": "design_proposal",
        "name_zh": "南部社区健康驿站",
        "scenario_type": "health_navigation"
      },
      "geometry": {
        "type": "Point",
        "coordinates": [
          116.3525,
          39.968
        ]
      }
    }
  ]
}