{
  "type": "FeatureCollection",
  "features": [
    {
      "type": "Feature",
      "id": "LU-001",
      "properties": {
        "id": "LU-001",
        "layer": "LAND_USE",
        "source_type": "agent_generated_design",
        "confidence": "low",
        "geometry_role": "design_proposal",
        "land_use_code": "0901",
        "label_zh": "城市生活与文化",
        "label_en": "Urban life and culture",
        "area_sqm_declared": 1345803.828,
        "design_status": "conceptual_partition"
      },
      "geometry": {
        "type": "Polygon",
        "coordinates": [
          [
            [
              116.3407,
              39.939
            ],
            [
              116.34043263888888,
              39.948625
            ],
            [
              116.3553,
              39.948625
            ],
            [
              116.3553,
              39.939
            ],
            [
              116.3407,
              39.939
            ]
          ]
        ]
      }
    },
    {
      "type": "Feature",
      "id": "LU-002",
      "properties": {
        "id": "LU-002",
        "layer": "LAND_USE",
        "source_type": "agent_generated_design",
        "confidence": "low",
        "geometry_role": "design_proposal",
        "land_use_code": "0702",
        "label_zh": "社区服务与人才生活",
        "label_en": "Community and talent services",
        "area_sqm_declared": 1874235.976,
        "design_status": "conceptual_partition"
      },
      "geometry": {
        "type": "Polygon",
        "coordinates": [
          [
            [
              116.3553,
              39.948625
            ],
            [
              116.34043263888888,
              39.948625
            ],
            [
              116.34006805555555,
              39.96175
            ],
            [
              116.3553,
              39.96175
            ],
            [
              116.3553,
              39.948625
            ]
          ]
        ]
      }
    },
    {
      "type": "Feature",
      "id": "LU-003",
      "properties": {
        "id": "LU-003",
        "layer": "LAND_USE",
        "source_type": "agent_generated_design",
        "confidence": "low",
        "geometry_role": "design_proposal",
        "land_use_code": "0802",
        "label_zh": "研究转化与共同工作",
        "label_en": "Research translation and co-working",
        "area_sqm_declared": 1882272.996,
        "design_status": "conceptual_partition"
      },
      "geometry": {
        "type": "Polygon",
        "coordinates": [
          [
            [
              116.3553,
              39.965
            ],
            [
              116.3553,
              39.96175
            ],
            [
              116.34006805555555,
              39.96175
            ],
            [
              116.33970347222221,
              39.974875
            ],
            [
              116.35451,
              39.974875
            ],
            [
              116.3553,
              39.965
            ]
          ]
        ]
      }
    },
    {
      "type": "Feature",
      "id": "LU-004",
      "properties": {
        "id": "LU-004",
        "layer": "LAND_USE",
        "source_type": "agent_generated_design",
        "confidence": "low",
        "geometry_role": "design_proposal",
        "land_use_code": "1401",
        "label_zh": "京张遗产公园与开放空间",
        "label_en": "Heritage park and open space",
        "area_sqm_declared": 1938987.267,
        "design_status": "conceptual_partition"
      },
      "geometry": {
        "type": "Polygon",
        "coordinates": [
          [
            [
              116.35451,
              39.974875
            ],
            [
              116.33970347222221,
              39.974875
            ],
            [
              116.3397,
              39.975
            ],
            [
              116.34065161290323,
              39.98975
            ],
            [
              116.35332000000001,
              39.98975
            ],
            [
              116.35451,
              39.974875
            ]
          ]
        ]
      }
    },
    {
      "type": "Feature",
      "id": "LU-005",
      "properties": {
        "id": "LU-005",
        "layer": "LAND_USE",
        "source_type": "agent_generated_design",
        "confidence": "low",
        "geometry_role": "design_proposal",
        "land_use_code": "0804",
        "label_zh": "校园连接与终身学习",
        "label_en": "Campus links and lifelong learning",
        "area_sqm_declared": 1668385.015,
        "design_status": "conceptual_partition"
      },
      "geometry": {
        "type": "Polygon",
        "coordinates": [
          [
            [
              116.3533,
              39.99
            ],
            [
              116.35332000000001,
              39.98975
            ],
            [
              116.34065161290323,
              39.98975
            ],
            [
              116.34155483870968,
              40.00375
            ],
            [
              116.35405342465754,
              40.00375
            ],
            [
              116.3533,
              39.99
            ]
          ]
        ]
      }
    },
    {
      "type": "Feature",
      "id": "LU-006",
      "properties": {
        "id": "LU-006",
        "layer": "LAND_USE",
        "source_type": "agent_generated_design",
        "confidence": "low",
        "geometry_role": "design_proposal",
        "land_use_code": "0802",
        "label_zh": "公共研发与验证",
        "label_en": "Public research and validation",
        "area_sqm_declared": 1556180.587,
        "design_status": "conceptual_partition"
      },
      "geometry": {
        "type": "Polygon",
        "coordinates": [
          [
            [
              116.35405342465754,
              40.00375
            ],
            [
              116.34155483870968,
              40.00375
            ],
            [
              116.3417,
              40.006
            ],
            [
              116.34223048780487,
              40.016875
            ],
            [
              116.35477260273973,
              40.016875
            ],
            [
              116.35405342465754,
              40.00375
            ]
          ]
        ]
      }
    },
    {
      "type": "Feature",
      "id": "LU-007",
      "properties": {
        "id": "LU-007",
        "layer": "LAND_USE",
        "source_type": "agent_generated_design",
        "confidence": "low",
        "geometry_role": "design_proposal",
        "land_use_code": "09",
        "label_zh": "创新服务与国际交往",
        "label_en": "Innovation services and exchange",
        "area_sqm_declared": 1146977.389,
        "design_status": "conceptual_partition"
      },
      "geometry": {
        "type": "Polygon",
        "coordinates": [
          [
            [
              116.35477260273973,
              40.016875
            ],
            [
              116.34223048780487,
              40.016875
            ],
            [
              116.3427,
              40.0265
            ],
            [
              116.3553,
              40.0265
            ],
            [
              116.35477260273973,
              40.016875
            ]
          ]
        ]
      }
    }
  ]
}
