{
  "type": "FeatureCollection",
  "name": "open_model_loop_land_use_partition",
  "features": [
    {
      "type": "Feature",
      "id": "LU-001",
      "properties": {
        "id": "LU-001",
        "layer": "LAND_USE",
        "source_type": "agent_generated_design",
        "confidence": "medium",
        "geometry_role": "design_proposal",
        "land_use_code": "05",
        "name_zh": "智能原生商务与国际交往",
        "design_role_zh": "大钟寺城市型AI产业界面",
        "control_status": "conceptual_design_partition",
        "area_sqm_declared": 2214839.749
      },
      "geometry": {
        "type": "Polygon",
        "coordinates": [
          [
            [
              116.3407,
              39.939
            ],
            [
              116.3402625,
              39.95475
            ],
            [
              116.3553,
              39.95475
            ],
            [
              116.3553,
              39.939
            ],
            [
              116.3407,
              39.939
            ]
          ]
        ]
      }
    },
    {
      "type": "Feature",
      "id": "LU-002",
      "properties": {
        "id": "LU-002",
        "layer": "LAND_USE",
        "source_type": "agent_generated_design",
        "confidence": "medium",
        "geometry_role": "design_proposal",
        "land_use_code": "0702",
        "name_zh": "人才社区与公共服务",
        "design_role_zh": "低扰动更新和15分钟服务回路",
        "control_status": "conceptual_design_partition",
        "area_sqm_declared": 3009927.033
      },
      "geometry": {
        "type": "Polygon",
        "coordinates": [
          [
            [
              116.3553,
              39.965
            ],
            [
              116.3553,
              39.95475
            ],
            [
              116.3402625,
              39.95475
            ],
            [
              116.3397,
              39.975
            ],
            [
              116.33974838709676,
              39.97575
            ],
            [
              116.35444,
              39.97575
            ],
            [
              116.3553,
              39.965
            ]
          ]
        ]
      }
    },
    {
      "type": "Feature",
      "id": "LU-003",
      "properties": {
        "id": "LU-003",
        "layer": "LAND_USE",
        "source_type": "agent_generated_design",
        "confidence": "medium",
        "geometry_role": "design_proposal",
        "land_use_code": "0802",
        "name_zh": "开放模型研发与成果转化",
        "design_role_zh": "原点社区开源协作和近校转化",
        "control_status": "conceptual_design_partition",
        "area_sqm_declared": 2861450.66
      },
      "geometry": {
        "type": "Polygon",
        "coordinates": [
          [
            [
              116.3533,
              39.99
            ],
            [
              116.35444,
              39.97575
            ],
            [
              116.33974838709676,
              39.97575
            ],
            [
              116.34121612903226,
              39.9985
            ],
            [
              116.35376575342467,
              39.9985
            ],
            [
              116.3533,
              39.99
            ]
          ]
        ]
      }
    },
    {
      "type": "Feature",
      "id": "LU-004",
      "properties": {
        "id": "LU-004",
        "layer": "LAND_USE",
        "source_type": "agent_generated_design",
        "confidence": "medium",
        "geometry_role": "design_proposal",
        "land_use_code": "1401",
        "name_zh": "遗址公园与开放验证廊",
        "design_role_zh": "公共空间承担展示、体验和文化叙事",
        "control_status": "conceptual_design_partition",
        "area_sqm_declared": 1659991.815
      },
      "geometry": {
        "type": "Polygon",
        "coordinates": [
          [
            [
              116.35376575342467,
              39.9985
            ],
            [
              116.34121612903226,
              39.9985
            ],
            [
              116.3417,
              40.006
            ],
            [
              116.34201707317074,
              40.012499999999996
            ],
            [
              116.35453287671233,
              40.012499999999996
            ],
            [
              116.35376575342467,
              39.9985
            ]
          ]
        ]
      }
    },
    {
      "type": "Feature",
      "id": "LU-005",
      "properties": {
        "id": "LU-005",
        "layer": "LAND_USE",
        "source_type": "agent_generated_design",
        "confidence": "medium",
        "geometry_role": "design_proposal",
        "land_use_code": "0802",
        "name_zh": "全栈研发与安全治理",
        "design_role_zh": "众智园验证、标准与治理节点",
        "control_status": "conceptual_design_partition",
        "area_sqm_declared": 1666637.161
      },
      "geometry": {
        "type": "Polygon",
        "coordinates": [
          [
            [
              116.35453287671233,
              40.012499999999996
            ],
            [
              116.34201707317074,
              40.012499999999996
            ],
            [
              116.3427,
              40.0265
            ],
            [
              116.3553,
              40.0265
            ],
            [
              116.35453287671233,
              40.012499999999996
            ]
          ]
        ]
      }
    }
  ]
}
