{
  "type": "FeatureCollection",
  "name": "open_model_loop_public_space_network",
  "features": [
    {
      "type": "Feature",
      "id": "PUBLIC-001",
      "properties": {
        "id": "PUBLIC-001",
        "layer": "PUBLIC_SPACE",
        "source_type": "agent_generated_design",
        "confidence": "medium",
        "geometry_role": "design_proposal",
        "name_zh": "三站三横开放协作客厅",
        "design_role_zh": "围绕三处重点区组织可预约、可退出、有人审的公共测试与交往空间",
        "control_status": "conceptual_public_space_pending_ownership_and_heritage_review",
        "area_sqm_declared": 463883.586
      },
      "geometry": {
        "type": "MultiPolygon",
        "coordinates": [
          [
            [
              [
                116.35385321102413,
                39.94729320673094
              ],
              [
                116.35388924653863,
                39.947280313017686
              ],
              [
                116.35392384472736,
                39.9472639492931
              ],
              [
                116.35395667239088,
                39.947244273148804
              ],
              [
                116.35398741338082,
                39.94722147407682
              ],
              [
                116.35401577164467,
                39.947195771644665
              ],
              [
                116.35404147407681,
                39.94716741338083
              ],
              [
                116.3540642731488,
                39.94713667239088
              ],
              [
                116.3540839492931,
                39.947103844727366
              ],
              [
                116.35410031301768,
                39.947069246538625
              ],
              [
                116.35411320673094,
                39.947033211024134
              ],
              [
                116.35412250625936,
                39.94699608522559
              ],
              [
                116.3541281220434,
                39.946958226684735
              ],
              [
                116.35413,
                39.946920000000006
              ],
              [
                116.3541281220434,
                39.946881773315276
              ],
              [
                116.35412250625936,
                39.94684391477442
              ],
              [
                116.35411320673094,
                39.94680678897588
              ],
              [
                116.35410031301768,
                39.94677075346139
              ],
              [
                116.3540839492931,
                39.946736155272646
              ],
              [
                116.3540642731488,
                39.94670332760913
              ],
              [
                116.35404147407681,
                39.94667258661918
              ],
              [
                116.35401577164467,
                39.946644228355346
              ],
              [
                116.35398741338082,
                39.94661852592319
              ],
              [
                116.35395667239088,
                39.94659572685121
              ],
              [
                116.35392384472736,
                39.94657605070691
              ],
              [
                116.35388924653863,
                39.946559686982326
              ],
              [
                116.35385321102413,
                39.94654679326907
              ],
              [
                116.35381608522559,
                39.94653749374065
              ],
              [
                116.35377822668472,
                39.9465318779566
              ],
              [
                116.35374,
                39.94653
              ],
              [
                116.35016919439694,
                39.94653
              ],
              [
                116.35014210961612,
                39.94642187149384
              ],
              [
                116.3500853772778,
                39.94626331523007
              ],
              [
                116.35001337688962,
                39.94611108319961
              ],
              [
                116.3499268018547,
                39.94596664148014
              ],
              [
                116.34982648593797,
                39.94583138112438
              ],
              [
                116.34971339523652,
                39.94570660476349
              ],
              [
                116.34958861887563,
                39.94559351406203
              ],
              [
                116.34945335851987,
                39.94549319814529
              ],
              [
                116.3493089168004,
                39.94540662311039
              ],
              [
                116.34915668476994,
                39.945334622722214
              ],
              [
                116.34899812850617,
                39.94527789038389
              ],
              [
                116.34883477499258,
                39.94523697245884
              ],
              [
                116.3486681974128,
                39.94521226300903
              ],
              [
                116.3485,
                39.945204000000004
              ],
              [
                116.3483318025872,
                39.94521226300903
              ],
              [
                116.34816522500742,
                39.94523697245884
              ],
              [
                116.34800187149384,
                39.94527789038389
              ],
              [
                116.34784331523007,
                39.945334622722214
              ],
              [
                116.3476910831996,
                39.94540662311039
              ],
              [
                116.34754664148014,
                39.94549319814529
              ],
              [
                116.34741138112437,
                39.94559351406203
              ],
              [
                116.34728660476348,
                39.94570660476349
              ],
              [
                116.34717351406204,
                39.94583138112438
              ],
              [
                116.3470731981453,
                39.94596664148014
              ],
              [
                116.34698662311038,
                39.94611108319961
              ],
              [
                116.34691462272221,
                39.94626331523007
              ],
              [
                116.34685789038389,
                39.94642187149384
              ],
              [
                116.34683080560306,
                39.94653
              ],
              [
                116.34125999999999,
                39.94653
              ],
              [
                116.34122177331527,
                39.9465318779566
              ],
              [
                116.3411839147744,
                39.94653749374065
              ],
              [
                116.34114678897586,
                39.94654679326907
              ],
              [
                116.34111075346136,
                39.946559686982326
              ],
              [
                116.34107615527263,
                39.94657605070691
              ],
              [
                116.34104332760911,
                39.94659572685121
              ],
              [
                116.34101258661917,
                39.94661852592319
              ],
              [
                116.34098422835532,
                39.946644228355346
              ],
              [
                116.34095852592318,
                39.94667258661918
              ],
              [
                116.3409357268512,
                39.94670332760913
              ],
              [
                116.3409160507069,
                39.946736155272646
              ],
              [
                116.34089968698231,
                39.94677075346139
              ],
              [
                116.34088679326905,
                39.94680678897588
              ],
              [
                116.34087749374063,
                39.94684391477442
              ],
              [
                116.34087187795659,
                39.946881773315276
              ],
              [
                116.34087,
                39.946920000000006
              ],
              [
                116.34087187795659,
                39.946958226684735
              ],
              [
                116.34087749374063,
                39.94699608522559
              ],
              [
                116.34088679326905,
                39.947033211024134
              ],
              [
                116.34089968698231,
                39.947069246538625
              ],
              [
                116.3409160507069,
                39.947103844727366
              ],
              [
                116.3409357268512,
                39.94713667239088
              ],
              [
                116.34095852592318,
                39.94716741338083
              ],
              [
                116.34098422835532,
                39.947195771644665
              ],
              [
                116.34101258661917,
                39.94722147407682
              ],
              [
                116.34104332760911,
                39.947244273148804
              ],
              [
                116.34107615527263,
                39.9472639492931
              ],
              [
                116.34111075346136,
                39.947280313017686
              ],
              [
                116.34114678897586,
                39.94729320673094
              ],
              [
                116.3411839147744,
                39.94730250625936
              ],
              [
                116.34122177331527,
                39.94730812204341
              ],
              [
                116.34125999999999,
                39.94731000000001
              ],
              [
                116.34683080560306,
                39.94731000000001
              ],
              [
                116.34685789038389,
                39.94741812850617
              ],
              [
                116.34691462272221,
                39.94757668476994
              ],
              [
                116.34698662311038,
                39.9477289168004
              ],
              [
                116.3470731981453,
                39.94787335851987
              ],
              [
                116.34717351406204,
                39.94800861887563
              ],
              [
                116.34728660476348,
                39.948133395236525
              ],
              [
                116.34741138112437,
                39.94824648593798
              ],
              [
                116.34754664148014,
                39.94834680185472
              ],
              [
                116.3476910831996,
                39.948433376889625
              ],
              [
                116.34784331523007,
                39.9485053772778
              ],
              [
                116.34800187149384,
                39.94856210961612
              ],
              [
                116.34816522500742,
                39.948603027541175
              ],
              [
                116.3483318025872,
                39.94862773699098
              ],
              [
                116.3485,
                39.94863600000001
              ],
              [
                116.3486681974128,
                39.94862773699098
              ],
              [
                116.34883477499258,
                39.948603027541175
              ],
              [
                116.34899812850617,
                39.94856210961612
              ],
              [
                116.34915668476994,
                39.9485053772778
              ],
              [
                116.3493089168004,
                39.948433376889625
              ],
              [
                116.34945335851987,
                39.94834680185472
              ],
              [
                116.34958861887563,
                39.94824648593798
              ],
              [
                116.34971339523652,
                39.948133395236525
              ],
              [
                116.34982648593797,
                39.94800861887563
              ],
              [
                116.3499268018547,
                39.94787335851987
              ],
              [
                116.35001337688962,
                39.9477289168004
              ],
              [
                116.3500853772778,
                39.94757668476994
              ],
              [
                116.35014210961612,
                39.94741812850617
              ],
              [
                116.35016919439694,
                39.94731000000001
              ],
              [
                116.35374,
                39.94731000000001
              ],
              [
                116.35377822668472,
                39.94730812204341
              ],
              [
                116.35381608522559,
                39.94730250625936
              ],
              [
                116.35385321102413,
                39.94729320673094
              ]
            ]
          ],
          [
            [
              [
                116.35342,
                39.98811
              ],
              [
                116.34916919439694,
                39.98811
              ],
              [
                116.34914210961611,
                39.988001871493836
              ],
              [
                116.34908537727779,
                39.987843315230066
              ],
              [
                116.34901337688962,
                39.98769108319961
              ],
              [
                116.3489268018547,
                39.98754664148014
              ],
              [
                116.34882648593796,
                39.987411381124375
              ],
              [
                116.34871339523652,
                39.98728660476348
              ],
              [
                116.34858861887562,
                39.98717351406203
              ],
              [
                116.34845335851986,
                39.98707319814529
              ],
              [
                116.34830891680039,
                39.98698662311038
              ],
              [
                116.34815668476993,
                39.98691462272221
              ],
              [
                116.34799812850616,
                39.98685789038389
              ],
              [
                116.34783477499258,
                39.98681697245883
              ],
              [
                116.3476681974128,
                39.98679226300903
              ],
              [
                116.3475,
                39.986784
              ],
              [
                116.34733180258719,
                39.98679226300903
              ],
              [
                116.34716522500742,
                39.98681697245883
              ],
              [
                116.34700187149383,
                39.98685789038389
              ],
              [
                116.34684331523006,
                39.98691462272221
              ],
              [
                116.3466910831996,
                39.98698662311038
              ],
              [
                116.34654664148013,
                39.98707319814529
              ],
              [
                116.34641138112437,
                39.98717351406203
              ],
              [
                116.34628660476348,
                39.98728660476348
              ],
              [
                116.34617351406203,
                39.987411381124375
              ],
              [
                116.34607319814529,
                39.98754664148014
              ],
              [
                116.34598662311038,
                39.98769108319961
              ],
              [
                116.3459146227222,
                39.987843315230066
              ],
              [
                116.34585789038388,
                39.988001871493836
              ],
              [
                116.34583080560306,
                39.98811
              ],
              [
                116.34125999999999,
                39.98811
              ],
              [
                116.34122177331527,
                39.9881118779566
              ],
              [
                116.3411839147744,
                39.988117493740646
              ],
              [
                116.34114678897586,
                39.98812679326907
              ],
              [
                116.34111075346136,
                39.98813968698232
              ],
              [
                116.34107615527263,
                39.988156050706905
              ],
              [
                116.34104332760911,
                39.9881757268512
              ],
              [
                116.34101258661917,
                39.98819852592319
              ],
              [
                116.34098422835532,
                39.98822422835534
              ],
              [
                116.34095852592318,
                39.988252586619176
              ],
              [
                116.3409357268512,
                39.988283327609125
              ],
              [
                116.3409160507069,
                39.98831615527264
              ],
              [
                116.34089968698231,
                39.98835075346138
              ],
              [
                116.34088679326905,
                39.98838678897587
              ],
              [
                116.34087749374063,
                39.988423914774415
              ],
              [
                116.34087187795659,
                39.98846177331527
              ],
              [
                116.34087,
                39.9885
              ],
              [
                116.34087187795659,
                39.98853822668473
              ],
              [
                116.34087749374063,
                39.98857608522559
              ],
              [
                116.34088679326905,
                39.98861321102413
              ],
              [
                116.34089968698231,
                39.98864924653862
              ],
              [
                116.3409160507069,
                39.98868384472736
              ],
              [
                116.3409357268512,
                39.98871667239088
              ],
              [
                116.34095852592318,
                39.98874741338083
              ],
              [
                116.34098422835532,
                39.98877577164466
              ],
              [
                116.34101258661917,
                39.988801474076816
              ],
              [
                116.34104332760911,
                39.9888242731488
              ],
              [
                116.34107615527263,
                39.9888439492931
              ],
              [
                116.34111075346136,
                39.98886031301768
              ],
              [
                116.34114678897586,
                39.988873206730936
              ],
              [
                116.3411839147744,
                39.98888250625936
              ],
              [
                116.34122177331527,
                39.988888122043406
              ],
              [
                116.34125999999999,
                39.988890000000005
              ],
              [
                116.34583080560306,
                39.988890000000005
              ],
              [
                116.34585789038388,
                39.98899812850617
              ],
              [
                116.3459146227222,
                39.98915668476994
              ],
              [
                116.34598662311038,
                39.9893089168004
              ],
              [
                116.34607319814529,
                39.98945335851987
              ],
              [
                116.34617351406203,
                39.98958861887563
              ],
              [
                116.34628660476348,
                39.98971339523652
              ],
              [
                116.34641138112437,
                39.989826485937975
              ],
              [
                116.34654664148013,
                39.989926801854715
              ],
              [
                116.3466910831996,
                39.99001337688962
              ],
              [
                116.34684331523006,
                39.990085377277794
              ],
              [
                116.34700187149383,
                39.990142109616116
              ],
              [
                116.34716522500742,
                39.99018302754117
              ],
              [
                116.34733180258719,
                39.990207736990975
              ],
              [
                116.3475,
                39.990216000000004
              ],
              [
                116.3476681974128,
                39.990207736990975
              ],
              [
                116.34783477499258,
                39.99018302754117
              ],
              [
                116.34799812850616,
                39.990142109616116
              ],
              [
                116.34815668476993,
                39.990085377277794
              ],
              [
                116.34830891680039,
                39.99001337688962
              ],
              [
                116.34845335851986,
                39.989926801854715
              ],
              [
                116.34858861887562,
                39.989826485937975
              ],
              [
                116.34871339523652,
                39.98971339523652
              ],
              [
                116.34882648593796,
                39.98958861887563
              ],
              [
                116.3489268018547,
                39.98945335851987
              ],
              [
                116.34901337688962,
                39.9893089168004
              ],
              [
                116.34908537727779,
                39.98915668476994
              ],
              [
                116.34914210961611,
                39.98899812850617
              ],
              [
                116.34916919439694,
                39.988890000000005
              ],
              [
                116.3533888,
                39.988890000000005
              ],
              [
                116.35345107785942,
                39.98811152675733
              ],
              [
                116.35342,
                39.98811
              ]
            ]
          ],
          [
            [
              [
                116.35388924653863,
                40.01711031301768
              ],
              [
                116.35392384472736,
                40.0170939492931
              ],
              [
                116.35395667239088,
                40.0170742731488
              ],
              [
                116.35398741338082,
                40.017051474076816
              ],
              [
                116.35401577164467,
                40.01702577164466
              ],
              [
                116.35404147407681,
                40.01699741338083
              ],
              [
                116.3540642731488,
                40.01696667239088
              ],
              [
                116.3540839492931,
                40.01693384472736
              ],
              [
                116.35410031301768,
                40.01689924653862
              ],
              [
                116.35411320673094,
                40.01686321102413
              ],
              [
                116.35412250625936,
                40.01682608522559
              ],
              [
                116.3541281220434,
                40.01678822668473
              ],
              [
                116.35413,
                40.01675
              ],
              [
                116.3541281220434,
                40.01671177331527
              ],
              [
                116.35412250625936,
                40.016673914774415
              ],
              [
                116.35411320673094,
                40.01663678897587
              ],
              [
                116.35410031301768,
                40.01660075346138
              ],
              [
                116.3540839492931,
                40.01656615527264
              ],
              [
                116.3540642731488,
                40.016533327609125
              ],
              [
                116.35404147407681,
                40.016502586619175
              ],
              [
                116.35401577164467,
                40.01647422835534
              ],
              [
                116.35398741338082,
                40.01644852592319
              ],
              [
                116.35395667239088,
                40.0164257268512
              ],
              [
                116.35392384472736,
                40.016406050706905
              ],
              [
                116.35388924653863,
                40.01638968698232
              ],
              [
                116.35385321102413,
                40.01637679326907
              ],
              [
                116.35381608522559,
                40.016367493740646
              ],
              [
                116.35377822668472,
                40.0163618779566
              ],
              [
                116.35374,
                40.01636
              ],
              [
                116.35016919439694,
                40.01636
              ],
              [
                116.35014210961612,
                40.016251871493836
              ],
              [
                116.3500853772778,
                40.016093315230066
              ],
              [
                116.35001337688962,
                40.01594108319961
              ],
              [
                116.3499268018547,
                40.01579664148014
              ],
              [
                116.34982648593797,
                40.015661381124374
              ],
              [
                116.34971339523652,
                40.01553660476348
              ],
              [
                116.34958861887563,
                40.01542351406203
              ],
              [
                116.34945335851987,
                40.01532319814529
              ],
              [
                116.3493089168004,
                40.01523662311038
              ],
              [
                116.34915668476994,
                40.01516462272221
              ],
              [
                116.34899812850617,
                40.01510789038389
              ],
              [
                116.34883477499258,
                40.01506697245883
              ],
              [
                116.3486681974128,
                40.01504226300903
              ],
              [
                116.3485,
                40.015034
              ],
              [
                116.3483318025872,
                40.01504226300903
              ],
              [
                116.34816522500742,
                40.01506697245883
              ],
              [
                116.34800187149384,
                40.01510789038389
              ],
              [
                116.34784331523007,
                40.01516462272221
              ],
              [
                116.3476910831996,
                40.01523662311038
              ],
              [
                116.34754664148014,
                40.01532319814529
              ],
              [
                116.34741138112437,
                40.01542351406203
              ],
              [
                116.34728660476348,
                40.01553660476348
              ],
              [
                116.34717351406204,
                40.015661381124374
              ],
              [
                116.3470731981453,
                40.01579664148014
              ],
              [
                116.34698662311038,
                40.01594108319961
              ],
              [
                116.34691462272221,
                40.016093315230066
              ],
              [
                116.34685789038389,
                40.016251871493836
              ],
              [
                116.34683080560306,
                40.01636
              ],
              [
                116.3422243902439,
                40.01636
              ],
              [
                116.34220541133531,
                40.01636093237399
              ],
              [
                116.34224341463414,
                40.017140000000005
              ],
              [
                116.34683080560306,
                40.017140000000005
              ],
              [
                116.34685789038389,
                40.01724812850617
              ],
              [
                116.34691462272221,
                40.01740668476994
              ],
              [
                116.34698662311038,
                40.0175589168004
              ],
              [
                116.3470731981453,
                40.01770335851987
              ],
              [
                116.34717351406204,
                40.01783861887563
              ],
              [
                116.34728660476348,
                40.01796339523652
              ],
              [
                116.34741138112437,
                40.018076485937975
              ],
              [
                116.34754664148014,
                40.018176801854715
              ],
              [
                116.3476910831996,
                40.01826337688962
              ],
              [
                116.34784331523007,
                40.01833537727779
              ],
              [
                116.34800187149384,
                40.018392109616116
              ],
              [
                116.34816522500742,
                40.01843302754117
              ],
              [
                116.3483318025872,
                40.018457736990975
              ],
              [
                116.3485,
                40.018466000000004
              ],
              [
                116.3486681974128,
                40.018457736990975
              ],
              [
                116.34883477499258,
                40.01843302754117
              ],
              [
                116.34899812850617,
                40.018392109616116
              ],
              [
                116.34915668476994,
                40.01833537727779
              ],
              [
                116.3493089168004,
                40.01826337688962
              ],
              [
                116.34945335851987,
                40.018176801854715
              ],
              [
                116.34958861887563,
                40.018076485937975
              ],
              [
                116.34971339523652,
                40.01796339523652
              ],
              [
                116.34982648593797,
                40.01783861887563
              ],
              [
                116.3499268018547,
                40.01770335851987
              ],
              [
                116.35001337688962,
                40.0175589168004
              ],
              [
                116.3500853772778,
                40.01740668476994
              ],
              [
                116.35014210961612,
                40.01724812850617
              ],
              [
                116.35016919439694,
                40.017140000000005
              ],
              [
                116.35374,
                40.017140000000005
              ],
              [
                116.35377822668472,
                40.017138122043406
              ],
              [
                116.35381608522559,
                40.01713250625936
              ],
              [
                116.35385321102413,
                40.017123206730936
              ],
              [
                116.35388924653863,
                40.01711031301768
              ]
            ]
          ]
        ]
      }
    }
  ]
}
