{
  "type": "FeatureCollection",
  "name": "public_space.geojson",
  "title": "public_space_network",
  "features": [
    {
      "type": "Feature",
      "id": "PUBLIC-001",
      "properties": {
        "id": "PUBLIC-001",
        "layer": "PUBLIC_SPACE",
        "source_type": "agent_generated_design",
        "confidence": "medium",
        "geometry_role": "design_proposal",
        "name_zh": "广场用地（清河创新广场）",
        "area_sqm_declared": 447905.926
      },
      "geometry": {
        "type": "Polygon",
        "coordinates": [
          [
            [
              116.3515,
              40.0265
            ],
            [
              116.3515,
              40.016
            ],
            [
              116.347,
              40.016
            ],
            [
              116.347,
              40.0265
            ],
            [
              116.3515,
              40.0265
            ]
          ]
        ]
      }
    },
    {
      "type": "Feature",
      "id": "PUBLIC-002",
      "properties": {
        "id": "PUBLIC-002",
        "layer": "PUBLIC_SPACE",
        "source_type": "agent_generated_design",
        "confidence": "medium",
        "geometry_role": "design_proposal",
        "name_zh": "大钟寺站前广场（概念建议）",
        "area_sqm_declared": 42862.497
      },
      "geometry": {
        "type": "Polygon",
        "coordinates": [
          [
            [
              116.354294221672,
              39.944682379431605
            ],
            [
              116.35427694233648,
              39.94456589161358
            ],
            [
              116.35424832840287,
              39.944451658387294
            ],
            [
              116.35420865543901,
              39.94434077988116
            ],
            [
              116.35415830551722,
              39.94423432391581
            ],
            [
              116.35409776353477,
              39.94413331572038
            ],
            [
              116.35402761254403,
              39.944038728059006
            ],
            [
              116.35394852813742,
              39.943951471862576
            ],
            [
              116.353861271941,
              39.94387238745597
            ],
            [
              116.35376668427962,
              39.94380223646524
            ],
            [
              116.35366567608419,
              39.94374169448278
            ],
            [
              116.35355922011884,
              39.94369134456099
            ],
            [
              116.3534483416127,
              39.943651671597124
            ],
            [
              116.35333410838642,
              39.943623057663515
            ],
            [
              116.35321762056839,
              39.94360577832799
            ],
            [
              116.3531,
              39.9436
            ],
            [
              116.35298237943161,
              39.94360577832799
            ],
            [
              116.35286589161358,
              39.943623057663515
            ],
            [
              116.35275165838729,
              39.943651671597124
            ],
            [
              116.35264077988116,
              39.94369134456099
            ],
            [
              116.3525343239158,
              39.94374169448278
            ],
            [
              116.35243331572038,
              39.94380223646524
            ],
            [
              116.352338728059,
              39.94387238745597
            ],
            [
              116.35225147186257,
              39.943951471862576
            ],
            [
              116.35217238745597,
              39.944038728059006
            ],
            [
              116.35210223646523,
              39.94413331572038
            ],
            [
              116.35204169448278,
              39.94423432391581
            ],
            [
              116.35199134456099,
              39.94434077988116
            ],
            [
              116.35195167159712,
              39.944451658387294
            ],
            [
              116.35192305766351,
              39.94456589161358
            ],
            [
              116.35190577832799,
              39.944682379431605
            ],
            [
              116.3519,
              39.9448
            ],
            [
              116.35190577832799,
              39.9449176205684
            ],
            [
              116.35192305766351,
              39.94503410838642
            ],
            [
              116.35195167159712,
              39.94514834161271
            ],
            [
              116.35199134456099,
              39.94525922011884
            ],
            [
              116.35204169448278,
              39.945365676084194
            ],
            [
              116.35210223646523,
              39.94546668427962
            ],
            [
              116.35217238745597,
              39.945561271940996
            ],
            [
              116.35225147186257,
              39.945648528137426
            ],
            [
              116.352338728059,
              39.94572761254403
            ],
            [
              116.35243331572038,
              39.94579776353476
            ],
            [
              116.3525343239158,
              39.94585830551722
            ],
            [
              116.35264077988116,
              39.94590865543901
            ],
            [
              116.35275165838729,
              39.94594832840288
            ],
            [
              116.35286589161358,
              39.945976942336486
            ],
            [
              116.35298237943161,
              39.94599422167201
            ],
            [
              116.3531,
              39.946
            ],
            [
              116.35321762056839,
              39.94599422167201
            ],
            [
              116.35333410838642,
              39.945976942336486
            ],
            [
              116.3534483416127,
              39.94594832840288
            ],
            [
              116.35355922011884,
              39.94590865543901
            ],
            [
              116.35366567608419,
              39.94585830551722
            ],
            [
              116.35376668427962,
              39.94579776353476
            ],
            [
              116.353861271941,
              39.94572761254403
            ],
            [
              116.35394852813742,
              39.945648528137426
            ],
            [
              116.35402761254403,
              39.945561271940996
            ],
            [
              116.35409776353477,
              39.94546668427962
            ],
            [
              116.35415830551722,
              39.945365676084194
            ],
            [
              116.35420865543901,
              39.94525922011884
            ],
            [
              116.35424832840287,
              39.94514834161271
            ],
            [
              116.35427694233648,
              39.94503410838642
            ],
            [
              116.354294221672,
              39.9449176205684
            ],
            [
              116.3543,
              39.9448
            ],
            [
              116.354294221672,
              39.944682379431605
            ]
          ]
        ]
      }
    },
    {
      "type": "Feature",
      "id": "PUBLIC-003",
      "properties": {
        "id": "PUBLIC-003",
        "layer": "PUBLIC_SPACE",
        "source_type": "agent_generated_design",
        "confidence": "medium",
        "geometry_role": "design_proposal",
        "name_zh": "五道口站前广场（概念建议）",
        "area_sqm_declared": 30299.659
      },
      "geometry": {
        "type": "Polygon",
        "coordinates": [
          [
            [
              116.35323410838642,
              39.99062305766351
            ],
            [
              116.35311762056838,
              39.99060577832799
            ],
            [
              116.353,
              39.9906
            ],
            [
              116.3528823794316,
              39.99060577832799
            ],
            [
              116.35276589161357,
              39.99062305766351
            ],
            [
              116.35265165838729,
              39.99065167159712
            ],
            [
              116.35254077988115,
              39.990691344560986
            ],
            [
              116.3524343239158,
              39.99074169448278
            ],
            [
              116.35233331572037,
              39.990802236465235
            ],
            [
              116.35223872805899,
              39.990872387455966
            ],
            [
              116.35215147186257,
              39.99095147186257
            ],
            [
              116.35207238745596,
              39.991038728059
            ],
            [
              116.35200223646522,
              39.991133315720376
            ],
            [
              116.35194169448278,
              39.991234323915805
            ],
            [
              116.35189134456098,
              39.991340779881156
            ],
            [
              116.35185167159712,
              39.99145165838729
            ],
            [
              116.35182305766351,
              39.991565891613575
            ],
            [
              116.35180577832799,
              39.9916823794316
            ],
            [
              116.3518,
              39.9918
            ],
            [
              116.35180577832799,
              39.991917620568394
            ],
            [
              116.35182305766351,
              39.99203410838642
            ],
            [
              116.35185167159712,
              39.992148341612705
            ],
            [
              116.35189134456098,
              39.99225922011884
            ],
            [
              116.35194169448278,
              39.99236567608419
            ],
            [
              116.35200223646522,
              39.99246668427962
            ],
            [
              116.35207238745596,
              39.99256127194099
            ],
            [
              116.35215147186257,
              39.99264852813742
            ],
            [
              116.35223872805899,
              39.99272761254403
            ],
            [
              116.35233331572037,
              39.99279776353476
            ],
            [
              116.3524343239158,
              39.99285830551722
            ],
            [
              116.35254077988115,
              39.99290865543901
            ],
            [
              116.35265165838729,
              39.992948328402875
            ],
            [
              116.35276589161357,
              39.99297694233648
            ],
            [
              116.3528823794316,
              39.99299422167201
            ],
            [
              116.353,
              39.992999999999995
            ],
            [
              116.35311762056838,
              39.99299422167201
            ],
            [
              116.35323410838642,
              39.99297694233648
            ],
            [
              116.3533483416127,
              39.992948328402875
            ],
            [
              116.35345922011884,
              39.99290865543901
            ],
            [
              116.35345937438235,
              39.9929085824778
            ],
            [
              116.3533355322198,
              39.99064846301123
            ],
            [
              116.35323410838642,
              39.99062305766351
            ]
          ]
        ]
      }
    },
    {
      "type": "Feature",
      "id": "PUBLIC-004",
      "properties": {
        "id": "PUBLIC-004",
        "layer": "PUBLIC_SPACE",
        "source_type": "agent_generated_design",
        "confidence": "medium",
        "geometry_role": "design_proposal",
        "name_zh": "众智园南站前广场（概念建议）",
        "area_sqm_declared": 42815.378
      },
      "geometry": {
        "type": "Polygon",
        "coordinates": [
          [
            [
              116.35437694233649,
              40.009765891613576
            ],
            [
              116.35434832840288,
              40.00965165838729
            ],
            [
              116.35430865543901,
              40.009540779881156
            ],
            [
              116.35425830551722,
              40.009434323915805
            ],
            [
              116.35419776353477,
              40.009333315720376
            ],
            [
              116.35412761254403,
              40.009238728059
            ],
            [
              116.35404852813743,
              40.00915147186257
            ],
            [
              116.353961271941,
              40.009072387455966
            ],
            [
              116.35386668427962,
              40.009002236465236
            ],
            [
              116.3537656760842,
              40.00894169448278
            ],
            [
              116.35365922011884,
              40.008891344560986
            ],
            [
              116.35354834161271,
              40.00885167159712
            ],
            [
              116.35343410838642,
              40.00882305766351
            ],
            [
              116.35331762056839,
              40.00880577832799
            ],
            [
              116.3532,
              40.0088
            ],
            [
              116.35308237943161,
              40.00880577832799
            ],
            [
              116.35296589161358,
              40.00882305766351
            ],
            [
              116.3528516583873,
              40.00885167159712
            ],
            [
              116.35274077988116,
              40.008891344560986
            ],
            [
              116.35263432391581,
              40.00894169448278
            ],
            [
              116.35253331572038,
              40.009002236465236
            ],
            [
              116.352438728059,
              40.009072387455966
            ],
            [
              116.35235147186258,
              40.00915147186257
            ],
            [
              116.35227238745597,
              40.009238728059
            ],
            [
              116.35220223646523,
              40.009333315720376
            ],
            [
              116.35214169448278,
              40.009434323915805
            ],
            [
              116.35209134456099,
              40.009540779881156
            ],
            [
              116.35205167159712,
              40.00965165838729
            ],
            [
              116.35202305766352,
              40.009765891613576
            ],
            [
              116.35200577832799,
              40.0098823794316
            ],
            [
              116.352,
              40.01
            ],
            [
              116.35200577832799,
              40.010117620568394
            ],
            [
              116.35202305766352,
              40.01023410838642
            ],
            [
              116.35205167159712,
              40.010348341612705
            ],
            [
              116.35209134456099,
              40.01045922011884
            ],
            [
              116.35214169448278,
              40.01056567608419
            ],
            [
              116.35220223646523,
              40.01066668427962
            ],
            [
              116.35227238745597,
              40.01076127194099
            ],
            [
              116.35235147186258,
              40.01084852813742
            ],
            [
              116.352438728059,
              40.01092761254403
            ],
            [
              116.35253331572038,
              40.01099776353476
            ],
            [
              116.35263432391581,
              40.01105830551722
            ],
            [
              116.35274077988116,
              40.01110865543901
            ],
            [
              116.3528516583873,
              40.011148328402875
            ],
            [
              116.35296589161358,
              40.01117694233648
            ],
            [
              116.35308237943161,
              40.01119422167201
            ],
            [
              116.3532,
              40.011199999999995
            ],
            [
              116.35331762056839,
              40.01119422167201
            ],
            [
              116.35343410838642,
              40.01117694233648
            ],
            [
              116.35354834161271,
              40.011148328402875
            ],
            [
              116.35365922011884,
              40.01110865543901
            ],
            [
              116.3537656760842,
              40.01105830551722
            ],
            [
              116.35386668427962,
              40.01099776353476
            ],
            [
              116.353961271941,
              40.01092761254403
            ],
            [
              116.35404852813743,
              40.01084852813742
            ],
            [
              116.35412761254403,
              40.01076127194099
            ],
            [
              116.35419776353477,
              40.01066668427962
            ],
            [
              116.35425830551722,
              40.01056567608419
            ],
            [
              116.35430865543901,
              40.01045922011884
            ],
            [
              116.35434832840288,
              40.010348341612705
            ],
            [
              116.35437694233649,
              40.01023410838642
            ],
            [
              116.35439422167201,
              40.010117620568394
            ],
            [
              116.35439805727,
              40.010039545177534
            ],
            [
              116.3543866476422,
              40.00983131947012
            ],
            [
              116.35437694233649,
              40.009765891613576
            ]
          ]
        ]
      }
    },
    {
      "type": "Feature",
      "id": "PUBLIC-005",
      "properties": {
        "id": "PUBLIC-005",
        "layer": "PUBLIC_SPACE",
        "source_type": "agent_generated_design",
        "confidence": "medium",
        "geometry_role": "design_proposal",
        "name_zh": "清河站前广场（概念建议）",
        "area_sqm_declared": 42814.846
      },
      "geometry": {
        "type": "Polygon",
        "coordinates": [
          [
            [
              116.35449422167201,
              40.0218823794316
            ],
            [
              116.35447694233649,
              40.021765891613576
            ],
            [
              116.35444832840288,
              40.02165165838729
            ],
            [
              116.35440865543902,
              40.02154077988116
            ],
            [
              116.35435830551722,
              40.021434323915805
            ],
            [
              116.35429776353477,
              40.021333315720376
            ],
            [
              116.35422761254404,
              40.021238728059004
            ],
            [
              116.35414852813743,
              40.021151471862574
            ],
            [
              116.354061271941,
              40.021072387455966
            ],
            [
              116.35396668427963,
              40.021002236465236
            ],
            [
              116.3538656760842,
              40.02094169448278
            ],
            [
              116.35375922011885,
              40.02089134456099
            ],
            [
              116.35364834161271,
              40.02085167159712
            ],
            [
              116.35353410838643,
              40.02082305766351
            ],
            [
              116.3534176205684,
              40.02080577832799
            ],
            [
              116.3533,
              40.0208
            ],
            [
              116.35318237943162,
              40.02080577832799
            ],
            [
              116.35306589161358,
              40.02082305766351
            ],
            [
              116.3529516583873,
              40.02085167159712
            ],
            [
              116.35284077988116,
              40.02089134456099
            ],
            [
              116.35273432391581,
              40.02094169448278
            ],
            [
              116.35263331572038,
              40.021002236465236
            ],
            [
              116.352538728059,
              40.021072387455966
            ],
            [
              116.35245147186258,
              40.021151471862574
            ],
            [
              116.35237238745597,
              40.021238728059004
            ],
            [
              116.35230223646523,
              40.021333315720376
            ],
            [
              116.35224169448279,
              40.021434323915805
            ],
            [
              116.35219134456099,
              40.02154077988116
            ],
            [
              116.35215167159713,
              40.02165165838729
            ],
            [
              116.35212305766352,
              40.021765891613576
            ],
            [
              116.352105778328,
              40.0218823794316
            ],
            [
              116.35210000000001,
              40.022
            ],
            [
              116.352105778328,
              40.022117620568395
            ],
            [
              116.35212305766352,
              40.02223410838642
            ],
            [
              116.35215167159713,
              40.022348341612705
            ],
            [
              116.35219134456099,
              40.02245922011884
            ],
            [
              116.35224169448279,
              40.02256567608419
            ],
            [
              116.35230223646523,
              40.02266668427962
            ],
            [
              116.35237238745597,
              40.02276127194099
            ],
            [
              116.35245147186258,
              40.02284852813742
            ],
            [
              116.352538728059,
              40.02292761254403
            ],
            [
              116.35263331572038,
              40.02299776353476
            ],
            [
              116.35273432391581,
              40.02305830551722
            ],
            [
              116.35284077988116,
              40.02310865543901
            ],
            [
              116.3529516583873,
              40.023148328402876
            ],
            [
              116.35306589161358,
              40.023176942336484
            ],
            [
              116.35318237943162,
              40.02319422167201
            ],
            [
              116.3533,
              40.023199999999996
            ],
            [
              116.3534176205684,
              40.02319422167201
            ],
            [
              116.35353410838643,
              40.023176942336484
            ],
            [
              116.35364834161271,
              40.023148328402876
            ],
            [
              116.35375922011885,
              40.02310865543901
            ],
            [
              116.3538656760842,
              40.02305830551722
            ],
            [
              116.35396668427963,
              40.02299776353476
            ],
            [
              116.354061271941,
              40.02292761254403
            ],
            [
              116.35414852813743,
              40.02284852813742
            ],
            [
              116.35422761254404,
              40.02276127194099
            ],
            [
              116.35429776353477,
              40.02266668427962
            ],
            [
              116.35435830551722,
              40.02256567608419
            ],
            [
              116.35440865543902,
              40.02245922011884
            ],
            [
              116.35444832840288,
              40.022348341612705
            ],
            [
              116.35447694233649,
              40.02223410838642
            ],
            [
              116.35449422167201,
              40.022117620568395
            ],
            [
              116.3545,
              40.022
            ],
            [
              116.35449422167201,
              40.0218823794316
            ]
          ]
        ]
      }
    }
  ]
}