{
 "type": "FeatureCollection",
 "features": [
  {
   "type": "Feature",
   "id": "PS-1",
   "properties": {
    "id": "PS-1",
    "layer": "PUBLIC_SPACE",
    "source_type": "agent_generated_design",
    "confidence": "medium",
    "geometry_role": "design_proposal",
    "name_zh": "种子带公共空间1",
    "area_sqm_declared": 982241
   },
   "geometry": {
    "type": "Polygon",
    "coordinates": [
     [
      [
       116.34809999999999,
       39.9396
      ],
      [
       116.3469,
       39.9396
      ],
      [
       116.3469,
       40.0259
      ],
      [
       116.34809999999999,
       40.0259
      ],
      [
       116.34809999999999,
       39.9396
      ]
     ]
    ]
   }
  },
  {
   "type": "Feature",
   "id": "PS-001",
   "properties": {
    "id": "PS-001",
    "layer": "PUBLIC_SPACE",
    "source_type": "agent_generated_design",
    "confidence": "medium",
    "geometry_role": "design_proposal",
    "name_zh": "零一突破广场",
    "area_sqm_declared": 14570
   },
   "geometry": {
    "type": "Polygon",
    "coordinates": [
     [
      [
       116.3492,
       40.01675
      ],
      [
       116.34919662930868,
       40.01668138800177
      ],
      [
       116.34918654969628,
       40.01661343677459
      ],
      [
       116.34916985823502,
       40.016546800725926
      ],
      [
       116.34914671567276,
       40.01648212159735
      ],
      [
       116.34911734488504,
       40.01642002228422
      ],
      [
       116.34908202872862,
       40.01636110083689
      ],
      [
       116.34904110731736,
       40.016305924701086
      ],
      [
       116.34899497474683,
       40.01625502525317
      ],
      [
       116.34894407529892,
       40.01620889268265
      ],
      [
       116.34888889916311,
       40.01616797127139
      ],
      [
       116.34882997771578,
       40.01613265511496
      ],
      [
       116.34876787840265,
       40.016103284327244
      ],
      [
       116.34870319927408,
       40.01608014176499
      ],
      [
       116.34863656322541,
       40.01606345030372
      ],
      [
       116.34856861199823,
       40.01605337069133
      ],
      [
       116.3485,
       40.01605
      ],
      [
       116.34843138800177,
       40.01605337069133
      ],
      [
       116.34836343677459,
       40.01606345030372
      ],
      [
       116.34829680072592,
       40.01608014176499
      ],
      [
       116.34823212159735,
       40.016103284327244
      ],
      [
       116.34817002228422,
       40.01613265511496
      ],
      [
       116.34811110083689,
       40.01616797127139
      ],
      [
       116.34805592470109,
       40.01620889268265
      ],
      [
       116.34800502525317,
       40.01625502525317
      ],
      [
       116.34795889268264,
       40.016305924701086
      ],
      [
       116.34791797127139,
       40.01636110083689
      ],
      [
       116.34788265511496,
       40.01642002228422
      ],
      [
       116.34785328432724,
       40.01648212159735
      ],
      [
       116.34783014176499,
       40.016546800725926
      ],
      [
       116.34781345030372,
       40.01661343677459
      ],
      [
       116.34780337069134,
       40.01668138800177
      ],
      [
       116.3478,
       40.01675
      ],
      [
       116.34780337069132,
       40.01681861199823
      ],
      [
       116.34781345030372,
       40.01688656322541
      ],
      [
       116.34783014176499,
       40.01695319927408
      ],
      [
       116.34785328432724,
       40.017017878402655
      ],
      [
       116.34788265511496,
       40.01707997771578
      ],
      [
       116.34791797127139,
       40.017138899163115
      ],
      [
       116.34795889268264,
       40.01719407529892
      ],
      [
       116.34800502525317,
       40.01724497474683
      ],
      [
       116.34805592470109,
       40.017291107317355
      ],
      [
       116.34811110083689,
       40.01733202872861
      ],
      [
       116.34817002228422,
       40.017367344885045
      ],
      [
       116.34823212159735,
       40.01739671567276
      ],
      [
       116.34829680072592,
       40.017419858235016
      ],
      [
       116.34836343677459,
       40.017436549696285
      ],
      [
       116.34843138800177,
       40.01744662930867
      ],
      [
       116.3485,
       40.017450000000004
      ],
      [
       116.34856861199823,
       40.01744662930867
      ],
      [
       116.34863656322541,
       40.017436549696285
      ],
      [
       116.34870319927408,
       40.017419858235016
      ],
      [
       116.34876787840265,
       40.01739671567276
      ],
      [
       116.34882997771578,
       40.017367344885045
      ],
      [
       116.34888889916311,
       40.01733202872861
      ],
      [
       116.34894407529892,
       40.017291107317355
      ],
      [
       116.34899497474683,
       40.01724497474683
      ],
      [
       116.34904110731736,
       40.01719407529892
      ],
      [
       116.34908202872862,
       40.017138899163115
      ],
      [
       116.34911734488504,
       40.01707997771578
      ],
      [
       116.34914671567276,
       40.017017878402655
      ],
      [
       116.34916985823502,
       40.01695319927408
      ],
      [
       116.34918654969628,
       40.01688656322541
      ],
      [
       116.34919662930868,
       40.01681861199823
      ],
      [
       116.3492,
       40.01675
      ]
     ]
    ]
   }
  },
  {
   "type": "Feature",
   "id": "PS-002",
   "properties": {
    "id": "PS-002",
    "layer": "PUBLIC_SPACE",
    "source_type": "agent_generated_design",
    "confidence": "medium",
    "geometry_role": "design_proposal",
    "name_zh": "零一原点广场",
    "area_sqm_declared": 14576
   },
   "geometry": {
    "type": "Polygon",
    "coordinates": [
     [
      [
       116.34819999999999,
       39.9885
      ],
      [
       116.34819662930867,
       39.98843138800177
      ],
      [
       116.34818654969628,
       39.98836343677459
      ],
      [
       116.34816985823501,
       39.98829680072593
      ],
      [
       116.34814671567275,
       39.98823212159735
      ],
      [
       116.34811734488504,
       39.98817002228422
      ],
      [
       116.34808202872861,
       39.98811110083689
      ],
      [
       116.34804110731736,
       39.98805592470109
      ],
      [
       116.34799497474683,
       39.98800502525317
      ],
      [
       116.34794407529891,
       39.98795889268265
      ],
      [
       116.34788889916311,
       39.98791797127139
      ],
      [
       116.34782997771578,
       39.98788265511496
      ],
      [
       116.34776787840265,
       39.987853284327244
      ],
      [
       116.34770319927408,
       39.98783014176499
      ],
      [
       116.34763656322541,
       39.98781345030372
      ],
      [
       116.34756861199823,
       39.98780337069133
      ],
      [
       116.3475,
       39.9878
      ],
      [
       116.34743138800177,
       39.98780337069133
      ],
      [
       116.34736343677459,
       39.98781345030372
      ],
      [
       116.34729680072591,
       39.98783014176499
      ],
      [
       116.34723212159734,
       39.987853284327244
      ],
      [
       116.34717002228422,
       39.98788265511496
      ],
      [
       116.34711110083688,
       39.98791797127139
      ],
      [
       116.34705592470108,
       39.98795889268265
      ],
      [
       116.34700502525317,
       39.98800502525317
      ],
      [
       116.34695889268264,
       39.98805592470109
      ],
      [
       116.34691797127138,
       39.98811110083689
      ],
      [
       116.34688265511495,
       39.98817002228422
      ],
      [
       116.34685328432724,
       39.98823212159735
      ],
      [
       116.34683014176498,
       39.98829680072593
      ],
      [
       116.34681345030371,
       39.98836343677459
      ],
      [
       116.34680337069133,
       39.98843138800177
      ],
      [
       116.3468,
       39.9885
      ],
      [
       116.34680337069132,
       39.98856861199823
      ],
      [
       116.34681345030371,
       39.98863656322541
      ],
      [
       116.34683014176498,
       39.98870319927408
      ],
      [
       116.34685328432724,
       39.988767878402655
      ],
      [
       116.34688265511495,
       39.98882997771578
      ],
      [
       116.34691797127138,
       39.988888899163115
      ],
      [
       116.34695889268264,
       39.98894407529892
      ],
      [
       116.34700502525317,
       39.98899497474683
      ],
      [
       116.34705592470108,
       39.989041107317355
      ],
      [
       116.34711110083688,
       39.98908202872861
      ],
      [
       116.34717002228422,
       39.989117344885045
      ],
      [
       116.34723212159734,
       39.98914671567276
      ],
      [
       116.34729680072591,
       39.989169858235016
      ],
      [
       116.34736343677459,
       39.989186549696285
      ],
      [
       116.34743138800177,
       39.98919662930867
      ],
      [
       116.3475,
       39.989200000000004
      ],
      [
       116.34756861199823,
       39.98919662930867
      ],
      [
       116.34763656322541,
       39.989186549696285
      ],
      [
       116.34770319927408,
       39.989169858235016
      ],
      [
       116.34776787840265,
       39.98914671567276
      ],
      [
       116.34782997771578,
       39.989117344885045
      ],
      [
       116.34788889916311,
       39.98908202872861
      ],
      [
       116.34794407529891,
       39.989041107317355
      ],
      [
       116.34799497474683,
       39.98899497474683
      ],
      [
       116.34804110731736,
       39.98894407529892
      ],
      [
       116.34808202872861,
       39.988888899163115
      ],
      [
       116.34811734488504,
       39.98882997771578
      ],
      [
       116.34814671567275,
       39.988767878402655
      ],
      [
       116.34816985823501,
       39.98870319927408
      ],
      [
       116.34818654969628,
       39.98863656322541
      ],
      [
       116.34819662930867,
       39.98856861199823
      ],
      [
       116.34819999999999,
       39.9885
      ]
     ]
    ]
   }
  },
  {
   "type": "Feature",
   "id": "PS-003",
   "properties": {
    "id": "PS-003",
    "layer": "PUBLIC_SPACE",
    "source_type": "agent_generated_design",
    "confidence": "medium",
    "geometry_role": "design_proposal",
    "name_zh": "荣誉殿堂广场",
    "area_sqm_declared": 14585
   },
   "geometry": {
    "type": "Polygon",
    "coordinates": [
     [
      [
       116.3492,
       39.946920000000006
      ],
      [
       116.34919662930868,
       39.946851388001775
      ],
      [
       116.34918654969628,
       39.946783436774595
      ],
      [
       116.34916985823502,
       39.94671680072593
      ],
      [
       116.34914671567276,
       39.94665212159735
      ],
      [
       116.34911734488504,
       39.94659002228423
      ],
      [
       116.34908202872862,
       39.94653110083689
      ],
      [
       116.34904110731736,
       39.94647592470109
      ],
      [
       116.34899497474683,
       39.94642502525318
      ],
      [
       116.34894407529892,
       39.94637889268265
      ],
      [
       116.34888889916311,
       39.9463379712714
      ],
      [
       116.34882997771578,
       39.94630265511496
      ],
      [
       116.34876787840265,
       39.94627328432725
      ],
      [
       116.34870319927408,
       39.94625014176499
      ],
      [
       116.34863656322541,
       39.94623345030372
      ],
      [
       116.34856861199823,
       39.946223370691335
      ],
      [
       116.3485,
       39.946220000000004
      ],
      [
       116.34843138800177,
       39.946223370691335
      ],
      [
       116.34836343677459,
       39.94623345030372
      ],
      [
       116.34829680072592,
       39.94625014176499
      ],
      [
       116.34823212159735,
       39.94627328432725
      ],
      [
       116.34817002228422,
       39.94630265511496
      ],
      [
       116.34811110083689,
       39.9463379712714
      ],
      [
       116.34805592470109,
       39.94637889268265
      ],
      [
       116.34800502525317,
       39.94642502525318
      ],
      [
       116.34795889268264,
       39.94647592470109
      ],
      [
       116.34791797127139,
       39.94653110083689
      ],
      [
       116.34788265511496,
       39.94659002228423
      ],
      [
       116.34785328432724,
       39.94665212159735
      ],
      [
       116.34783014176499,
       39.94671680072593
      ],
      [
       116.34781345030372,
       39.946783436774595
      ],
      [
       116.34780337069134,
       39.946851388001775
      ],
      [
       116.3478,
       39.946920000000006
      ],
      [
       116.34780337069132,
       39.946988611998236
      ],
      [
       116.34781345030372,
       39.947056563225416
      ],
      [
       116.34783014176499,
       39.94712319927408
      ],
      [
       116.34785328432724,
       39.94718787840266
      ],
      [
       116.34788265511496,
       39.947249977715785
      ],
      [
       116.34791797127139,
       39.94730889916312
      ],
      [
       116.34795889268264,
       39.94736407529892
      ],
      [
       116.34800502525317,
       39.947414974746835
      ],
      [
       116.34805592470109,
       39.94746110731736
      ],
      [
       116.34811110083689,
       39.947502028728614
      ],
      [
       116.34817002228422,
       39.94753734488505
      ],
      [
       116.34823212159735,
       39.947566715672764
      ],
      [
       116.34829680072592,
       39.94758985823502
      ],
      [
       116.34836343677459,
       39.94760654969629
      ],
      [
       116.34843138800177,
       39.947616629308676
      ],
      [
       116.3485,
       39.94762000000001
      ],
      [
       116.34856861199823,
       39.947616629308676
      ],
      [
       116.34863656322541,
       39.94760654969629
      ],
      [
       116.34870319927408,
       39.94758985823502
      ],
      [
       116.34876787840265,
       39.947566715672764
      ],
      [
       116.34882997771578,
       39.94753734488505
      ],
      [
       116.34888889916311,
       39.947502028728614
      ],
      [
       116.34894407529892,
       39.94746110731736
      ],
      [
       116.34899497474683,
       39.947414974746835
      ],
      [
       116.34904110731736,
       39.94736407529892
      ],
      [
       116.34908202872862,
       39.94730889916312
      ],
      [
       116.34911734488504,
       39.947249977715785
      ],
      [
       116.34914671567276,
       39.94718787840266
      ],
      [
       116.34916985823502,
       39.94712319927408
      ],
      [
       116.34918654969628,
       39.947056563225416
      ],
      [
       116.34919662930868,
       39.946988611998236
      ],
      [
       116.3492,
       39.946920000000006
      ]
     ]
    ]
   }
  }
 ]
}