{
  "type": "FeatureCollection",
  "name": "continuity_line_concept_building_envelopes",
  "features": [
    {
      "type": "Feature",
      "id": "BLDG-001",
      "properties": {
        "id": "BLDG-001",
        "layer": "BUILDING_FOOTPRINT",
        "source_type": "agent_generated_design",
        "confidence": "medium",
        "geometry_role": "design_proposal",
        "building_type": "lab",
        "name_zh": "连续服务模块 01",
        "intervention": "new_conceptual_envelope",
        "verification_status": "existing_condition_and_ownership_pending",
        "height_control": "unknown_pending_statutory_confirmation",
        "design_note": "示意性建筑基底；不对应现状单体，不构成拆改留或工程控制结论。",
        "area_sqm_declared": 43070.593
      },
      "geometry": {
        "type": "Polygon",
        "coordinates": [
          [
            [
              116.34176699999999,
              39.94446875
            ],
            [
              116.34176699999999,
              39.94753125
            ],
            [
              116.343249,
              39.94753125
            ],
            [
              116.343249,
              39.94446875
            ],
            [
              116.34176699999999,
              39.94446875
            ]
          ]
        ]
      }
    },
    {
      "type": "Feature",
      "id": "BLDG-002",
      "properties": {
        "id": "BLDG-002",
        "layer": "BUILDING_FOOTPRINT",
        "source_type": "agent_generated_design",
        "confidence": "medium",
        "geometry_role": "design_proposal",
        "building_type": "community_service",
        "name_zh": "连续服务模块 02",
        "intervention": "new_conceptual_envelope",
        "verification_status": "existing_condition_and_ownership_pending",
        "height_control": "unknown_pending_statutory_confirmation",
        "design_note": "示意性建筑基底；不对应现状单体，不构成拆改留或工程控制结论。",
        "area_sqm_declared": 43070.502
      },
      "geometry": {
        "type": "Polygon",
        "coordinates": [
          [
            [
              116.350815,
              39.94446875
            ],
            [
              116.350815,
              39.94753125
            ],
            [
              116.35229700000001,
              39.94753125
            ],
            [
              116.35229700000001,
              39.94446875
            ],
            [
              116.350815,
              39.94446875
            ]
          ]
        ]
      }
    },
    {
      "type": "Feature",
      "id": "BLDG-003",
      "properties": {
        "id": "BLDG-003",
        "layer": "BUILDING_FOOTPRINT",
        "source_type": "agent_generated_design",
        "confidence": "medium",
        "geometry_role": "design_proposal",
        "building_type": "community_service",
        "name_zh": "连续服务模块 03",
        "intervention": "new_conceptual_envelope",
        "verification_status": "existing_condition_and_ownership_pending",
        "height_control": "unknown_pending_statutory_confirmation",
        "design_note": "示意性建筑基底；不对应现状单体，不构成拆改留或工程控制结论。",
        "area_sqm_declared": 43064.356
      },
      "geometry": {
        "type": "Polygon",
        "coordinates": [
          [
            [
              116.34176699999999,
              39.95453125
            ],
            [
              116.34176699999999,
              39.95759375
            ],
            [
              116.343249,
              39.95759375
            ],
            [
              116.343249,
              39.95453125
            ],
            [
              116.34176699999999,
              39.95453125
            ]
          ]
        ]
      }
    },
    {
      "type": "Feature",
      "id": "BLDG-004",
      "properties": {
        "id": "BLDG-004",
        "layer": "BUILDING_FOOTPRINT",
        "source_type": "agent_generated_design",
        "confidence": "medium",
        "geometry_role": "design_proposal",
        "building_type": "education",
        "name_zh": "连续服务模块 04",
        "intervention": "new_conceptual_envelope",
        "verification_status": "existing_condition_and_ownership_pending",
        "height_control": "unknown_pending_statutory_confirmation",
        "design_note": "示意性建筑基底；不对应现状单体，不构成拆改留或工程控制结论。",
        "area_sqm_declared": 43064.265
      },
      "geometry": {
        "type": "Polygon",
        "coordinates": [
          [
            [
              116.350815,
              39.95453125
            ],
            [
              116.350815,
              39.95759375
            ],
            [
              116.35229700000001,
              39.95759375
            ],
            [
              116.35229700000001,
              39.95453125
            ],
            [
              116.350815,
              39.95453125
            ]
          ]
        ]
      }
    },
    {
      "type": "Feature",
      "id": "BLDG-005",
      "properties": {
        "id": "BLDG-005",
        "layer": "BUILDING_FOOTPRINT",
        "source_type": "agent_generated_design",
        "confidence": "medium",
        "geometry_role": "design_proposal",
        "building_type": "education",
        "name_zh": "连续服务模块 05",
        "intervention": "new_conceptual_envelope",
        "verification_status": "existing_condition_and_ownership_pending",
        "height_control": "unknown_pending_statutory_confirmation",
        "design_note": "示意性建筑基底；不对应现状单体，不构成拆改留或工程控制结论。",
        "area_sqm_declared": 43058.118
      },
      "geometry": {
        "type": "Polygon",
        "coordinates": [
          [
            [
              116.34176699999999,
              39.96459375
            ],
            [
              116.34176699999999,
              39.96765625
            ],
            [
              116.343249,
              39.96765625
            ],
            [
              116.343249,
              39.96459375
            ],
            [
              116.34176699999999,
              39.96459375
            ]
          ]
        ]
      }
    },
    {
      "type": "Feature",
      "id": "BLDG-006",
      "properties": {
        "id": "BLDG-006",
        "layer": "BUILDING_FOOTPRINT",
        "source_type": "agent_generated_design",
        "confidence": "medium",
        "geometry_role": "design_proposal",
        "building_type": "incubator",
        "name_zh": "连续服务模块 06",
        "intervention": "new_conceptual_envelope",
        "verification_status": "existing_condition_and_ownership_pending",
        "height_control": "unknown_pending_statutory_confirmation",
        "design_note": "示意性建筑基底；不对应现状单体，不构成拆改留或工程控制结论。",
        "area_sqm_declared": 43058.027
      },
      "geometry": {
        "type": "Polygon",
        "coordinates": [
          [
            [
              116.350815,
              39.96459375
            ],
            [
              116.350815,
              39.96765625
            ],
            [
              116.35229700000001,
              39.96765625
            ],
            [
              116.35229700000001,
              39.96459375
            ],
            [
              116.350815,
              39.96459375
            ]
          ]
        ]
      }
    },
    {
      "type": "Feature",
      "id": "BLDG-007",
      "properties": {
        "id": "BLDG-007",
        "layer": "BUILDING_FOOTPRINT",
        "source_type": "agent_generated_design",
        "confidence": "medium",
        "geometry_role": "design_proposal",
        "building_type": "incubator",
        "name_zh": "连续服务模块 07",
        "intervention": "new_conceptual_envelope",
        "verification_status": "existing_condition_and_ownership_pending",
        "height_control": "unknown_pending_statutory_confirmation",
        "design_note": "示意性建筑基底；不对应现状单体，不构成拆改留或工程控制结论。",
        "area_sqm_declared": 43051.879
      },
      "geometry": {
        "type": "Polygon",
        "coordinates": [
          [
            [
              116.34176699999999,
              39.97465625
            ],
            [
              116.34176699999999,
              39.97771875
            ],
            [
              116.343249,
              39.97771875
            ],
            [
              116.343249,
              39.97465625
            ],
            [
              116.34176699999999,
              39.97465625
            ]
          ]
        ]
      }
    },
    {
      "type": "Feature",
      "id": "BLDG-008",
      "properties": {
        "id": "BLDG-008",
        "layer": "BUILDING_FOOTPRINT",
        "source_type": "agent_generated_design",
        "confidence": "medium",
        "geometry_role": "design_proposal",
        "building_type": "mixed_use",
        "name_zh": "连续服务模块 08",
        "intervention": "new_conceptual_envelope",
        "verification_status": "existing_condition_and_ownership_pending",
        "height_control": "unknown_pending_statutory_confirmation",
        "design_note": "示意性建筑基底；不对应现状单体，不构成拆改留或工程控制结论。",
        "area_sqm_declared": 43051.788
      },
      "geometry": {
        "type": "Polygon",
        "coordinates": [
          [
            [
              116.350815,
              39.97465625
            ],
            [
              116.350815,
              39.97771875
            ],
            [
              116.35229700000001,
              39.97771875
            ],
            [
              116.35229700000001,
              39.97465625
            ],
            [
              116.350815,
              39.97465625
            ]
          ]
        ]
      }
    },
    {
      "type": "Feature",
      "id": "BLDG-009",
      "properties": {
        "id": "BLDG-009",
        "layer": "BUILDING_FOOTPRINT",
        "source_type": "agent_generated_design",
        "confidence": "medium",
        "geometry_role": "design_proposal",
        "building_type": "mixed_use",
        "name_zh": "连续服务模块 09",
        "intervention": "new_conceptual_envelope",
        "verification_status": "existing_condition_and_ownership_pending",
        "height_control": "unknown_pending_statutory_confirmation",
        "design_note": "示意性建筑基底；不对应现状单体，不构成拆改留或工程控制结论。",
        "area_sqm_declared": 43045.638
      },
      "geometry": {
        "type": "Polygon",
        "coordinates": [
          [
            [
              116.34176699999999,
              39.98471875
            ],
            [
              116.34176699999999,
              39.98778125
            ],
            [
              116.343249,
              39.98778125
            ],
            [
              116.343249,
              39.98471875
            ],
            [
              116.34176699999999,
              39.98471875
            ]
          ]
        ]
      }
    },
    {
      "type": "Feature",
      "id": "BLDG-010",
      "properties": {
        "id": "BLDG-010",
        "layer": "BUILDING_FOOTPRINT",
        "source_type": "agent_generated_design",
        "confidence": "medium",
        "geometry_role": "design_proposal",
        "building_type": "cultural",
        "name_zh": "连续服务模块 10",
        "intervention": "new_conceptual_envelope",
        "verification_status": "existing_condition_and_ownership_pending",
        "height_control": "unknown_pending_statutory_confirmation",
        "design_note": "示意性建筑基底；不对应现状单体，不构成拆改留或工程控制结论。",
        "area_sqm_declared": 43045.547
      },
      "geometry": {
        "type": "Polygon",
        "coordinates": [
          [
            [
              116.350815,
              39.98471875
            ],
            [
              116.350815,
              39.98778125
            ],
            [
              116.35229700000001,
              39.98778125
            ],
            [
              116.35229700000001,
              39.98471875
            ],
            [
              116.350815,
              39.98471875
            ]
          ]
        ]
      }
    },
    {
      "type": "Feature",
      "id": "BLDG-011",
      "properties": {
        "id": "BLDG-011",
        "layer": "BUILDING_FOOTPRINT",
        "source_type": "agent_generated_design",
        "confidence": "medium",
        "geometry_role": "design_proposal",
        "building_type": "cultural",
        "name_zh": "连续服务模块 11",
        "intervention": "new_conceptual_envelope",
        "verification_status": "existing_condition_and_ownership_pending",
        "height_control": "unknown_pending_statutory_confirmation",
        "design_note": "示意性建筑基底；不对应现状单体，不构成拆改留或工程控制结论。",
        "area_sqm_declared": 43039.396
      },
      "geometry": {
        "type": "Polygon",
        "coordinates": [
          [
            [
              116.34176699999999,
              39.99478125
            ],
            [
              116.34176699999999,
              39.99784375
            ],
            [
              116.343249,
              39.99784375
            ],
            [
              116.343249,
              39.99478125
            ],
            [
              116.34176699999999,
              39.99478125
            ]
          ]
        ]
      }
    },
    {
      "type": "Feature",
      "id": "BLDG-012",
      "properties": {
        "id": "BLDG-012",
        "layer": "BUILDING_FOOTPRINT",
        "source_type": "agent_generated_design",
        "confidence": "medium",
        "geometry_role": "design_proposal",
        "building_type": "lab",
        "name_zh": "连续服务模块 12",
        "intervention": "new_conceptual_envelope",
        "verification_status": "existing_condition_and_ownership_pending",
        "height_control": "unknown_pending_statutory_confirmation",
        "design_note": "示意性建筑基底；不对应现状单体，不构成拆改留或工程控制结论。",
        "area_sqm_declared": 43039.305
      },
      "geometry": {
        "type": "Polygon",
        "coordinates": [
          [
            [
              116.350815,
              39.99478125
            ],
            [
              116.350815,
              39.99784375
            ],
            [
              116.35229700000001,
              39.99784375
            ],
            [
              116.35229700000001,
              39.99478125
            ],
            [
              116.350815,
              39.99478125
            ]
          ]
        ]
      }
    },
    {
      "type": "Feature",
      "id": "BLDG-013",
      "properties": {
        "id": "BLDG-013",
        "layer": "BUILDING_FOOTPRINT",
        "source_type": "agent_generated_design",
        "confidence": "medium",
        "geometry_role": "design_proposal",
        "building_type": "lab",
        "name_zh": "连续服务模块 13",
        "intervention": "new_conceptual_envelope",
        "verification_status": "existing_condition_and_ownership_pending",
        "height_control": "unknown_pending_statutory_confirmation",
        "design_note": "示意性建筑基底；不对应现状单体，不构成拆改留或工程控制结论。",
        "area_sqm_declared": 42967.519
      },
      "geometry": {
        "type": "Polygon",
        "coordinates": [
          [
            [
              116.34179298780488,
              40.00790625
            ],
            [
              116.343249,
              40.00790625
            ],
            [
              116.343249,
              40.00484375
            ],
            [
              116.34176699999999,
              40.00484375
            ],
            [
              116.34176699999999,
              40.00737349999975
            ],
            [
              116.34179298780488,
              40.00790625
            ]
          ]
        ]
      }
    },
    {
      "type": "Feature",
      "id": "BLDG-014",
      "properties": {
        "id": "BLDG-014",
        "layer": "BUILDING_FOOTPRINT",
        "source_type": "agent_generated_design",
        "confidence": "medium",
        "geometry_role": "design_proposal",
        "building_type": "community_service",
        "name_zh": "连续服务模块 14",
        "intervention": "new_conceptual_envelope",
        "verification_status": "existing_condition_and_ownership_pending",
        "height_control": "unknown_pending_statutory_confirmation",
        "design_note": "示意性建筑基底；不对应现状单体，不构成拆改留或工程控制结论。",
        "area_sqm_declared": 43033.061
      },
      "geometry": {
        "type": "Polygon",
        "coordinates": [
          [
            [
              116.350815,
              40.00484375
            ],
            [
              116.350815,
              40.00790625
            ],
            [
              116.35229700000001,
              40.00790625
            ],
            [
              116.35229700000001,
              40.00484375
            ],
            [
              116.350815,
              40.00484375
            ]
          ]
        ]
      }
    },
    {
      "type": "Feature",
      "id": "BLDG-015",
      "properties": {
        "id": "BLDG-015",
        "layer": "BUILDING_FOOTPRINT",
        "source_type": "agent_generated_design",
        "confidence": "medium",
        "geometry_role": "design_proposal",
        "building_type": "community_service",
        "name_zh": "连续服务模块 15",
        "intervention": "new_conceptual_envelope",
        "verification_status": "existing_condition_and_ownership_pending",
        "height_control": "unknown_pending_statutory_confirmation",
        "design_note": "示意性建筑基底；不对应现状单体，不构成拆改留或工程控制结论。",
        "area_sqm_declared": 30190.116
      },
      "geometry": {
        "type": "Polygon",
        "coordinates": [
          [
            [
              116.34228384146341,
              40.01796875
            ],
            [
              116.343249,
              40.01796875
            ],
            [
              116.343249,
              40.01490625
            ],
            [
              116.34213445121951,
              40.01490625
            ],
            [
              116.34228384146341,
              40.01796875
            ]
          ]
        ]
      }
    },
    {
      "type": "Feature",
      "id": "BLDG-016",
      "properties": {
        "id": "BLDG-016",
        "layer": "BUILDING_FOOTPRINT",
        "source_type": "agent_generated_design",
        "confidence": "medium",
        "geometry_role": "design_proposal",
        "building_type": "education",
        "name_zh": "连续服务模块 16",
        "intervention": "new_conceptual_envelope",
        "verification_status": "existing_condition_and_ownership_pending",
        "height_control": "unknown_pending_statutory_confirmation",
        "design_note": "示意性建筑基底；不对应现状单体，不构成拆改留或工程控制结论。",
        "area_sqm_declared": 43026.817
      },
      "geometry": {
        "type": "Polygon",
        "coordinates": [
          [
            [
              116.350815,
              40.01490625
            ],
            [
              116.350815,
              40.01796875
            ],
            [
              116.35229700000001,
              40.01796875
            ],
            [
              116.35229700000001,
              40.01490625
            ],
            [
              116.350815,
              40.01490625
            ]
          ]
        ]
      }
    }
  ]
}
