{
  "type": "FeatureCollection",
  "name": "common_time_conceptual_spatial_typology_partition_v2",
  "features": [
    {
      "type": "Feature",
      "id": "LU-TIME-SPINE",
      "properties": {
        "id": "LU-TIME-SPINE",
        "layer": "LAND_USE",
        "source_type": "agent_generated_design",
        "confidence": "low",
        "geometry_role": "design_proposal",
        "land_use_code": "1401",
        "name_zh": "京张公共记忆与慢行关系带",
        "name_en": "Jingzhang public-memory and slow-mobility relationship spine",
        "fabric_type": "linear_heritage_public_realm",
        "legal_land_use_status": "unknown",
        "representation": "conceptual_spatial_typology_not_statutory_land_use",
        "spatial_strategy": "保留铁路记忆线索，串联已开放、在建/计划和待核验区段；实际公园边界另行叠合。",
        "spatial_strategy_en": "Retain verified railway-memory traces and connect open, planned and unverified segments; overlay actual park boundaries when official data becomes available.",
        "time_profile": [
          "commute",
          "day_learning",
          "evening_civic",
          "quiet_night"
        ],
        "usage_note_zh": "机器校验所需的完整分区；不代表现状或建议法定绿地边界。",
        "usage_note_en": "A complete machine-readable partition; not an existing condition or a proposed statutory green-space boundary.",
        "area_sqm_declared": 705428.999
      },
      "geometry": {
        "type": "Polygon",
        "coordinates": [
          [
            [
              116.34575,
              39.939
            ],
            [
              116.34575,
              39.955
            ],
            [
              116.34575,
              39.976
            ],
            [
              116.34575,
              39.998
            ],
            [
              116.34575,
              40.014
            ],
            [
              116.34575,
              40.0265
            ],
            [
              116.3466,
              40.0265
            ],
            [
              116.3466,
              40.014
            ],
            [
              116.3466,
              39.998
            ],
            [
              116.3466,
              39.976
            ],
            [
              116.3466,
              39.955
            ],
            [
              116.3466,
              39.939
            ],
            [
              116.34575,
              39.939
            ]
          ]
        ]
      }
    },
    {
      "type": "Feature",
      "id": "LU-W-01",
      "properties": {
        "id": "LU-W-01",
        "layer": "LAND_USE",
        "source_type": "agent_generated_design",
        "confidence": "low",
        "geometry_role": "design_proposal",
        "land_use_code": "05",
        "name_zh": "轨道门户与城市采用界面",
        "fabric_type": "station_mixed_interface",
        "legal_land_use_status": "unknown",
        "representation": "conceptual_spatial_typology_not_statutory_land_use",
        "spatial_strategy": "到达—试用—服务—安静夜间",
        "time_profile": [
          "07:00-10:00",
          "10:00-18:00",
          "18:00-22:00",
          "quiet_night"
        ],
        "planning_note_zh": "代码仅用于机器可读分区；现状、法定用途和调整必要性均待官方控规与宗地资料核验。",
        "area_sqm_declared": 800501.094
      },
      "geometry": {
        "type": "Polygon",
        "coordinates": [
          [
            [
              116.3407,
              39.939
            ],
            [
              116.34025555555556,
              39.955
            ],
            [
              116.34575,
              39.955
            ],
            [
              116.34575,
              39.939
            ],
            [
              116.3407,
              39.939
            ]
          ]
        ]
      }
    },
    {
      "type": "Feature",
      "id": "LU-W-02",
      "properties": {
        "id": "LU-W-02",
        "layer": "LAND_USE",
        "source_type": "agent_generated_design",
        "confidence": "low",
        "geometry_role": "design_proposal",
        "land_use_code": "0702",
        "name_zh": "南段社区服务与生活界面",
        "fabric_type": "community_service_fabric",
        "legal_land_use_status": "unknown",
        "representation": "conceptual_spatial_typology_not_statutory_land_use",
        "spatial_strategy": "首层共享、轮班补给、人工服务",
        "time_profile": [
          "07:00-10:00",
          "10:00-18:00",
          "18:00-22:00",
          "quiet_night"
        ],
        "planning_note_zh": "代码仅用于机器可读分区；现状、法定用途和调整必要性均待官方控规与宗地资料核验。",
        "area_sqm_declared": 1152319.431
      },
      "geometry": {
        "type": "Polygon",
        "coordinates": [
          [
            [
              116.3397,
              39.975
            ],
            [
              116.33976451612902,
              39.976
            ],
            [
              116.34575,
              39.976
            ],
            [
              116.34575,
              39.955
            ],
            [
              116.34025555555556,
              39.955
            ],
            [
              116.3397,
              39.975
            ]
          ]
        ]
      }
    },
    {
      "type": "Feature",
      "id": "LU-W-03",
      "properties": {
        "id": "LU-W-03",
        "layer": "LAND_USE",
        "source_type": "agent_generated_design",
        "confidence": "low",
        "geometry_role": "design_proposal",
        "land_use_code": "0804",
        "name_zh": "原点知识源与共学界面",
        "fabric_type": "campus_knowledge_interface",
        "legal_land_use_status": "unknown",
        "representation": "conceptual_spatial_typology_not_statutory_land_use",
        "spatial_strategy": "校园知识—转译廊—社区共学",
        "time_profile": [
          "07:00-10:00",
          "10:00-18:00",
          "18:00-22:00",
          "quiet_night"
        ],
        "planning_note_zh": "代码仅用于机器可读分区；现状、法定用途和调整必要性均待官方控规与宗地资料核验。",
        "area_sqm_declared": 1100831.073
      },
      "geometry": {
        "type": "Polygon",
        "coordinates": [
          [
            [
              116.34118387096774,
              39.998
            ],
            [
              116.34575,
              39.998
            ],
            [
              116.34575,
              39.976
            ],
            [
              116.33976451612902,
              39.976
            ],
            [
              116.34118387096774,
              39.998
            ]
          ]
        ]
      }
    },
    {
      "type": "Feature",
      "id": "LU-W-04",
      "properties": {
        "id": "LU-W-04",
        "layer": "LAND_USE",
        "source_type": "agent_generated_design",
        "confidence": "low",
        "geometry_role": "design_proposal",
        "land_use_code": "0802",
        "name_zh": "北中段开放研发与评测界面",
        "fabric_type": "research_retrofit_fabric",
        "legal_land_use_status": "unknown",
        "representation": "conceptual_spatial_typology_not_statutory_land_use",
        "spatial_strategy": "既有研发首层共享与可逆评测",
        "time_profile": [
          "07:00-10:00",
          "10:00-18:00",
          "18:00-22:00",
          "quiet_night"
        ],
        "planning_note_zh": "代码仅用于机器可读分区；现状、法定用途和调整必要性均待官方控规与宗地资料核验。",
        "area_sqm_declared": 619185.434
      },
      "geometry": {
        "type": "Polygon",
        "coordinates": [
          [
            [
              116.3417,
              40.006
            ],
            [
              116.34209024390243,
              40.014
            ],
            [
              116.34575,
              40.014
            ],
            [
              116.34575,
              39.998
            ],
            [
              116.34118387096774,
              39.998
            ],
            [
              116.3417,
              40.006
            ]
          ]
        ]
      }
    },
    {
      "type": "Feature",
      "id": "LU-W-05",
      "properties": {
        "id": "LU-W-05",
        "layer": "LAND_USE",
        "source_type": "agent_generated_design",
        "confidence": "low",
        "geometry_role": "design_proposal",
        "land_use_code": "0802",
        "name_zh": "众智园受控验证界面",
        "fabric_type": "controlled_test_fabric",
        "legal_land_use_status": "unknown",
        "representation": "conceptual_spatial_typology_not_statutory_land_use",
        "spatial_strategy": "受控内核—协作中环—解释前场",
        "time_profile": [
          "07:00-10:00",
          "10:00-18:00",
          "18:00-22:00",
          "quiet_night"
        ],
        "planning_note_zh": "代码仅用于机器可读分区；现状、法定用途和调整必要性均待官方控规与宗地资料核验。",
        "area_sqm_declared": 397541.057
      },
      "geometry": {
        "type": "Polygon",
        "coordinates": [
          [
            [
              116.34575,
              40.0265
            ],
            [
              116.34575,
              40.014
            ],
            [
              116.34209024390243,
              40.014
            ],
            [
              116.3427,
              40.0265
            ],
            [
              116.34575,
              40.0265
            ]
          ]
        ]
      }
    },
    {
      "type": "Feature",
      "id": "LU-E-01",
      "properties": {
        "id": "LU-E-01",
        "layer": "LAND_USE",
        "source_type": "agent_generated_design",
        "confidence": "low",
        "geometry_role": "design_proposal",
        "land_use_code": "0702",
        "name_zh": "南门户人才与日常补给界面",
        "fabric_type": "talent_daily_service_fabric",
        "legal_land_use_status": "unknown",
        "representation": "conceptual_spatial_typology_not_statutory_land_use",
        "spatial_strategy": "全天服务与公共交通衔接",
        "time_profile": [
          "07:00-10:00",
          "10:00-18:00",
          "18:00-22:00",
          "quiet_night"
        ],
        "planning_note_zh": "代码仅用于机器可读分区；现状、法定用途和调整必要性均待官方控规与宗地资料核验。",
        "area_sqm_declared": 1320956.974
      },
      "geometry": {
        "type": "Polygon",
        "coordinates": [
          [
            [
              116.3466,
              39.939
            ],
            [
              116.3466,
              39.955
            ],
            [
              116.3553,
              39.955
            ],
            [
              116.3553,
              39.939
            ],
            [
              116.3466,
              39.939
            ]
          ]
        ]
      }
    },
    {
      "type": "Feature",
      "id": "LU-E-02",
      "properties": {
        "id": "LU-E-02",
        "layer": "LAND_USE",
        "source_type": "agent_generated_design",
        "confidence": "low",
        "geometry_role": "design_proposal",
        "land_use_code": "05",
        "name_zh": "城市智能业态与公共试用界面",
        "fabric_type": "mixed_use_adoption_fabric",
        "legal_land_use_status": "unknown",
        "representation": "conceptual_spatial_typology_not_statutory_land_use",
        "spatial_strategy": "有限试用、公众复核与商业服务",
        "time_profile": [
          "07:00-10:00",
          "10:00-18:00",
          "18:00-22:00",
          "quiet_night"
        ],
        "planning_note_zh": "代码仅用于机器可读分区；现状、法定用途和调整必要性均待官方控规与宗地资料核验。",
        "area_sqm_declared": 1687381.538
      },
      "geometry": {
        "type": "Polygon",
        "coordinates": [
          [
            [
              116.3553,
              39.965
            ],
            [
              116.3553,
              39.955
            ],
            [
              116.3466,
              39.955
            ],
            [
              116.3466,
              39.976
            ],
            [
              116.35442,
              39.976
            ],
            [
              116.3553,
              39.965
            ]
          ]
        ]
      }
    },
    {
      "type": "Feature",
      "id": "LU-E-03",
      "properties": {
        "id": "LU-E-03",
        "layer": "LAND_USE",
        "source_type": "agent_generated_design",
        "confidence": "low",
        "geometry_role": "design_proposal",
        "land_use_code": "0802",
        "name_zh": "原点转译孵化与专业服务界面",
        "fabric_type": "translation_incubation_fabric",
        "legal_land_use_status": "unknown",
        "representation": "conceptual_spatial_typology_not_statutory_land_use",
        "spatial_strategy": "成果转译—孵化—专业服务",
        "time_profile": [
          "07:00-10:00",
          "10:00-18:00",
          "18:00-22:00",
          "quiet_night"
        ],
        "planning_note_zh": "代码仅用于机器可读分区；现状、法定用途和调整必要性均待官方控规与宗地资料核验。",
        "area_sqm_declared": 1488959.769
      },
      "geometry": {
        "type": "Polygon",
        "coordinates": [
          [
            [
              116.3533,
              39.99
            ],
            [
              116.35442,
              39.976
            ],
            [
              116.3466,
              39.976
            ],
            [
              116.3466,
              39.998
            ],
            [
              116.35373835616438,
              39.998
            ],
            [
              116.3533,
              39.99
            ]
          ]
        ]
      }
    },
    {
      "type": "Feature",
      "id": "LU-E-04",
      "properties": {
        "id": "LU-E-04",
        "layer": "LAND_USE",
        "source_type": "agent_generated_design",
        "confidence": "low",
        "geometry_role": "design_proposal",
        "land_use_code": "05",
        "name_zh": "科技服务与国际协作界面",
        "fabric_type": "professional_service_fabric",
        "legal_land_use_status": "unknown",
        "representation": "conceptual_spatial_typology_not_statutory_land_use",
        "spatial_strategy": "法务、资本、设计与国际合作",
        "time_profile": [
          "07:00-10:00",
          "10:00-18:00",
          "18:00-22:00",
          "quiet_night"
        ],
        "planning_note_zh": "代码仅用于机器可读分区；现状、法定用途和调整必要性均待官方控规与宗地资料核验。",
        "area_sqm_declared": 1149419.713
      },
      "geometry": {
        "type": "Polygon",
        "coordinates": [
          [
            [
              116.35373835616438,
              39.998
            ],
            [
              116.3466,
              39.998
            ],
            [
              116.3466,
              40.014
            ],
            [
              116.35461506849315,
              40.014
            ],
            [
              116.35373835616438,
              39.998
            ]
          ]
        ]
      }
    },
    {
      "type": "Feature",
      "id": "LU-E-05",
      "properties": {
        "id": "LU-E-05",
        "layer": "LAND_USE",
        "source_type": "agent_generated_design",
        "confidence": "low",
        "geometry_role": "design_proposal",
        "land_use_code": "0702",
        "name_zh": "北段人才社区与花园配套界面",
        "fabric_type": "garden_neighborhood_fabric",
        "legal_land_use_status": "unknown",
        "representation": "conceptual_spatial_typology_not_statutory_land_use",
        "spatial_strategy": "人才生活、社区服务与清河界面",
        "time_profile": [
          "07:00-10:00",
          "10:00-18:00",
          "18:00-22:00",
          "quiet_night"
        ],
        "planning_note_zh": "代码仅用于机器可读分区；现状、法定用途和调整必要性均待官方控规与宗地资料核验。",
        "area_sqm_declared": 990325.789
      },
      "geometry": {
        "type": "Polygon",
        "coordinates": [
          [
            [
              116.35461506849315,
              40.014
            ],
            [
              116.3466,
              40.014
            ],
            [
              116.3466,
              40.0265
            ],
            [
              116.3553,
              40.0265
            ],
            [
              116.35461506849315,
              40.014
            ]
          ]
        ]
      }
    }
  ]
}
