{
  "type": "FeatureCollection",
  "name": "address_line_evidence_gated_phasing",
  "features": [
    {
      "type": "Feature",
      "id": "PHASE-001",
      "properties": {
        "id": "PHASE-001",
        "layer": "PHASE",
        "source_type": "agent_generated_design",
        "confidence": "low",
        "geometry_role": "design_proposal",
        "name_zh": "先把服务摆出来",
        "name_en": "Start with reversible services",
        "phase": "0-12 months after authorization",
        "gate": "temporary service, consent and evidence setup",
        "phase_rule": "evidence_gate_before_scale",
        "area_sqm_declared": 4134030.269
      },
      "geometry": {
        "type": "Polygon",
        "coordinates": [
          [
            [
              116.3553,
              39.965
            ],
            [
              116.3553,
              39.941
            ],
            [
              116.34064444444444,
              39.941
            ],
            [
              116.33983888888888,
              39.97
            ],
            [
              116.3549,
              39.97
            ],
            [
              116.3553,
              39.965
            ]
          ]
        ]
      }
    },
    {
      "type": "Feature",
      "id": "PHASE-002",
      "properties": {
        "id": "PHASE-002",
        "layer": "PHASE",
        "source_type": "agent_generated_design",
        "confidence": "low",
        "geometry_role": "design_proposal",
        "name_zh": "再把三站接起来",
        "name_en": "Connect the three stations",
        "phase": "12-36 months after phase-one review",
        "gate": "slowway stitching and public-room pilots",
        "phase_rule": "evidence_gate_before_scale",
        "area_sqm_declared": 4564436.464
      },
      "geometry": {
        "type": "Polygon",
        "coordinates": [
          [
            [
              116.3533,
              39.99
            ],
            [
              116.3549,
              39.97
            ],
            [
              116.33983888888888,
              39.97
            ],
            [
              116.3397,
              39.975
            ],
            [
              116.3417,
              40.006
            ],
            [
              116.35417671232877,
              40.006
            ],
            [
              116.3533,
              39.99
            ]
          ]
        ]
      }
    },
    {
      "type": "Feature",
      "id": "PHASE-003",
      "properties": {
        "id": "PHASE-003",
        "layer": "PHASE",
        "source_type": "agent_generated_design",
        "confidence": "low",
        "geometry_role": "design_proposal",
        "name_zh": "最后深化实体更新",
        "name_en": "Deepen physical renewal",
        "phase": "after official data",
        "gate": "professional design after boundary and control confirmation",
        "phase_rule": "evidence_gate_before_scale",
        "area_sqm_declared": 2436747.957
      },
      "geometry": {
        "type": "Polygon",
        "coordinates": [
          [
            [
              116.3427,
              40.0265
            ],
            [
              116.3553,
              40.0265
            ],
            [
              116.35417671232877,
              40.006
            ],
            [
              116.3417,
              40.006
            ],
            [
              116.3427,
              40.0265
            ]
          ]
        ]
      }
    }
  ]
}
