{
 "type": "FeatureCollection",
 "features": [
  {
   "type": "Feature",
   "id": "PHASE-001",
   "properties": {
    "id": "PHASE-001",
    "layer": "PHASE",
    "source_type": "agent_generated_design",
    "confidence": "medium",
    "geometry_role": "design_proposal",
    "usage_note": "概念建议图层，基于provisional边界生成；official红线发布后整包复算。",
    "phase_type": "far",
    "phase_label_zh": "远期（5-10年）"
   },
   "geometry": {
    "type": "Polygon",
    "coordinates": [
     [
      [
       116.34024838709676,
       39.9835
      ],
      [
       116.35382,
       39.9835
      ],
      [
       116.3545,
       39.975
      ],
      [
       116.3397,
       39.975
      ],
      [
       116.34024838709676,
       39.9835
      ]
     ]
    ]
   }
  },
  {
   "type": "Feature",
   "id": "PHASE-002",
   "properties": {
    "id": "PHASE-002",
    "layer": "PHASE",
    "source_type": "agent_generated_design",
    "confidence": "medium",
    "geometry_role": "design_proposal",
    "usage_note": "概念建议图层，基于provisional边界生成；official红线发布后整包复算。",
    "phase_type": "far",
    "phase_label_zh": "远期（5-10年）"
   },
   "geometry": {
    "type": "Polygon",
    "coordinates": [
     [
      [
       116.3417,
       40.006
      ],
      [
       116.34177317073171,
       40.0075
      ],
      [
       116.35425890410959,
       40.0075
      ],
      [
       116.35417671232877,
       40.006
      ],
      [
       116.35384794520549,
       40.0
      ],
      [
       116.35349178082193,
       39.9935
      ],
      [
       116.3408935483871,
       39.9935
      ],
      [
       116.34131290322581,
       40.0
      ],
      [
       116.3417,
       40.006
      ]
     ]
    ]
   }
  },
  {
   "type": "Feature",
   "id": "PHASE-003",
   "properties": {
    "id": "PHASE-003",
    "layer": "PHASE",
    "source_type": "agent_generated_design",
    "confidence": "medium",
    "geometry_role": "design_proposal",
    "usage_note": "概念建议图层，基于provisional边界生成；official红线发布后整包复算。",
    "phase_type": "far",
    "phase_label_zh": "远期（5-10年）"
   },
   "geometry": {
    "type": "Polygon",
    "coordinates": [
     [
      [
       116.3427,
       40.0265
      ],
      [
       116.3553,
       40.0265
      ],
      [
       116.35516301369863,
       40.024
      ],
      [
       116.35488904109589,
       40.019
      ],
      [
       116.34233414634146,
       40.019
      ],
      [
       116.34257804878048,
       40.024
      ],
      [
       116.3427,
       40.0265
      ]
     ]
    ]
   }
  },
  {
   "type": "Feature",
   "id": "PHASE-004",
   "properties": {
    "id": "PHASE-004",
    "layer": "PHASE",
    "source_type": "agent_generated_design",
    "confidence": "medium",
    "geometry_role": "design_proposal",
    "usage_note": "概念建议图层，基于provisional边界生成；official红线发布后整包复算。",
    "phase_type": "mid",
    "phase_label_zh": "中期（3-5年）"
   },
   "geometry": {
    "type": "Polygon",
    "coordinates": [
     [
      [
       116.33997777777778,
       39.965
      ],
      [
       116.33991666666667,
       39.9672
      ],
      [
       116.33978888888888,
       39.9718
      ],
      [
       116.3397,
       39.975
      ],
      [
       116.3545,
       39.975
      ],
      [
       116.354756,
       39.9718
      ],
      [
       116.355124,
       39.9672
      ],
      [
       116.3553,
       39.965
      ],
      [
       116.3553,
       39.955
      ],
      [
       116.34025555555556,
       39.955
      ],
      [
       116.33997777777778,
       39.965
      ]
     ]
    ]
   }
  },
  {
   "type": "Feature",
   "id": "PHASE-005",
   "properties": {
    "id": "PHASE-005",
    "layer": "PHASE",
    "source_type": "agent_generated_design",
    "confidence": "medium",
    "geometry_role": "design_proposal",
    "usage_note": "概念建议图层，基于provisional边界生成；official红线发布后整包复算。",
    "phase_type": "mid",
    "phase_label_zh": "中期（3-5年）"
   },
   "geometry": {
    "type": "Polygon",
    "coordinates": [
     [
      [
       116.34229512195121,
       40.0182
      ],
      [
       116.34233414634146,
       40.019
      ],
      [
       116.35488904109589,
       40.019
      ],
      [
       116.35484520547945,
       40.0182
      ],
      [
       116.35470273972602,
       40.0156
      ],
      [
       116.35456027397261,
       40.013
      ],
      [
       116.34204146341463,
       40.013
      ],
      [
       116.34216829268293,
       40.0156
      ],
      [
       116.34229512195121,
       40.0182
      ]
     ]
    ]
   }
  },
  {
   "type": "Feature",
   "id": "PHASE-006",
   "properties": {
    "id": "PHASE-006",
    "layer": "PHASE",
    "source_type": "agent_generated_design",
    "confidence": "medium",
    "geometry_role": "design_proposal",
    "usage_note": "概念建议图层，基于provisional边界生成；official红线发布后整包复算。",
    "phase_type": "near",
    "phase_label_zh": "近期（1-3年）"
   },
   "geometry": {
    "type": "Polygon",
    "coordinates": [
     [
      [
       116.34047222222222,
       39.9472
      ],
      [
       116.34043333333334,
       39.9486
      ],
      [
       116.34039888888888,
       39.94984
      ],
      [
       116.34025555555556,
       39.955
      ],
      [
       116.3553,
       39.955
      ],
      [
       116.3553,
       39.94984
      ],
      [
       116.3553,
       39.9486
      ],
      [
       116.3553,
       39.9472
      ],
      [
       116.3553,
       39.9466
      ],
      [
       116.3553,
       39.9452
      ],
      [
       116.3553,
       39.944
      ],
      [
       116.3553,
       39.939
      ],
      [
       116.3407,
       39.939
      ],
      [
       116.34056111111111,
       39.944
      ],
      [
       116.34052777777778,
       39.9452
      ],
      [
       116.34048888888888,
       39.9466
      ],
      [
       116.34047222222222,
       39.9472
      ]
     ]
    ]
   }
  },
  {
   "type": "Feature",
   "id": "PHASE-007",
   "properties": {
    "id": "PHASE-007",
    "layer": "PHASE",
    "source_type": "agent_generated_design",
    "confidence": "medium",
    "geometry_role": "design_proposal",
    "usage_note": "概念建议图层，基于provisional边界生成；official红线发布后整包复算。",
    "phase_type": "near",
    "phase_label_zh": "近期（1-3年）"
   },
   "geometry": {
    "type": "Polygon",
    "coordinates": [
     [
      [
       116.3537,
       39.985
      ],
      [
       116.35382,
       39.9835
      ],
      [
       116.34024838709676,
       39.9835
      ],
      [
       116.34034516129032,
       39.985
      ],
      [
       116.34061612903226,
       39.9892
      ],
      [
       116.3408935483871,
       39.9935
      ],
      [
       116.35349178082193,
       39.9935
      ],
      [
       116.3533,
       39.99
      ],
      [
       116.353364,
       39.9892
      ],
      [
       116.3537,
       39.985
      ]
     ]
    ]
   }
  },
  {
   "type": "Feature",
   "id": "PHASE-008",
   "properties": {
    "id": "PHASE-008",
    "layer": "PHASE",
    "source_type": "agent_generated_design",
    "confidence": "medium",
    "geometry_role": "design_proposal",
    "usage_note": "概念建议图层，基于provisional边界生成；official红线发布后整包复算。",
    "phase_type": "near",
    "phase_label_zh": "近期（1-3年）"
   },
   "geometry": {
    "type": "Polygon",
    "coordinates": [
     [
      [
       116.34177317073171,
       40.0075
      ],
      [
       116.3417975609756,
       40.008
      ],
      [
       116.34193414634146,
       40.0108
      ],
      [
       116.34194390243903,
       40.011
      ],
      [
       116.34203170731708,
       40.0128
      ],
      [
       116.34204146341463,
       40.013
      ],
      [
       116.35456027397261,
       40.013
      ],
      [
       116.3545493150685,
       40.0128
      ],
      [
       116.3544506849315,
       40.011
      ],
      [
       116.3544397260274,
       40.0108
      ],
      [
       116.35428630136987,
       40.008
      ],
      [
       116.35425890410959,
       40.0075
      ],
      [
       116.34177317073171,
       40.0075
      ]
     ]
    ]
   }
  }
 ]
}