{
  "type": "FeatureCollection",
  "name": "complete_land_use_partition",
  "features": [
    {
      "type": "Feature",
      "id": "LU-001",
      "properties": {
        "id": "LU-001",
        "layer": "LAND_USE",
        "source_type": "agent_generated_design",
        "confidence": "low",
        "geometry_role": "design_proposal",
        "name_zh": "求真研发与复验",
        "name_en": "Research and verification",
        "land_use_code": "0802",
        "palette": "indigo",
        "area_sqm_declared": 1940180.316,
        "design_status": "interim_model_on_provisional_boundary"
      },
      "geometry": {
        "type": "Polygon",
        "coordinates": [
          [
            [
              116.34070000000001,
              39.93899999999999
            ],
            [
              116.3397,
              39.975
            ],
            [
              116.34169999999999,
              40.00600000000001
            ],
            [
              116.34270000000001,
              40.0265
            ],
            [
              116.34276390835832,
              40.02650000345706
            ],
            [
              116.34360178744443,
              39.93900014639987
            ],
            [
              116.34070000000001,
              39.93899999999999
            ]
          ]
        ]
      }
    },
    {
      "type": "Feature",
      "id": "LU-002",
      "properties": {
        "id": "LU-002",
        "layer": "LAND_USE",
        "source_type": "agent_generated_design",
        "confidence": "low",
        "geometry_role": "design_proposal",
        "name_zh": "百年会通公园绿地",
        "name_en": "Centennial commons park",
        "land_use_code": "1401",
        "palette": "green",
        "area_sqm_declared": 2054308.569,
        "design_status": "interim_model_on_provisional_boundary"
      },
      "geometry": {
        "type": "Polygon",
        "coordinates": [
          [
            [
              116.34360178744443,
              39.93900014639987
            ],
            [
              116.34276390835832,
              40.02650000345706
            ],
            [
              116.34524080993049,
              40.02650011028613
            ],
            [
              116.34607553143353,
              39.93900021385444
            ],
            [
              116.34360178744443,
              39.93900014639987
            ]
          ]
        ]
      }
    },
    {
      "type": "Feature",
      "id": "LU-003",
      "properties": {
        "id": "LU-003",
        "layer": "LAND_USE",
        "source_type": "agent_generated_design",
        "confidence": "low",
        "geometry_role": "design_proposal",
        "name_zh": "文化与公共知识",
        "name_en": "Culture and public knowledge",
        "land_use_code": "0803",
        "palette": "sand",
        "area_sqm_declared": 2054308.569,
        "design_status": "interim_model_on_provisional_boundary"
      },
      "geometry": {
        "type": "Polygon",
        "coordinates": [
          [
            [
              116.34607553143353,
              39.93900021385444
            ],
            [
              116.34524080993049,
              40.02650011028613
            ],
            [
              116.34771771234145,
              40.0265001641692
            ],
            [
              116.34854927625751,
              39.93900022852589
            ],
            [
              116.34607553143353,
              39.93900021385444
            ]
          ]
        ]
      }
    },
    {
      "type": "Feature",
      "id": "LU-004",
      "properties": {
        "id": "LU-004",
        "layer": "LAND_USE",
        "source_type": "agent_generated_design",
        "confidence": "low",
        "geometry_role": "design_proposal",
        "name_zh": "创新服务与智能业态",
        "name_en": "Innovation services and AI-native commerce",
        "land_use_code": "05",
        "palette": "vermilion",
        "area_sqm_declared": 1940180.316,
        "design_status": "interim_model_on_provisional_boundary"
      },
      "geometry": {
        "type": "Polygon",
        "coordinates": [
          [
            [
              116.34854927625751,
              39.93900022852589
            ],
            [
              116.34771771234145,
              40.0265001641692
            ],
            [
              116.35005700982721,
              40.02650016644317
            ],
            [
              116.35088559157424,
              39.939000193916236
            ],
            [
              116.34854927625751,
              39.93900022852589
            ]
          ]
        ]
      }
    },
    {
      "type": "Feature",
      "id": "LU-005",
      "properties": {
        "id": "LU-005",
        "layer": "LAND_USE",
        "source_type": "agent_generated_design",
        "confidence": "low",
        "geometry_role": "design_proposal",
        "name_zh": "社区服务与照护",
        "name_en": "Community services and care",
        "land_use_code": "0702",
        "palette": "blue",
        "area_sqm_declared": 1711923.808,
        "design_status": "interim_model_on_provisional_boundary"
      },
      "geometry": {
        "type": "Polygon",
        "coordinates": [
          [
            [
              116.35088559157424,
              39.939000193916236
            ],
            [
              116.35005700982721,
              40.02650016644317
            ],
            [
              116.35212109645614,
              40.0265001292303
            ],
            [
              116.3529470468747,
              39.93900012427965
            ],
            [
              116.35088559157424,
              39.939000193916236
            ]
          ]
        ]
      }
    },
    {
      "type": "Feature",
      "id": "LU-006",
      "properties": {
        "id": "LU-006",
        "layer": "LAND_USE",
        "source_type": "agent_generated_design",
        "confidence": "low",
        "geometry_role": "design_proposal",
        "name_zh": "慢行与交通接口",
        "name_en": "Slow mobility and transport interface",
        "land_use_code": "1207",
        "palette": "steel",
        "area_sqm_declared": 1711923.808,
        "design_status": "interim_model_on_provisional_boundary"
      },
      "geometry": {
        "type": "Polygon",
        "coordinates": [
          [
            [
              116.3533,
              39.989999999999995
            ],
            [
              116.3553,
              39.965
            ],
            [
              116.3553,
              39.939
            ],
            [
              116.3529470468747,
              39.93900012427965
            ],
            [
              116.35212109645614,
              40.0265001292303
            ],
            [
              116.3553,
              40.0265
            ],
            [
              116.3533,
              39.989999999999995
            ]
          ]
        ]
      }
    }
  ]
}
