{
  "type":"FeatureCollection",
  "name":"ai_line_1_public_innovation_spaces",
  "features":[
    {"type":"Feature","id":"PS-SPINE-001","properties":{"id":"PS-SPINE-001","layer":"PUBLIC_SPACE","name_zh":"AI LINE 1公共创新脊","program_zh":"慢行、休憩、展陈、社群活动与城市测试的可逆复合界面","source_type":"agent_generated_design","confidence":"medium","geometry_role":"design_proposal"},"geometry":{"type":"Polygon","coordinates":[[[116.347,39.942],[116.3488,39.942],[116.3488,40.023],[116.347,40.023],[116.347,39.942]]]}},
    {"type":"Feature","id":"PS-ORIGIN-001","properties":{"id":"PS-ORIGIN-001","layer":"PUBLIC_SPACE","name_zh":"AI原点开放创新客厅","program_zh":"发布、路演、国际交流、成果展示与公众参与","source_type":"agent_generated_design","confidence":"medium","geometry_role":"design_proposal"},"geometry":{"type":"Polygon","coordinates":[[[116.3445,39.985],[116.351,39.985],[116.351,39.992],[116.3445,39.992],[116.3445,39.985]]]}},
    {"type":"Feature","id":"PS-DAZHONGSI-001","properties":{"id":"PS-DAZHONGSI-001","layer":"PUBLIC_SPACE","name_zh":"大钟寺AI城市体验客厅","program_zh":"AI原生消费、内容首发、商务交流与市民体验","source_type":"agent_generated_design","confidence":"medium","geometry_role":"design_proposal"},"geometry":{"type":"Polygon","coordinates":[[[116.343,39.9445],[116.3525,39.9445],[116.3525,39.949],[116.343,39.949],[116.343,39.9445]]]}}
  ]
}
