{
  "type": "FeatureCollection",
  "name": "phasing",
  "features": [
    {
      "type": "Feature",
      "id": "PHASE-001",
      "properties": {
        "id": "PHASE-001",
        "layer": "PHASE",
        "source_type": "agent_generated_design",
        "confidence": "medium",
        "geometry_role": "design_proposal",
        "name_zh": "近期：大钟寺站接驳+南段水景/广场试点",
        "phase": "near_term",
        "area_sqm_declared": 4229811.537
      },
      "geometry": {
        "type": "Polygon",
        "coordinates": [
          [
            [
              116.3553,
              39.965
            ],
            [
              116.3553,
              39.939
            ],
            [
              116.34070000000001,
              39.93899999999999
            ],
            [
              116.3398754450381,
              39.96868740162649
            ],
            [
              116.35499829907123,
              39.96877253619743
            ],
            [
              116.3553,
              39.965
            ]
          ]
        ]
      }
    },
    {
      "type": "Feature",
      "id": "PHASE-002",
      "properties": {
        "id": "PHASE-002",
        "layer": "PHASE",
        "source_type": "agent_generated_design",
        "confidence": "medium",
        "geometry_role": "design_proposal",
        "name_zh": "中期：原点近校功能缝合+公园主脊贯通",
        "phase": "mid_term",
        "area_sqm_declared": 3439376.218
      },
      "geometry": {
        "type": "Polygon",
        "coordinates": [
          [
            [
              116.3533,
              39.99
            ],
            [
              116.35499829907123,
              39.96877253619743
            ],
            [
              116.3398754450381,
              39.96868740162649
            ],
            [
              116.3397,
              39.975
            ],
            [
              116.34098787514128,
              39.994964958502194
            ],
            [
              116.35357582506833,
              39.99503585087792
            ],
            [
              116.3533,
              39.99
            ]
          ]
        ]
      }
    },
    {
      "type": "Feature",
      "id": "PHASE-003",
      "properties": {
        "id": "PHASE-003",
        "layer": "PHASE",
        "source_type": "agent_generated_design",
        "confidence": "medium",
        "geometry_role": "design_proposal",
        "name_zh": "远期：众智园研发集群与北段加速",
        "phase": "long_term",
        "area_sqm_declared": 3743637.631
      },
      "geometry": {
        "type": "Polygon",
        "coordinates": [
          [
            [
              116.34169999999999,
              40.00600000000001
            ],
            [
              116.34270000000001,
              40.026500000000006
            ],
            [
              116.3553,
              40.02649999999999
            ],
            [
              116.35357582506833,
              39.99503585087792
            ],
            [
              116.34098787514128,
              39.994964958502194
            ],
            [
              116.34169999999999,
              40.00600000000001
            ]
          ]
        ]
      }
    }
  ]
}
