{
 "type": "FeatureCollection",
 "name": "land_use.geojson",
 "features": [
  {
   "type": "Feature",
   "id": "LU-00-0",
   "properties": {
    "id": "LU-00-0",
    "layer": "LAND_USE",
    "source_type": "agent_generated_design",
    "confidence": "medium",
    "geometry_role": "design_proposal",
    "name_zh": "通廊绿地",
    "land_use_code": "1401",
    "area_sqm_declared": 3295.16
   },
   "geometry": {
    "type": "Polygon",
    "coordinates": [
     [
      [
       116.3407,
       39.944
      ],
      [
       116.3407,
       39.939
      ],
      [
       116.34056111111111,
       39.944
      ],
      [
       116.3407,
       39.944
      ]
     ]
    ]
   }
  },
  {
   "type": "Feature",
   "id": "LU-00-1",
   "properties": {
    "id": "LU-00-1",
    "layer": "LAND_USE",
    "source_type": "agent_generated_design",
    "confidence": "medium",
    "geometry_role": "design_proposal",
    "name_zh": "铁路西侧绿廊缓冲",
    "land_use_code": "1401",
    "area_sqm_declared": 61687.638
   },
   "geometry": {
    "type": "Polygon",
    "coordinates": [
     [
      [
       116.3407,
       39.944
      ],
      [
       116.342,
       39.944
      ],
      [
       116.342,
       39.939
      ],
      [
       116.3407,
       39.939
      ],
      [
       116.3407,
       39.944
      ]
     ]
    ]
   }
  },
  {
   "type": "Feature",
   "id": "LU-00-2",
   "properties": {
    "id": "LU-00-2",
    "layer": "LAND_USE",
    "source_type": "agent_generated_design",
    "confidence": "medium",
    "geometry_role": "design_proposal",
    "name_zh": "南部门户商业综合体",
    "land_use_code": "05",
    "area_sqm_declared": 66432.82
   },
   "geometry": {
    "type": "Polygon",
    "coordinates": [
     [
      [
       116.342,
       39.944
      ],
      [
       116.3434,
       39.944
      ],
      [
       116.3434,
       39.939
      ],
      [
       116.342,
       39.939
      ],
      [
       116.342,
       39.944
      ]
     ]
    ]
   }
  },
  {
   "type": "Feature",
   "id": "LU-00-3",
   "properties": {
    "id": "LU-00-3",
    "layer": "LAND_USE",
    "source_type": "agent_generated_design",
    "confidence": "medium",
    "geometry_role": "design_proposal",
    "name_zh": "南站广场",
    "land_use_code": "1403",
    "area_sqm_declared": 99649.189
   },
   "geometry": {
    "type": "Polygon",
    "coordinates": [
     [
      [
       116.3434,
       39.944
      ],
      [
       116.3455,
       39.944
      ],
      [
       116.3455,
       39.939
      ],
      [
       116.3434,
       39.939
      ],
      [
       116.3434,
       39.944
      ]
     ]
    ]
   }
  },
  {
   "type": "Feature",
   "id": "LU-00-4",
   "properties": {
    "id": "LU-00-4",
    "layer": "LAND_USE",
    "source_type": "agent_generated_design",
    "confidence": "medium",
    "geometry_role": "design_proposal",
    "name_zh": "生活服务商业街",
    "land_use_code": "05",
    "area_sqm_declared": 189807.843
   },
   "geometry": {
    "type": "Polygon",
    "coordinates": [
     [
      [
       116.3455,
       39.944
      ],
      [
       116.3495,
       39.944
      ],
      [
       116.3495,
       39.939
      ],
      [
       116.3455,
       39.939
      ],
      [
       116.3455,
       39.944
      ]
     ]
    ]
   }
  },
  {
   "type": "Feature",
   "id": "LU-00-5",
   "properties": {
    "id": "LU-00-5",
    "layer": "LAND_USE",
    "source_type": "agent_generated_design",
    "confidence": "medium",
    "geometry_role": "design_proposal",
    "name_zh": "通廊绿地",
    "land_use_code": "1401",
    "area_sqm_declared": 275221.057
   },
   "geometry": {
    "type": "Polygon",
    "coordinates": [
     [
      [
       116.3553,
       39.939
      ],
      [
       116.3495,
       39.939
      ],
      [
       116.3495,
       39.944
      ],
      [
       116.3553,
       39.944
      ],
      [
       116.3553,
       39.939
      ]
     ]
    ]
   }
  },
  {
   "type": "Feature",
   "id": "LU-01-0",
   "properties": {
    "id": "LU-01-0",
    "layer": "LAND_USE",
    "source_type": "agent_generated_design",
    "confidence": "medium",
    "geometry_role": "design_proposal",
    "name_zh": "通廊绿地",
    "land_use_code": "1401",
    "area_sqm_declared": 12192.134
   },
   "geometry": {
    "type": "Polygon",
    "coordinates": [
     [
      [
       116.3407,
       39.94984
      ],
      [
       116.3407,
       39.944
      ],
      [
       116.34056111111111,
       39.944
      ],
      [
       116.34039888888888,
       39.94984
      ],
      [
       116.3407,
       39.94984
      ]
     ]
    ]
   }
  },
  {
   "type": "Feature",
   "id": "LU-01-1",
   "properties": {
    "id": "LU-01-1",
    "layer": "LAND_USE",
    "source_type": "agent_generated_design",
    "confidence": "medium",
    "geometry_role": "design_proposal",
    "name_zh": "铁路西侧绿廊缓冲",
    "land_use_code": "1401",
    "area_sqm_declared": 72045.543
   },
   "geometry": {
    "type": "Polygon",
    "coordinates": [
     [
      [
       116.3407,
       39.944
      ],
      [
       116.3407,
       39.94984
      ],
      [
       116.342,
       39.94984
      ],
      [
       116.342,
       39.944
      ],
      [
       116.3407,
       39.944
      ]
     ]
    ]
   }
  },
  {
   "type": "Feature",
   "id": "LU-01-2",
   "properties": {
    "id": "LU-01-2",
    "layer": "LAND_USE",
    "source_type": "agent_generated_design",
    "confidence": "medium",
    "geometry_role": "design_proposal",
    "name_zh": "大钟寺智能消费核心",
    "land_use_code": "05",
    "area_sqm_declared": 77587.483
   },
   "geometry": {
    "type": "Polygon",
    "coordinates": [
     [
      [
       116.342,
       39.944
      ],
      [
       116.342,
       39.94984
      ],
      [
       116.3434,
       39.94984
      ],
      [
       116.3434,
       39.944
      ],
      [
       116.342,
       39.944
      ]
     ]
    ]
   }
  },
  {
   "type": "Feature",
   "id": "LU-01-3",
   "properties": {
    "id": "LU-01-3",
    "layer": "LAND_USE",
    "source_type": "agent_generated_design",
    "confidence": "medium",
    "geometry_role": "design_proposal",
    "name_zh": "大钟寺站前广场",
    "land_use_code": "1403",
    "area_sqm_declared": 116381.177
   },
   "geometry": {
    "type": "Polygon",
    "coordinates": [
     [
      [
       116.3434,
       39.944
      ],
      [
       116.3434,
       39.94984
      ],
      [
       116.3455,
       39.94984
      ],
      [
       116.3455,
       39.944
      ],
      [
       116.3434,
       39.944
      ]
     ]
    ]
   }
  },
  {
   "type": "Feature",
   "id": "LU-01-4",
   "properties": {
    "id": "LU-01-4",
    "layer": "LAND_USE",
    "source_type": "agent_generated_design",
    "confidence": "medium",
    "geometry_role": "design_proposal",
    "name_zh": "智能终端研发园",
    "land_use_code": "0802",
    "area_sqm_declared": 221678.273
   },
   "geometry": {
    "type": "Polygon",
    "coordinates": [
     [
      [
       116.3455,
       39.944
      ],
      [
       116.3455,
       39.94984
      ],
      [
       116.3495,
       39.94984
      ],
      [
       116.3495,
       39.944
      ],
      [
       116.3455,
       39.944
      ]
     ]
    ]
   }
  },
  {
   "type": "Feature",
   "id": "LU-01-5",
   "properties": {
    "id": "LU-01-5",
    "layer": "LAND_USE",
    "source_type": "agent_generated_design",
    "confidence": "medium",
    "geometry_role": "design_proposal",
    "name_zh": "社区服务配套",
    "land_use_code": "0702",
    "area_sqm_declared": 321433.128
   },
   "geometry": {
    "type": "Polygon",
    "coordinates": [
     [
      [
       116.3553,
       39.944
      ],
      [
       116.3495,
       39.944
      ],
      [
       116.3495,
       39.94984
      ],
      [
       116.3553,
       39.94984
      ],
      [
       116.3553,
       39.944
      ]
     ]
    ]
   }
  },
  {
   "type": "Feature",
   "id": "LU-02-0",
   "properties": {
    "id": "LU-02-0",
    "layer": "LAND_USE",
    "source_type": "agent_generated_design",
    "confidence": "medium",
    "geometry_role": "design_proposal",
    "name_zh": "通廊绿地",
    "land_use_code": "1401",
    "area_sqm_declared": 42630.952
   },
   "geometry": {
    "type": "Polygon",
    "coordinates": [
     [
      [
       116.3407,
       39.96
      ],
      [
       116.3407,
       39.94984
      ],
      [
       116.34039888888888,
       39.94984
      ],
      [
       116.34011666666666,
       39.96
      ],
      [
       116.3407,
       39.96
      ]
     ]
    ]
   }
  },
  {
   "type": "Feature",
   "id": "LU-02-1",
   "properties": {
    "id": "LU-02-1",
    "layer": "LAND_USE",
    "source_type": "agent_generated_design",
    "confidence": "medium",
    "geometry_role": "design_proposal",
    "name_zh": "铁路西侧绿廊缓冲",
    "land_use_code": "1401",
    "area_sqm_declared": 125325.077
   },
   "geometry": {
    "type": "Polygon",
    "coordinates": [
     [
      [
       116.3407,
       39.94984
      ],
      [
       116.3407,
       39.96
      ],
      [
       116.342,
       39.96
      ],
      [
       116.342,
       39.94984
      ],
      [
       116.3407,
       39.94984
      ]
     ]
    ]
   }
  },
  {
   "type": "Feature",
   "id": "LU-02-2",
   "properties": {
    "id": "LU-02-2",
    "layer": "LAND_USE",
    "source_type": "agent_generated_design",
    "confidence": "medium",
    "geometry_role": "design_proposal",
    "name_zh": "南部生态缓冲绿地",
    "land_use_code": "1402",
    "area_sqm_declared": 134965.424
   },
   "geometry": {
    "type": "Polygon",
    "coordinates": [
     [
      [
       116.342,
       39.94984
      ],
      [
       116.342,
       39.96
      ],
      [
       116.3434,
       39.96
      ],
      [
       116.3434,
       39.94984
      ],
      [
       116.342,
       39.94984
      ]
     ]
    ]
   }
  },
  {
   "type": "Feature",
   "id": "LU-02-3",
   "properties": {
    "id": "LU-02-3",
    "layer": "LAND_USE",
    "source_type": "agent_generated_design",
    "confidence": "medium",
    "geometry_role": "design_proposal",
    "name_zh": "绿廊慢行道",
    "land_use_code": "1401",
    "area_sqm_declared": 202448.053
   },
   "geometry": {
    "type": "Polygon",
    "coordinates": [
     [
      [
       116.3434,
       39.94984
      ],
      [
       116.3434,
       39.96
      ],
      [
       116.3455,
       39.96
      ],
      [
       116.3455,
       39.94984
      ],
      [
       116.3434,
       39.94984
      ]
     ]
    ]
   }
  },
  {
   "type": "Feature",
   "id": "LU-02-4",
   "properties": {
    "id": "LU-02-4",
    "layer": "LAND_USE",
    "source_type": "agent_generated_design",
    "confidence": "medium",
    "geometry_role": "design_proposal",
    "name_zh": "教育配套用地",
    "land_use_code": "0804",
    "area_sqm_declared": 385615.062
   },
   "geometry": {
    "type": "Polygon",
    "coordinates": [
     [
      [
       116.3455,
       39.94984
      ],
      [
       116.3455,
       39.96
      ],
      [
       116.3495,
       39.96
      ],
      [
       116.3495,
       39.94984
      ],
      [
       116.3455,
       39.94984
      ]
     ]
    ]
   }
  },
  {
   "type": "Feature",
   "id": "LU-02-5",
   "properties": {
    "id": "LU-02-5",
    "layer": "LAND_USE",
    "source_type": "agent_generated_design",
    "confidence": "medium",
    "geometry_role": "design_proposal",
    "name_zh": "南部居住组团",
    "land_use_code": "0701",
    "area_sqm_declared": 559141.2
   },
   "geometry": {
    "type": "Polygon",
    "coordinates": [
     [
      [
       116.3553,
       39.94984
      ],
      [
       116.3495,
       39.94984
      ],
      [
       116.3495,
       39.96
      ],
      [
       116.3553,
       39.96
      ],
      [
       116.3553,
       39.94984
      ]
     ]
    ]
   }
  },
  {
   "type": "Feature",
   "id": "LU-03-0",
   "properties": {
    "id": "LU-03-0",
    "layer": "LAND_USE",
    "source_type": "agent_generated_design",
    "confidence": "medium",
    "geometry_role": "design_proposal",
    "name_zh": "通廊绿地",
    "land_use_code": "1401",
    "area_sqm_declared": 85381.905
   },
   "geometry": {
    "type": "Polygon",
    "coordinates": [
     [
      [
       116.3407,
       39.972
      ],
      [
       116.3407,
       39.96
      ],
      [
       116.34011666666666,
       39.96
      ],
      [
       116.33978333333333,
       39.972
      ],
      [
       116.3407,
       39.972
      ]
     ]
    ]
   }
  },
  {
   "type": "Feature",
   "id": "LU-03-1",
   "properties": {
    "id": "LU-03-1",
    "layer": "LAND_USE",
    "source_type": "agent_generated_design",
    "confidence": "medium",
    "geometry_role": "design_proposal",
    "name_zh": "铁路西侧绿廊缓冲",
    "land_use_code": "1401",
    "area_sqm_declared": 147998.135
   },
   "geometry": {
    "type": "Polygon",
    "coordinates": [
     [
      [
       116.3407,
       39.96
      ],
      [
       116.3407,
       39.972
      ],
      [
       116.342,
       39.972
      ],
      [
       116.342,
       39.96
      ],
      [
       116.3407,
       39.96
      ]
     ]
    ]
   }
  },
  {
   "type": "Feature",
   "id": "LU-03-2",
   "properties": {
    "id": "LU-03-2",
    "layer": "LAND_USE",
    "source_type": "agent_generated_design",
    "confidence": "medium",
    "geometry_role": "design_proposal",
    "name_zh": "中部居住片区",
    "land_use_code": "0701",
    "area_sqm_declared": 159382.556
   },
   "geometry": {
    "type": "Polygon",
    "coordinates": [
     [
      [
       116.342,
       39.96
      ],
      [
       116.342,
       39.972
      ],
      [
       116.3434,
       39.972
      ],
      [
       116.3434,
       39.96
      ],
      [
       116.342,
       39.96
      ]
     ]
    ]
   }
  },
  {
   "type": "Feature",
   "id": "LU-03-3",
   "properties": {
    "id": "LU-03-3",
    "layer": "LAND_USE",
    "source_type": "agent_generated_design",
    "confidence": "medium",
    "geometry_role": "design_proposal",
    "name_zh": "通廊绿地",
    "land_use_code": "1401",
    "area_sqm_declared": 239073.735
   },
   "geometry": {
    "type": "Polygon",
    "coordinates": [
     [
      [
       116.3434,
       39.96
      ],
      [
       116.3434,
       39.972
      ],
      [
       116.3455,
       39.972
      ],
      [
       116.3455,
       39.96
      ],
      [
       116.3434,
       39.96
      ]
     ]
    ]
   }
  },
  {
   "type": "Feature",
   "id": "LU-03-4",
   "properties": {
    "id": "LU-03-4",
    "layer": "LAND_USE",
    "source_type": "agent_generated_design",
    "confidence": "medium",
    "geometry_role": "design_proposal",
    "name_zh": "社区服务中心",
    "land_use_code": "0702",
    "area_sqm_declared": 455378.217
   },
   "geometry": {
    "type": "Polygon",
    "coordinates": [
     [
      [
       116.3455,
       39.96
      ],
      [
       116.3455,
       39.972
      ],
      [
       116.3495,
       39.972
      ],
      [
       116.3495,
       39.96
      ],
      [
       116.3455,
       39.96
      ]
     ]
    ]
   }
  },
  {
   "type": "Feature",
   "id": "LU-03-5",
   "properties": {
    "id": "LU-03-5",
    "layer": "LAND_USE",
    "source_type": "agent_generated_design",
    "confidence": "medium",
    "geometry_role": "design_proposal",
    "name_zh": "中部居住片区",
    "land_use_code": "0701",
    "area_sqm_declared": 641704.157
   },
   "geometry": {
    "type": "Polygon",
    "coordinates": [
     [
      [
       116.3553,
       39.96
      ],
      [
       116.3495,
       39.96
      ],
      [
       116.3495,
       39.972
      ],
      [
       116.35474,
       39.972
      ],
      [
       116.3553,
       39.965
      ],
      [
       116.3553,
       39.96
      ]
     ]
    ]
   }
  },
  {
   "type": "Feature",
   "id": "LU-04-0",
   "properties": {
    "id": "LU-04-0",
    "layer": "LAND_USE",
    "source_type": "agent_generated_design",
    "confidence": "medium",
    "geometry_role": "design_proposal",
    "name_zh": "通廊绿地",
    "land_use_code": "1401",
    "area_sqm_declared": 85791.723
   },
   "geometry": {
    "type": "Polygon",
    "coordinates": [
     [
      [
       116.3407,
       39.9835
      ],
      [
       116.3407,
       39.972
      ],
      [
       116.33978333333333,
       39.972
      ],
      [
       116.3397,
       39.975
      ],
      [
       116.34024838709676,
       39.9835
      ],
      [
       116.3407,
       39.9835
      ]
     ]
    ]
   }
  },
  {
   "type": "Feature",
   "id": "LU-04-1",
   "properties": {
    "id": "LU-04-1",
    "layer": "LAND_USE",
    "source_type": "agent_generated_design",
    "confidence": "medium",
    "geometry_role": "design_proposal",
    "name_zh": "铁路西侧绿廊缓冲",
    "land_use_code": "1401",
    "area_sqm_declared": 141807.547
   },
   "geometry": {
    "type": "Polygon",
    "coordinates": [
     [
      [
       116.3407,
       39.972
      ],
      [
       116.3407,
       39.9835
      ],
      [
       116.342,
       39.9835
      ],
      [
       116.342,
       39.972
      ],
      [
       116.3407,
       39.972
      ]
     ]
    ]
   }
  },
  {
   "type": "Feature",
   "id": "LU-04-2",
   "properties": {
    "id": "LU-04-2",
    "layer": "LAND_USE",
    "source_type": "agent_generated_design",
    "confidence": "medium",
    "geometry_role": "design_proposal",
    "name_zh": "通廊绿地",
    "land_use_code": "1401",
    "area_sqm_declared": 152715.771
   },
   "geometry": {
    "type": "Polygon",
    "coordinates": [
     [
      [
       116.342,
       39.972
      ],
      [
       116.342,
       39.9835
      ],
      [
       116.3434,
       39.9835
      ],
      [
       116.3434,
       39.972
      ],
      [
       116.342,
       39.972
      ]
     ]
    ]
   }
  },
  {
   "type": "Feature",
   "id": "LU-04-3",
   "properties": {
    "id": "LU-04-3",
    "layer": "LAND_USE",
    "source_type": "agent_generated_design",
    "confidence": "medium",
    "geometry_role": "design_proposal",
    "name_zh": "遗址公园绿地",
    "land_use_code": "1401",
    "area_sqm_declared": 229073.562
   },
   "geometry": {
    "type": "Polygon",
    "coordinates": [
     [
      [
       116.3434,
       39.972
      ],
      [
       116.3434,
       39.9835
      ],
      [
       116.3455,
       39.9835
      ],
      [
       116.3455,
       39.972
      ],
      [
       116.3434,
       39.972
      ]
     ]
    ]
   }
  },
  {
   "type": "Feature",
   "id": "LU-04-4",
   "properties": {
    "id": "LU-04-4",
    "layer": "LAND_USE",
    "source_type": "agent_generated_design",
    "confidence": "medium",
    "geometry_role": "design_proposal",
    "name_zh": "京张文化广场",
    "land_use_code": "1403",
    "area_sqm_declared": 436330.282
   },
   "geometry": {
    "type": "Polygon",
    "coordinates": [
     [
      [
       116.3455,
       39.972
      ],
      [
       116.3455,
       39.9835
      ],
      [
       116.3495,
       39.9835
      ],
      [
       116.3495,
       39.972
      ],
      [
       116.3455,
       39.972
      ]
     ]
    ]
   }
  },
  {
   "type": "Feature",
   "id": "LU-04-5",
   "properties": {
    "id": "LU-04-5",
    "layer": "LAND_USE",
    "source_type": "agent_generated_design",
    "confidence": "medium",
    "geometry_role": "design_proposal",
    "name_zh": "文化艺术展示用地",
    "land_use_code": "0803",
    "area_sqm_declared": 521417.932
   },
   "geometry": {
    "type": "Polygon",
    "coordinates": [
     [
      [
       116.3495,
       39.972
      ],
      [
       116.3495,
       39.9835
      ],
      [
       116.35382,
       39.9835
      ],
      [
       116.35474,
       39.972
      ],
      [
       116.3495,
       39.972
      ]
     ]
    ]
   }
  },
  {
   "type": "Feature",
   "id": "LU-05-0",
   "properties": {
    "id": "LU-05-0",
    "layer": "LAND_USE",
    "source_type": "agent_generated_design",
    "confidence": "medium",
    "geometry_role": "design_proposal",
    "name_zh": "通廊绿地",
    "land_use_code": "1401",
    "area_sqm_declared": 14991.908
   },
   "geometry": {
    "type": "Polygon",
    "coordinates": [
     [
      [
       116.3407,
       39.9835
      ],
      [
       116.34024838709676,
       39.9835
      ],
      [
       116.3407,
       39.9905
      ],
      [
       116.3407,
       39.9835
      ]
     ]
    ]
   }
  },
  {
   "type": "Feature",
   "id": "LU-05-1",
   "properties": {
    "id": "LU-05-1",
    "layer": "LAND_USE",
    "source_type": "agent_generated_design",
    "confidence": "medium",
    "geometry_role": "design_proposal",
    "name_zh": "铁路西侧绿廊缓冲",
    "land_use_code": "1401",
    "area_sqm_declared": 120538.69
   },
   "geometry": {
    "type": "Polygon",
    "coordinates": [
     [
      [
       116.342,
       39.9935
      ],
      [
       116.342,
       39.9835
      ],
      [
       116.3407,
       39.9835
      ],
      [
       116.3407,
       39.9905
      ],
      [
       116.3408935483871,
       39.9935
      ],
      [
       116.342,
       39.9935
      ]
     ]
    ]
   }
  },
  {
   "type": "Feature",
   "id": "LU-05-2",
   "properties": {
    "id": "LU-05-2",
    "layer": "LAND_USE",
    "source_type": "agent_generated_design",
    "confidence": "medium",
    "geometry_role": "design_proposal",
    "name_zh": "AI原点广场",
    "land_use_code": "1403",
    "area_sqm_declared": 132775.756
   },
   "geometry": {
    "type": "Polygon",
    "coordinates": [
     [
      [
       116.342,
       39.9835
      ],
      [
       116.342,
       39.9935
      ],
      [
       116.3434,
       39.9935
      ],
      [
       116.3434,
       39.9835
      ],
      [
       116.342,
       39.9835
      ]
     ]
    ]
   }
  },
  {
   "type": "Feature",
   "id": "LU-05-3",
   "properties": {
    "id": "LU-05-3",
    "layer": "LAND_USE",
    "source_type": "agent_generated_design",
    "confidence": "medium",
    "geometry_role": "design_proposal",
    "name_zh": "原点口袋公园",
    "land_use_code": "1401",
    "area_sqm_declared": 199163.552
   },
   "geometry": {
    "type": "Polygon",
    "coordinates": [
     [
      [
       116.3434,
       39.9835
      ],
      [
       116.3434,
       39.9935
      ],
      [
       116.3455,
       39.9935
      ],
      [
       116.3455,
       39.9835
      ],
      [
       116.3434,
       39.9835
      ]
     ]
    ]
   }
  },
  {
   "type": "Feature",
   "id": "LU-05-4",
   "properties": {
    "id": "LU-05-4",
    "layer": "LAND_USE",
    "source_type": "agent_generated_design",
    "confidence": "medium",
    "geometry_role": "design_proposal",
    "name_zh": "AI创业孵化用地",
    "land_use_code": "0802",
    "area_sqm_declared": 379358.876
   },
   "geometry": {
    "type": "Polygon",
    "coordinates": [
     [
      [
       116.3455,
       39.9835
      ],
      [
       116.3455,
       39.9935
      ],
      [
       116.3495,
       39.9935
      ],
      [
       116.3495,
       39.9835
      ],
      [
       116.3455,
       39.9835
      ]
     ]
    ]
   }
  },
  {
   "type": "Feature",
   "id": "LU-05-5",
   "properties": {
    "id": "LU-05-5",
    "layer": "LAND_USE",
    "source_type": "agent_generated_design",
    "confidence": "medium",
    "geometry_role": "design_proposal",
    "name_zh": "滨水智慧商业",
    "land_use_code": "05",
    "area_sqm_declared": 379602.179
   },
   "geometry": {
    "type": "Polygon",
    "coordinates": [
     [
      [
       116.3495,
       39.9835
      ],
      [
       116.3495,
       39.9935
      ],
      [
       116.35349178082193,
       39.9935
      ],
      [
       116.3533,
       39.99
      ],
      [
       116.35382,
       39.9835
      ],
      [
       116.3495,
       39.9835
      ]
     ]
    ]
   }
  },
  {
   "type": "Feature",
   "id": "LU-06-1",
   "properties": {
    "id": "LU-06-1",
    "layer": "LAND_USE",
    "source_type": "agent_generated_design",
    "confidence": "medium",
    "geometry_role": "design_proposal",
    "name_zh": "铁路西侧绿廊缓冲",
    "land_use_code": "1401",
    "area_sqm_declared": 74333.715
   },
   "geometry": {
    "type": "Polygon",
    "coordinates": [
     [
      [
       116.342,
       40.0035
      ],
      [
       116.342,
       39.9935
      ],
      [
       116.3408935483871,
       39.9935
      ],
      [
       116.34153870967742,
       40.0035
      ],
      [
       116.342,
       40.0035
      ]
     ]
    ]
   }
  },
  {
   "type": "Feature",
   "id": "LU-06-2",
   "properties": {
    "id": "LU-06-2",
    "layer": "LAND_USE",
    "source_type": "agent_generated_design",
    "confidence": "medium",
    "geometry_role": "design_proposal",
    "name_zh": "人才社区服务",
    "land_use_code": "0701",
    "area_sqm_declared": 132756.62
   },
   "geometry": {
    "type": "Polygon",
    "coordinates": [
     [
      [
       116.342,
       39.9935
      ],
      [
       116.342,
       40.0035
      ],
      [
       116.3434,
       40.0035
      ],
      [
       116.3434,
       39.9935
      ],
      [
       116.342,
       39.9935
      ]
     ]
    ]
   }
  },
  {
   "type": "Feature",
   "id": "LU-06-3",
   "properties": {
    "id": "LU-06-3",
    "layer": "LAND_USE",
    "source_type": "agent_generated_design",
    "confidence": "medium",
    "geometry_role": "design_proposal",
    "name_zh": "转化走廊绿带",
    "land_use_code": "1401",
    "area_sqm_declared": 199134.849
   },
   "geometry": {
    "type": "Polygon",
    "coordinates": [
     [
      [
       116.3434,
       39.9935
      ],
      [
       116.3434,
       40.0035
      ],
      [
       116.3455,
       40.0035
      ],
      [
       116.3455,
       39.9935
      ],
      [
       116.3434,
       39.9935
      ]
     ]
    ]
   }
  },
  {
   "type": "Feature",
   "id": "LU-06-4",
   "properties": {
    "id": "LU-06-4",
    "layer": "LAND_USE",
    "source_type": "agent_generated_design",
    "confidence": "medium",
    "geometry_role": "design_proposal",
    "name_zh": "端侧算力中试用",
    "land_use_code": "0802",
    "area_sqm_declared": 379304.202
   },
   "geometry": {
    "type": "Polygon",
    "coordinates": [
     [
      [
       116.3455,
       39.9935
      ],
      [
       116.3455,
       40.0035
      ],
      [
       116.3495,
       40.0035
      ],
      [
       116.3495,
       39.9935
      ],
      [
       116.3455,
       39.9935
      ]
     ]
    ]
   }
  },
  {
   "type": "Feature",
   "id": "LU-06-5",
   "properties": {
    "id": "LU-06-5",
    "layer": "LAND_USE",
    "source_type": "agent_generated_design",
    "confidence": "medium",
    "geometry_role": "design_proposal",
    "name_zh": "人才公寓",
    "land_use_code": "0701",
    "area_sqm_declared": 404502.467
   },
   "geometry": {
    "type": "Polygon",
    "coordinates": [
     [
      [
       116.3495,
       39.9935
      ],
      [
       116.3495,
       40.0035
      ],
      [
       116.3540397260274,
       40.0035
      ],
      [
       116.35349178082193,
       39.9935
      ],
      [
       116.3495,
       39.9935
      ]
     ]
    ]
   }
  },
  {
   "type": "Feature",
   "id": "LU-07-1",
   "properties": {
    "id": "LU-07-1",
    "layer": "LAND_USE",
    "source_type": "agent_generated_design",
    "confidence": "medium",
    "geometry_role": "design_proposal",
    "name_zh": "铁路西侧绿廊缓冲",
    "land_use_code": "1401",
    "area_sqm_declared": 12769.36
   },
   "geometry": {
    "type": "Polygon",
    "coordinates": [
     [
      [
       116.342,
       40.0075
      ],
      [
       116.342,
       40.0035
      ],
      [
       116.34153870967742,
       40.0035
      ],
      [
       116.3417,
       40.006
      ],
      [
       116.34177317073171,
       40.0075
      ],
      [
       116.342,
       40.0075
      ]
     ]
    ]
   }
  },
  {
   "type": "Feature",
   "id": "LU-07-2",
   "properties": {
    "id": "LU-07-2",
    "layer": "LAND_USE",
    "source_type": "agent_generated_design",
    "confidence": "medium",
    "geometry_role": "design_proposal",
    "name_zh": "清河滨水绿地",
    "land_use_code": "1401",
    "area_sqm_declared": 53097.289
   },
   "geometry": {
    "type": "Polygon",
    "coordinates": [
     [
      [
       116.342,
       40.0035
      ],
      [
       116.342,
       40.0075
      ],
      [
       116.3434,
       40.0075
      ],
      [
       116.3434,
       40.0035
      ],
      [
       116.342,
       40.0035
      ]
     ]
    ]
   }
  },
  {
   "type": "Feature",
   "id": "LU-07-3",
   "properties": {
    "id": "LU-07-3",
    "layer": "LAND_USE",
    "source_type": "agent_generated_design",
    "confidence": "medium",
    "geometry_role": "design_proposal",
    "name_zh": "清河风景带",
    "land_use_code": "1401",
    "area_sqm_declared": 79645.901
   },
   "geometry": {
    "type": "Polygon",
    "coordinates": [
     [
      [
       116.3434,
       40.0035
      ],
      [
       116.3434,
       40.0075
      ],
      [
       116.3455,
       40.0075
      ],
      [
       116.3455,
       40.0035
      ],
      [
       116.3434,
       40.0035
      ]
     ]
    ]
   }
  },
  {
   "type": "Feature",
   "id": "LU-07-4",
   "properties": {
    "id": "LU-07-4",
    "layer": "LAND_USE",
    "source_type": "agent_generated_design",
    "confidence": "medium",
    "geometry_role": "design_proposal",
    "name_zh": "滨河防护绿地",
    "land_use_code": "1402",
    "area_sqm_declared": 151706.37
   },
   "geometry": {
    "type": "Polygon",
    "coordinates": [
     [
      [
       116.3455,
       40.0035
      ],
      [
       116.3455,
       40.0075
      ],
      [
       116.3495,
       40.0075
      ],
      [
       116.3495,
       40.0035
      ],
      [
       116.3455,
       40.0035
      ]
     ]
    ]
   }
  },
  {
   "type": "Feature",
   "id": "LU-07-5",
   "properties": {
    "id": "LU-07-5",
    "layer": "LAND_USE",
    "source_type": "agent_generated_design",
    "confidence": "medium",
    "geometry_role": "design_proposal",
    "name_zh": "通廊绿地",
    "land_use_code": "1401",
    "area_sqm_declared": 176332.475
   },
   "geometry": {
    "type": "Polygon",
    "coordinates": [
     [
      [
       116.3495,
       40.0035
      ],
      [
       116.3495,
       40.0075
      ],
      [
       116.35425890410959,
       40.0075
      ],
      [
       116.3540397260274,
       40.0035
      ],
      [
       116.3495,
       40.0035
      ]
     ]
    ]
   }
  },
  {
   "type": "Feature",
   "id": "LU-08-1",
   "properties": {
    "id": "LU-08-1",
    "layer": "LAND_USE",
    "source_type": "agent_generated_design",
    "confidence": "medium",
    "geometry_role": "design_proposal",
    "name_zh": "铁路西侧绿廊缓冲",
    "land_use_code": "1401",
    "area_sqm_declared": 5000.277
   },
   "geometry": {
    "type": "Polygon",
    "coordinates": [
     [
      [
       116.342,
       40.0075
      ],
      [
       116.34177317073171,
       40.0075
      ],
      [
       116.342,
       40.01214999999997
      ],
      [
       116.342,
       40.0075
      ]
     ]
    ]
   }
  },
  {
   "type": "Feature",
   "id": "LU-08-2",
   "properties": {
    "id": "LU-08-2",
    "layer": "LAND_USE",
    "source_type": "agent_generated_design",
    "confidence": "medium",
    "geometry_role": "design_proposal",
    "name_zh": "智算中枢用地",
    "land_use_code": "0802",
    "area_sqm_declared": 85485.196
   },
   "geometry": {
    "type": "Polygon",
    "coordinates": [
     [
      [
       116.3434,
       40.014
      ],
      [
       116.3434,
       40.0075
      ],
      [
       116.342,
       40.0075
      ],
      [
       116.342,
       40.01214999999997
      ],
      [
       116.34209024390243,
       40.014
      ],
      [
       116.3434,
       40.014
      ]
     ]
    ]
   }
  },
  {
   "type": "Feature",
   "id": "LU-08-3",
   "properties": {
    "id": "LU-08-3",
    "layer": "LAND_USE",
    "source_type": "agent_generated_design",
    "confidence": "medium",
    "geometry_role": "design_proposal",
    "name_zh": "智汇花园",
    "land_use_code": "1401",
    "area_sqm_declared": 129414.791
   },
   "geometry": {
    "type": "Polygon",
    "coordinates": [
     [
      [
       116.3434,
       40.0075
      ],
      [
       116.3434,
       40.014
      ],
      [
       116.3455,
       40.014
      ],
      [
       116.3455,
       40.0075
      ],
      [
       116.3434,
       40.0075
      ]
     ]
    ]
   }
  },
  {
   "type": "Feature",
   "id": "LU-08-4",
   "properties": {
    "id": "LU-08-4",
    "layer": "LAND_USE",
    "source_type": "agent_generated_design",
    "confidence": "medium",
    "geometry_role": "design_proposal",
    "name_zh": "AI研发用地",
    "land_use_code": "0802",
    "area_sqm_declared": 246504.187
   },
   "geometry": {
    "type": "Polygon",
    "coordinates": [
     [
      [
       116.3455,
       40.0075
      ],
      [
       116.3455,
       40.014
      ],
      [
       116.3495,
       40.014
      ],
      [
       116.3495,
       40.0075
      ],
      [
       116.3455,
       40.0075
      ]
     ]
    ]
   }
  },
  {
   "type": "Feature",
   "id": "LU-08-5",
   "properties": {
    "id": "LU-08-5",
    "layer": "LAND_USE",
    "source_type": "agent_generated_design",
    "confidence": "medium",
    "geometry_role": "design_proposal",
    "name_zh": "智汇人才社区",
    "land_use_code": "0701",
    "area_sqm_declared": 304246.289
   },
   "geometry": {
    "type": "Polygon",
    "coordinates": [
     [
      [
       116.3495,
       40.0075
      ],
      [
       116.3495,
       40.014
      ],
      [
       116.35461506849315,
       40.014
      ],
      [
       116.35425890410959,
       40.0075
      ],
      [
       116.3495,
       40.0075
      ]
     ]
    ]
   }
  },
  {
   "type": "Feature",
   "id": "LU-09-2",
   "properties": {
    "id": "LU-09-2",
    "layer": "LAND_USE",
    "source_type": "agent_generated_design",
    "confidence": "medium",
    "geometry_role": "design_proposal",
    "name_zh": "AI总部研发园",
    "land_use_code": "0802",
    "area_sqm_declared": 119076.829
   },
   "geometry": {
    "type": "Polygon",
    "coordinates": [
     [
      [
       116.3434,
       40.014
      ],
      [
       116.34209024390243,
       40.014
      ],
      [
       116.3427,
       40.0265
      ],
      [
       116.3434,
       40.0265
      ],
      [
       116.3434,
       40.014
      ]
     ]
    ]
   }
  },
  {
   "type": "Feature",
   "id": "LU-09-3",
   "properties": {
    "id": "LU-09-3",
    "layer": "LAND_USE",
    "source_type": "agent_generated_design",
    "confidence": "medium",
    "geometry_role": "design_proposal",
    "name_zh": "中央智慧景观",
    "land_use_code": "1401",
    "area_sqm_declared": 248840.495
   },
   "geometry": {
    "type": "Polygon",
    "coordinates": [
     [
      [
       116.3455,
       40.014
      ],
      [
       116.3434,
       40.014
      ],
      [
       116.3434,
       40.0265
      ],
      [
       116.3455,
       40.0265
      ],
      [
       116.3455,
       40.014
      ]
     ]
    ]
   }
  },
  {
   "type": "Feature",
   "id": "LU-09-4",
   "properties": {
    "id": "LU-09-4",
    "layer": "LAND_USE",
    "source_type": "agent_generated_design",
    "confidence": "medium",
    "geometry_role": "design_proposal",
    "name_zh": "AI总部研发园",
    "land_use_code": "0802",
    "area_sqm_declared": 473981.556
   },
   "geometry": {
    "type": "Polygon",
    "coordinates": [
     [
      [
       116.3495,
       40.014
      ],
      [
       116.3455,
       40.014
      ],
      [
       116.3455,
       40.0265
      ],
      [
       116.3495,
       40.0265
      ],
      [
       116.3495,
       40.014
      ]
     ]
    ]
   }
  },
  {
   "type": "Feature",
   "id": "LU-09-5",
   "properties": {
    "id": "LU-09-5",
    "layer": "LAND_USE",
    "source_type": "agent_generated_design",
    "confidence": "medium",
    "geometry_role": "design_proposal",
    "name_zh": "智慧文化展示",
    "land_use_code": "0803",
    "area_sqm_declared": 646688.644
   },
   "geometry": {
    "type": "Polygon",
    "coordinates": [
     [
      [
       116.3553,
       40.0265
      ],
      [
       116.35461506849315,
       40.014
      ],
      [
       116.3495,
       40.014
      ],
      [
       116.3495,
       40.0265
      ],
      [
       116.3553,
       40.0265
      ]
     ]
    ]
   }
  }
 ]
}
