{
  "type": "FeatureCollection",
  "name": "scenario_nodes_and_conceptual_controls",
  "features": [
    {
      "type": "Feature",
      "id": "SCN-01",
      "properties": {
        "id": "SCN-01",
        "layer": "SCENARIO_NODE",
        "source_type": "agent_generated_design",
        "confidence": "low",
        "geometry_role": "design_proposal",
        "name_zh": "模型安全评测沙盒",
        "name_en": "Model safety evaluation sandbox",
        "scenario_type": "产业测试",
        "key_area": "众智园",
        "usage_note": "Conceptual point for discussion only; not a surveyed facility location or approved project."
      },
      "geometry": {
        "type": "Point",
        "coordinates": [
          116.347,
          40.019
        ]
      }
    },
    {
      "type": "Feature",
      "id": "SCN-02",
      "properties": {
        "id": "SCN-02",
        "layer": "SCENARIO_NODE",
        "source_type": "agent_generated_design",
        "confidence": "low",
        "geometry_role": "design_proposal",
        "name_zh": "国产算力适配工坊",
        "name_en": "Domestic compute adaptation workshop",
        "scenario_type": "产业测试",
        "key_area": "众智园",
        "usage_note": "Conceptual point for discussion only; not a surveyed facility location or approved project."
      },
      "geometry": {
        "type": "Point",
        "coordinates": [
          116.35,
          40.018
        ]
      }
    },
    {
      "type": "Feature",
      "id": "SCN-03",
      "properties": {
        "id": "SCN-03",
        "layer": "SCENARIO_NODE",
        "source_type": "agent_generated_design",
        "confidence": "low",
        "geometry_role": "design_proposal",
        "name_zh": "机器人限域测试环",
        "name_en": "Bounded robotics field loop",
        "scenario_type": "产业测试",
        "key_area": "众智园",
        "usage_note": "Conceptual point for discussion only; not a surveyed facility location or approved project."
      },
      "geometry": {
        "type": "Point",
        "coordinates": [
          116.352,
          40.014
        ]
      }
    },
    {
      "type": "Feature",
      "id": "SCN-04",
      "properties": {
        "id": "SCN-04",
        "layer": "SCENARIO_NODE",
        "source_type": "agent_generated_design",
        "confidence": "low",
        "geometry_role": "design_proposal",
        "name_zh": "开源项目诊所",
        "name_en": "Open-source project clinic",
        "scenario_type": "社群孵化",
        "key_area": "AI原点社区",
        "usage_note": "Conceptual point for discussion only; not a surveyed facility location or approved project."
      },
      "geometry": {
        "type": "Point",
        "coordinates": [
          116.345,
          39.99
        ]
      }
    },
    {
      "type": "Feature",
      "id": "SCN-05",
      "properties": {
        "id": "SCN-05",
        "layer": "SCENARIO_NODE",
        "source_type": "agent_generated_design",
        "confidence": "low",
        "geometry_role": "design_proposal",
        "name_zh": "创始人驻留计划",
        "name_en": "Founder residency",
        "scenario_type": "社群孵化",
        "key_area": "AI原点社区",
        "usage_note": "Conceptual point for discussion only; not a surveyed facility location or approved project."
      },
      "geometry": {
        "type": "Point",
        "coordinates": [
          116.348,
          39.989
        ]
      }
    },
    {
      "type": "Feature",
      "id": "SCN-06",
      "properties": {
        "id": "SCN-06",
        "layer": "SCENARIO_NODE",
        "source_type": "agent_generated_design",
        "confidence": "low",
        "geometry_role": "design_proposal",
        "name_zh": "AI人才夜校",
        "name_en": "AI talent night school",
        "scenario_type": "社群孵化",
        "key_area": "AI原点社区",
        "usage_note": "Conceptual point for discussion only; not a surveyed facility location or approved project."
      },
      "geometry": {
        "type": "Point",
        "coordinates": [
          116.351,
          39.987
        ]
      }
    },
    {
      "type": "Feature",
      "id": "SCN-07",
      "properties": {
        "id": "SCN-07",
        "layer": "SCENARIO_NODE",
        "source_type": "agent_generated_design",
        "confidence": "low",
        "geometry_role": "design_proposal",
        "name_zh": "代际AI生活实验室",
        "name_en": "Intergenerational AI living lab",
        "scenario_type": "人本服务",
        "key_area": "AI原点社区",
        "usage_note": "Conceptual point for discussion only; not a surveyed facility location or approved project."
      },
      "geometry": {
        "type": "Point",
        "coordinates": [
          116.346,
          39.985
        ]
      }
    },
    {
      "type": "Feature",
      "id": "SCN-08",
      "properties": {
        "id": "SCN-08",
        "layer": "SCENARIO_NODE",
        "source_type": "agent_generated_design",
        "confidence": "low",
        "geometry_role": "design_proposal",
        "name_zh": "无障碍多模态导览",
        "name_en": "Accessible multimodal wayfinding",
        "scenario_type": "人本服务",
        "key_area": "京张公共空间",
        "usage_note": "Conceptual point for discussion only; not a surveyed facility location or approved project."
      },
      "geometry": {
        "type": "Point",
        "coordinates": [
          116.346,
          39.974
        ]
      }
    },
    {
      "type": "Feature",
      "id": "SCN-09",
      "properties": {
        "id": "SCN-09",
        "layer": "SCENARIO_NODE",
        "source_type": "agent_generated_design",
        "confidence": "low",
        "geometry_role": "design_proposal",
        "name_zh": "人才家庭支持站",
        "name_en": "Talent family support station",
        "scenario_type": "人本服务",
        "key_area": "AI原点社区",
        "usage_note": "Conceptual point for discussion only; not a surveyed facility location or approved project."
      },
      "geometry": {
        "type": "Point",
        "coordinates": [
          116.35,
          39.982
        ]
      }
    },
    {
      "type": "Feature",
      "id": "SCN-10",
      "properties": {
        "id": "SCN-10",
        "layer": "SCENARIO_NODE",
        "source_type": "agent_generated_design",
        "confidence": "low",
        "geometry_role": "design_proposal",
        "name_zh": "场景首单撮合中心",
        "name_en": "First-order scenario exchange",
        "scenario_type": "商业转化",
        "key_area": "大钟寺",
        "usage_note": "Conceptual point for discussion only; not a surveyed facility location or approved project."
      },
      "geometry": {
        "type": "Point",
        "coordinates": [
          116.347,
          39.948
        ]
      }
    },
    {
      "type": "Feature",
      "id": "SCN-11",
      "properties": {
        "id": "SCN-11",
        "layer": "SCENARIO_NODE",
        "source_type": "agent_generated_design",
        "confidence": "low",
        "geometry_role": "design_proposal",
        "name_zh": "企业合规服务诊所",
        "name_en": "Enterprise compliance clinic",
        "scenario_type": "商业转化",
        "key_area": "大钟寺",
        "usage_note": "Conceptual point for discussion only; not a surveyed facility location or approved project."
      },
      "geometry": {
        "type": "Point",
        "coordinates": [
          116.351,
          39.947
        ]
      }
    },
    {
      "type": "Feature",
      "id": "SCN-12",
      "properties": {
        "id": "SCN-12",
        "layer": "SCENARIO_NODE",
        "source_type": "agent_generated_design",
        "confidence": "low",
        "geometry_role": "design_proposal",
        "name_zh": "城市智能体运营台",
        "name_en": "Urban-agent operations desk",
        "scenario_type": "治理",
        "key_area": "大钟寺/两翼",
        "usage_note": "Conceptual point for discussion only; not a surveyed facility location or approved project."
      },
      "geometry": {
        "type": "Point",
        "coordinates": [
          116.353,
          39.946
        ]
      }
    }
  ]
}
