{
  "type": "FeatureCollection",
  "name": "jingzhang_evidence_loop_public",
  "features": [
    {
      "type": "Feature",
      "id": "PUBLIC-001",
      "properties": {
        "id": "PUBLIC-001",
        "layer": "PUBLIC_SPACE",
        "source_type": "agent_generated_design",
        "confidence": "medium",
        "geometry_role": "design_proposal",
        "land_use_code": "1403",
        "name_zh": "詹天佑坐标",
        "node_type": "AI朝圣地标",
        "public_role": "可解释、可预约、人工复核的公共空间组件",
        "area_sqm_declared": 723.627
      },
      "geometry": {
        "type": "Polygon",
        "coordinates": [
          [
            [
              116.34865525,
              40.01673471
            ],
            [
              116.348653,
              40.01671957
            ],
            [
              116.34864928,
              40.01670472
            ],
            [
              116.34864413,
              40.0166903
            ],
            [
              116.34863758,
              40.01667646
            ],
            [
              116.34862971,
              40.01666333
            ],
            [
              116.34862059,
              40.01665103
            ],
            [
              116.34861031,
              40.01663969
            ],
            [
              116.34859897,
              40.01662941
            ],
            [
              116.34858667,
              40.01662029
            ],
            [
              116.34857354,
              40.01661242
            ],
            [
              116.3485597,
              40.01660587
            ],
            [
              116.34854528,
              40.01660072
            ],
            [
              116.34853043,
              40.016597
            ],
            [
              116.34851529,
              40.01659475
            ],
            [
              116.3485,
              40.016594
            ],
            [
              116.34848471,
              40.01659475
            ],
            [
              116.34846957,
              40.016597
            ],
            [
              116.34845472,
              40.01660072
            ],
            [
              116.3484403,
              40.01660587
            ],
            [
              116.34842646,
              40.01661242
            ],
            [
              116.34841333,
              40.01662029
            ],
            [
              116.34840103,
              40.01662941
            ],
            [
              116.34838969,
              40.01663969
            ],
            [
              116.34837941,
              40.01665103
            ],
            [
              116.34837029,
              40.01666333
            ],
            [
              116.34836242,
              40.01667646
            ],
            [
              116.34835587,
              40.0166903
            ],
            [
              116.34835072,
              40.01670472
            ],
            [
              116.348347,
              40.01671957
            ],
            [
              116.34834475,
              40.01673471
            ],
            [
              116.348344,
              40.01675
            ],
            [
              116.34834475,
              40.01676529
            ],
            [
              116.348347,
              40.01678043
            ],
            [
              116.34835072,
              40.01679528
            ],
            [
              116.34835587,
              40.0168097
            ],
            [
              116.34836242,
              40.01682354
            ],
            [
              116.34837029,
              40.01683667
            ],
            [
              116.34837941,
              40.01684897
            ],
            [
              116.34838969,
              40.01686031
            ],
            [
              116.34840103,
              40.01687059
            ],
            [
              116.34841333,
              40.01687971
            ],
            [
              116.34842646,
              40.01688758
            ],
            [
              116.3484403,
              40.01689413
            ],
            [
              116.34845472,
              40.01689928
            ],
            [
              116.34846957,
              40.016903
            ],
            [
              116.34848471,
              40.01690525
            ],
            [
              116.3485,
              40.016906
            ],
            [
              116.34851529,
              40.01690525
            ],
            [
              116.34853043,
              40.016903
            ],
            [
              116.34854528,
              40.01689928
            ],
            [
              116.3485597,
              40.01689413
            ],
            [
              116.34857354,
              40.01688758
            ],
            [
              116.34858667,
              40.01687971
            ],
            [
              116.34859897,
              40.01687059
            ],
            [
              116.34861031,
              40.01686031
            ],
            [
              116.34862059,
              40.01684897
            ],
            [
              116.34862971,
              40.01683667
            ],
            [
              116.34863758,
              40.01682354
            ],
            [
              116.34864413,
              40.0168097
            ],
            [
              116.34864928,
              40.01679528
            ],
            [
              116.348653,
              40.01678043
            ],
            [
              116.34865525,
              40.01676529
            ],
            [
              116.348656,
              40.01675
            ],
            [
              116.34865525,
              40.01673471
            ]
          ]
        ]
      }
    },
    {
      "type": "Feature",
      "id": "PUBLIC-002",
      "properties": {
        "id": "PUBLIC-002",
        "layer": "PUBLIC_SPACE",
        "source_type": "agent_generated_design",
        "confidence": "medium",
        "geometry_role": "design_proposal",
        "land_use_code": "1403",
        "name_zh": "开源贡献墙",
        "node_type": "AI朝圣地标",
        "public_role": "可解释、可预约、人工复核的公共空间组件",
        "area_sqm_declared": 723.921
      },
      "geometry": {
        "type": "Polygon",
        "coordinates": [
          [
            [
              116.34765525,
              39.98848471
            ],
            [
              116.347653,
              39.98846957
            ],
            [
              116.34764928,
              39.98845472
            ],
            [
              116.34764413,
              39.9884403
            ],
            [
              116.34763758,
              39.98842646
            ],
            [
              116.34762971,
              39.98841333
            ],
            [
              116.34762059,
              39.98840103
            ],
            [
              116.34761031,
              39.98838969
            ],
            [
              116.34759897,
              39.98837941
            ],
            [
              116.34758667,
              39.98837029
            ],
            [
              116.34757354,
              39.98836242
            ],
            [
              116.3475597,
              39.98835587
            ],
            [
              116.34754528,
              39.98835072
            ],
            [
              116.34753043,
              39.988347
            ],
            [
              116.34751529,
              39.98834475
            ],
            [
              116.3475,
              39.988344
            ],
            [
              116.34748471,
              39.98834475
            ],
            [
              116.34746957,
              39.988347
            ],
            [
              116.34745472,
              39.98835072
            ],
            [
              116.3474403,
              39.98835587
            ],
            [
              116.34742646,
              39.98836242
            ],
            [
              116.34741333,
              39.98837029
            ],
            [
              116.34740103,
              39.98837941
            ],
            [
              116.34738969,
              39.98838969
            ],
            [
              116.34737941,
              39.98840103
            ],
            [
              116.34737029,
              39.98841333
            ],
            [
              116.34736242,
              39.98842646
            ],
            [
              116.34735587,
              39.9884403
            ],
            [
              116.34735072,
              39.98845472
            ],
            [
              116.347347,
              39.98846957
            ],
            [
              116.34734475,
              39.98848471
            ],
            [
              116.347344,
              39.9885
            ],
            [
              116.34734475,
              39.98851529
            ],
            [
              116.347347,
              39.98853043
            ],
            [
              116.34735072,
              39.98854528
            ],
            [
              116.34735587,
              39.9885597
            ],
            [
              116.34736242,
              39.98857354
            ],
            [
              116.34737029,
              39.98858667
            ],
            [
              116.34737941,
              39.98859897
            ],
            [
              116.34738969,
              39.98861031
            ],
            [
              116.34740103,
              39.98862059
            ],
            [
              116.34741333,
              39.98862971
            ],
            [
              116.34742646,
              39.98863758
            ],
            [
              116.3474403,
              39.98864413
            ],
            [
              116.34745472,
              39.98864928
            ],
            [
              116.34746957,
              39.988653
            ],
            [
              116.34748471,
              39.98865525
            ],
            [
              116.3475,
              39.988656
            ],
            [
              116.34751529,
              39.98865525
            ],
            [
              116.34753043,
              39.988653
            ],
            [
              116.34754528,
              39.98864928
            ],
            [
              116.3475597,
              39.98864413
            ],
            [
              116.34757354,
              39.98863758
            ],
            [
              116.34758667,
              39.98862971
            ],
            [
              116.34759897,
              39.98862059
            ],
            [
              116.34761031,
              39.98861031
            ],
            [
              116.34762059,
              39.98859897
            ],
            [
              116.34762971,
              39.98858667
            ],
            [
              116.34763758,
              39.98857354
            ],
            [
              116.34764413,
              39.9885597
            ],
            [
              116.34764928,
              39.98854528
            ],
            [
              116.347653,
              39.98853043
            ],
            [
              116.34765525,
              39.98851529
            ],
            [
              116.347656,
              39.9885
            ],
            [
              116.34765525,
              39.98848471
            ]
          ]
        ]
      }
    },
    {
      "type": "Feature",
      "id": "PUBLIC-003",
      "properties": {
        "id": "PUBLIC-003",
        "layer": "PUBLIC_SPACE",
        "source_type": "agent_generated_design",
        "confidence": "medium",
        "geometry_role": "design_proposal",
        "land_use_code": "1403",
        "name_zh": "转辙公共客厅",
        "node_type": "AI朝圣地标",
        "public_role": "可解释、可预约、人工复核的公共空间组件",
        "area_sqm_declared": 724.355
      },
      "geometry": {
        "type": "Polygon",
        "coordinates": [
          [
            [
              116.34865525,
              39.94690471
            ],
            [
              116.348653,
              39.94688957
            ],
            [
              116.34864928,
              39.94687472
            ],
            [
              116.34864413,
              39.9468603
            ],
            [
              116.34863758,
              39.94684646
            ],
            [
              116.34862971,
              39.94683333
            ],
            [
              116.34862059,
              39.94682103
            ],
            [
              116.34861031,
              39.94680969
            ],
            [
              116.34859897,
              39.94679941
            ],
            [
              116.34858667,
              39.94679029
            ],
            [
              116.34857354,
              39.94678242
            ],
            [
              116.3485597,
              39.94677587
            ],
            [
              116.34854528,
              39.94677072
            ],
            [
              116.34853043,
              39.946767
            ],
            [
              116.34851529,
              39.94676475
            ],
            [
              116.3485,
              39.946764
            ],
            [
              116.34848471,
              39.94676475
            ],
            [
              116.34846957,
              39.946767
            ],
            [
              116.34845472,
              39.94677072
            ],
            [
              116.3484403,
              39.94677587
            ],
            [
              116.34842646,
              39.94678242
            ],
            [
              116.34841333,
              39.94679029
            ],
            [
              116.34840103,
              39.94679941
            ],
            [
              116.34838969,
              39.94680969
            ],
            [
              116.34837941,
              39.94682103
            ],
            [
              116.34837029,
              39.94683333
            ],
            [
              116.34836242,
              39.94684646
            ],
            [
              116.34835587,
              39.9468603
            ],
            [
              116.34835072,
              39.94687472
            ],
            [
              116.348347,
              39.94688957
            ],
            [
              116.34834475,
              39.94690471
            ],
            [
              116.348344,
              39.94692
            ],
            [
              116.34834475,
              39.94693529
            ],
            [
              116.348347,
              39.94695043
            ],
            [
              116.34835072,
              39.94696528
            ],
            [
              116.34835587,
              39.9469797
            ],
            [
              116.34836242,
              39.94699354
            ],
            [
              116.34837029,
              39.94700667
            ],
            [
              116.34837941,
              39.94701897
            ],
            [
              116.34838969,
              39.94703031
            ],
            [
              116.34840103,
              39.94704059
            ],
            [
              116.34841333,
              39.94704971
            ],
            [
              116.34842646,
              39.94705758
            ],
            [
              116.3484403,
              39.94706413
            ],
            [
              116.34845472,
              39.94706928
            ],
            [
              116.34846957,
              39.947073
            ],
            [
              116.34848471,
              39.94707525
            ],
            [
              116.3485,
              39.947076
            ],
            [
              116.34851529,
              39.94707525
            ],
            [
              116.34853043,
              39.947073
            ],
            [
              116.34854528,
              39.94706928
            ],
            [
              116.3485597,
              39.94706413
            ],
            [
              116.34857354,
              39.94705758
            ],
            [
              116.34858667,
              39.94704971
            ],
            [
              116.34859897,
              39.94704059
            ],
            [
              116.34861031,
              39.94703031
            ],
            [
              116.34862059,
              39.94701897
            ],
            [
              116.34862971,
              39.94700667
            ],
            [
              116.34863758,
              39.94699354
            ],
            [
              116.34864413,
              39.9469797
            ],
            [
              116.34864928,
              39.94696528
            ],
            [
              116.348653,
              39.94695043
            ],
            [
              116.34865525,
              39.94693529
            ],
            [
              116.348656,
              39.94692
            ],
            [
              116.34865525,
              39.94690471
            ]
          ]
        ]
      }
    },
    {
      "type": "Feature",
      "id": "PUBLIC-004",
      "properties": {
        "id": "PUBLIC-004",
        "layer": "PUBLIC_SPACE",
        "source_type": "agent_generated_design",
        "confidence": "medium",
        "geometry_role": "design_proposal",
        "land_use_code": "1403",
        "name_zh": "脉冲公共节点 1",
        "node_type": "AI场景与日常服务",
        "public_role": "可解释、可预约、人工复核的公共空间组件",
        "area_sqm_declared": 354.921
      },
      "geometry": {
        "type": "Polygon",
        "coordinates": [
          [
            [
              116.34558067,
              39.9494893
            ],
            [
              116.3455791,
              39.9494787
            ],
            [
              116.3455765,
              39.9494683
            ],
            [
              116.34557289,
              39.94945821
            ],
            [
              116.34556831,
              39.94944852
            ],
            [
              116.3455628,
              39.94943933
            ],
            [
              116.34555641,
              39.94943072
            ],
            [
              116.34554922,
              39.94942278
            ],
            [
              116.34554128,
              39.94941559
            ],
            [
              116.34553267,
              39.9494092
            ],
            [
              116.34552348,
              39.94940369
            ],
            [
              116.34551379,
              39.94939911
            ],
            [
              116.3455037,
              39.9493955
            ],
            [
              116.3454933,
              39.9493929
            ],
            [
              116.3454827,
              39.94939133
            ],
            [
              116.345472,
              39.9493908
            ],
            [
              116.3454613,
              39.94939133
            ],
            [
              116.3454507,
              39.9493929
            ],
            [
              116.3454403,
              39.9493955
            ],
            [
              116.34543021,
              39.94939911
            ],
            [
              116.34542052,
              39.94940369
            ],
            [
              116.34541133,
              39.9494092
            ],
            [
              116.34540272,
              39.94941559
            ],
            [
              116.34539478,
              39.94942278
            ],
            [
              116.34538759,
              39.94943072
            ],
            [
              116.3453812,
              39.94943933
            ],
            [
              116.34537569,
              39.94944852
            ],
            [
              116.34537111,
              39.94945821
            ],
            [
              116.3453675,
              39.9494683
            ],
            [
              116.3453649,
              39.9494787
            ],
            [
              116.34536333,
              39.9494893
            ],
            [
              116.3453628,
              39.9495
            ],
            [
              116.34536333,
              39.9495107
            ],
            [
              116.3453649,
              39.9495213
            ],
            [
              116.3453675,
              39.9495317
            ],
            [
              116.34537111,
              39.94954179
            ],
            [
              116.34537569,
              39.94955148
            ],
            [
              116.3453812,
              39.94956067
            ],
            [
              116.34538759,
              39.94956928
            ],
            [
              116.34539478,
              39.94957722
            ],
            [
              116.34540272,
              39.94958441
            ],
            [
              116.34541133,
              39.9495908
            ],
            [
              116.34542052,
              39.94959631
            ],
            [
              116.34543021,
              39.94960089
            ],
            [
              116.3454403,
              39.9496045
            ],
            [
              116.3454507,
              39.9496071
            ],
            [
              116.3454613,
              39.94960867
            ],
            [
              116.345472,
              39.9496092
            ],
            [
              116.3454827,
              39.94960867
            ],
            [
              116.3454933,
              39.9496071
            ],
            [
              116.3455037,
              39.9496045
            ],
            [
              116.34551379,
              39.94960089
            ],
            [
              116.34552348,
              39.94959631
            ],
            [
              116.34553267,
              39.9495908
            ],
            [
              116.34554128,
              39.94958441
            ],
            [
              116.34554922,
              39.94957722
            ],
            [
              116.34555641,
              39.94956928
            ],
            [
              116.3455628,
              39.94956067
            ],
            [
              116.34556831,
              39.94955148
            ],
            [
              116.34557289,
              39.94954179
            ],
            [
              116.3455765,
              39.9495317
            ],
            [
              116.3455791,
              39.9495213
            ],
            [
              116.34558067,
              39.9495107
            ],
            [
              116.3455812,
              39.9495
            ],
            [
              116.34558067,
              39.9494893
            ]
          ]
        ]
      }
    },
    {
      "type": "Feature",
      "id": "PUBLIC-005",
      "properties": {
        "id": "PUBLIC-005",
        "layer": "PUBLIC_SPACE",
        "source_type": "agent_generated_design",
        "confidence": "medium",
        "geometry_role": "design_proposal",
        "land_use_code": "1403",
        "name_zh": "脉冲公共节点 2",
        "node_type": "AI场景与日常服务",
        "public_role": "可解释、可预约、人工复核的公共空间组件",
        "area_sqm_declared": 354.831
      },
      "geometry": {
        "type": "Polygon",
        "coordinates": [
          [
            [
              116.34963667,
              39.9669893
            ],
            [
              116.3496351,
              39.9669787
            ],
            [
              116.3496325,
              39.9669683
            ],
            [
              116.34962889,
              39.96695821
            ],
            [
              116.34962431,
              39.96694852
            ],
            [
              116.3496188,
              39.96693933
            ],
            [
              116.34961241,
              39.96693072
            ],
            [
              116.34960522,
              39.96692278
            ],
            [
              116.34959728,
              39.96691559
            ],
            [
              116.34958867,
              39.9669092
            ],
            [
              116.34957948,
              39.96690369
            ],
            [
              116.34956979,
              39.96689911
            ],
            [
              116.3495597,
              39.9668955
            ],
            [
              116.3495493,
              39.9668929
            ],
            [
              116.3495387,
              39.96689133
            ],
            [
              116.349528,
              39.9668908
            ],
            [
              116.3495173,
              39.96689133
            ],
            [
              116.3495067,
              39.9668929
            ],
            [
              116.3494963,
              39.9668955
            ],
            [
              116.34948621,
              39.96689911
            ],
            [
              116.34947652,
              39.96690369
            ],
            [
              116.34946733,
              39.9669092
            ],
            [
              116.34945872,
              39.96691559
            ],
            [
              116.34945078,
              39.96692278
            ],
            [
              116.34944359,
              39.96693072
            ],
            [
              116.3494372,
              39.96693933
            ],
            [
              116.34943169,
              39.96694852
            ],
            [
              116.34942711,
              39.96695821
            ],
            [
              116.3494235,
              39.9669683
            ],
            [
              116.3494209,
              39.9669787
            ],
            [
              116.34941933,
              39.9669893
            ],
            [
              116.3494188,
              39.967
            ],
            [
              116.34941933,
              39.9670107
            ],
            [
              116.3494209,
              39.9670213
            ],
            [
              116.3494235,
              39.9670317
            ],
            [
              116.34942711,
              39.96704179
            ],
            [
              116.34943169,
              39.96705148
            ],
            [
              116.3494372,
              39.96706067
            ],
            [
              116.34944359,
              39.96706928
            ],
            [
              116.34945078,
              39.96707722
            ],
            [
              116.34945872,
              39.96708441
            ],
            [
              116.34946733,
              39.9670908
            ],
            [
              116.34947652,
              39.96709631
            ],
            [
              116.34948621,
              39.96710089
            ],
            [
              116.3494963,
              39.9671045
            ],
            [
              116.3495067,
              39.9671071
            ],
            [
              116.3495173,
              39.96710867
            ],
            [
              116.349528,
              39.9671092
            ],
            [
              116.3495387,
              39.96710867
            ],
            [
              116.3495493,
              39.9671071
            ],
            [
              116.3495597,
              39.9671045
            ],
            [
              116.34956979,
              39.96710089
            ],
            [
              116.34957948,
              39.96709631
            ],
            [
              116.34958867,
              39.9670908
            ],
            [
              116.34959728,
              39.96708441
            ],
            [
              116.34960522,
              39.96707722
            ],
            [
              116.34961241,
              39.96706928
            ],
            [
              116.3496188,
              39.96706067
            ],
            [
              116.34962431,
              39.96705148
            ],
            [
              116.34962889,
              39.96704179
            ],
            [
              116.3496325,
              39.9670317
            ],
            [
              116.3496351,
              39.9670213
            ],
            [
              116.34963667,
              39.9670107
            ],
            [
              116.3496372,
              39.967
            ],
            [
              116.34963667,
              39.9669893
            ]
          ]
        ]
      }
    },
    {
      "type": "Feature",
      "id": "PUBLIC-006",
      "properties": {
        "id": "PUBLIC-006",
        "layer": "PUBLIC_SPACE",
        "source_type": "agent_generated_design",
        "confidence": "medium",
        "geometry_role": "design_proposal",
        "land_use_code": "1403",
        "name_zh": "脉冲公共节点 3",
        "node_type": "AI场景与日常服务",
        "public_role": "可解释、可预约、人工复核的公共空间组件",
        "area_sqm_declared": 354.751
      },
      "geometry": {
        "type": "Polygon",
        "coordinates": [
          [
            [
              116.34558067,
              39.9827393
            ],
            [
              116.3455791,
              39.9827287
            ],
            [
              116.3455765,
              39.9827183
            ],
            [
              116.34557289,
              39.98270821
            ],
            [
              116.34556831,
              39.98269852
            ],
            [
              116.3455628,
              39.98268933
            ],
            [
              116.34555641,
              39.98268072
            ],
            [
              116.34554922,
              39.98267278
            ],
            [
              116.34554128,
              39.98266559
            ],
            [
              116.34553267,
              39.9826592
            ],
            [
              116.34552348,
              39.98265369
            ],
            [
              116.34551379,
              39.98264911
            ],
            [
              116.3455037,
              39.9826455
            ],
            [
              116.3454933,
              39.9826429
            ],
            [
              116.3454827,
              39.98264133
            ],
            [
              116.345472,
              39.9826408
            ],
            [
              116.3454613,
              39.98264133
            ],
            [
              116.3454507,
              39.9826429
            ],
            [
              116.3454403,
              39.9826455
            ],
            [
              116.34543021,
              39.98264911
            ],
            [
              116.34542052,
              39.98265369
            ],
            [
              116.34541133,
              39.9826592
            ],
            [
              116.34540272,
              39.98266559
            ],
            [
              116.34539478,
              39.98267278
            ],
            [
              116.34538759,
              39.98268072
            ],
            [
              116.3453812,
              39.98268933
            ],
            [
              116.34537569,
              39.98269852
            ],
            [
              116.34537111,
              39.98270821
            ],
            [
              116.3453675,
              39.9827183
            ],
            [
              116.3453649,
              39.9827287
            ],
            [
              116.34536333,
              39.9827393
            ],
            [
              116.3453628,
              39.98275
            ],
            [
              116.34536333,
              39.9827607
            ],
            [
              116.3453649,
              39.9827713
            ],
            [
              116.3453675,
              39.9827817
            ],
            [
              116.34537111,
              39.98279179
            ],
            [
              116.34537569,
              39.98280148
            ],
            [
              116.3453812,
              39.98281067
            ],
            [
              116.34538759,
              39.98281928
            ],
            [
              116.34539478,
              39.98282722
            ],
            [
              116.34540272,
              39.98283441
            ],
            [
              116.34541133,
              39.9828408
            ],
            [
              116.34542052,
              39.98284631
            ],
            [
              116.34543021,
              39.98285089
            ],
            [
              116.3454403,
              39.9828545
            ],
            [
              116.3454507,
              39.9828571
            ],
            [
              116.3454613,
              39.98285867
            ],
            [
              116.345472,
              39.9828592
            ],
            [
              116.3454827,
              39.98285867
            ],
            [
              116.3454933,
              39.9828571
            ],
            [
              116.3455037,
              39.9828545
            ],
            [
              116.34551379,
              39.98285089
            ],
            [
              116.34552348,
              39.98284631
            ],
            [
              116.34553267,
              39.9828408
            ],
            [
              116.34554128,
              39.98283441
            ],
            [
              116.34554922,
              39.98282722
            ],
            [
              116.34555641,
              39.98281928
            ],
            [
              116.3455628,
              39.98281067
            ],
            [
              116.34556831,
              39.98280148
            ],
            [
              116.34557289,
              39.98279179
            ],
            [
              116.3455765,
              39.9827817
            ],
            [
              116.3455791,
              39.9827713
            ],
            [
              116.34558067,
              39.9827607
            ],
            [
              116.3455812,
              39.98275
            ],
            [
              116.34558067,
              39.9827393
            ]
          ]
        ]
      }
    },
    {
      "type": "Feature",
      "id": "PUBLIC-007",
      "properties": {
        "id": "PUBLIC-007",
        "layer": "PUBLIC_SPACE",
        "source_type": "agent_generated_design",
        "confidence": "medium",
        "geometry_role": "design_proposal",
        "land_use_code": "1403",
        "name_zh": "脉冲公共节点 4",
        "node_type": "AI场景与日常服务",
        "public_role": "可解释、可预约、人工复核的公共空间组件",
        "area_sqm_declared": 354.67
      },
      "geometry": {
        "type": "Polygon",
        "coordinates": [
          [
            [
              116.34963667,
              39.9984893
            ],
            [
              116.3496351,
              39.9984787
            ],
            [
              116.3496325,
              39.9984683
            ],
            [
              116.34962889,
              39.99845821
            ],
            [
              116.34962431,
              39.99844852
            ],
            [
              116.3496188,
              39.99843933
            ],
            [
              116.34961241,
              39.99843072
            ],
            [
              116.34960522,
              39.99842278
            ],
            [
              116.34959728,
              39.99841559
            ],
            [
              116.34958867,
              39.9984092
            ],
            [
              116.34957948,
              39.99840369
            ],
            [
              116.34956979,
              39.99839911
            ],
            [
              116.3495597,
              39.9983955
            ],
            [
              116.3495493,
              39.9983929
            ],
            [
              116.3495387,
              39.99839133
            ],
            [
              116.349528,
              39.9983908
            ],
            [
              116.3495173,
              39.99839133
            ],
            [
              116.3495067,
              39.9983929
            ],
            [
              116.3494963,
              39.9983955
            ],
            [
              116.34948621,
              39.99839911
            ],
            [
              116.34947652,
              39.99840369
            ],
            [
              116.34946733,
              39.9984092
            ],
            [
              116.34945872,
              39.99841559
            ],
            [
              116.34945078,
              39.99842278
            ],
            [
              116.34944359,
              39.99843072
            ],
            [
              116.3494372,
              39.99843933
            ],
            [
              116.34943169,
              39.99844852
            ],
            [
              116.34942711,
              39.99845821
            ],
            [
              116.3494235,
              39.9984683
            ],
            [
              116.3494209,
              39.9984787
            ],
            [
              116.34941933,
              39.9984893
            ],
            [
              116.3494188,
              39.9985
            ],
            [
              116.34941933,
              39.9985107
            ],
            [
              116.3494209,
              39.9985213
            ],
            [
              116.3494235,
              39.9985317
            ],
            [
              116.34942711,
              39.99854179
            ],
            [
              116.34943169,
              39.99855148
            ],
            [
              116.3494372,
              39.99856067
            ],
            [
              116.34944359,
              39.99856928
            ],
            [
              116.34945078,
              39.99857722
            ],
            [
              116.34945872,
              39.99858441
            ],
            [
              116.34946733,
              39.9985908
            ],
            [
              116.34947652,
              39.99859631
            ],
            [
              116.34948621,
              39.99860089
            ],
            [
              116.3494963,
              39.9986045
            ],
            [
              116.3495067,
              39.9986071
            ],
            [
              116.3495173,
              39.99860867
            ],
            [
              116.349528,
              39.9986092
            ],
            [
              116.3495387,
              39.99860867
            ],
            [
              116.3495493,
              39.9986071
            ],
            [
              116.3495597,
              39.9986045
            ],
            [
              116.34956979,
              39.99860089
            ],
            [
              116.34957948,
              39.99859631
            ],
            [
              116.34958867,
              39.9985908
            ],
            [
              116.34959728,
              39.99858441
            ],
            [
              116.34960522,
              39.99857722
            ],
            [
              116.34961241,
              39.99856928
            ],
            [
              116.3496188,
              39.99856067
            ],
            [
              116.34962431,
              39.99855148
            ],
            [
              116.34962889,
              39.99854179
            ],
            [
              116.3496325,
              39.9985317
            ],
            [
              116.3496351,
              39.9985213
            ],
            [
              116.34963667,
              39.9985107
            ],
            [
              116.3496372,
              39.9985
            ],
            [
              116.34963667,
              39.9984893
            ]
          ]
        ]
      }
    },
    {
      "type": "Feature",
      "id": "PUBLIC-008",
      "properties": {
        "id": "PUBLIC-008",
        "layer": "PUBLIC_SPACE",
        "source_type": "agent_generated_design",
        "confidence": "medium",
        "geometry_role": "design_proposal",
        "land_use_code": "1403",
        "name_zh": "脉冲公共节点 5",
        "node_type": "AI场景与日常服务",
        "public_role": "可解释、可预约、人工复核的公共空间组件",
        "area_sqm_declared": 354.581
      },
      "geometry": {
        "type": "Polygon",
        "coordinates": [
          [
            [
              116.34558067,
              40.0159893
            ],
            [
              116.3455791,
              40.0159787
            ],
            [
              116.3455765,
              40.0159683
            ],
            [
              116.34557289,
              40.01595821
            ],
            [
              116.34556831,
              40.01594852
            ],
            [
              116.3455628,
              40.01593933
            ],
            [
              116.34555641,
              40.01593072
            ],
            [
              116.34554922,
              40.01592278
            ],
            [
              116.34554128,
              40.01591559
            ],
            [
              116.34553267,
              40.0159092
            ],
            [
              116.34552348,
              40.01590369
            ],
            [
              116.34551379,
              40.01589911
            ],
            [
              116.3455037,
              40.0158955
            ],
            [
              116.3454933,
              40.0158929
            ],
            [
              116.3454827,
              40.01589133
            ],
            [
              116.345472,
              40.0158908
            ],
            [
              116.3454613,
              40.01589133
            ],
            [
              116.3454507,
              40.0158929
            ],
            [
              116.3454403,
              40.0158955
            ],
            [
              116.34543021,
              40.01589911
            ],
            [
              116.34542052,
              40.01590369
            ],
            [
              116.34541133,
              40.0159092
            ],
            [
              116.34540272,
              40.01591559
            ],
            [
              116.34539478,
              40.01592278
            ],
            [
              116.34538759,
              40.01593072
            ],
            [
              116.3453812,
              40.01593933
            ],
            [
              116.34537569,
              40.01594852
            ],
            [
              116.34537111,
              40.01595821
            ],
            [
              116.3453675,
              40.0159683
            ],
            [
              116.3453649,
              40.0159787
            ],
            [
              116.34536333,
              40.0159893
            ],
            [
              116.3453628,
              40.016
            ],
            [
              116.34536333,
              40.0160107
            ],
            [
              116.3453649,
              40.0160213
            ],
            [
              116.3453675,
              40.0160317
            ],
            [
              116.34537111,
              40.01604179
            ],
            [
              116.34537569,
              40.01605148
            ],
            [
              116.3453812,
              40.01606067
            ],
            [
              116.34538759,
              40.01606928
            ],
            [
              116.34539478,
              40.01607722
            ],
            [
              116.34540272,
              40.01608441
            ],
            [
              116.34541133,
              40.0160908
            ],
            [
              116.34542052,
              40.01609631
            ],
            [
              116.34543021,
              40.01610089
            ],
            [
              116.3454403,
              40.0161045
            ],
            [
              116.3454507,
              40.0161071
            ],
            [
              116.3454613,
              40.01610867
            ],
            [
              116.345472,
              40.0161092
            ],
            [
              116.3454827,
              40.01610867
            ],
            [
              116.3454933,
              40.0161071
            ],
            [
              116.3455037,
              40.0161045
            ],
            [
              116.34551379,
              40.01610089
            ],
            [
              116.34552348,
              40.01609631
            ],
            [
              116.34553267,
              40.0160908
            ],
            [
              116.34554128,
              40.01608441
            ],
            [
              116.34554922,
              40.01607722
            ],
            [
              116.34555641,
              40.01606928
            ],
            [
              116.3455628,
              40.01606067
            ],
            [
              116.34556831,
              40.01605148
            ],
            [
              116.34557289,
              40.01604179
            ],
            [
              116.3455765,
              40.0160317
            ],
            [
              116.3455791,
              40.0160213
            ],
            [
              116.34558067,
              40.0160107
            ],
            [
              116.3455812,
              40.016
            ],
            [
              116.34558067,
              40.0159893
            ]
          ]
        ]
      }
    }
  ]
}
