{
  "type": "FeatureCollection",
  "name": "public_space",
  "metadata": {
    "crs": "EPSG:4326"
  },
  "features": [
    {
      "type": "Feature",
      "id": "PUBLIC-001",
      "properties": {
        "id": "PUBLIC-001",
        "layer": "PUBLIC_SPACE",
        "source_type": "agent_generated_design",
        "confidence": "medium",
        "geometry_role": "design_proposal",
        "name_zh": "公共空间1"
      },
      "geometry": {
        "type": "Polygon",
        "coordinates": [
          [
            [
              116.347,
              40.012
            ],
            [
              116.35,
              40.012
            ],
            [
              116.35,
              40.015
            ],
            [
              116.347,
              40.015
            ],
            [
              116.347,
              40.012
            ]
          ]
        ]
      }
    },
    {
      "type": "Feature",
      "id": "PUBLIC-002",
      "properties": {
        "id": "PUBLIC-002",
        "layer": "PUBLIC_SPACE",
        "source_type": "agent_generated_design",
        "confidence": "medium",
        "geometry_role": "design_proposal",
        "name_zh": "公共空间2"
      },
      "geometry": {
        "type": "Polygon",
        "coordinates": [
          [
            [
              116.345,
              39.986
            ],
            [
              116.348,
              39.986
            ],
            [
              116.348,
              39.989
            ],
            [
              116.345,
              39.989
            ],
            [
              116.345,
              39.986
            ]
          ]
        ]
      }
    },
    {
      "type": "Feature",
      "id": "PUBLIC-003",
      "properties": {
        "id": "PUBLIC-003",
        "layer": "PUBLIC_SPACE",
        "source_type": "agent_generated_design",
        "confidence": "medium",
        "geometry_role": "design_proposal",
        "name_zh": "公共空间3"
      },
      "geometry": {
        "type": "Polygon",
        "coordinates": [
          [
            [
              116.345,
              39.946
            ],
            [
              116.349,
              39.946
            ],
            [
              116.349,
              39.948
            ],
            [
              116.345,
              39.948
            ],
            [
              116.345,
              39.946
            ]
          ]
        ]
      }
    }
  ]
}