{
  "type": "FeatureCollection",
  "name": "buildings_design",
  "features": [
    {
      "type": "Feature",
      "id": "BLDG-001",
      "properties": {
        "id": "BLDG-001",
        "layer": "BUILDING_FOOTPRINT",
        "source_type": "agent_generated_design",
        "confidence": "medium",
        "geometry_role": "design_proposal",
        "building_type": "ai_r_and_d",
        "name_zh": "AI研发示范建筑",
        "area_sqm_declared": 103523.961
      },
      "geometry": {
        "type": "Polygon",
        "coordinates": [
          [
            [
              116.34500399999999,
              40.012499999999996
            ],
            [
              116.34500399999999,
              40.0195
            ],
            [
              116.346564,
              40.0195
            ],
            [
              116.346564,
              40.012499999999996
            ],
            [
              116.34500399999999,
              40.012499999999996
            ]
          ]
        ]
      }
    },
    {
      "type": "Feature",
      "id": "BLDG-002",
      "properties": {
        "id": "BLDG-002",
        "layer": "BUILDING_FOOTPRINT",
        "source_type": "agent_generated_design",
        "confidence": "medium",
        "geometry_role": "design_proposal",
        "building_type": "ai_r_and_d",
        "name_zh": "产业服务综合体",
        "area_sqm_declared": 82837.978
      },
      "geometry": {
        "type": "Polygon",
        "coordinates": [
          [
            [
              116.345316,
              39.99675
            ],
            [
              116.345316,
              40.00375
            ],
            [
              116.346564,
              40.00375
            ],
            [
              116.346564,
              39.99675
            ],
            [
              116.345316,
              39.99675
            ]
          ]
        ]
      }
    },
    {
      "type": "Feature",
      "id": "BLDG-003",
      "properties": {
        "id": "BLDG-003",
        "layer": "BUILDING_FOOTPRINT",
        "source_type": "agent_generated_design",
        "confidence": "medium",
        "geometry_role": "design_proposal",
        "building_type": "mixed_use",
        "name_zh": "更新混合功能体",
        "area_sqm_declared": 82865.098
      },
      "geometry": {
        "type": "Polygon",
        "coordinates": [
          [
            [
              116.3475,
              39.974
            ],
            [
              116.3475,
              39.981
            ],
            [
              116.348748,
              39.981
            ],
            [
              116.348748,
              39.974
            ],
            [
              116.3475,
              39.974
            ]
          ]
        ]
      }
    },
    {
      "type": "Feature",
      "id": "BLDG-004",
      "properties": {
        "id": "BLDG-004",
        "layer": "BUILDING_FOOTPRINT",
        "source_type": "agent_generated_design",
        "confidence": "medium",
        "geometry_role": "design_proposal",
        "building_type": "retail",
        "name_zh": "大钟寺商业界面",
        "area_sqm_declared": 82885.935
      },
      "geometry": {
        "type": "Polygon",
        "coordinates": [
          [
            [
              116.349996,
              39.9565
            ],
            [
              116.349996,
              39.963499999999996
            ],
            [
              116.351244,
              39.963499999999996
            ],
            [
              116.351244,
              39.9565
            ],
            [
              116.349996,
              39.9565
            ]
          ]
        ]
      }
    },
    {
      "type": "Feature",
      "id": "BLDG-005",
      "properties": {
        "id": "BLDG-005",
        "layer": "BUILDING_FOOTPRINT",
        "source_type": "agent_generated_design",
        "confidence": "medium",
        "geometry_role": "design_proposal",
        "building_type": "community_service",
        "name_zh": "社区服务中心",
        "area_sqm_declared": 82894.445
      },
      "geometry": {
        "type": "Polygon",
        "coordinates": [
          [
            [
              116.341884,
              39.9495
            ],
            [
              116.341884,
              39.9565
            ],
            [
              116.343132,
              39.9565
            ],
            [
              116.343132,
              39.9495
            ],
            [
              116.341884,
              39.9495
            ]
          ]
        ]
      }
    }
  ]
}
