{
  "type": "FeatureCollection",
  "features": [
    {
      "type": "Feature",
      "id": "roads_ph",
      "properties": {
        "id": "roads_ph",
        "layer": "roads",
        "source_type": "design_proposal",
        "confidence": "low",
        "geometry_role": "design_proposal",
        "notes": "Conceptual placeholder - to be refined with official data",
        "name_zh": "roads"
      },
      "geometry": {
        "type": "Point",
        "coordinates": [
          116.34,
          39.97
        ]
      }
    }
  ]
}