{
 "type": "FeatureCollection",
 "name": "warm_line_public_space",
 "features": [
  {
   "type": "Feature",
   "id": "PUBLIC-001",
   "properties": {
    "id": "PUBLIC-001",
    "layer": "PUBLIC_SPACE",
    "source_type": "agent_generated_design",
    "confidence": "medium",
    "geometry_role": "design_proposal",
    "space_type": "station_forecourt",
    "name_zh": "给算站站前公共空间（概念）",
    "name_en": "Compute Watering Station forecourt (concept)",
    "area_sqm_declared": 3849.1
   },
   "geometry": {
    "type": "Polygon",
    "coordinates": [
     [
      [
       116.344518699,
       39.944210541
      ],
      [
       116.3437796,
       39.94420636
      ],
      [
       116.343774352,
       39.944755707
      ],
      [
       116.344511819,
       39.944759879
      ],
      [
       116.344518699,
       39.944210541
      ]
     ]
    ]
   }
  },
  {
   "type": "Feature",
   "id": "PUBLIC-002",
   "properties": {
    "id": "PUBLIC-002",
    "layer": "PUBLIC_SPACE",
    "source_type": "agent_generated_design",
    "confidence": "medium",
    "geometry_role": "design_proposal",
    "space_type": "station_forecourt",
    "name_zh": "给算站站前公共空间（概念）",
    "name_en": "Compute Watering Station forecourt (concept)",
    "area_sqm_declared": 3836.9
   },
   "geometry": {
    "type": "Polygon",
    "coordinates": [
     [
      [
       116.344502001,
       39.945543361
      ],
      [
       116.344508882,
       39.944994023
      ],
      [
       116.343772115,
       39.944989855
      ],
      [
       116.343766866,
       39.945539203
      ],
      [
       116.344502001,
       39.945543361
      ]
     ]
    ]
   }
  },
  {
   "type": "Feature",
   "id": "PUBLIC-003",
   "properties": {
    "id": "PUBLIC-003",
    "layer": "PUBLIC_SPACE",
    "source_type": "agent_generated_design",
    "confidence": "medium",
    "geometry_role": "design_proposal",
    "space_type": "station_forecourt",
    "name_zh": "给算站站前公共空间（概念）",
    "name_en": "Compute Watering Station forecourt (concept)",
    "area_sqm_declared": 3849.1
   },
   "geometry": {
    "type": "Polygon",
    "coordinates": [
     [
      [
       116.343698146,
       39.950710069
      ],
      [
       116.343692896,
       39.951259416
      ],
      [
       116.344430432,
       39.951263589
      ],
      [
       116.344437315,
       39.950714251
      ],
      [
       116.343698146,
       39.950710069
      ]
     ]
    ]
   }
  },
  {
   "type": "Feature",
   "id": "PUBLIC-004",
   "properties": {
    "id": "PUBLIC-004",
    "layer": "PUBLIC_SPACE",
    "source_type": "agent_generated_design",
    "confidence": "medium",
    "geometry_role": "design_proposal",
    "space_type": "station_forecourt",
    "name_zh": "给算站站前公共空间（概念）",
    "name_en": "Compute Watering Station forecourt (concept)",
    "area_sqm_declared": 3837.332
   },
   "geometry": {
    "type": "Polygon",
    "coordinates": [
     [
      [
       116.344421308,
       39.951998711
      ],
      [
       116.344427612,
       39.951497733
      ],
      [
       116.343690658,
       39.951493564
      ],
      [
       116.343685407,
       39.95204291
      ],
      [
       116.344420261,
       39.952047068
      ],
      [
       116.344421308,
       39.951998711
      ]
     ]
    ]
   }
  },
  {
   "type": "Feature",
   "id": "PUBLIC-005",
   "properties": {
    "id": "PUBLIC-005",
    "layer": "PUBLIC_SPACE",
    "source_type": "agent_generated_design",
    "confidence": "medium",
    "geometry_role": "design_proposal",
    "space_type": "station_forecourt",
    "name_zh": "给算站站前公共空间（概念）",
    "name_en": "Compute Watering Station forecourt (concept)",
    "area_sqm_declared": 3866.485
   },
   "geometry": {
    "type": "Polygon",
    "coordinates": [
     [
      [
       116.343567755,
       39.957213134
      ],
      [
       116.343562502,
       39.95776248
      ],
      [
       116.344301162,
       39.95776666
      ],
      [
       116.344312611,
       39.957217349
      ],
      [
       116.343567755,
       39.957213134
      ]
     ]
    ]
   }
  },
  {
   "type": "Feature",
   "id": "PUBLIC-006",
   "properties": {
    "id": "PUBLIC-006",
    "layer": "PUBLIC_SPACE",
    "source_type": "agent_generated_design",
    "confidence": "medium",
    "geometry_role": "design_proposal",
    "space_type": "station_forecourt",
    "name_zh": "给算站站前公共空间（概念）",
    "name_en": "Compute Watering Station forecourt (concept)",
    "area_sqm_declared": 3820.125
   },
   "geometry": {
    "type": "Polygon",
    "coordinates": [
     [
      [
       116.344284785,
       39.958550103
      ],
      [
       116.344296234,
       39.958000792
      ],
      [
       116.343560264,
       39.957996627
      ],
      [
       116.343555011,
       39.958545973
      ],
      [
       116.344284785,
       39.958550103
      ]
     ]
    ]
   }
  },
  {
   "type": "Feature",
   "id": "PUBLIC-007",
   "properties": {
    "id": "PUBLIC-007",
    "layer": "PUBLIC_SPACE",
    "source_type": "agent_generated_design",
    "confidence": "medium",
    "geometry_role": "design_proposal",
    "space_type": "station_forecourt",
    "name_zh": "给算站站前公共空间（概念）",
    "name_en": "Compute Watering Station forecourt (concept)",
    "area_sqm_declared": 3872.848
   },
   "geometry": {
    "type": "Polygon",
    "coordinates": [
     [
      [
       116.344171293,
       39.963998275
      ],
      [
       116.344177107,
       39.963720468
      ],
      [
       116.343430659,
       39.963716243
      ],
      [
       116.343425404,
       39.964265588
      ],
      [
       116.344164485,
       39.964269772
      ],
      [
       116.344171293,
       39.963998275
      ]
     ]
    ]
   }
  },
  {
   "type": "Feature",
   "id": "PUBLIC-008",
   "properties": {
    "id": "PUBLIC-008",
    "layer": "PUBLIC_SPACE",
    "source_type": "agent_generated_design",
    "confidence": "medium",
    "geometry_role": "design_proposal",
    "space_type": "station_forecourt",
    "name_zh": "给算站站前公共空间（概念）",
    "name_en": "Compute Watering Station forecourt (concept)",
    "area_sqm_declared": 3811.28
   },
   "geometry": {
    "type": "Polygon",
    "coordinates": [
     [
      [
       116.343417909,
       39.965049081
      ],
      [
       116.344144944,
       39.965053196
      ],
      [
       116.34415862,
       39.964503899
      ],
      [
       116.343423165,
       39.964499735
      ],
      [
       116.343417909,
       39.965049081
      ]
     ]
    ]
   }
  },
  {
   "type": "Feature",
   "id": "PUBLIC-009",
   "properties": {
    "id": "PUBLIC-009",
    "layer": "PUBLIC_SPACE",
    "source_type": "agent_generated_design",
    "confidence": "medium",
    "geometry_role": "design_proposal",
    "space_type": "station_forecourt",
    "name_zh": "给算站站前公共空间（概念）",
    "name_en": "Compute Watering Station forecourt (concept)",
    "area_sqm_declared": 3874.415
   },
   "geometry": {
    "type": "Polygon",
    "coordinates": [
     [
      [
       116.343268016,
       39.970218929
      ],
      [
       116.343262758,
       39.970768274
      ],
      [
       116.344001909,
       39.970772459
      ],
      [
       116.344015705,
       39.970223163
      ],
      [
       116.343268016,
       39.970218929
      ]
     ]
    ]
   }
  },
  {
   "type": "Feature",
   "id": "PUBLIC-010",
   "properties": {
    "id": "PUBLIC-010",
    "layer": "PUBLIC_SPACE",
    "source_type": "agent_generated_design",
    "confidence": "medium",
    "geometry_role": "design_proposal",
    "space_type": "station_forecourt",
    "name_zh": "给算站站前公共空间（概念）",
    "name_en": "Compute Watering Station forecourt (concept)",
    "area_sqm_declared": 3811.28
   },
   "geometry": {
    "type": "Polygon",
    "coordinates": [
     [
      [
       116.343982363,
       39.971555883
      ],
      [
       116.343996042,
       39.971006586
      ],
      [
       116.343260517,
       39.971002421
      ],
      [
       116.34325526,
       39.971551766
      ],
      [
       116.343982363,
       39.971555883
      ]
     ]
    ]
   }
  },
  {
   "type": "Feature",
   "id": "PUBLIC-011",
   "properties": {
    "id": "PUBLIC-011",
    "layer": "PUBLIC_SPACE",
    "source_type": "agent_generated_design",
    "confidence": "medium",
    "geometry_role": "design_proposal",
    "space_type": "station_forecourt",
    "name_zh": "给算站站前公共空间（概念）",
    "name_en": "Compute Watering Station forecourt (concept)",
    "area_sqm_declared": 3874.72
   },
   "geometry": {
    "type": "Polygon",
    "coordinates": [
     [
      [
       116.344992817,
       39.971012223
      ],
      [
       116.344253546,
       39.971008043
      ],
      [
       116.344239869,
       39.97155734
      ],
      [
       116.344987573,
       39.971561568
      ],
      [
       116.344992817,
       39.971012223
      ]
     ]
    ]
   }
  },
  {
   "type": "Feature",
   "id": "PUBLIC-012",
   "properties": {
    "id": "PUBLIC-012",
    "layer": "PUBLIC_SPACE",
    "source_type": "agent_generated_design",
    "confidence": "medium",
    "geometry_role": "design_proposal",
    "space_type": "station_forecourt",
    "name_zh": "给算站站前公共空间（概念）",
    "name_en": "Compute Watering Station forecourt (concept)",
    "area_sqm_declared": 3738.08
   },
   "geometry": {
    "type": "Polygon",
    "coordinates": [
     [
      [
       116.343198169,
       39.976721144
      ],
      [
       116.343192909,
       39.977270488
      ],
      [
       116.343924287,
       39.97727463
      ],
      [
       116.343901447,
       39.976725127
      ],
      [
       116.343198169,
       39.976721144
      ]
     ]
    ]
   }
  },
  {
   "type": "Feature",
   "id": "PUBLIC-013",
   "properties": {
    "id": "PUBLIC-013",
    "layer": "PUBLIC_SPACE",
    "source_type": "agent_generated_design",
    "confidence": "medium",
    "geometry_role": "design_proposal",
    "space_type": "station_forecourt",
    "name_zh": "给算站站前公共空间（概念）",
    "name_en": "Compute Watering Station forecourt (concept)",
    "area_sqm_declared": 3947.005
   },
   "geometry": {
    "type": "Polygon",
    "coordinates": [
     [
      [
       116.344930612,
       39.976730947
      ],
      [
       116.344159089,
       39.976726585
      ],
      [
       116.344182049,
       39.977276089
      ],
      [
       116.344925367,
       39.977280292
      ],
      [
       116.344930612,
       39.976730947
      ]
     ]
    ]
   }
  },
  {
   "type": "Feature",
   "id": "PUBLIC-014",
   "properties": {
    "id": "PUBLIC-014",
    "layer": "PUBLIC_SPACE",
    "source_type": "agent_generated_design",
    "confidence": "medium",
    "geometry_role": "design_proposal",
    "space_type": "station_forecourt",
    "name_zh": "给算站站前公共空间（概念）",
    "name_en": "Compute Watering Station forecourt (concept)",
    "area_sqm_declared": 3947.005
   },
   "geometry": {
    "type": "Polygon",
    "coordinates": [
     [
      [
       116.343190668,
       39.977504635
      ],
      [
       116.343185408,
       39.978053979
      ],
      [
       116.343956946,
       39.978058348
      ],
      [
       116.343933988,
       39.977508844
      ],
      [
       116.343190668,
       39.977504635
      ]
     ]
    ]
   }
  },
  {
   "type": "Feature",
   "id": "PUBLIC-015",
   "properties": {
    "id": "PUBLIC-015",
    "layer": "PUBLIC_SPACE",
    "source_type": "agent_generated_design",
    "confidence": "medium",
    "geometry_role": "design_proposal",
    "space_type": "station_forecourt",
    "name_zh": "给算站站前公共空间（概念）",
    "name_en": "Compute Watering Station forecourt (concept)",
    "area_sqm_declared": 3738.08
   },
   "geometry": {
    "type": "Polygon",
    "coordinates": [
     [
      [
       116.343468885,
       39.983221678
      ],
      [
       116.343463627,
       39.983771021
      ],
      [
       116.344195074,
       39.983775162
      ],
      [
       116.34417223,
       39.98322566
      ],
      [
       116.343468885,
       39.983221678
      ]
     ]
    ]
   }
  },
  {
   "type": "Feature",
   "id": "PUBLIC-016",
   "properties": {
    "id": "PUBLIC-016",
    "layer": "PUBLIC_SPACE",
    "source_type": "agent_generated_design",
    "confidence": "medium",
    "geometry_role": "design_proposal",
    "space_type": "station_forecourt",
    "name_zh": "给算站站前公共空间（概念）",
    "name_en": "Compute Watering Station forecourt (concept)",
    "area_sqm_declared": 3947.31
   },
   "geometry": {
    "type": "Polygon",
    "coordinates": [
     [
      [
       116.344227738,
       39.984558879
      ],
      [
       116.344204894,
       39.984009377
      ],
      [
       116.343461386,
       39.984005168
      ],
      [
       116.343456127,
       39.984554511
      ],
      [
       116.344227738,
       39.984558879
      ]
     ]
    ]
   }
  },
  {
   "type": "Feature",
   "id": "PUBLIC-017",
   "properties": {
    "id": "PUBLIC-017",
    "layer": "PUBLIC_SPACE",
    "source_type": "agent_generated_design",
    "confidence": "medium",
    "geometry_role": "design_proposal",
    "space_type": "station_forecourt",
    "name_zh": "给算站站前公共空间（概念）",
    "name_en": "Compute Watering Station forecourt (concept)",
    "area_sqm_declared": 3686.23
   },
   "geometry": {
    "type": "Polygon",
    "coordinates": [
     [
      [
       116.344485929,
       39.989724176
      ],
      [
       116.343799377,
       39.989720291
      ],
      [
       116.34379412,
       39.990269634
      ],
      [
       116.344522593,
       39.990273756
      ],
      [
       116.344485929,
       39.989724176
      ]
     ]
    ]
   }
  },
  {
   "type": "Feature",
   "id": "PUBLIC-018",
   "properties": {
    "id": "PUBLIC-018",
    "layer": "PUBLIC_SPACE",
    "source_type": "agent_generated_design",
    "confidence": "medium",
    "geometry_role": "design_proposal",
    "space_type": "station_forecourt",
    "name_zh": "给算站站前公共空间（概念）",
    "name_en": "Compute Watering Station forecourt (concept)",
    "area_sqm_declared": 3997.94
   },
   "geometry": {
    "type": "Polygon",
    "coordinates": [
     [
      [
       116.344574932,
       39.991057584
      ],
      [
       116.344538268,
       39.990508004
      ],
      [
       116.343791879,
       39.99050378
      ],
      [
       116.343786622,
       39.991053123
      ],
      [
       116.344574932,
       39.991057584
      ]
     ]
    ]
   }
  },
  {
   "type": "Feature",
   "id": "PUBLIC-019",
   "properties": {
    "id": "PUBLIC-019",
    "layer": "PUBLIC_SPACE",
    "source_type": "agent_generated_design",
    "confidence": "medium",
    "geometry_role": "design_proposal",
    "space_type": "station_forecourt",
    "name_zh": "给算站站前公共空间（概念）",
    "name_en": "Compute Watering Station forecourt (concept)",
    "area_sqm_declared": 3836.9
   },
   "geometry": {
    "type": "Polygon",
    "coordinates": [
     [
      [
       116.345511224,
       39.944216148
      ],
      [
       116.344776103,
       39.944211996
      ],
      [
       116.344769224,
       39.944761334
      ],
      [
       116.345505989,
       39.944765496
      ],
      [
       116.345511224,
       39.944216148
      ]
     ]
    ]
   }
  },
  {
   "type": "Feature",
   "id": "PUBLIC-020",
   "properties": {
    "id": "PUBLIC-020",
    "layer": "PUBLIC_SPACE",
    "source_type": "agent_generated_design",
    "confidence": "medium",
    "geometry_role": "design_proposal",
    "space_type": "station_forecourt",
    "name_zh": "给算站站前公共空间（概念）",
    "name_en": "Compute Watering Station forecourt (concept)",
    "area_sqm_declared": 3849.1
   },
   "geometry": {
    "type": "Polygon",
    "coordinates": [
     [
      [
       116.34475941,
       39.945544816
      ],
      [
       116.345498523,
       39.945548991
      ],
      [
       116.345503758,
       39.944999644
      ],
      [
       116.344766289,
       39.944995478
      ],
      [
       116.34475941,
       39.945544816
      ]
     ]
    ]
   }
  },
  {
   "type": "Feature",
   "id": "PUBLIC-021",
   "properties": {
    "id": "PUBLIC-021",
    "layer": "PUBLIC_SPACE",
    "source_type": "agent_generated_design",
    "confidence": "medium",
    "geometry_role": "design_proposal",
    "space_type": "station_forecourt",
    "name_zh": "给算站站前公共空间（概念）",
    "name_en": "Compute Watering Station forecourt (concept)",
    "area_sqm_declared": 3836.9
   },
   "geometry": {
    "type": "Polygon",
    "coordinates": [
     [
      [
       116.345429934,
       39.95071986
      ],
      [
       116.344694743,
       39.950715707
      ],
      [
       116.344687862,
       39.951265044
      ],
      [
       116.345424697,
       39.951269207
      ],
      [
       116.345429934,
       39.95071986
      ]
     ]
    ]
   }
  },
  {
   "type": "Feature",
   "id": "PUBLIC-022",
   "properties": {
    "id": "PUBLIC-022",
    "layer": "PUBLIC_SPACE",
    "source_type": "agent_generated_design",
    "confidence": "medium",
    "geometry_role": "design_proposal",
    "space_type": "station_forecourt",
    "name_zh": "给算站站前公共空间（概念）",
    "name_en": "Compute Watering Station forecourt (concept)",
    "area_sqm_declared": 3848.658
   },
   "geometry": {
    "type": "Polygon",
    "coordinates": [
     [
      [
       116.344677694,
       39.952048524
      ],
      [
       116.345417228,
       39.952052702
      ],
      [
       116.345422465,
       39.951503355
      ],
      [
       116.344685043,
       39.951499189
      ],
      [
       116.344678733,
       39.952000977
      ],
      [
       116.344678727,
       39.952001607
      ],
      [
       116.344677694,
       39.952048524
      ]
     ]
    ]
   }
  },
  {
   "type": "Feature",
   "id": "PUBLIC-023",
   "properties": {
    "id": "PUBLIC-023",
    "layer": "PUBLIC_SPACE",
    "source_type": "agent_generated_design",
    "confidence": "medium",
    "geometry_role": "design_proposal",
    "space_type": "station_forecourt",
    "name_zh": "给算站站前公共空间（概念）",
    "name_en": "Compute Watering Station forecourt (concept)",
    "area_sqm_declared": 3819.515
   },
   "geometry": {
    "type": "Polygon",
    "coordinates": [
     [
      [
       116.345299707,
       39.957222928
      ],
      [
       116.344570064,
       39.957218805
      ],
      [
       116.344558617,
       39.957768116
      ],
      [
       116.345294468,
       39.957772274
      ],
      [
       116.345299707,
       39.957222928
      ]
     ]
    ]
   }
  },
  {
   "type": "Feature",
   "id": "PUBLIC-024",
   "properties": {
    "id": "PUBLIC-024",
    "layer": "PUBLIC_SPACE",
    "source_type": "agent_generated_design",
    "confidence": "medium",
    "geometry_role": "design_proposal",
    "space_type": "station_forecourt",
    "name_zh": "给算站站前公共空间（概念）",
    "name_en": "Compute Watering Station forecourt (concept)",
    "area_sqm_declared": 3865.875
   },
   "geometry": {
    "type": "Polygon",
    "coordinates": [
     [
      [
       116.345292235,
       39.958006422
      ],
      [
       116.34455369,
       39.958002248
      ],
      [
       116.344542242,
       39.958551559
      ],
      [
       116.345286996,
       39.958555768
      ],
      [
       116.345292235,
       39.958006422
      ]
     ]
    ]
   }
  },
  {
   "type": "Feature",
   "id": "PUBLIC-025",
   "properties": {
    "id": "PUBLIC-025",
    "layer": "PUBLIC_SPACE",
    "source_type": "agent_generated_design",
    "confidence": "medium",
    "geometry_role": "design_proposal",
    "space_type": "station_forecourt",
    "name_zh": "给算站站前公共空间（概念）",
    "name_en": "Compute Watering Station forecourt (concept)",
    "area_sqm_declared": 3813.081
   },
   "geometry": {
    "type": "Polygon",
    "coordinates": [
     [
      [
       116.344421964,
       39.964271228
      ],
      [
       116.345157534,
       39.964275386
      ],
      [
       116.345162775,
       39.96372604
      ],
      [
       116.344434584,
       39.963721924
      ],
      [
       116.344428753,
       39.964001622
      ],
      [
       116.34442875,
       39.964001893
      ],
      [
       116.344421964,
       39.964271228
      ]
     ]
    ]
   }
  },
  {
   "type": "Feature",
   "id": "PUBLIC-026",
   "properties": {
    "id": "PUBLIC-026",
    "layer": "PUBLIC_SPACE",
    "source_type": "agent_generated_design",
    "confidence": "medium",
    "geometry_role": "design_proposal",
    "space_type": "station_forecourt",
    "name_zh": "给算站站前公共空间（概念）",
    "name_en": "Compute Watering Station forecourt (concept)",
    "area_sqm_declared": 3874.72
   },
   "geometry": {
    "type": "Polygon",
    "coordinates": [
     [
      [
       116.345150059,
       39.965058879
      ],
      [
       116.3451553,
       39.964509533
      ],
      [
       116.344416099,
       39.964505355
      ],
      [
       116.344402425,
       39.965054653
      ],
      [
       116.345150059,
       39.965058879
      ]
     ]
    ]
   }
  },
  {
   "type": "Feature",
   "id": "PUBLIC-027",
   "properties": {
    "id": "PUBLIC-027",
    "layer": "PUBLIC_SPACE",
    "source_type": "agent_generated_design",
    "confidence": "medium",
    "geometry_role": "design_proposal",
    "space_type": "station_forecourt",
    "name_zh": "给算站站前公共空间（概念）",
    "name_en": "Compute Watering Station forecourt (concept)",
    "area_sqm_declared": 3811.585
   },
   "geometry": {
    "type": "Polygon",
    "coordinates": [
     [
      [
       116.344995052,
       39.970778076
      ],
      [
       116.345000295,
       39.970228731
      ],
      [
       116.344273206,
       39.97022462
      ],
      [
       116.344259412,
       39.970773916
      ],
      [
       116.344995052,
       39.970778076
      ]
     ]
    ]
   }
  },
  {
   "type": "Feature",
   "id": "PUBLIC-028",
   "properties": {
    "id": "PUBLIC-028",
    "layer": "PUBLIC_SPACE",
    "source_type": "agent_generated_design",
    "confidence": "medium",
    "geometry_role": "design_proposal",
    "space_type": "station_forecourt",
    "name_zh": "给算站站前公共空间（概念）",
    "name_en": "Compute Watering Station forecourt (concept)",
    "area_sqm_declared": 3737.775
   },
   "geometry": {
    "type": "Polygon",
    "coordinates": [
     [
      [
       116.344917886,
       39.978063783
      ],
      [
       116.344923131,
       39.977514439
      ],
      [
       116.344191751,
       39.977510303
      ],
      [
       116.34421471,
       39.978059807
      ],
      [
       116.344917886,
       39.978063783
      ]
     ]
    ]
   }
  },
  {
   "type": "Feature",
   "id": "PUBLIC-029",
   "properties": {
    "id": "PUBLIC-029",
    "layer": "PUBLIC_SPACE",
    "source_type": "agent_generated_design",
    "confidence": "medium",
    "geometry_role": "design_proposal",
    "space_type": "station_forecourt",
    "name_zh": "给算站站前公共空间（概念）",
    "name_en": "Compute Watering Station forecourt (concept)",
    "area_sqm_declared": 3947.005
   },
   "geometry": {
    "type": "Polygon",
    "coordinates": [
     [
      [
       116.345201493,
       39.983231479
      ],
      [
       116.344429897,
       39.983227117
      ],
      [
       116.34445286,
       39.983776621
      ],
      [
       116.345196249,
       39.983780823
      ],
      [
       116.345201493,
       39.983231479
      ]
     ]
    ]
   }
  },
  {
   "type": "Feature",
   "id": "PUBLIC-030",
   "properties": {
    "id": "PUBLIC-030",
    "layer": "PUBLIC_SPACE",
    "source_type": "agent_generated_design",
    "confidence": "medium",
    "geometry_role": "design_proposal",
    "space_type": "station_forecourt",
    "name_zh": "给算站站前公共空间（概念）",
    "name_en": "Compute Watering Station forecourt (concept)",
    "area_sqm_declared": 3737.775
   },
   "geometry": {
    "type": "Polygon",
    "coordinates": [
     [
      [
       116.344485527,
       39.984560338
      ],
      [
       116.345188769,
       39.984564313
      ],
      [
       116.345194014,
       39.984014969
      ],
      [
       116.344462564,
       39.984010835
      ],
      [
       116.344485527,
       39.984560338
      ]
     ]
    ]
   }
  },
  {
   "type": "Feature",
   "id": "PUBLIC-031",
   "properties": {
    "id": "PUBLIC-031",
    "layer": "PUBLIC_SPACE",
    "source_type": "agent_generated_design",
    "confidence": "medium",
    "geometry_role": "design_proposal",
    "space_type": "station_forecourt",
    "name_zh": "给算站站前公共空间（概念）",
    "name_en": "Compute Watering Station forecourt (concept)",
    "area_sqm_declared": 3997.33
   },
   "geometry": {
    "type": "Polygon",
    "coordinates": [
     [
      [
       116.345532149,
       39.989730089
      ],
      [
       116.344743972,
       39.989725635
      ],
      [
       116.344780637,
       39.990275215
      ],
      [
       116.345526906,
       39.990279432
      ],
      [
       116.345532149,
       39.989730089
      ]
     ]
    ]
   }
  },
  {
   "type": "Feature",
   "id": "PUBLIC-032",
   "properties": {
    "id": "PUBLIC-032",
    "layer": "PUBLIC_SPACE",
    "source_type": "agent_generated_design",
    "confidence": "medium",
    "geometry_role": "design_proposal",
    "space_type": "station_forecourt",
    "name_zh": "给算站站前公共空间（概念）",
    "name_en": "Compute Watering Station forecourt (concept)",
    "area_sqm_declared": 3686.23
   },
   "geometry": {
    "type": "Polygon",
    "coordinates": [
     [
      [
       116.345519428,
       39.991062921
      ],
      [
       116.345524672,
       39.990513578
      ],
      [
       116.344796196,
       39.990509462
      ],
      [
       116.344832862,
       39.991059042
      ],
      [
       116.345519428,
       39.991062921
      ]
     ]
    ]
   }
  },
  {
   "type": "Feature",
   "id": "PUBLIC-033",
   "properties": {
    "id": "PUBLIC-033",
    "layer": "PUBLIC_SPACE",
    "source_type": "agent_generated_design",
    "confidence": "medium",
    "geometry_role": "design_proposal",
    "space_type": "station_forecourt",
    "name_zh": "给算站站前公共空间（概念）",
    "name_en": "Compute Watering Station forecourt (concept)",
    "area_sqm_declared": 3686.23
   },
   "geometry": {
    "type": "Polygon",
    "coordinates": [
     [
      [
       116.344918913,
       39.996219577
      ],
      [
       116.344232296,
       39.996215694
      ],
      [
       116.344227041,
       39.996765036
      ],
      [
       116.344955583,
       39.996769156
      ],
      [
       116.344918913,
       39.996219577
      ]
     ]
    ]
   }
  },
  {
   "type": "Feature",
   "id": "PUBLIC-034",
   "properties": {
    "id": "PUBLIC-034",
    "layer": "PUBLIC_SPACE",
    "source_type": "agent_generated_design",
    "confidence": "medium",
    "geometry_role": "design_proposal",
    "space_type": "station_forecourt",
    "name_zh": "给算站站前公共空间（概念）",
    "name_en": "Compute Watering Station forecourt (concept)",
    "area_sqm_declared": 3997.94
   },
   "geometry": {
    "type": "Polygon",
    "coordinates": [
     [
      [
       116.344219547,
       39.997548524
      ],
      [
       116.345007931,
       39.997552983
      ],
      [
       116.344971261,
       39.997003403
      ],
      [
       116.344224801,
       39.996999182
      ],
      [
       116.344219547,
       39.997548524
      ]
     ]
    ]
   }
  },
  {
   "type": "Feature",
   "id": "PUBLIC-035",
   "properties": {
    "id": "PUBLIC-035",
    "layer": "PUBLIC_SPACE",
    "source_type": "agent_generated_design",
    "confidence": "medium",
    "geometry_role": "design_proposal",
    "space_type": "station_forecourt",
    "name_zh": "给算站站前公共空间（概念）",
    "name_en": "Compute Watering Station forecourt (concept)",
    "area_sqm_declared": 3686.23
   },
   "geometry": {
    "type": "Polygon",
    "coordinates": [
     [
      [
       116.344665289,
       40.002710998
      ],
      [
       116.344660037,
       40.00326034
      ],
      [
       116.345388648,
       40.003264457
      ],
      [
       116.345351972,
       40.002714879
      ],
      [
       116.344665289,
       40.002710998
      ]
     ]
    ]
   }
  },
  {
   "type": "Feature",
   "id": "PUBLIC-036",
   "properties": {
    "id": "PUBLIC-036",
    "layer": "PUBLIC_SPACE",
    "source_type": "agent_generated_design",
    "confidence": "medium",
    "geometry_role": "design_proposal",
    "space_type": "station_forecourt",
    "name_zh": "给算站站前公共空间（概念）",
    "name_en": "Compute Watering Station forecourt (concept)",
    "area_sqm_declared": 3997.33
   },
   "geometry": {
    "type": "Polygon",
    "coordinates": [
     [
      [
       116.344652546,
       40.004043827
      ],
      [
       116.345440888,
       40.004048282
      ],
      [
       116.345404211,
       40.003498704
      ],
      [
       116.344657798,
       40.003494485
      ],
      [
       116.344652546,
       40.004043827
      ]
     ]
    ]
   }
  },
  {
   "type": "Feature",
   "id": "PUBLIC-037",
   "properties": {
    "id": "PUBLIC-037",
    "layer": "PUBLIC_SPACE",
    "source_type": "agent_generated_design",
    "confidence": "medium",
    "geometry_role": "design_proposal",
    "space_type": "station_forecourt",
    "name_zh": "给算站站前公共空间（概念）",
    "name_en": "Compute Watering Station forecourt (concept)",
    "area_sqm_declared": 3997.33
   },
   "geometry": {
    "type": "Polygon",
    "coordinates": [
     [
      [
       116.345965232,
       39.996225486
      ],
      [
       116.34517698,
       39.996221035
      ],
      [
       116.345213652,
       39.996770614
      ],
      [
       116.345959992,
       39.996774828
      ],
      [
       116.345965232,
       39.996225486
      ]
     ]
    ]
   }
  },
  {
   "type": "Feature",
   "id": "PUBLIC-038",
   "properties": {
    "id": "PUBLIC-038",
    "layer": "PUBLIC_SPACE",
    "source_type": "agent_generated_design",
    "confidence": "medium",
    "geometry_role": "design_proposal",
    "space_type": "station_forecourt",
    "name_zh": "给算站站前公共空间（概念）",
    "name_en": "Compute Watering Station forecourt (concept)",
    "area_sqm_declared": 3686.23
   },
   "geometry": {
    "type": "Polygon",
    "coordinates": [
     [
      [
       116.345952517,
       39.997558317
      ],
      [
       116.345957758,
       39.997008974
      ],
      [
       116.345229214,
       39.997004861
      ],
      [
       116.345265886,
       39.99755444
      ],
      [
       116.345952517,
       39.997558317
      ]
     ]
    ]
   }
  },
  {
   "type": "Feature",
   "id": "PUBLIC-039",
   "properties": {
    "id": "PUBLIC-039",
    "layer": "PUBLIC_SPACE",
    "source_type": "agent_generated_design",
    "confidence": "medium",
    "geometry_role": "design_proposal",
    "space_type": "station_forecourt",
    "name_zh": "给算站站前公共空间（概念）",
    "name_en": "Compute Watering Station forecourt (concept)",
    "area_sqm_declared": 3997.33
   },
   "geometry": {
    "type": "Polygon",
    "coordinates": [
     [
      [
       116.34639839,
       40.002720785
      ],
      [
       116.345610063,
       40.002716336
      ],
      [
       116.345646741,
       40.003265915
      ],
      [
       116.346393152,
       40.003270127
      ],
      [
       116.34639839,
       40.002720785
      ]
     ]
    ]
   }
  },
  {
   "type": "Feature",
   "id": "PUBLIC-040",
   "properties": {
    "id": "PUBLIC-040",
    "layer": "PUBLIC_SPACE",
    "source_type": "agent_generated_design",
    "confidence": "medium",
    "geometry_role": "design_proposal",
    "space_type": "station_forecourt",
    "name_zh": "给算站站前公共空间（概念）",
    "name_en": "Compute Watering Station forecourt (concept)",
    "area_sqm_declared": 3686.23
   },
   "geometry": {
    "type": "Polygon",
    "coordinates": [
     [
      [
       116.345698984,
       40.00404974
      ],
      [
       116.34638568,
       40.004053615
      ],
      [
       116.346390919,
       40.003504273
      ],
      [
       116.345662305,
       40.003500161
      ],
      [
       116.345698984,
       40.00404974
      ]
     ]
    ]
   }
  },
  {
   "type": "Feature",
   "id": "PUBLIC-041",
   "properties": {
    "id": "PUBLIC-041",
    "layer": "PUBLIC_SPACE",
    "source_type": "agent_generated_design",
    "confidence": "medium",
    "geometry_role": "design_proposal",
    "space_type": "station_forecourt",
    "name_zh": "给算站站前公共空间（概念）",
    "name_en": "Compute Watering Station forecourt (concept)",
    "area_sqm_declared": 3686.23
   },
   "geometry": {
    "type": "Polygon",
    "coordinates": [
     [
      [
       116.345098239,
       40.009206293
      ],
      [
       116.345092989,
       40.009755634
      ],
      [
       116.345821669,
       40.00975975
      ],
      [
       116.345784987,
       40.009210172
      ],
      [
       116.345098239,
       40.009206293
      ]
     ]
    ]
   }
  },
  {
   "type": "Feature",
   "id": "PUBLIC-042",
   "properties": {
    "id": "PUBLIC-042",
    "layer": "PUBLIC_SPACE",
    "source_type": "agent_generated_design",
    "confidence": "medium",
    "geometry_role": "design_proposal",
    "space_type": "station_forecourt",
    "name_zh": "给算站站前公共空间（概念）",
    "name_en": "Compute Watering Station forecourt (concept)",
    "area_sqm_declared": 3997.94
   },
   "geometry": {
    "type": "Polygon",
    "coordinates": [
     [
      [
       116.346831505,
       40.009216075
      ],
      [
       116.346042986,
       40.009211628
      ],
      [
       116.34607967,
       40.009761206
      ],
      [
       116.346826268,
       40.009765416
      ],
      [
       116.346831505,
       40.009216075
      ]
     ]
    ]
   }
  },
  {
   "type": "Feature",
   "id": "PUBLIC-043",
   "properties": {
    "id": "PUBLIC-043",
    "layer": "PUBLIC_SPACE",
    "source_type": "agent_generated_design",
    "confidence": "medium",
    "geometry_role": "design_proposal",
    "space_type": "station_forecourt",
    "name_zh": "给算站站前公共空间（概念）",
    "name_en": "Compute Watering Station forecourt (concept)",
    "area_sqm_declared": 3997.33
   },
   "geometry": {
    "type": "Polygon",
    "coordinates": [
     [
      [
       116.345090751,
       40.00998978
      ],
      [
       116.345085501,
       40.010539121
      ],
      [
       116.345873918,
       40.010543574
      ],
      [
       116.345837235,
       40.009993996
      ],
      [
       116.345090751,
       40.00998978
      ]
     ]
    ]
   }
  },
  {
   "type": "Feature",
   "id": "PUBLIC-044",
   "properties": {
    "id": "PUBLIC-044",
    "layer": "PUBLIC_SPACE",
    "source_type": "agent_generated_design",
    "confidence": "medium",
    "geometry_role": "design_proposal",
    "space_type": "station_forecourt",
    "name_zh": "给算站站前公共空间（概念）",
    "name_en": "Compute Watering Station forecourt (concept)",
    "area_sqm_declared": 3686.23
   },
   "geometry": {
    "type": "Polygon",
    "coordinates": [
     [
      [
       116.3468188,
       40.010548903
      ],
      [
       116.346824037,
       40.009999562
      ],
      [
       116.346095354,
       40.009995453
      ],
      [
       116.346132039,
       40.01054503
      ],
      [
       116.3468188,
       40.010548903
      ]
     ]
    ]
   }
  },
  {
   "type": "Feature",
   "id": "PUBLIC-045",
   "properties": {
    "id": "PUBLIC-045",
    "layer": "PUBLIC_SPACE",
    "source_type": "agent_generated_design",
    "confidence": "medium",
    "geometry_role": "design_proposal",
    "space_type": "station_forecourt",
    "name_zh": "给算站站前公共空间（概念）",
    "name_en": "Compute Watering Station forecourt (concept)",
    "area_sqm_declared": 3724.66
   },
   "geometry": {
    "type": "Polygon",
    "coordinates": [
     [
      [
       116.345449713,
       40.015704452
      ],
      [
       116.345444465,
       40.016253792
      ],
      [
       116.346175439,
       40.016257919
      ],
      [
       116.346149058,
       40.0157084
      ],
      [
       116.345449713,
       40.015704452
      ]
     ]
    ]
   }
  },
  {
   "type": "Feature",
   "id": "PUBLIC-046",
   "properties": {
    "id": "PUBLIC-046",
    "layer": "PUBLIC_SPACE",
    "source_type": "agent_generated_design",
    "confidence": "medium",
    "geometry_role": "design_proposal",
    "space_type": "station_forecourt",
    "name_zh": "给算站站前公共空间（概念）",
    "name_en": "Compute Watering Station forecourt (concept)",
    "area_sqm_declared": 3960.12
   },
   "geometry": {
    "type": "Polygon",
    "coordinates": [
     [
      [
       116.347177908,
       40.01626357
      ],
      [
       116.347183143,
       40.01571423
      ],
      [
       116.346406964,
       40.015709855
      ],
      [
       116.346433347,
       40.016259374
      ],
      [
       116.347177908,
       40.01626357
      ]
     ]
    ]
   }
  },
  {
   "type": "Feature",
   "id": "PUBLIC-047",
   "properties": {
    "id": "PUBLIC-047",
    "layer": "PUBLIC_SPACE",
    "source_type": "agent_generated_design",
    "confidence": "medium",
    "geometry_role": "design_proposal",
    "space_type": "station_forecourt",
    "name_zh": "给算站站前公共空间（概念）",
    "name_en": "Compute Watering Station forecourt (concept)",
    "area_sqm_declared": 3959.51
   },
   "geometry": {
    "type": "Polygon",
    "coordinates": [
     [
      [
       116.346213055,
       40.017041659
      ],
      [
       116.346186674,
       40.01649214
      ],
      [
       116.345442227,
       40.016487938
      ],
      [
       116.345436979,
       40.017037278
      ],
      [
       116.346213055,
       40.017041659
      ]
     ]
    ]
   }
  },
  {
   "type": "Feature",
   "id": "PUBLIC-048",
   "properties": {
    "id": "PUBLIC-048",
    "layer": "PUBLIC_SPACE",
    "source_type": "agent_generated_design",
    "confidence": "medium",
    "geometry_role": "design_proposal",
    "space_type": "station_forecourt",
    "name_zh": "给算站站前公共空间（概念）",
    "name_en": "Compute Watering Station forecourt (concept)",
    "area_sqm_declared": 3725.27
   },
   "geometry": {
    "type": "Polygon",
    "coordinates": [
     [
      [
       116.347170443,
       40.017047057
      ],
      [
       116.347175677,
       40.016497716
      ],
      [
       116.346444583,
       40.016493595
      ],
      [
       116.346470966,
       40.017043114
      ],
      [
       116.347170443,
       40.017047057
      ]
     ]
    ]
   }
  },
  {
   "type": "Feature",
   "id": "PUBLIC-049",
   "properties": {
    "id": "PUBLIC-049",
    "layer": "PUBLIC_SPACE",
    "source_type": "agent_generated_design",
    "confidence": "medium",
    "geometry_role": "design_proposal",
    "space_type": "station_forecourt",
    "name_zh": "给算站站前公共空间（概念）",
    "name_en": "Compute Watering Station forecourt (concept)",
    "area_sqm_declared": 3725.27
   },
   "geometry": {
    "type": "Polygon",
    "coordinates": [
     [
      [
       116.345761523,
       40.022203819
      ],
      [
       116.345756276,
       40.022753159
      ],
      [
       116.346487437,
       40.022757285
      ],
      [
       116.346461051,
       40.022207767
      ],
      [
       116.345761523,
       40.022203819
      ]
     ]
    ]
   }
  },
  {
   "type": "Feature",
   "id": "PUBLIC-050",
   "properties": {
    "id": "PUBLIC-050",
    "layer": "PUBLIC_SPACE",
    "source_type": "agent_generated_design",
    "confidence": "medium",
    "geometry_role": "design_proposal",
    "space_type": "station_forecourt",
    "name_zh": "给算站站前公共空间（概念）",
    "name_en": "Compute Watering Station forecourt (concept)",
    "area_sqm_declared": 3959.51
   },
   "geometry": {
    "type": "Polygon",
    "coordinates": [
     [
      [
       116.347495117,
       40.022213594
      ],
      [
       116.346718982,
       40.022209221
      ],
      [
       116.346745369,
       40.022758739
      ],
      [
       116.347489884,
       40.022762934
      ],
      [
       116.347495117,
       40.022213594
      ]
     ]
    ]
   }
  },
  {
   "type": "Feature",
   "id": "PUBLIC-051",
   "properties": {
    "id": "PUBLIC-051",
    "layer": "PUBLIC_SPACE",
    "source_type": "agent_generated_design",
    "confidence": "medium",
    "geometry_role": "design_proposal",
    "space_type": "station_forecourt",
    "name_zh": "给算站站前公共空间（概念）",
    "name_en": "Compute Watering Station forecourt (concept)",
    "area_sqm_declared": 3960.12
   },
   "geometry": {
    "type": "Polygon",
    "coordinates": [
     [
      [
       116.345748792,
       40.023536644
      ],
      [
       116.346525059,
       40.023541025
      ],
      [
       116.346498673,
       40.022991506
      ],
      [
       116.345754039,
       40.022987304
      ],
      [
       116.345748792,
       40.023536644
      ]
     ]
    ]
   }
  },
  {
   "type": "Feature",
   "id": "PUBLIC-052",
   "properties": {
    "id": "PUBLIC-052",
    "layer": "PUBLIC_SPACE",
    "source_type": "agent_generated_design",
    "confidence": "medium",
    "geometry_role": "design_proposal",
    "space_type": "station_forecourt",
    "name_zh": "给算站站前公共空间（概念）",
    "name_en": "Compute Watering Station forecourt (concept)",
    "area_sqm_declared": 3724.66
   },
   "geometry": {
    "type": "Polygon",
    "coordinates": [
     [
      [
       116.347487653,
       40.022997079
      ],
      [
       116.346756607,
       40.02299296
      ],
      [
       116.346782995,
       40.023542479
      ],
      [
       116.34748242,
       40.023546419
      ],
      [
       116.347487653,
       40.022997079
      ]
     ]
    ]
   }
  },
  {
   "type": "Feature",
   "id": "PUBLIC-053",
   "properties": {
    "id": "PUBLIC-053",
    "layer": "PUBLIC_SPACE",
    "source_type": "agent_generated_design",
    "confidence": "medium",
    "geometry_role": "design_proposal",
    "space_type": "civic_square",
    "key_area_id": "PROV-KEY-001",
    "name_zh": "调度厅广场（概念）",
    "name_en": "Dispatch Hall square (concept)",
    "area_sqm_declared": 33204.996
   },
   "geometry": {
    "type": "Polygon",
    "coordinates": [
     [
      [
       116.348894956,
       40.016507388
      ],
      [
       116.346745477,
       40.016495291
      ],
      [
       116.346730264,
       40.018090631
      ],
      [
       116.348971621,
       40.018103244
      ],
      [
       116.348894956,
       40.016507388
      ]
     ]
    ]
   }
  },
  {
   "type": "Feature",
   "id": "PUBLIC-054",
   "properties": {
    "id": "PUBLIC-054",
    "layer": "PUBLIC_SPACE",
    "source_type": "agent_generated_design",
    "confidence": "medium",
    "geometry_role": "design_proposal",
    "space_type": "civic_square",
    "key_area_id": "PROV-KEY-002",
    "name_zh": "零号给算站原点广场（概念）",
    "name_en": "Station Zero origin square (concept)",
    "area_sqm_declared": 44048.985
   },
   "geometry": {
    "type": "Polygon",
    "coordinates": [
     [
      [
       116.349268017,
       39.987260393
      ],
      [
       116.347397157,
       39.987249874
      ],
      [
       116.347424631,
       39.987906214
      ],
      [
       116.347554352,
       39.989851274
      ],
      [
       116.349243341,
       39.98986077
      ],
      [
       116.349268017,
       39.987260393
      ]
     ]
    ]
   }
  },
  {
   "type": "Feature",
   "id": "PUBLIC-055",
   "properties": {
    "id": "PUBLIC-055",
    "layer": "PUBLIC_SPACE",
    "source_type": "agent_generated_design",
    "confidence": "medium",
    "geometry_role": "design_proposal",
    "space_type": "civic_square",
    "key_area_id": "PROV-KEY-003",
    "name_zh": "时延广场（概念）",
    "name_en": "Latency Square (concept)",
    "area_sqm_declared": 64230.863
   },
   "geometry": {
    "type": "Polygon",
    "coordinates": [
     [
      [
       116.350244349,
       39.948071209
      ],
      [
       116.350267925,
       39.945579151
      ],
      [
       116.347555772,
       39.94556392
      ],
      [
       116.347524726,
       39.948055935
      ],
      [
       116.350244349,
       39.948071209
      ]
     ]
    ]
   }
  },
  {
   "type": "Feature",
   "id": "PUBLIC-056",
   "properties": {
    "id": "PUBLIC-056",
    "layer": "PUBLIC_SPACE",
    "source_type": "agent_generated_design",
    "confidence": "medium",
    "geometry_role": "design_proposal",
    "space_type": "warm_arcade",
    "name_zh": "余热暖廊全天候公共通道（概念）",
    "name_en": "Waste-heat warm arcade, all-weather public route (concept)",
    "area_sqm_declared": 3923.465
   },
   "geometry": {
    "type": "Polygon",
    "coordinates": [
     [
      [
       116.344571288,
       39.939999096
      ],
      [
       116.344302205,
       39.939997124
      ],
      [
       116.344282976,
       39.941533561
      ],
      [
       116.344552069,
       39.941535083
      ],
      [
       116.344571288,
       39.939999096
      ]
     ]
    ]
   }
  },
  {
   "type": "Feature",
   "id": "PUBLIC-057",
   "properties": {
    "id": "PUBLIC-057",
    "layer": "PUBLIC_SPACE",
    "source_type": "agent_generated_design",
    "confidence": "medium",
    "geometry_role": "design_proposal",
    "space_type": "warm_arcade",
    "name_zh": "余热暖廊全天候公共通道（概念）",
    "name_en": "Waste-heat warm arcade, all-weather public route (concept)",
    "area_sqm_declared": 6373.07
   },
   "geometry": {
    "type": "Polygon",
    "coordinates": [
     [
      [
       116.344280789,
       39.941713673
      ],
      [
       116.344249596,
       39.944209019
      ],
      [
       116.344518699,
       39.944210541
      ],
      [
       116.344549883,
       39.941715194
      ],
      [
       116.344280789,
       39.941713673
      ]
     ]
    ]
   }
  },
  {
   "type": "Feature",
   "id": "PUBLIC-058",
   "properties": {
    "id": "PUBLIC-058",
    "layer": "PUBLIC_SPACE",
    "source_type": "agent_generated_design",
    "confidence": "medium",
    "geometry_role": "design_proposal",
    "space_type": "warm_arcade",
    "name_zh": "余热暖廊全天候公共通道（概念）",
    "name_en": "Waste-heat warm arcade, all-weather public route (concept)",
    "area_sqm_declared": 6373.07
   },
   "geometry": {
    "type": "Polygon",
    "coordinates": [
     [
      [
       116.344232892,
       39.94554184
      ],
      [
       116.344201694,
       39.948037185
      ],
      [
       116.344470813,
       39.948038707
      ],
      [
       116.344502001,
       39.945543361
      ],
      [
       116.344232892,
       39.94554184
      ]
     ]
    ]
   }
  },
  {
   "type": "Feature",
   "id": "PUBLIC-059",
   "properties": {
    "id": "PUBLIC-059",
    "layer": "PUBLIC_SPACE",
    "source_type": "agent_generated_design",
    "confidence": "medium",
    "geometry_role": "design_proposal",
    "space_type": "warm_arcade",
    "name_zh": "余热暖廊全天候公共通道（概念）",
    "name_en": "Waste-heat warm arcade, all-weather public route (concept)",
    "area_sqm_declared": 6373.3
   },
   "geometry": {
    "type": "Polygon",
    "coordinates": [
     [
      [
       116.344468508,
       39.948218817
      ],
      [
       116.344199389,
       39.948217295
      ],
      [
       116.344168186,
       39.950712729
      ],
      [
       116.344437315,
       39.950714251
      ],
      [
       116.344468508,
       39.948218817
      ]
     ]
    ]
   }
  },
  {
   "type": "Feature",
   "id": "PUBLIC-060",
   "properties": {
    "id": "PUBLIC-060",
    "layer": "PUBLIC_SPACE",
    "source_type": "agent_generated_design",
    "confidence": "medium",
    "geometry_role": "design_proposal",
    "space_type": "warm_arcade",
    "name_zh": "余热暖廊全天候公共通道（概念）",
    "name_en": "Waste-heat warm arcade, all-weather public route (concept)",
    "area_sqm_declared": 6372.61
   },
   "geometry": {
    "type": "Polygon",
    "coordinates": [
     [
      [
       116.344151126,
       39.952045546
      ],
      [
       116.344099208,
       39.954540591
      ],
      [
       116.344368352,
       39.954542113
      ],
      [
       116.344420261,
       39.952047068
      ],
      [
       116.344151126,
       39.952045546
      ]
     ]
    ]
   }
  },
  {
   "type": "Feature",
   "id": "PUBLIC-061",
   "properties": {
    "id": "PUBLIC-061",
    "layer": "PUBLIC_SPACE",
    "source_type": "agent_generated_design",
    "confidence": "medium",
    "geometry_role": "design_proposal",
    "space_type": "warm_arcade",
    "name_zh": "余热暖廊全天候公共通道（概念）",
    "name_en": "Waste-heat warm arcade, all-weather public route (concept)",
    "area_sqm_declared": 6372.84
   },
   "geometry": {
    "type": "Polygon",
    "coordinates": [
     [
      [
       116.344095381,
       39.954720692
      ],
      [
       116.344043457,
       39.957215826
      ],
      [
       116.344312611,
       39.957217349
      ],
      [
       116.344364526,
       39.954722215
      ],
      [
       116.344095381,
       39.954720692
      ]
     ]
    ]
   }
  },
  {
   "type": "Feature",
   "id": "PUBLIC-062",
   "properties": {
    "id": "PUBLIC-062",
    "layer": "PUBLIC_SPACE",
    "source_type": "agent_generated_design",
    "confidence": "medium",
    "geometry_role": "design_proposal",
    "space_type": "warm_arcade",
    "name_zh": "余热暖廊全天候公共通道（概念）",
    "name_en": "Waste-heat warm arcade, all-weather public route (concept)",
    "area_sqm_declared": 6372.84
   },
   "geometry": {
    "type": "Polygon",
    "coordinates": [
     [
      [
       116.344284785,
       39.958550103
      ],
      [
       116.344015625,
       39.95854858
      ],
      [
       116.343963693,
       39.961043713
      ],
      [
       116.344232863,
       39.961045235
      ],
      [
       116.344284785,
       39.958550103
      ]
     ]
    ]
   }
  },
  {
   "type": "Feature",
   "id": "PUBLIC-063",
   "properties": {
    "id": "PUBLIC-063",
    "layer": "PUBLIC_SPACE",
    "source_type": "agent_generated_design",
    "confidence": "medium",
    "geometry_role": "design_proposal",
    "space_type": "warm_arcade",
    "name_zh": "余热暖廊全天候公共通道（概念）",
    "name_en": "Waste-heat warm arcade, all-weather public route (concept)",
    "area_sqm_declared": 6372.84
   },
   "geometry": {
    "type": "Polygon",
    "coordinates": [
     [
      [
       116.343959865,
       39.961223814
      ],
      [
       116.343907927,
       39.963718945
      ],
      [
       116.344177107,
       39.963720468
      ],
      [
       116.344229035,
       39.961225337
      ],
      [
       116.343959865,
       39.961223814
      ]
     ]
    ]
   }
  },
  {
   "type": "Feature",
   "id": "PUBLIC-064",
   "properties": {
    "id": "PUBLIC-064",
    "layer": "PUBLIC_SPACE",
    "source_type": "agent_generated_design",
    "confidence": "medium",
    "geometry_role": "design_proposal",
    "space_type": "warm_arcade",
    "name_zh": "余热暖廊全天候公共通道（概念）",
    "name_en": "Waste-heat warm arcade, all-weather public route (concept)",
    "area_sqm_declared": 6373.765
   },
   "geometry": {
    "type": "Polygon",
    "coordinates": [
     [
      [
       116.343875759,
       39.965051673
      ],
      [
       116.343813281,
       39.967546562
      ],
      [
       116.344082593,
       39.967548087
      ],
      [
       116.344144944,
       39.965053196
      ],
      [
       116.343875759,
       39.965051673
      ]
     ]
    ]
   }
  },
  {
   "type": "Feature",
   "id": "PUBLIC-065",
   "properties": {
    "id": "PUBLIC-065",
    "layer": "PUBLIC_SPACE",
    "source_type": "agent_generated_design",
    "confidence": "medium",
    "geometry_role": "design_proposal",
    "space_type": "warm_arcade",
    "name_zh": "余热暖廊全天候公共通道（概念）",
    "name_en": "Waste-heat warm arcade, all-weather public route (concept)",
    "area_sqm_declared": 6373.995
   },
   "geometry": {
    "type": "Polygon",
    "coordinates": [
     [
      [
       116.343808867,
       39.96772666
      ],
      [
       116.343746382,
       39.970221639
      ],
      [
       116.344015705,
       39.970223163
      ],
      [
       116.344078063,
       39.967728184
      ],
      [
       116.343808867,
       39.96772666
      ]
     ]
    ]
   }
  },
  {
   "type": "Feature",
   "id": "PUBLIC-066",
   "properties": {
    "id": "PUBLIC-066",
    "layer": "PUBLIC_SPACE",
    "source_type": "agent_generated_design",
    "confidence": "medium",
    "geometry_role": "design_proposal",
    "space_type": "warm_arcade",
    "name_zh": "余热暖廊全天候公共通道（概念）",
    "name_en": "Waste-heat warm arcade, all-weather public route (concept)",
    "area_sqm_declared": 6372.61
   },
   "geometry": {
    "type": "Polygon",
    "coordinates": [
     [
      [
       116.344542412,
       39.970226142
      ],
      [
       116.34460475,
       39.967731163
      ],
      [
       116.344335554,
       39.967729641
      ],
      [
       116.344273206,
       39.97022462
      ],
      [
       116.344542412,
       39.970226142
      ]
     ]
    ]
   }
  },
  {
   "type": "Feature",
   "id": "PUBLIC-067",
   "properties": {
    "id": "PUBLIC-067",
    "layer": "PUBLIC_SPACE",
    "source_type": "agent_generated_design",
    "confidence": "medium",
    "geometry_role": "design_proposal",
    "space_type": "warm_arcade",
    "name_zh": "余热暖廊全天候公共通道（概念）",
    "name_en": "Waste-heat warm arcade, all-weather public route (concept)",
    "area_sqm_declared": 6373.765
   },
   "geometry": {
    "type": "Polygon",
    "coordinates": [
     [
      [
       116.343713152,
       39.971554359
      ],
      [
       116.34365066,
       39.974049246
      ],
      [
       116.343919997,
       39.97405077
      ],
      [
       116.343982363,
       39.971555883
      ],
      [
       116.343713152,
       39.971554359
      ]
     ]
    ]
   }
  },
  {
   "type": "Feature",
   "id": "PUBLIC-068",
   "properties": {
    "id": "PUBLIC-068",
    "layer": "PUBLIC_SPACE",
    "source_type": "agent_generated_design",
    "confidence": "medium",
    "geometry_role": "design_proposal",
    "space_type": "warm_arcade",
    "name_zh": "余热暖廊全天候公共通道（概念）",
    "name_en": "Waste-heat warm arcade, all-weather public route (concept)",
    "area_sqm_declared": 6372.38
   },
   "geometry": {
    "type": "Polygon",
    "coordinates": [
     [
      [
       116.344446733,
       39.974053751
      ],
      [
       116.34450908,
       39.971558863
      ],
      [
       116.344239869,
       39.97155734
      ],
      [
       116.344177513,
       39.974052228
      ],
      [
       116.344446733,
       39.974053751
      ]
     ]
    ]
   }
  },
  {
   "type": "Feature",
   "id": "PUBLIC-069",
   "properties": {
    "id": "PUBLIC-069",
    "layer": "PUBLIC_SPACE",
    "source_type": "agent_generated_design",
    "confidence": "medium",
    "geometry_role": "design_proposal",
    "space_type": "warm_arcade",
    "name_zh": "余热暖廊全天候公共通道（概念）",
    "name_en": "Waste-heat warm arcade, all-weather public route (concept)",
    "area_sqm_declared": 6372.207
   },
   "geometry": {
    "type": "Polygon",
    "coordinates": [
     [
      [
       116.343602086,
       39.975994115
      ],
      [
       116.34360217,
       39.976009786
      ],
      [
       116.343631982,
       39.976723601
      ],
      [
       116.343901447,
       39.976725127
      ],
      [
       116.343871359,
       39.976003205
      ],
      [
       116.343871291,
       39.975998071
      ],
      [
       116.343915466,
       39.974230867
      ],
      [
       116.343646244,
       39.974229343
      ],
      [
       116.343602086,
       39.975994115
      ]
     ]
    ]
   }
  },
  {
   "type": "Feature",
   "id": "PUBLIC-070",
   "properties": {
    "id": "PUBLIC-070",
    "layer": "PUBLIC_SPACE",
    "source_type": "agent_generated_design",
    "confidence": "medium",
    "geometry_role": "design_proposal",
    "space_type": "warm_arcade",
    "name_zh": "余热暖廊全天候公共通道（概念）",
    "name_en": "Waste-heat warm arcade, all-weather public route (concept)",
    "area_sqm_declared": 6371.022
   },
   "geometry": {
    "type": "Polygon",
    "coordinates": [
     [
      [
       116.344172982,
       39.974232325
      ],
      [
       116.344128816,
       39.975999348
      ],
      [
       116.344159089,
       39.976726585
      ],
      [
       116.344428555,
       39.976728109
      ],
      [
       116.344398071,
       39.97599808
      ],
      [
       116.344442203,
       39.974233848
      ],
      [
       116.344172982,
       39.974232325
      ]
     ]
    ]
   }
  },
  {
   "type": "Feature",
   "id": "PUBLIC-071",
   "properties": {
    "id": "PUBLIC-071",
    "layer": "PUBLIC_SPACE",
    "source_type": "agent_generated_design",
    "confidence": "medium",
    "geometry_role": "design_proposal",
    "space_type": "warm_arcade",
    "name_zh": "余热暖廊全天候公共通道（概念）",
    "name_en": "Waste-heat warm arcade, all-weather public route (concept)",
    "area_sqm_declared": 6372.166
   },
   "geometry": {
    "type": "Polygon",
    "coordinates": [
     [
      [
       116.343687475,
       39.978056822
      ],
      [
       116.343791342,
       39.980550397
      ],
      [
       116.344060822,
       39.980551922
      ],
      [
       116.343956946,
       39.978058348
      ],
      [
       116.343687475,
       39.978056822
      ]
     ]
    ]
   }
  },
  {
   "type": "Feature",
   "id": "PUBLIC-072",
   "properties": {
    "id": "PUBLIC-072",
    "layer": "PUBLIC_SPACE",
    "source_type": "agent_generated_design",
    "confidence": "medium",
    "geometry_role": "design_proposal",
    "space_type": "warm_arcade",
    "name_zh": "余热暖廊全天候公共通道（概念）",
    "name_en": "Waste-heat warm arcade, all-weather public route (concept)",
    "area_sqm_declared": 6372.166
   },
   "geometry": {
    "type": "Polygon",
    "coordinates": [
     [
      [
       116.343798867,
       39.980730562
      ],
      [
       116.34390274,
       39.983224135
      ],
      [
       116.34417223,
       39.98322566
      ],
      [
       116.344068348,
       39.980732087
      ],
      [
       116.343798867,
       39.980730562
      ]
     ]
    ]
   }
  },
  {
   "type": "Feature",
   "id": "PUBLIC-073",
   "properties": {
    "id": "PUBLIC-073",
    "layer": "PUBLIC_SPACE",
    "source_type": "agent_generated_design",
    "confidence": "medium",
    "geometry_role": "design_proposal",
    "space_type": "warm_arcade",
    "name_zh": "余热暖廊全天候公共通道（概念）",
    "name_en": "Waste-heat warm arcade, all-weather public route (concept)",
    "area_sqm_declared": 6372.166
   },
   "geometry": {
    "type": "Polygon",
    "coordinates": [
     [
      [
       116.343958242,
       39.984557354
      ],
      [
       116.344062125,
       39.987050926
      ],
      [
       116.344331631,
       39.987052451
      ],
      [
       116.344227738,
       39.984558879
      ],
      [
       116.343958242,
       39.984557354
      ]
     ]
    ]
   }
  },
  {
   "type": "Feature",
   "id": "PUBLIC-074",
   "properties": {
    "id": "PUBLIC-074",
    "layer": "PUBLIC_SPACE",
    "source_type": "agent_generated_design",
    "confidence": "medium",
    "geometry_role": "design_proposal",
    "space_type": "warm_arcade",
    "name_zh": "余热暖廊全天候公共通道（概念）",
    "name_en": "Waste-heat warm arcade, all-weather public route (concept)",
    "area_sqm_declared": 3921.282
   },
   "geometry": {
    "type": "Polygon",
    "coordinates": [
     [
      [
       116.345097754,
       39.940002972
      ],
      [
       116.344828672,
       39.940000911
      ],
      [
       116.344809463,
       39.941536538
      ],
      [
       116.345078556,
       39.941538058
      ],
      [
       116.345097754,
       39.940002972
      ]
     ]
    ]
   }
  },
  {
   "type": "Feature",
   "id": "PUBLIC-075",
   "properties": {
    "id": "PUBLIC-075",
    "layer": "PUBLIC_SPACE",
    "source_type": "agent_generated_design",
    "confidence": "medium",
    "geometry_role": "design_proposal",
    "space_type": "warm_arcade",
    "name_zh": "余热暖廊全天候公共通道（概念）",
    "name_en": "Waste-heat warm arcade, all-weather public route (concept)",
    "area_sqm_declared": 6373.07
   },
   "geometry": {
    "type": "Polygon",
    "coordinates": [
     [
      [
       116.345045207,
       39.944213517
      ],
      [
       116.345076371,
       39.941718169
      ],
      [
       116.344807277,
       39.941716649
      ],
      [
       116.344776103,
       39.944211996
      ],
      [
       116.345045207,
       39.944213517
      ]
     ]
    ]
   }
  },
  {
   "type": "Feature",
   "id": "PUBLIC-076",
   "properties": {
    "id": "PUBLIC-076",
    "layer": "PUBLIC_SPACE",
    "source_type": "agent_generated_design",
    "confidence": "medium",
    "geometry_role": "design_proposal",
    "space_type": "warm_arcade",
    "name_zh": "余热暖廊全天候公共通道（概念）",
    "name_en": "Waste-heat warm arcade, all-weather public route (concept)",
    "area_sqm_declared": 6373.07
   },
   "geometry": {
    "type": "Polygon",
    "coordinates": [
     [
      [
       116.34472823,
       39.948040162
      ],
      [
       116.344997349,
       39.948041683
      ],
      [
       116.345028519,
       39.945546337
      ],
      [
       116.34475941,
       39.945544816
      ],
      [
       116.34472823,
       39.948040162
      ]
     ]
    ]
   }
  },
  {
   "type": "Feature",
   "id": "PUBLIC-077",
   "properties": {
    "id": "PUBLIC-077",
    "layer": "PUBLIC_SPACE",
    "source_type": "agent_generated_design",
    "confidence": "medium",
    "geometry_role": "design_proposal",
    "space_type": "warm_arcade",
    "name_zh": "余热暖廊全天候公共通道（概念）",
    "name_en": "Waste-heat warm arcade, all-weather public route (concept)",
    "area_sqm_declared": 6373.3
   },
   "geometry": {
    "type": "Polygon",
    "coordinates": [
     [
      [
       116.344963872,
       39.950717228
      ],
      [
       116.344995046,
       39.948221793
      ],
      [
       116.344725927,
       39.948220272
      ],
      [
       116.344694743,
       39.950715707
      ],
      [
       116.344963872,
       39.950717228
      ]
     ]
    ]
   }
  },
  {
   "type": "Feature",
   "id": "PUBLIC-078",
   "properties": {
    "id": "PUBLIC-078",
    "layer": "PUBLIC_SPACE",
    "source_type": "agent_generated_design",
    "confidence": "medium",
    "geometry_role": "design_proposal",
    "space_type": "warm_arcade",
    "name_zh": "余热暖廊全天候公共通道（概念）",
    "name_en": "Waste-heat warm arcade, all-weather public route (concept)",
    "area_sqm_declared": 6372.61
   },
   "geometry": {
    "type": "Polygon",
    "coordinates": [
     [
      [
       116.344894939,
       39.95454509
      ],
      [
       116.344946828,
       39.952050045
      ],
      [
       116.344677694,
       39.952048524
      ],
      [
       116.344625795,
       39.954543569
      ],
      [
       116.344894939,
       39.95454509
      ]
     ]
    ]
   }
  },
  {
   "type": "Feature",
   "id": "PUBLIC-079",
   "properties": {
    "id": "PUBLIC-079",
    "layer": "PUBLIC_SPACE",
    "source_type": "agent_generated_design",
    "confidence": "medium",
    "geometry_role": "design_proposal",
    "space_type": "warm_arcade",
    "name_zh": "余热暖廊全天候公共通道（概念）",
    "name_en": "Waste-heat warm arcade, all-weather public route (concept)",
    "area_sqm_declared": 6372.84
   },
   "geometry": {
    "type": "Polygon",
    "coordinates": [
     [
      [
       116.344839218,
       39.957220326
      ],
      [
       116.344891114,
       39.954725192
      ],
      [
       116.344621969,
       39.954723671
      ],
      [
       116.344570064,
       39.957218805
      ],
      [
       116.344839218,
       39.957220326
      ]
     ]
    ]
   }
  },
  {
   "type": "Feature",
   "id": "PUBLIC-080",
   "properties": {
    "id": "PUBLIC-080",
    "layer": "PUBLIC_SPACE",
    "source_type": "agent_generated_design",
    "confidence": "medium",
    "geometry_role": "design_proposal",
    "space_type": "warm_arcade",
    "name_zh": "余热暖廊全天候公共通道（概念）",
    "name_en": "Waste-heat warm arcade, all-weather public route (concept)",
    "area_sqm_declared": 6372.84
   },
   "geometry": {
    "type": "Polygon",
    "coordinates": [
     [
      [
       116.344759499,
       39.961048213
      ],
      [
       116.344811402,
       39.958553081
      ],
      [
       116.344542242,
       39.958551559
      ],
      [
       116.344490329,
       39.961046692
      ],
      [
       116.344759499,
       39.961048213
      ]
     ]
    ]
   }
  },
  {
   "type": "Feature",
   "id": "PUBLIC-081",
   "properties": {
    "id": "PUBLIC-081",
    "layer": "PUBLIC_SPACE",
    "source_type": "agent_generated_design",
    "confidence": "medium",
    "geometry_role": "design_proposal",
    "space_type": "warm_arcade",
    "name_zh": "余热暖廊全天候公共通道（概念）",
    "name_en": "Waste-heat warm arcade, all-weather public route (concept)",
    "area_sqm_declared": 6372.84
   },
   "geometry": {
    "type": "Polygon",
    "coordinates": [
     [
      [
       116.344703764,
       39.963723446
      ],
      [
       116.344755673,
       39.961228315
      ],
      [
       116.344486503,
       39.961226793
      ],
      [
       116.344434584,
       39.963721924
      ],
      [
       116.344703764,
       39.963723446
      ]
     ]
    ]
   }
  },
  {
   "type": "Feature",
   "id": "PUBLIC-082",
   "properties": {
    "id": "PUBLIC-082",
    "layer": "PUBLIC_SPACE",
    "source_type": "agent_generated_design",
    "confidence": "medium",
    "geometry_role": "design_proposal",
    "space_type": "warm_arcade",
    "name_zh": "余热暖廊全天候公共通道（概念）",
    "name_en": "Waste-heat warm arcade, all-weather public route (concept)",
    "area_sqm_declared": 6372.38
   },
   "geometry": {
    "type": "Polygon",
    "coordinates": [
     [
      [
       116.344609279,
       39.967551066
      ],
      [
       116.344671611,
       39.965056175
      ],
      [
       116.344402425,
       39.965054653
      ],
      [
       116.344340084,
       39.967549543
      ],
      [
       116.344609279,
       39.967551066
      ]
     ]
    ]
   }
  },
  {
   "type": "Feature",
   "id": "PUBLIC-083",
   "properties": {
    "id": "PUBLIC-083",
    "layer": "PUBLIC_SPACE",
    "source_type": "agent_generated_design",
    "confidence": "medium",
    "geometry_role": "design_proposal",
    "space_type": "warm_arcade",
    "name_zh": "余热暖廊全天候公共通道（概念）",
    "name_en": "Waste-heat warm arcade, all-weather public route (concept)",
    "area_sqm_declared": 6369.398
   },
   "geometry": {
    "type": "Polygon",
    "coordinates": [
     [
      [
       116.344318596,
       39.98055338
      ],
      [
       116.344587959,
       39.980554904
      ],
      [
       116.344484064,
       39.97806133
      ],
      [
       116.34421471,
       39.978059807
      ],
      [
       116.344318596,
       39.98055338
      ]
     ]
    ]
   }
  },
  {
   "type": "Feature",
   "id": "PUBLIC-084",
   "properties": {
    "id": "PUBLIC-084",
    "layer": "PUBLIC_SPACE",
    "source_type": "agent_generated_design",
    "confidence": "medium",
    "geometry_role": "design_proposal",
    "space_type": "warm_arcade",
    "name_zh": "余热暖廊全天候公共通道（概念）",
    "name_en": "Waste-heat warm arcade, all-weather public route (concept)",
    "area_sqm_declared": 6372.166
   },
   "geometry": {
    "type": "Polygon",
    "coordinates": [
     [
      [
       116.344699388,
       39.983228641
      ],
      [
       116.344595486,
       39.980735069
      ],
      [
       116.344326005,
       39.980733545
      ],
      [
       116.344429897,
       39.983227117
      ],
      [
       116.344699388,
       39.983228641
      ]
     ]
    ]
   }
  },
  {
   "type": "Feature",
   "id": "PUBLIC-085",
   "properties": {
    "id": "PUBLIC-085",
    "layer": "PUBLIC_SPACE",
    "source_type": "agent_generated_design",
    "confidence": "medium",
    "geometry_role": "design_proposal",
    "space_type": "warm_arcade",
    "name_zh": "余热暖廊全天候公共通道（概念）",
    "name_en": "Waste-heat warm arcade, all-weather public route (concept)",
    "area_sqm_declared": 6372.166
   },
   "geometry": {
    "type": "Polygon",
    "coordinates": [
     [
      [
       116.344858935,
       39.987055432
      ],
      [
       116.344755023,
       39.984561862
      ],
      [
       116.344485527,
       39.984560338
      ],
      [
       116.344589429,
       39.987053909
      ],
      [
       116.344858935,
       39.987055432
      ]
     ]
    ]
   }
  },
  {
   "type": "Feature",
   "id": "PUBLIC-086",
   "properties": {
    "id": "PUBLIC-086",
    "layer": "PUBLIC_SPACE",
    "source_type": "agent_generated_design",
    "confidence": "medium",
    "geometry_role": "design_proposal",
    "space_type": "warm_arcade",
    "name_zh": "余热暖廊全天候公共通道（概念）",
    "name_en": "Waste-heat warm arcade, all-weather public route (concept)",
    "area_sqm_declared": 6369.958
   },
   "geometry": {
    "type": "Polygon",
    "coordinates": [
     [
      [
       116.344102128,
       39.988009853
      ],
      [
       116.344102423,
       39.988015709
      ],
      [
       116.344216179,
       39.98972265
      ],
      [
       116.344485929,
       39.989724176
      ],
      [
       116.344371346,
       39.988005072
      ],
      [
       116.344371247,
       39.98800318
      ],
      [
       116.344339157,
       39.987232615
      ],
      [
       116.344069651,
       39.987231091
      ],
      [
       116.344102128,
       39.988009853
      ]
     ]
    ]
   }
  },
  {
   "type": "Feature",
   "id": "PUBLIC-087",
   "properties": {
    "id": "PUBLIC-087",
    "layer": "PUBLIC_SPACE",
    "source_type": "agent_generated_design",
    "confidence": "medium",
    "geometry_role": "design_proposal",
    "space_type": "warm_arcade",
    "name_zh": "余热暖廊全天候公共通道（概念）",
    "name_en": "Waste-heat warm arcade, all-weather public route (concept)",
    "area_sqm_declared": 6369.672
   },
   "geometry": {
    "type": "Polygon",
    "coordinates": [
     [
      [
       116.344596957,
       39.987234073
      ],
      [
       116.344628664,
       39.9879959
      ],
      [
       116.344743972,
       39.989725635
      ],
      [
       116.345013722,
       39.98972716
      ],
      [
       116.344897686,
       39.987987244
      ],
      [
       116.344866463,
       39.987235597
      ],
      [
       116.344596957,
       39.987234073
      ]
     ]
    ]
   }
  },
  {
   "type": "Feature",
   "id": "PUBLIC-088",
   "properties": {
    "id": "PUBLIC-088",
    "layer": "PUBLIC_SPACE",
    "source_type": "agent_generated_design",
    "confidence": "medium",
    "geometry_role": "design_proposal",
    "space_type": "warm_arcade",
    "name_zh": "余热暖廊全天候公共通道（概念）",
    "name_en": "Waste-heat warm arcade, all-weather public route (concept)",
    "area_sqm_declared": 6371.251
   },
   "geometry": {
    "type": "Polygon",
    "coordinates": [
     [
      [
       116.344305059,
       39.991056057
      ],
      [
       116.344471163,
       39.993546915
      ],
      [
       116.344740928,
       39.993548441
      ],
      [
       116.344574932,
       39.991057584
      ],
      [
       116.344305059,
       39.991056057
      ]
     ]
    ]
   }
  },
  {
   "type": "Feature",
   "id": "PUBLIC-089",
   "properties": {
    "id": "PUBLIC-089",
    "layer": "PUBLIC_SPACE",
    "source_type": "agent_generated_design",
    "confidence": "medium",
    "geometry_role": "design_proposal",
    "space_type": "warm_arcade",
    "name_zh": "余热暖廊全天候公共通道（概念）",
    "name_en": "Waste-heat warm arcade, all-weather public route (concept)",
    "area_sqm_declared": 6368.486
   },
   "geometry": {
    "type": "Polygon",
    "coordinates": [
     [
      [
       116.344998985,
       39.9935499
      ],
      [
       116.345268634,
       39.993551423
      ],
      [
       116.345102618,
       39.991060567
      ],
      [
       116.344832862,
       39.991059042
      ],
      [
       116.344998985,
       39.9935499
      ]
     ]
    ]
   }
  },
  {
   "type": "Feature",
   "id": "PUBLIC-090",
   "properties": {
    "id": "PUBLIC-090",
    "layer": "PUBLIC_SPACE",
    "source_type": "agent_generated_design",
    "confidence": "medium",
    "geometry_role": "design_proposal",
    "space_type": "warm_arcade",
    "name_zh": "余热暖廊全天候公共通道（概念）",
    "name_en": "Waste-heat warm arcade, all-weather public route (concept)",
    "area_sqm_declared": 6368.717
   },
   "geometry": {
    "type": "Polygon",
    "coordinates": [
     [
      [
       116.34448314,
       39.993727105
      ],
      [
       116.344649254,
       39.996218052
      ],
      [
       116.344918913,
       39.996219577
      ],
      [
       116.344752906,
       39.993728631
      ],
      [
       116.34448314,
       39.993727105
      ]
     ]
    ]
   }
  },
  {
   "type": "Feature",
   "id": "PUBLIC-091",
   "properties": {
    "id": "PUBLIC-091",
    "layer": "PUBLIC_SPACE",
    "source_type": "agent_generated_design",
    "confidence": "medium",
    "geometry_role": "design_proposal",
    "space_type": "warm_arcade",
    "name_zh": "余热暖廊全天候公共通道（概念）",
    "name_en": "Waste-heat warm arcade, all-weather public route (concept)",
    "area_sqm_declared": 6369.671
   },
   "geometry": {
    "type": "Polygon",
    "coordinates": [
     [
      [
       116.345173956,
       40.000043836
      ],
      [
       116.345171398,
       40.000005096
      ],
      [
       116.345007931,
       39.997552983
      ],
      [
       116.34473815,
       39.997551458
      ],
      [
       116.344902429,
       40.000015644
      ],
      [
       116.344904164,
       40.000042312
      ],
      [
       116.345173956,
       40.000043836
      ]
     ]
    ]
   }
  },
  {
   "type": "Feature",
   "id": "PUBLIC-092",
   "properties": {
    "id": "PUBLIC-092",
    "layer": "PUBLIC_SPACE",
    "source_type": "agent_generated_design",
    "confidence": "medium",
    "geometry_role": "design_proposal",
    "space_type": "warm_arcade",
    "name_zh": "余热暖廊全天候公共通道（概念）",
    "name_en": "Waste-heat warm arcade, all-weather public route (concept)",
    "area_sqm_declared": 6370.099
   },
   "geometry": {
    "type": "Polygon",
    "coordinates": [
     [
      [
       116.345446756,
       39.996222559
      ],
      [
       116.34528073,
       39.993731614
      ],
      [
       116.345010964,
       39.993730089
      ],
      [
       116.34517698,
       39.996221035
      ],
      [
       116.345446756,
       39.996222559
      ]
     ]
    ]
   }
  },
  {
   "type": "Feature",
   "id": "PUBLIC-093",
   "properties": {
    "id": "PUBLIC-093",
    "layer": "PUBLIC_SPACE",
    "source_type": "agent_generated_design",
    "confidence": "medium",
    "geometry_role": "design_proposal",
    "space_type": "warm_arcade",
    "name_zh": "余热暖廊全天候公共通道（概念）",
    "name_en": "Waste-heat warm arcade, all-weather public route (concept)",
    "area_sqm_declared": 6369.758
   },
   "geometry": {
    "type": "Polygon",
    "coordinates": [
     [
      [
       116.345265886,
       39.99755444
      ],
      [
       116.345428654,
       39.999994931
      ],
      [
       116.345432037,
       40.000045294
      ],
      [
       116.345701828,
       40.000046818
      ],
      [
       116.345697624,
       39.999984292
      ],
      [
       116.345535667,
       39.997555964
      ],
      [
       116.345265886,
       39.99755444
      ]
     ]
    ]
   }
  },
  {
   "type": "Feature",
   "id": "PUBLIC-094",
   "properties": {
    "id": "PUBLIC-094",
    "layer": "PUBLIC_SPACE",
    "source_type": "agent_generated_design",
    "confidence": "medium",
    "geometry_role": "design_proposal",
    "space_type": "warm_arcade",
    "name_zh": "余热暖廊全天候公共通道（概念）",
    "name_en": "Waste-heat warm arcade, all-weather public route (concept)",
    "area_sqm_declared": 6369.869
   },
   "geometry": {
    "type": "Polygon",
    "coordinates": [
     [
      [
       116.344916144,
       40.000222501
      ],
      [
       116.34508217,
       40.002713354
      ],
      [
       116.345351972,
       40.002714879
      ],
      [
       116.345185935,
       40.000224026
      ],
      [
       116.344916144,
       40.000222501
      ]
     ]
    ]
   }
  },
  {
   "type": "Feature",
   "id": "PUBLIC-095",
   "properties": {
    "id": "PUBLIC-095",
    "layer": "PUBLIC_SPACE",
    "source_type": "agent_generated_design",
    "confidence": "medium",
    "geometry_role": "design_proposal",
    "space_type": "warm_arcade",
    "name_zh": "余热暖廊全天候公共通道（概念）",
    "name_en": "Waste-heat warm arcade, all-weather public route (concept)",
    "area_sqm_declared": 6369.869
   },
   "geometry": {
    "type": "Polygon",
    "coordinates": [
     [
      [
       116.345879865,
       40.002717859
      ],
      [
       116.345713809,
       40.000227007
      ],
      [
       116.345444018,
       40.000225484
      ],
      [
       116.345610063,
       40.002716336
      ],
      [
       116.345879865,
       40.002717859
      ]
     ]
    ]
   }
  },
  {
   "type": "Feature",
   "id": "PUBLIC-096",
   "properties": {
    "id": "PUBLIC-096",
    "layer": "PUBLIC_SPACE",
    "source_type": "agent_generated_design",
    "confidence": "medium",
    "geometry_role": "design_proposal",
    "space_type": "warm_arcade",
    "name_zh": "余热暖廊全天候公共通道（概念）",
    "name_en": "Waste-heat warm arcade, all-weather public route (concept)",
    "area_sqm_declared": 6369.869
   },
   "geometry": {
    "type": "Polygon",
    "coordinates": [
     [
      [
       116.345440888,
       40.004048282
      ],
      [
       116.345171081,
       40.004046758
      ],
      [
       116.345337124,
       40.006537609
      ],
      [
       116.34560694,
       40.006539133
      ],
      [
       116.345440888,
       40.004048282
      ]
     ]
    ]
   }
  },
  {
   "type": "Feature",
   "id": "PUBLIC-097",
   "properties": {
    "id": "PUBLIC-097",
    "layer": "PUBLIC_SPACE",
    "source_type": "agent_generated_design",
    "confidence": "medium",
    "geometry_role": "design_proposal",
    "space_type": "warm_arcade",
    "name_zh": "余热暖廊全天候公共通道（概念）",
    "name_en": "Waste-heat warm arcade, all-weather public route (concept)",
    "area_sqm_declared": 6369.869
   },
   "geometry": {
    "type": "Polygon",
    "coordinates": [
     [
      [
       116.346134863,
       40.006542113
      ],
      [
       116.345968791,
       40.004051263
      ],
      [
       116.345698984,
       40.00404974
      ],
      [
       116.345865046,
       40.00654059
      ],
      [
       116.346134863,
       40.006542113
      ]
     ]
    ]
   }
  },
  {
   "type": "Feature",
   "id": "PUBLIC-098",
   "properties": {
    "id": "PUBLIC-098",
    "layer": "PUBLIC_SPACE",
    "source_type": "agent_generated_design",
    "confidence": "medium",
    "geometry_role": "design_proposal",
    "space_type": "warm_arcade",
    "name_zh": "余热暖廊全天候公共通道（概念）",
    "name_en": "Waste-heat warm arcade, all-weather public route (concept)",
    "area_sqm_declared": 6369.869
   },
   "geometry": {
    "type": "Polygon",
    "coordinates": [
     [
      [
       116.345349105,
       40.006717799
      ],
      [
       116.34551516,
       40.009208648
      ],
      [
       116.345784987,
       40.009210172
      ],
      [
       116.345618922,
       40.006719322
      ],
      [
       116.345349105,
       40.006717799
      ]
     ]
    ]
   }
  },
  {
   "type": "Feature",
   "id": "PUBLIC-099",
   "properties": {
    "id": "PUBLIC-099",
    "layer": "PUBLIC_SPACE",
    "source_type": "agent_generated_design",
    "confidence": "medium",
    "geometry_role": "design_proposal",
    "space_type": "warm_arcade",
    "name_zh": "余热暖廊全天候公共通道（概念）",
    "name_en": "Waste-heat warm arcade, all-weather public route (concept)",
    "area_sqm_declared": 6371.251
   },
   "geometry": {
    "type": "Polygon",
    "coordinates": [
     [
      [
       116.34631293,
       40.009213151
      ],
      [
       116.346146846,
       40.006722302
      ],
      [
       116.345877029,
       40.006720779
      ],
      [
       116.346042986,
       40.009211628
      ],
      [
       116.34631293,
       40.009213151
      ]
     ]
    ]
   }
  },
  {
   "type": "Feature",
   "id": "PUBLIC-100",
   "properties": {
    "id": "PUBLIC-100",
    "layer": "PUBLIC_SPACE",
    "source_type": "agent_generated_design",
    "confidence": "medium",
    "geometry_role": "design_proposal",
    "space_type": "warm_arcade",
    "name_zh": "余热暖廊全天候公共通道（概念）",
    "name_en": "Waste-heat warm arcade, all-weather public route (concept)",
    "area_sqm_declared": 6369.957
   },
   "geometry": {
    "type": "Polygon",
    "coordinates": [
     [
      [
       116.346020783,
       40.013035214
      ],
      [
       116.34597124,
       40.012004369
      ],
      [
       116.345873918,
       40.010543574
      ],
      [
       116.345604085,
       40.01054205
      ],
      [
       116.34570212,
       40.012013477
      ],
      [
       116.345751175,
       40.013033692
      ],
      [
       116.346020783,
       40.013035214
      ]
     ]
    ]
   }
  },
  {
   "type": "Feature",
   "id": "PUBLIC-101",
   "properties": {
    "id": "PUBLIC-101",
    "layer": "PUBLIC_SPACE",
    "source_type": "agent_generated_design",
    "confidence": "medium",
    "geometry_role": "design_proposal",
    "space_type": "warm_arcade",
    "name_zh": "余热暖廊全天候公共通道（概念）",
    "name_en": "Waste-heat warm arcade, all-weather public route (concept)",
    "area_sqm_declared": 6370.079
   },
   "geometry": {
    "type": "Polygon",
    "coordinates": [
     [
      [
       116.346497668,
       40.011984283
      ],
      [
       116.346401871,
       40.010546553
      ],
      [
       116.346132039,
       40.01054503
      ],
      [
       116.346228651,
       40.011994924
      ],
      [
       116.346228754,
       40.011996365
      ],
      [
       116.346278679,
       40.013036669
      ],
      [
       116.346548287,
       40.013038189
      ],
      [
       116.346497977,
       40.011988698
      ],
      [
       116.346497668,
       40.011984283
      ]
     ]
    ]
   }
  },
  {
   "type": "Feature",
   "id": "PUBLIC-102",
   "properties": {
    "id": "PUBLIC-102",
    "layer": "PUBLIC_SPACE",
    "source_type": "agent_generated_design",
    "confidence": "medium",
    "geometry_role": "design_proposal",
    "space_type": "warm_arcade",
    "name_zh": "余热暖廊全天候公共通道（概念）",
    "name_en": "Waste-heat warm arcade, all-weather public route (concept)",
    "area_sqm_declared": 6370.555
   },
   "geometry": {
    "type": "Polygon",
    "coordinates": [
     [
      [
       116.345759761,
       40.013213862
      ],
      [
       116.34587944,
       40.015706878
      ],
      [
       116.346149058,
       40.0157084
      ],
      [
       116.34602937,
       40.013215383
      ],
      [
       116.345759761,
       40.013213862
      ]
     ]
    ]
   }
  },
  {
   "type": "Feature",
   "id": "PUBLIC-103",
   "properties": {
    "id": "PUBLIC-103",
    "layer": "PUBLIC_SPACE",
    "source_type": "agent_generated_design",
    "confidence": "medium",
    "geometry_role": "design_proposal",
    "space_type": "warm_arcade",
    "name_zh": "余热暖廊全天候公共通道（概念）",
    "name_en": "Waste-heat warm arcade, all-weather public route (concept)",
    "area_sqm_declared": 6371.938
   },
   "geometry": {
    "type": "Polygon",
    "coordinates": [
     [
      [
       116.346406964,
       40.015709855
      ],
      [
       116.346676583,
       40.015711375
      ],
      [
       116.346556993,
       40.01321836
      ],
      [
       116.346287267,
       40.013216839
      ],
      [
       116.346406964,
       40.015709855
      ]
     ]
    ]
   }
  },
  {
   "type": "Feature",
   "id": "PUBLIC-104",
   "properties": {
    "id": "PUBLIC-104",
    "layer": "PUBLIC_SPACE",
    "source_type": "agent_generated_design",
    "confidence": "medium",
    "geometry_role": "design_proposal",
    "space_type": "warm_arcade",
    "name_zh": "余热暖廊全天候公共通道（概念）",
    "name_en": "Waste-heat warm arcade, all-weather public route (concept)",
    "area_sqm_declared": 6371.708
   },
   "geometry": {
    "type": "Polygon",
    "coordinates": [
     [
      [
       116.345943431,
       40.017040138
      ],
      [
       116.346063004,
       40.019533062
      ],
      [
       116.346332755,
       40.019534584
      ],
      [
       116.346213055,
       40.017041659
      ],
      [
       116.345943431,
       40.017040138
      ]
     ]
    ]
   }
  },
  {
   "type": "Feature",
   "id": "PUBLIC-105",
   "properties": {
    "id": "PUBLIC-105",
    "layer": "PUBLIC_SPACE",
    "source_type": "agent_generated_design",
    "confidence": "medium",
    "geometry_role": "design_proposal",
    "space_type": "warm_arcade",
    "name_zh": "余热暖廊全天候公共通道（概念）",
    "name_en": "Waste-heat warm arcade, all-weather public route (concept)",
    "area_sqm_declared": 6370.325
   },
   "geometry": {
    "type": "Polygon",
    "coordinates": [
     [
      [
       116.34686031,
       40.019537558
      ],
      [
       116.34674059,
       40.017044634
      ],
      [
       116.346470966,
       40.017043114
      ],
      [
       116.346590676,
       40.019536038
      ],
      [
       116.34686031,
       40.019537558
      ]
     ]
    ]
   }
  },
  {
   "type": "Feature",
   "id": "PUBLIC-106",
   "properties": {
    "id": "PUBLIC-106",
    "layer": "PUBLIC_SPACE",
    "source_type": "agent_generated_design",
    "confidence": "medium",
    "geometry_role": "design_proposal",
    "space_type": "warm_arcade",
    "name_zh": "余热暖廊全天候公共通道（概念）",
    "name_en": "Waste-heat warm arcade, all-weather public route (concept)",
    "area_sqm_declared": 6371.938
   },
   "geometry": {
    "type": "Polygon",
    "coordinates": [
     [
      [
       116.34607171,
       40.019713232
      ],
      [
       116.34619129,
       40.022206245
      ],
      [
       116.346461051,
       40.022207767
      ],
      [
       116.346341344,
       40.019714753
      ],
      [
       116.34607171,
       40.019713232
      ]
     ]
    ]
   }
  },
  {
   "type": "Feature",
   "id": "PUBLIC-107",
   "properties": {
    "id": "PUBLIC-107",
    "layer": "PUBLIC_SPACE",
    "source_type": "agent_generated_design",
    "confidence": "medium",
    "geometry_role": "design_proposal",
    "space_type": "warm_arcade",
    "name_zh": "余热暖廊全天候公共通道（概念）",
    "name_en": "Waste-heat warm arcade, all-weather public route (concept)",
    "area_sqm_declared": 6370.555
   },
   "geometry": {
    "type": "Polygon",
    "coordinates": [
     [
      [
       116.346988626,
       40.022210741
      ],
      [
       116.3468689,
       40.019717728
      ],
      [
       116.346599265,
       40.019716208
      ],
      [
       116.346718982,
       40.022209221
      ],
      [
       116.346988626,
       40.022210741
      ]
     ]
    ]
   }
  },
  {
   "type": "Feature",
   "id": "PUBLIC-108",
   "properties": {
    "id": "PUBLIC-108",
    "layer": "PUBLIC_SPACE",
    "source_type": "agent_generated_design",
    "confidence": "medium",
    "geometry_role": "design_proposal",
    "space_type": "warm_arcade",
    "name_zh": "余热暖廊全天候公共通道（概念）",
    "name_en": "Waste-heat warm arcade, all-weather public route (concept)",
    "area_sqm_declared": 2425.978
   },
   "geometry": {
    "type": "Polygon",
    "coordinates": [
     [
      [
       116.347097993,
       40.024488719
      ],
      [
       116.347052644,
       40.023543999
      ],
      [
       116.346782995,
       40.023542479
      ],
      [
       116.346828722,
       40.024496298
      ],
      [
       116.347097993,
       40.024488719
      ]
     ]
    ]
   }
  },
  {
   "type": "Feature",
   "id": "PUBLIC-109",
   "properties": {
    "id": "PUBLIC-109",
    "layer": "PUBLIC_SPACE",
    "source_type": "agent_generated_design",
    "confidence": "medium",
    "geometry_role": "design_proposal",
    "space_type": "warm_arcade",
    "name_zh": "余热暖廊全天候公共通道（概念）",
    "name_en": "Waste-heat warm arcade, all-weather public route (concept)",
    "area_sqm_declared": 2472.382
   },
   "geometry": {
    "type": "Polygon",
    "coordinates": [
     [
      [
       116.346571284,
       40.024503673
      ],
      [
       116.346525059,
       40.023541025
      ],
      [
       116.346255292,
       40.023539503
      ],
      [
       116.346302012,
       40.02451125
      ],
      [
       116.346332478,
       40.024510431
      ],
      [
       116.346571284,
       40.024503673
      ]
     ]
    ]
   }
  }
 ]
}
