{
  "type": "FeatureCollection",
  "name": "road_centerlines",
  "features": [
    {
      "type": "Feature",
      "id": "ROAD-001",
      "properties": {
        "id": "ROAD-001",
        "layer": "ROAD_CENTERLINE",
        "source_type": "agent_generated_design",
        "confidence": "medium",
        "geometry_role": "design_proposal",
        "road_class": "greenway",
        "name_zh": "京张遗址公园活力主轴（慢行绿道）",
        "width_m": 12
      },
      "geometry": {
        "type": "LineString",
        "coordinates": [
          [
            116.346876,
            39.94425
          ],
          [
            116.346876,
            39.95475
          ],
          [
            116.346876,
            39.96525
          ],
          [
            116.346876,
            39.97575
          ],
          [
            116.346876,
            39.9845
          ],
          [
            116.346876,
            39.995
          ],
          [
            116.346876,
            40.0055
          ],
          [
            116.346876,
            40.016
          ],
          [
            116.346876,
            40.023
          ]
        ]
      }
    },
    {
      "type": "Feature",
      "id": "ROAD-011",
      "properties": {
        "id": "ROAD-011",
        "layer": "ROAD_CENTERLINE",
        "source_type": "agent_generated_design",
        "confidence": "medium",
        "geometry_role": "design_proposal",
        "road_class": "secondary",
        "name_zh": "东西次干路一",
        "width_m": 30
      },
      "geometry": {
        "type": "LineString",
        "coordinates": [
          [
            116.340457,
            39.94775
          ],
          [
            116.354988,
            39.94775
          ]
        ]
      }
    },
    {
      "type": "Feature",
      "id": "ROAD-012",
      "properties": {
        "id": "ROAD-012",
        "layer": "ROAD_CENTERLINE",
        "source_type": "agent_generated_design",
        "confidence": "medium",
        "geometry_role": "design_proposal",
        "road_class": "secondary",
        "name_zh": "东西次干路二",
        "width_m": 30
      },
      "geometry": {
        "type": "LineString",
        "coordinates": [
          [
            116.340019,
            39.9635
          ],
          [
            116.354988,
            39.9635
          ]
        ]
      }
    },
    {
      "type": "Feature",
      "id": "ROAD-013",
      "properties": {
        "id": "ROAD-013",
        "layer": "ROAD_CENTERLINE",
        "source_type": "agent_generated_design",
        "confidence": "medium",
        "geometry_role": "design_proposal",
        "road_class": "secondary",
        "name_zh": "东西次干路三",
        "width_m": 30
      },
      "geometry": {
        "type": "LineString",
        "coordinates": [
          [
            116.340012,
            39.97925
          ],
          [
            116.35416,
            39.97925
          ]
        ]
      }
    },
    {
      "type": "Feature",
      "id": "ROAD-014",
      "properties": {
        "id": "ROAD-014",
        "layer": "ROAD_CENTERLINE",
        "source_type": "agent_generated_design",
        "confidence": "medium",
        "geometry_role": "design_proposal",
        "road_class": "secondary",
        "name_zh": "东西次干路四",
        "width_m": 30
      },
      "geometry": {
        "type": "LineString",
        "coordinates": [
          [
            116.34099,
            39.995
          ],
          [
            116.353574,
            39.995
          ]
        ]
      }
    },
    {
      "type": "Feature",
      "id": "ROAD-015",
      "properties": {
        "id": "ROAD-015",
        "layer": "ROAD_CENTERLINE",
        "source_type": "agent_generated_design",
        "confidence": "medium",
        "geometry_role": "design_proposal",
        "road_class": "secondary",
        "name_zh": "东西次干路五",
        "width_m": 30
      },
      "geometry": {
        "type": "LineString",
        "coordinates": [
          [
            116.341932,
            40.01075
          ],
          [
            116.354437,
            40.01075
          ]
        ]
      }
    },
    {
      "type": "Feature",
      "id": "ROAD-021",
      "properties": {
        "id": "ROAD-021",
        "layer": "ROAD_CENTERLINE",
        "source_type": "agent_generated_design",
        "confidence": "medium",
        "geometry_role": "design_proposal",
        "road_class": "branch",
        "name_zh": "南北支路西",
        "width_m": 20
      },
      "geometry": {
        "type": "LineString",
        "coordinates": [
          [
            116.342508,
            39.9425
          ],
          [
            116.342508,
            40.022564
          ]
        ]
      }
    },
    {
      "type": "Feature",
      "id": "ROAD-022",
      "properties": {
        "id": "ROAD-022",
        "layer": "ROAD_CENTERLINE",
        "source_type": "agent_generated_design",
        "confidence": "medium",
        "geometry_role": "design_proposal",
        "road_class": "branch",
        "name_zh": "南北支路东",
        "width_m": 20
      },
      "geometry": {
        "type": "LineString",
        "coordinates": [
          [
            116.352492,
            39.9425
          ],
          [
            116.352492,
            40.023
          ]
        ]
      }
    },
    {
      "type": "Feature",
      "id": "ROAD-031",
      "properties": {
        "id": "ROAD-031",
        "layer": "ROAD_CENTERLINE",
        "source_type": "agent_generated_design",
        "confidence": "medium",
        "geometry_role": "design_proposal",
        "road_class": "pedestrian",
        "name_zh": "重点区步行通道1",
        "width_m": 8
      },
      "geometry": {
        "type": "LineString",
        "coordinates": [
          [
            116.3485,
            40.008425
          ],
          [
            116.3485,
            40.025075
          ]
        ]
      }
    },
    {
      "type": "Feature",
      "id": "ROAD-041",
      "properties": {
        "id": "ROAD-041",
        "layer": "ROAD_CENTERLINE",
        "source_type": "agent_generated_design",
        "confidence": "medium",
        "geometry_role": "design_proposal",
        "road_class": "transit_connection",
        "name_zh": "轨道站点接驳通道1",
        "width_m": 10
      },
      "geometry": {
        "type": "LineString",
        "coordinates": [
          [
            116.34366,
            40.01675
          ],
          [
            116.35334,
            40.01675
          ]
        ]
      }
    },
    {
      "type": "Feature",
      "id": "ROAD-032",
      "properties": {
        "id": "ROAD-032",
        "layer": "ROAD_CENTERLINE",
        "source_type": "agent_generated_design",
        "confidence": "medium",
        "geometry_role": "design_proposal",
        "road_class": "pedestrian",
        "name_zh": "重点区步行通道2",
        "width_m": 8
      },
      "geometry": {
        "type": "LineString",
        "coordinates": [
          [
            116.3475,
            39.984
          ],
          [
            116.3475,
            39.993
          ]
        ]
      }
    },
    {
      "type": "Feature",
      "id": "ROAD-042",
      "properties": {
        "id": "ROAD-042",
        "layer": "ROAD_CENTERLINE",
        "source_type": "agent_generated_design",
        "confidence": "medium",
        "geometry_role": "design_proposal",
        "road_class": "transit_connection",
        "name_zh": "轨道站点接驳通道2",
        "width_m": 10
      },
      "geometry": {
        "type": "LineString",
        "coordinates": [
          [
            116.34266,
            39.9885
          ],
          [
            116.35234,
            39.9885
          ]
        ]
      }
    },
    {
      "type": "Feature",
      "id": "ROAD-033",
      "properties": {
        "id": "ROAD-033",
        "layer": "ROAD_CENTERLINE",
        "source_type": "agent_generated_design",
        "confidence": "medium",
        "geometry_role": "design_proposal",
        "road_class": "pedestrian",
        "name_zh": "重点区步行通道3",
        "width_m": 8
      },
      "geometry": {
        "type": "LineString",
        "coordinates": [
          [
            116.3485,
            39.944292
          ],
          [
            116.3485,
            39.949548
          ]
        ]
      }
    },
    {
      "type": "Feature",
      "id": "ROAD-043",
      "properties": {
        "id": "ROAD-043",
        "layer": "ROAD_CENTERLINE",
        "source_type": "agent_generated_design",
        "confidence": "medium",
        "geometry_role": "design_proposal",
        "road_class": "transit_connection",
        "name_zh": "轨道站点接驳通道3",
        "width_m": 10
      },
      "geometry": {
        "type": "LineString",
        "coordinates": [
          [
            116.34278,
            39.94692
          ],
          [
            116.35422,
            39.94692
          ]
        ]
      }
    }
  ]
}
