{
  "type": "FeatureCollection",
  "name": "jingzhang_ai_thread_phasing",
  "metadata": {
    "coordinate_reference_system": "EPSG:4326",
    "design_concept_zh": "三期滚动开发：近期激活+中期主体+远期完善；每期可独立运营",
    "source_id": "DATA-SRC-AGENT-DESIGN-PHASING-20260811",
    "boundary_precision": "provisional_rough",
    "official_boundary_available_in_repository": false
  },
  "features": [
    {
      "type": "Feature",
      "properties": {
        "id": "PHASE-001",
        "layer": "PHASE",
        "source_type": "agent_generated_design",
        "confidence": "medium",
        "geometry_role": "design_proposal",
        "phase": "phase_1_near",
        "name_zh": "近期(2026-2028): 京张绿带激活+大钟寺启动",
        "description": "启动期：京张铁路遗产绿带先行；大钟寺AI总部基坑；清华园旧址改造；五道口门户广场",
        "area_sqm_calculated": 32806.341,
        "reviewer_note": "v2.0.0: phasing is a conceptual timeline, not an implementation commitment; area ratios are concept bands pending statutory alignment"
      },
      "geometry": {
        "type": "MultiPolygon",
        "coordinates": [
          [
            [
              [
                116.34540000000001,
                40.024499999999996
              ],
              [
                116.34559999999999,
                40.024499999999996
              ],
              [
                116.34559999999999,
                40.012
              ],
              [
                116.34540000000001,
                40.012
              ],
              [
                116.34540000000001,
                40.024499999999996
              ]
            ]
          ],
          [
            [
              [
                116.34479999999999,
                39.9915
              ],
              [
                116.34479999999999,
                39.994
              ],
              [
                116.345,
                39.994
              ],
              [
                116.345,
                39.9915
              ],
              [
                116.34479999999999,
                39.9915
              ]
            ]
          ],
          [
            [
              [
                116.34479999999999,
                39.951699999999995
              ],
              [
                116.34479999999999,
                39.954
              ],
              [
                116.345,
                39.954
              ],
              [
                116.345,
                39.951699999999995
              ],
              [
                116.34479999999999,
                39.951699999999995
              ]
            ]
          ]
        ]
      },
      "id": "PHASE-001"
    },
    {
      "type": "Feature",
      "properties": {
        "id": "PHASE-002",
        "layer": "PHASE",
        "source_type": "agent_generated_design",
        "confidence": "medium",
        "geometry_role": "design_proposal",
        "phase": "phase_2_mid",
        "name_zh": "中期(2028-2031): 重点区全面开发",
        "description": "拓展期：众智园AI主楼+加速器完工；AI原点社区全面交付；西翼人才公寓；东翼商业带",
        "area_sqm_calculated": 196043.061
      },
      "geometry": {
        "type": "MultiPolygon",
        "coordinates": [
          [
            [
              [
                116.3445,
                40.024499999999996
              ],
              [
                116.34479999999999,
                40.024499999999996
              ],
              [
                116.34479999999999,
                40.012499999999996
              ],
              [
                116.3445,
                40.012499999999996
              ],
              [
                116.3445,
                40.024499999999996
              ]
            ]
          ],
          [
            [
              [
                116.3445,
                40.009
              ],
              [
                116.34479999999999,
                40.009
              ],
              [
                116.34479999999999,
                39.9945
              ],
              [
                116.3445,
                39.9945
              ],
              [
                116.3445,
                40.009
              ]
            ]
          ],
          [
            [
              [
                116.35379999999999,
                40.009
              ],
              [
                116.35434109589042,
                40.009
              ],
              [
                116.35379999999999,
                39.99912499999981
              ],
              [
                116.35379999999999,
                40.009
              ]
            ]
          ],
          [
            [
              [
                116.3445,
                39.988
              ],
              [
                116.34479999999999,
                39.988
              ],
              [
                116.34479999999999,
                39.954499999999996
              ],
              [
                116.3445,
                39.954499999999996
              ],
              [
                116.3445,
                39.988
              ]
            ]
          ]
        ]
      },
      "id": "PHASE-002"
    },
    {
      "type": "Feature",
      "properties": {
        "id": "PHASE-003",
        "layer": "PHASE",
        "source_type": "agent_generated_design",
        "confidence": "medium",
        "geometry_role": "design_proposal",
        "phase": "phase_3_far",
        "name_zh": "远期(2031-2035): 西翼场景化+枢纽升级",
        "description": "深化期：小月河场景赋能翼成型；西直门枢纽升级；北五环入口景观；东翼延伸",
        "area_sqm_calculated": 900013.324
      },
      "geometry": {
        "type": "MultiPolygon",
        "coordinates": [
          [
            [
              [
                116.342,
                39.954499999999996
              ],
              [
                116.34026944444444,
                39.954499999999996
              ],
              [
                116.3398,
                39.971399999999896
              ],
              [
                116.3398,
                39.976550000000046
              ],
              [
                116.3417,
                40.006
              ],
              [
                116.342,
                40.01214999999997
              ],
              [
                116.342,
                39.954499999999996
              ]
            ]
          ],
          [
            [
              [
                116.35379999999999,
                40.012499999999996
              ],
              [
                116.35379999999999,
                40.024499999999996
              ],
              [
                116.3545,
                40.024499999999996
              ],
              [
                116.3545,
                40.012499999999996
              ],
              [
                116.35379999999999,
                40.012499999999996
              ]
            ]
          ],
          [
            [
              [
                116.35379999999999,
                39.948499999999996
              ],
              [
                116.3545,
                39.948499999999996
              ],
              [
                116.3545,
                39.9425
              ],
              [
                116.35379999999999,
                39.9425
              ],
              [
                116.35379999999999,
                39.948499999999996
              ]
            ]
          ]
        ]
      },
      "id": "PHASE-003"
    }
  ]
}