{"type":"FeatureCollection","name":"phasing","features":[{"type":"Feature","id":"PHASE-001","properties":{"id":"PHASE","layer":"PHASE","source_type":"agent_generated_design","confidence":"medium","geometry_role":"design_proposal","phase":"phase_1","name_zh":"近期：众智园启动区","period":"2026-2028","area_sqm_declared":1929201.9},"geometry":{"type":"Polygon","coordinates":[[[116.34299999999999,40.0075],[116.354,40.0075],[116.354,40.026],[116.34299999999999,40.025999999999996],[116.34299999999999,40.0075]]]}},{"type":"Feature","id":"PHASE-002","properties":{"id":"PHASE","layer":"PHASE","source_type":"agent_generated_design","confidence":"medium","geometry_role":"design_proposal","phase":"phase_2","name_zh":"中期：AI原点社区","period":"2028-2030","area_sqm_declared":1043236.9},"geometry":{"type":"Polygon","coordinates":[[[116.34200000000001,39.98349999999999],[116.353,39.9835],[116.353,39.99349999999999],[116.34200000000001,39.99349999999999],[116.34200000000001,39.98349999999999]]]}},{"type":"Feature","id":"PHASE-003","properties":{"id":"PHASE","layer":"PHASE","source_type":"agent_generated_design","confidence":"medium","geometry_role":"design_proposal","phase":"phase_3","name_zh":"远期：大钟寺产业区","period":"2030-2032","area_sqm_declared":720454.2},"geometry":{"type":"Polygon","coordinates":[[[116.34200000000001,39.943999999999996],[116.35500000000002,39.943999999999996],[116.35500000000002,39.94983999999999],[116.34200000000001,39.94984],[116.34200000000001,39.943999999999996]]]}}]}