{
  "type": "FeatureCollection",
  "features": [
    {
      "type": "Feature",
      "id": "GREEN-SPINE-001",
      "properties": {
        "id": "GREEN-SPINE-001",
        "layer": "GREEN_SPACE",
        "source_type": "agent_generated_design",
        "confidence": "medium",
        "geometry_role": "design_proposal",
        "land_use_code": "1401",
        "name_zh": "京张负荷脊连续绿带",
        "name_en": "Load Spine Continuous Green Belt",
        "area_sqm_declared": 1360175.535
      },
      "geometry": {
        "type": "Polygon",
        "coordinates": [
          [
            [
              116.34643694454827,
              40.02637723113848
            ],
            [
              116.34644816802518,
              40.02643849169077
            ],
            [
              116.34646714808252,
              40.02649861153068
            ],
            [
              116.3464678446948,
              40.02650014359699
            ],
            [
              116.34803896781611,
              40.02650016727896
            ],
            [
              116.34805664443749,
              40.026447552377164
            ],
            [
              116.34806903442632,
              40.026386424829965
            ],
            [
              116.34807357110314,
              40.02632465800423
            ],
            [
              116.34890126202129,
              39.93918495082764
            ],
            [
              116.3488979041732,
              39.93912313869887
            ],
            [
              116.34888669172705,
              39.939061877561166
            ],
            [
              116.34886773268524,
              39.939001757390685
            ],
            [
              116.34886703745414,
              39.93900022658494
            ],
            [
              116.34729791704794,
              39.939000227701236
            ],
            [
              116.34728026285549,
              39.93905284471669
            ],
            [
              116.34726788898719,
              39.939113973218504
            ],
            [
              116.34726335841587,
              39.93917574097938
            ],
            [
              116.34643358571951,
              40.02631541984849
            ],
            [
              116.34643694454827,
              40.02637723113848
            ]
          ]
        ]
      }
    }
  ]
}
