{
  "type": "FeatureCollection",
  "features": [
    {
      "type": "Feature",
      "id": "OVERFLOW-001",
      "properties": {
        "id": "OVERFLOW-001",
        "layer": "PUBLIC_SPACE",
        "source_type": "agent_generated_design",
        "confidence": "medium",
        "geometry_role": "design_proposal",
        "name_zh": "压力测试溢流庭院",
        "name_en": "Stress-test Overflow Courtyard",
        "area_sqm_declared": 101624.171
      },
      "geometry": {
        "type": "Polygon",
        "coordinates": [
          [
            [
              116.35059961347042,
              40.01660289009791
            ],
            [
              116.3505707474171,
              40.01644536368462
            ],
            [
              116.35052193919242,
              40.01629077124792
            ],
            [
              116.3504536589721,
              40.01614060157391
            ],
            [
              116.35036656444305,
              40.015996300846226
            ],
            [
              116.35026149446519,
              40.01585925871958
            ],
            [
              116.35013946098934,
              40.015730794938335
            ],
            [
              116.35000163930879,
              40.01561214662831
            ],
            [
              116.34984935673893,
              40.01550445638455
            ],
            [
              116.34968407983392,
              40.01540876126957
            ],
            [
              116.34950740026316,
              40.015325982827925
            ],
            [
              116.34932101948425,
              40.01525691821319
            ],
            [
              116.34912673235938,
              40.015202232512806
            ],
            [
              116.34892640987321,
              40.015162452344576
            ],
            [
              116.34872198111827,
              40.01513796078638
            ],
            [
              116.34851541472155,
              40.01512899368797
            ],
            [
              116.34830869989061,
              40.01513563740024
            ],
            [
              116.34810382726187,
              40.015157827943966
            ],
            [
              116.34790276973493,
              40.01519535162577
            ],
            [
              116.34770746347795,
              40.015247847095615
            ],
            [
              116.34751978928584,
              40.01531480882586
            ],
            [
              116.34734155447165,
              40.01539559197857
            ],
            [
              116.34717447546458,
              40.01548941861408
            ],
            [
              116.34702016128259,
              40.01559538518122
            ],
            [
              116.34688009803823,
              40.01571247121704
            ],
            [
              116.34675563462743,
              40.01583954917241
            ],
            [
              116.34664796973838,
              40.01597539526891
            ],
            [
              116.34655814030602,
              40.01611870128239
            ],
            [
              116.34648701152346,
              40.01626808714019
            ],
            [
              116.34643526850638,
              40.016422114210215
            ],
            [
              116.34640340969078,
              40.0165792991545
            ],
            [
              116.34639174202819,
              40.016738128213454
            ],
            [
              116.3464003780243,
              40.01689707178357
            ],
            [
              116.34642923465022,
              40.017054599148025
            ],
            [
              116.34647803413665,
              40.01720919321853
            ],
            [
              116.34654630664369,
              40.01735936514611
            ],
            [
              116.34663339478081,
              40.017503668660616
            ],
            [
              116.34673845993375,
              40.01764071400014
            ],
            [
              116.34686049033712,
              40.01776918129691
            ],
            [
              116.34699831081569,
              40.017887833290004
            ],
            [
              116.3471505941002,
              40.01799552724283
            ],
            [
              116.34731587360915,
              40.018091225950336
            ],
            [
              116.34749255757299,
              40.018174007729904
            ],
            [
              116.3476789443653,
              40.018243075299715
            ],
            [
              116.34787323889283,
              40.01829776345872
            ],
            [
              116.34807356988642,
              40.01833754549463
            ],
            [
              116.34827800792661,
              40.018362038257834
            ],
            [
              116.34848458402956,
              40.01837100585227
            ],
            [
              116.34869130861472,
              40.018364361907935
            ],
            [
              116.34889619067087,
              40.01834217041302
            ],
            [
              116.34909725693603,
              40.01830464509743
            ],
            [
              116.34929257090633,
              40.018252147374
            ],
            [
              116.34948025149035,
              40.01818518285695
            ],
            [
              116.34965849112946,
              40.01810439649136
            ],
            [
              116.34982557320902,
              40.018010566340315
            ],
            [
              116.34997988859301,
              40.01790459609011
            ],
            [
              116.35011995112266,
              40.01778750634523
            ],
            [
              116.35024441192952,
              40.01766042479733
            ],
            [
              116.35035207242554,
              40.01752457536292
            ],
            [
              116.35044189584447,
              40.01738126639436
            ],
            [
              116.35051301722436,
              40.01723187807796
            ],
            [
              116.35056475173405,
              40.01707784914023
            ],
            [
              116.3505966012644,
              40.01692066299092
            ],
            [
              116.35060825922075,
              40.01676183343596
            ],
            [
              116.35059961347042,
              40.01660289009791
            ]
          ]
        ]
      }
    },
    {
      "type": "Feature",
      "id": "OVERFLOW-002",
      "properties": {
        "id": "OVERFLOW-002",
        "layer": "PUBLIC_SPACE",
        "source_type": "agent_generated_design",
        "confidence": "medium",
        "geometry_role": "design_proposal",
        "name_zh": "人工接力溢流庭院",
        "name_en": "Manual Relay Overflow Courtyard",
        "area_sqm_declared": 101624.171
      },
      "geometry": {
        "type": "Polygon",
        "coordinates": [
          [
            [
              116.34959874934901,
              39.988352900594656
            ],
            [
              116.34956989661644,
              39.98819537328036
            ],
            [
              116.3495211099058,
              39.98804077985007
            ],
            [
              116.34945285918543,
              39.98789060909951
            ],
            [
              116.34936580185799,
              39.98774630722265
            ],
            [
              116.34926077642498,
              39.98760926388544
            ],
            [
              116.34913879440818,
              39.98748079884384
            ],
            [
              116.34900103060521,
              39.987362149235906
            ],
            [
              116.3488488117741,
              39.98725445766922
            ],
            [
              116.34868360385512,
              39.9871587612191
            ],
            [
              116.34850699785339,
              39.98707598144302
            ],
            [
              116.34832069451812,
              39.98700691550743
            ],
            [
              116.34812648796577,
              39.98695222851256
            ],
            [
              116.34792624840522,
              39.986912447088685
            ],
            [
              116.34772190413051,
              39.9868879543258
            ],
            [
              116.34751542295531,
              39.98687898608528
            ],
            [
              116.34730879326658,
              39.98688562872905
            ],
            [
              116.34710400488098,
              39.986907818288124
            ],
            [
              116.34690302988702,
              39.986945341078616
            ],
            [
              116.34670780365815,
              39.98699783575903
            ],
            [
              116.34652020621878,
              39.98706479680931
            ],
            [
              116.34634204414287,
              39.987145579397996
            ],
            [
              116.34617503315923,
              39.98723940559085
            ],
            [
              116.34602078163073,
              39.98734537184088
            ],
            [
              116.34588077506663,
              39.98746245768814
            ],
            [
              116.34575636181692,
              39.98758953558528
            ],
            [
              116.34564874008663,
              39.98772538175435
            ],
            [
              116.34555894639502,
              39.987868687970526
            ],
            [
              116.34548784559085,
              39.988018074159086
            ],
            [
              116.34543612252017,
              39.98817210168476
            ],
            [
              116.34540427542676,
              39.988329287205154
            ],
            [
              116.345392611149,
              39.98848811695509
            ],
            [
              116.34540124215985,
              39.98864706132445
            ],
            [
              116.34543008547823,
              39.98880458958871
            ],
            [
              116.34547886346276,
              39.9889591846509
            ],
            [
              116.34554710648045,
              39.98910935765257
            ],
            [
              116.34563415742466,
              39.98925366231321
            ],
            [
              116.34573917803917,
              39.98939070885997
            ],
            [
              116.34586115698741,
              39.989519177413484
            ],
            [
              116.34599891958965,
              39.98963783070075
            ],
            [
              116.34615113913398,
              39.9897455259728
            ],
            [
              116.34631634965281,
              39.98984122601191
            ],
            [
              116.346492960041,
              39.98992400912271
            ],
            [
              116.34667926938089,
              39.989993078010556
            ],
            [
              116.34687348332514,
              39.99004776746181
            ],
            [
              116.3470737313809,
              39.99008755075175
            ],
            [
              116.3472780849276,
              39.99011204471871
            ],
            [
              116.34748457579532,
              39.99012101345501
            ],
            [
              116.34769121522457,
              39.99011437057972
            ],
            [
              116.34789601302438,
              39.99009218007067
            ],
            [
              116.34809699674443,
              39.9900546556483
            ],
            [
              116.34829223067597,
              39.99000215871676
            ],
            [
              116.3484798344986,
              39.98993519488269
            ],
            [
              116.34865800139298,
              39.98985440908446
            ],
            [
              116.3488250154452,
              39.9897605793797
            ],
            [
              116.34897926817442,
              39.989654609450334
            ],
            [
              116.34911927402528,
              39.98953751989771
            ],
            [
              116.34924368467516,
              39.98941043841157
            ],
            [
              116.34935130201895,
              39.98927458890778
            ],
            [
              116.34944108970599,
              39.989131279739354
            ],
            [
              116.34951218311824,
              39.98898189109443
            ],
            [
              116.34956389769371,
              39.98882786170269
            ],
            [
              116.34959573551512,
              39.98867067497822
            ],
            [
              116.34960739010039,
              39.98851184473247
            ],
            [
              116.34959874934901,
              39.988352900594656
            ]
          ]
        ]
      }
    },
    {
      "type": "Feature",
      "id": "OVERFLOW-003",
      "properties": {
        "id": "OVERFLOW-003",
        "layer": "PUBLIC_SPACE",
        "source_type": "agent_generated_design",
        "confidence": "medium",
        "geometry_role": "design_proposal",
        "name_zh": "峰值换乘溢流庭院",
        "name_en": "Peak Switch Overflow Courtyard",
        "area_sqm_declared": 101624.171
      },
      "geometry": {
        "type": "Polygon",
        "coordinates": [
          [
            [
              116.35059747501555,
              39.9467728712358
            ],
            [
              116.35056863617278,
              39.94661534316559
            ],
            [
              116.35051987549019,
              39.94646074926916
            ],
            [
              116.35045166268523,
              39.94631057834675
            ],
            [
              116.3503646547951,
              39.946166276594084
            ],
            [
              116.35025968984506,
              39.94602923367589
            ],
            [
              116.35013777877423,
              39.945900769344235
            ],
            [
              116.35000009569687,
              39.94578212073036
            ],
            [
              116.34984796659359,
              39.945674430432376
            ],
            [
              116.34968285654053,
              39.94557873551346
            ],
            [
              116.34950635560035,
              39.9454959575164
            ],
            [
              116.34932016351061,
              39.945426893590614
            ],
            [
              116.34912607331658,
              39.945372208817
            ],
            [
              116.34892595410678,
              39.94533242980454
            ],
            [
              116.34872173301648,
              39.94530793962003
            ],
            [
              116.34851537667322,
              39.94529897410003
            ],
            [
              116.34830887226212,
              39.94530561958027
            ],
            [
              116.34810420839361,
              39.94532781206448
            ],
            [
              116.34790335595731,
              39.945365337840535
            ],
            [
              116.34770824914668,
              39.9454178355382
            ],
            [
              116.34752076683621,
              39.945484799608266
            ],
            [
              116.34734271449138,
              39.94556558519018
            ],
            [
              116.34717580678435,
              39.945659414320794
            ],
            [
              116.34702165108348,
              39.945765383424714
            ],
            [
              116.34688173197517,
              39.94588247201449
            ],
            [
              116.34675739696718,
              39.946009552516244
            ],
            [
              116.34664984351093,
              39.94614540112688
            ],
            [
              116.34656010746806,
              39.946288709597944
            ],
            [
              116.34648905313198,
              39.946438097833024
            ],
            [
              116.34643736490096,
              39.94659212717702
            ],
            [
              116.346405540683,
              39.94674931426999
            ],
            [
              116.34639388709596,
              39.946908145331626
            ],
            [
              116.34640251650954,
              39.947067090739104
            ],
            [
              116.34643134595771,
              39.947224619757954
            ],
            [
              116.3464800979324,
              39.947379215283945
            ],
            [
              116.34654830305088,
              39.94752938845421
            ],
            [
              116.34663530457124,
              39.94767369298662
            ],
            [
              116.346740264713,
              39.94781073910964
            ],
            [
              116.34686217272193,
              39.94793920694806
            ],
            [
              116.34699985460131,
              39.94805785923584
            ],
            [
              116.34715198441666,
              39.9481655532337
            ],
            [
              116.34731709706443,
              39.94826125173629
            ],
            [
              116.34749360238222,
              39.94834403306308
            ],
            [
              116.34767980046433,
              39.94841309993672
            ],
            [
              116.34787389803512,
              39.948467787163
            ],
            [
              116.34807402572262,
              39.9485075680387
            ],
            [
              116.3482782560658,
              39.948532059425425
            ],
            [
              116.34848462208149,
              39.948541025440406
            ],
            [
              116.34869113621285,
              39.94853437972889
            ],
            [
              116.34889580947598,
              39.94851218629603
            ],
            [
              116.34909667062011,
              39.94847465889042
            ],
            [
              116.34929178511729,
              39.948422158944915
            ],
            [
              116.3494792737975,
              39.94835519209509
            ],
            [
              116.34965733095059,
              39.948274403308346
            ],
            [
              116.34982424171956,
              39.948180570671006
            ],
            [
              116.34997839861839,
              39.948074597893154
            ],
            [
              116.35011831701463,
              39.9479575056035
            ],
            [
              116.35024264942793,
              39.94783042151808
            ],
            [
              116.3503501985065,
              39.9476945695777
            ],
            [
              116.35043992855704,
              39.947551258158775
            ],
            [
              116.35051097551637,
              39.94740186747104
            ],
            [
              116.35056265526968,
              39.947247836263806
            ],
            [
              116.35059447023475,
              39.947090647968615
            ],
            [
              116.35060611414939,
              39.946931816412
            ],
            [
              116.35059747501555,
              39.9467728712358
            ]
          ]
        ]
      }
    }
  ]
}
