{
  "type": "FeatureCollection",
  "features": [
    {
      "type": "Feature",
      "id": "LU-zhongzhiyuan_ai_acceleration_area",
      "properties": {
        "land_use": "key_acceleration",
        "land_use_zh": "重点片区",
        "area_sqm_declared": 1920000.0,
        "id": "LU-zhongzhiyuan_ai_acceleration_area",
        "layer": "LAND_USE",
        "source_type": "agent_generated_design",
        "confidence": "medium",
        "geometry_role": "design_proposal"
      },
      "geometry": {
        "type": "Polygon",
        "coordinates": [
          [
            [
              112.51439120259563,
              0.006761855276944929
            ],
            [
              112.52872006693069,
              0.006761988624389121
            ],
            [
              112.52871988840047,
              0.017581170417272314
            ],
            [
              112.51439102349796,
              0.01758082371390864
            ],
            [
              112.51439120259563,
              0.006761855276944929
            ]
          ]
        ]
      }
    },
    {
      "type": "Feature",
      "id": "LU-beijing_ai_origin_community",
      "properties": {
        "land_use": "key_origin",
        "land_use_zh": "重点片区",
        "area_sqm_declared": 1043040.0,
        "id": "LU-beijing_ai_origin_community",
        "layer": "LAND_USE",
        "source_type": "agent_generated_design",
        "confidence": "medium",
        "geometry_role": "design_proposal"
      },
      "geometry": {
        "type": "Polygon",
        "coordinates": [
          [
            [
              112.53006339880658,
              0.008114401324602822
            ],
            [
              112.54107892545348,
              0.008114523955770812
            ],
            [
              112.54107880206112,
              0.015760208745843152
            ],
            [
              112.53006327511187,
              0.015759970568859367
            ],
            [
              112.53006339880658,
              0.008114401324602822
            ]
          ]
        ]
      }
    },
    {
      "type": "Feature",
      "id": "LU-dazhongsi_ai_industry_cluster",
      "properties": {
        "land_use": "key_cluster",
        "land_use_zh": "重点片区",
        "area_sqm_declared": 720000.0,
        "id": "LU-dazhongsi_ai_industry_cluster",
        "layer": "LAND_USE",
        "source_type": "agent_generated_design",
        "confidence": "medium",
        "geometry_role": "design_proposal"
      },
      "geometry": {
        "type": "Polygon",
        "coordinates": [
          [
            [
              112.54215366315204,
              0.0013524226507343501
            ],
            [
              112.54618378133338,
              0.0013524301139609307
            ],
            [
              112.54618361447253,
              0.015778351324383554
            ],
            [
              112.54215349614141,
              0.015778264253404714
            ],
            [
              112.54215366315204,
              0.0013524226507343501
            ]
          ]
        ]
      }
    },
    {
      "type": "Feature",
      "id": "LU-CTX-1",
      "properties": {
        "land_use": "urban_context",
        "land_use_zh": "城市更新型用地",
        "area_sqm_declared": 7716960.0,
        "id": "LU-CTX-1",
        "layer": "LAND_USE",
        "source_type": "agent_generated_design",
        "confidence": "medium",
        "geometry_role": "design_proposal"
      },
      "geometry": {
        "type": "Polygon",
        "coordinates": [
          [
            [
              112.51304741952184,
              0.027047370991072215
            ],
            [
              112.54707887350831,
              0.027048635404805267
            ],
            [
              112.54707936740579,
              0.0
            ],
            [
              112.51304791716314,
              0.0
            ],
            [
              112.51304741952184,
              0.027047370991072215
            ]
          ],
          [
            [
              112.54215366315204,
              0.0013524226507343501
            ],
            [
              112.54618378133338,
              0.0013524301139609307
            ],
            [
              112.54618361447253,
              0.015778351324383554
            ],
            [
              112.54215349614141,
              0.015778264253404714
            ],
            [
              112.54215366315204,
              0.0013524226507343501
            ]
          ],
          [
            [
              112.53006327511187,
              0.015759970568859367
            ],
            [
              112.53006339880658,
              0.008114401324602822
            ],
            [
              112.54107892545348,
              0.008114523955770812
            ],
            [
              112.54107880206112,
              0.015760208745843152
            ],
            [
              112.53006327511187,
              0.015759970568859367
            ]
          ],
          [
            [
              112.51439102349796,
              0.01758082371390864
            ],
            [
              112.51439120259563,
              0.006761855276944929
            ],
            [
              112.52872006693069,
              0.006761988624389121
            ],
            [
              112.52871988840047,
              0.017581170417272314
            ],
            [
              112.51439102349796,
              0.01758082371390864
            ]
          ]
        ]
      }
    }
  ]
}