{
  "type": "FeatureCollection",
  "features": [
    {
      "type": "Feature",
      "id": "PUBLIC-1",
      "properties": {
        "public_type": "plaza",
        "area_sqm_declared": 1140000.0,
        "id": "PUBLIC-1",
        "layer": "PUBLIC_SPACE",
        "source_type": "agent_generated_design",
        "confidence": "medium",
        "geometry_role": "design_proposal"
      },
      "geometry": {
        "type": "Polygon",
        "coordinates": [
          [
            [
              112.51304791716314,
              0.0
            ],
            [
              112.54707936740579,
              0.0
            ],
            [
              112.54707936246682,
              0.0027048635430732223
            ],
            [
              112.51304791218672,
              0.0027047371017087218
            ],
            [
              112.51304791716314,
              0.0
            ]
          ]
        ]
      }
    },
    {
      "type": "Feature",
      "id": "PUBLIC-2",
      "properties": {
        "public_type": "plaza",
        "area_sqm_declared": 156000.0,
        "id": "PUBLIC-2",
        "layer": "PUBLIC_SPACE",
        "source_type": "agent_generated_design",
        "confidence": "medium",
        "geometry_role": "design_proposal"
      },
      "geometry": {
        "type": "Polygon",
        "coordinates": [
          [
            [
              112.52880961895055,
              0.007212788753518383
            ],
            [
              112.5299738517266,
              0.007212800290240161
            ],
            [
              112.52997366663566,
              0.018032000719071187
            ],
            [
              112.52880943381177,
              0.018031971877265976
            ],
            [
              112.52880961895055,
              0.007212788753518383
            ]
          ]
        ]
      }
    },
    {
      "type": "Feature",
      "id": "PUBLIC-3",
      "properties": {
        "public_type": "plaza",
        "area_sqm_declared": 156000.0,
        "id": "PUBLIC-3",
        "layer": "PUBLIC_SPACE",
        "source_type": "agent_generated_design",
        "confidence": "medium",
        "geometry_role": "design_proposal"
      },
      "geometry": {
        "type": "Polygon",
        "coordinates": [
          [
            [
              112.54116852557392,
              0.001803227767158842
            ],
            [
              112.54206410426144,
              0.0018032299797416983
            ],
            [
              112.54206393628056,
              0.015868423816504645
            ],
            [
              112.54116835755957,
              0.015868404345775036
            ],
            [
              112.54116852557392,
              0.001803227767158842
            ]
          ]
        ]
      }
    }
  ]
}