{
  "type": "FeatureCollection",
  "name": "jingzhang_open_challenges_slow_network",
  "calculation_crs": "EPSG:4548",
  "design_status": "conceptual_not_statutory",
  "features": [
    {
      "type": "Feature",
      "id": "ROAD-001",
      "properties": {
        "id": "ROAD-001",
        "layer": "ROAD_CENTERLINE",
        "source_type": "agent_generated_design",
        "confidence": "medium",
        "geometry_role": "design_proposal",
        "conceptual_not_statutory": true,
        "legal_status": "conceptual_not_statutory",
        "name_zh": "南端照护接缝",
        "road_class": "pedestrian",
        "orientation": "cross_corridor",
        "network_role": "primary_daily_stitch",
        "intended_mechanism_stage": "city_question_intake",
        "redline_status": "none_conceptual_centerline_only",
        "design_note_zh": "优先缝合铁路两侧的日常步行、骑行、维修与照护可达性；线位不代表道路红线。",
        "length_m_declared": 1261.538
      },
      "geometry": {
        "type": "LineString",
        "coordinates": [
          [
            116.340536318296,
            39.94500115736
          ],
          [
            116.355297086581,
            39.945001104303
          ]
        ]
      }
    },
    {
      "type": "Feature",
      "id": "ROAD-002",
      "properties": {
        "id": "ROAD-002",
        "layer": "ROAD_CENTERLINE",
        "source_type": "agent_generated_design",
        "confidence": "medium",
        "geometry_role": "design_proposal",
        "conceptual_not_statutory": true,
        "legal_status": "conceptual_not_statutory",
        "name_zh": "维修技能横街",
        "road_class": "cycleway",
        "orientation": "cross_corridor",
        "network_role": "primary_daily_stitch",
        "intended_mechanism_stage": "city_question_intake",
        "redline_status": "none_conceptual_centerline_only",
        "design_note_zh": "优先缝合铁路两侧的日常步行、骑行、维修与照护可达性；线位不代表道路红线。",
        "length_m_declared": 1283.908
      },
      "geometry": {
        "type": "LineString",
        "coordinates": [
          [
            116.340272500135,
            39.954501141279
          ],
          [
            116.355297090357,
            39.954501104367
          ]
        ]
      }
    },
    {
      "type": "Feature",
      "id": "ROAD-003",
      "properties": {
        "id": "ROAD-003",
        "layer": "ROAD_CENTERLINE",
        "source_type": "agent_generated_design",
        "confidence": "medium",
        "geometry_role": "design_proposal",
        "conceptual_not_statutory": true,
        "legal_status": "conceptual_not_statutory",
        "name_zh": "健康照护横街",
        "road_class": "greenway",
        "orientation": "cross_corridor",
        "network_role": "primary_daily_stitch",
        "intended_mechanism_stage": "global_co_answer",
        "redline_status": "none_conceptual_centerline_only",
        "design_note_zh": "优先缝合铁路两侧的日常步行、骑行、维修与照护可达性；线位不代表道路红线。",
        "length_m_declared": 1306.278
      },
      "geometry": {
        "type": "LineString",
        "coordinates": [
          [
            116.34000859045,
            39.96400112459
          ],
          [
            116.355297076477,
            39.964001104432
          ]
        ]
      }
    },
    {
      "type": "Feature",
      "id": "ROAD-004",
      "properties": {
        "id": "ROAD-004",
        "layer": "ROAD_CENTERLINE",
        "source_type": "agent_generated_design",
        "confidence": "medium",
        "geometry_role": "design_proposal",
        "conceptual_not_statutory": true,
        "legal_status": "conceptual_not_statutory",
        "name_zh": "遗址日常横街",
        "road_class": "pedestrian",
        "orientation": "cross_corridor",
        "network_role": "primary_daily_stitch",
        "intended_mechanism_stage": "global_co_answer",
        "redline_status": "none_conceptual_centerline_only",
        "design_note_zh": "优先缝合铁路两侧的日常步行、骑行、维修与照护可达性；线位不代表道路红线。",
        "length_m_declared": 1270.565
      },
      "geometry": {
        "type": "LineString",
        "coordinates": [
          [
            116.339744589184,
            39.973501107292
          ],
          [
            116.354617154845,
            39.973501148238
          ]
        ]
      }
    },
    {
      "type": "Feature",
      "id": "ROAD-005",
      "properties": {
        "id": "ROAD-005",
        "layer": "ROAD_CENTERLINE",
        "source_type": "agent_generated_design",
        "confidence": "medium",
        "geometry_role": "design_proposal",
        "conceptual_not_statutory": true,
        "legal_status": "conceptual_not_statutory",
        "name_zh": "中央共答横街",
        "road_class": "cycleway",
        "orientation": "cross_corridor",
        "network_role": "primary_daily_stitch",
        "intended_mechanism_stage": "controlled_validation",
        "redline_status": "none_conceptual_centerline_only",
        "design_note_zh": "优先缝合铁路两侧的日常步行、骑行、维修与照护可达性；线位不代表道路红线。",
        "length_m_declared": 1164.948
      },
      "geometry": {
        "type": "LineString",
        "coordinates": [
          [
            116.340218976943,
            39.983001138127
          ],
          [
            116.353857132759,
            39.983001192482
          ]
        ]
      }
    },
    {
      "type": "Feature",
      "id": "ROAD-006",
      "properties": {
        "id": "ROAD-006",
        "layer": "ROAD_CENTERLINE",
        "source_type": "agent_generated_design",
        "confidence": "medium",
        "geometry_role": "design_proposal",
        "conceptual_not_statutory": true,
        "legal_status": "conceptual_not_statutory",
        "name_zh": "公众评议横街",
        "road_class": "pedestrian",
        "orientation": "cross_corridor",
        "network_role": "primary_daily_stitch",
        "intended_mechanism_stage": "public_deliberation",
        "redline_status": "none_conceptual_centerline_only",
        "design_note_zh": "优先缝合铁路两侧的日常步行、骑行、维修与照护可达性；线位不代表道路红线。",
        "length_m_declared": 1076.311
      },
      "geometry": {
        "type": "LineString",
        "coordinates": [
          [
            116.340831838664,
            39.992501175074
          ],
          [
            116.353434063011,
            39.992501214985
          ]
        ]
      }
    },
    {
      "type": "Feature",
      "id": "ROAD-007",
      "properties": {
        "id": "ROAD-007",
        "layer": "ROAD_CENTERLINE",
        "source_type": "agent_generated_design",
        "confidence": "medium",
        "geometry_role": "design_proposal",
        "conceptual_not_statutory": true,
        "legal_status": "conceptual_not_statutory",
        "name_zh": "复盘共享横街",
        "road_class": "greenway",
        "orientation": "cross_corridor",
        "network_role": "primary_daily_stitch",
        "intended_mechanism_stage": "open_retrospective_exit",
        "redline_status": "none_conceptual_centerline_only",
        "design_note_zh": "优先缝合铁路两侧的日常步行、骑行、维修与照护可达性；线位不代表道路红线。",
        "length_m_declared": 1068.253
      },
      "geometry": {
        "type": "LineString",
        "coordinates": [
          [
            116.341444853142,
            40.002001208792
          ],
          [
            116.353954461315,
            40.00200118724
          ]
        ]
      }
    },
    {
      "type": "Feature",
      "id": "ROAD-008",
      "properties": {
        "id": "ROAD-008",
        "layer": "ROAD_CENTERLINE",
        "source_type": "agent_generated_design",
        "confidence": "medium",
        "geometry_role": "design_proposal",
        "conceptual_not_statutory": true,
        "legal_status": "conceptual_not_statutory",
        "name_zh": "北部社区横街",
        "road_class": "cycleway",
        "orientation": "cross_corridor",
        "network_role": "primary_daily_stitch",
        "intended_mechanism_stage": "public_deliberation",
        "redline_status": "none_conceptual_centerline_only",
        "design_note_zh": "优先缝合铁路两侧的日常步行、骑行、维修与照护可达性；线位不代表道路红线。",
        "length_m_declared": 1067.605
      },
      "geometry": {
        "type": "LineString",
        "coordinates": [
          [
            116.341971232095,
            40.01150123517
          ],
          [
            116.354474987018,
            40.011501157147
          ]
        ]
      }
    },
    {
      "type": "Feature",
      "id": "ROAD-009",
      "properties": {
        "id": "ROAD-009",
        "layer": "ROAD_CENTERLINE",
        "source_type": "agent_generated_design",
        "confidence": "medium",
        "geometry_role": "design_proposal",
        "conceptual_not_statutory": true,
        "legal_status": "conceptual_not_statutory",
        "name_zh": "北端开放题横街",
        "road_class": "transit_connection",
        "orientation": "cross_corridor",
        "network_role": "primary_daily_stitch",
        "intended_mechanism_stage": "open_retrospective_exit",
        "redline_status": "none_conceptual_centerline_only",
        "design_note_zh": "优先缝合铁路两侧的日常步行、骑行、维修与照护可达性；线位不代表道路红线。",
        "length_m_declared": 1072.344
      },
      "geometry": {
        "type": "LineString",
        "coordinates": [
          [
            116.342434648174,
            40.021001256424
          ],
          [
            116.35499564022,
            40.021001124703
          ]
        ]
      }
    },
    {
      "type": "Feature",
      "id": "ROAD-010",
      "properties": {
        "id": "ROAD-010",
        "layer": "ROAD_CENTERLINE",
        "source_type": "agent_generated_design",
        "confidence": "medium",
        "geometry_role": "design_proposal",
        "conceptual_not_statutory": true,
        "legal_status": "conceptual_not_statutory",
        "name_zh": "南段功能原型维修补给慢行支线",
        "road_class": "greenway",
        "orientation": "longitudinal_support",
        "network_role": "local_vertical_support_not_corridor",
        "primary_design_emphasis": false,
        "segment_context_zh": "PROV-KEY-003 临时概念范围附近",
        "redline_status": "none_conceptual_centerline_only",
        "design_note_zh": "PROV-KEY-003 临时概念范围附近的局部辅助连接，仅衔接相邻横向日常缝合；不表示大钟寺站点锚定，也不构成全长主轴或法定交通走廊。",
        "length_m_declared": 1054.86
      },
      "geometry": {
        "type": "LineString",
        "coordinates": [
          [
            116.3435,
            39.943
          ],
          [
            116.3435,
            39.9525
          ]
        ]
      }
    },
    {
      "type": "Feature",
      "id": "ROAD-011",
      "properties": {
        "id": "ROAD-011",
        "layer": "ROAD_CENTERLINE",
        "source_type": "agent_generated_design",
        "confidence": "medium",
        "geometry_role": "design_proposal",
        "conceptual_not_statutory": true,
        "legal_status": "conceptual_not_statutory",
        "name_zh": "AI 原点社区照护慢行支线",
        "road_class": "pedestrian",
        "orientation": "longitudinal_support",
        "network_role": "local_vertical_support_not_corridor",
        "primary_design_emphasis": false,
        "segment_context_zh": "北京 AI 原点社区附近",
        "redline_status": "none_conceptual_centerline_only",
        "design_note_zh": "重点片区附近的局部辅助连接，仅衔接相邻横向日常缝合，不构成全长主轴或法定交通走廊。",
        "length_m_declared": 1332.464
      },
      "geometry": {
        "type": "LineString",
        "coordinates": [
          [
            116.347,
            39.9825
          ],
          [
            116.347,
            39.9945
          ]
        ]
      }
    },
    {
      "type": "Feature",
      "id": "ROAD-012",
      "properties": {
        "id": "ROAD-012",
        "layer": "ROAD_CENTERLINE",
        "source_type": "agent_generated_design",
        "confidence": "medium",
        "geometry_role": "design_proposal",
        "conceptual_not_statutory": true,
        "legal_status": "conceptual_not_statutory",
        "name_zh": "众智园开放题档案慢行支线",
        "road_class": "cycleway",
        "orientation": "longitudinal_support",
        "network_role": "local_vertical_support_not_corridor",
        "primary_design_emphasis": false,
        "segment_context_zh": "众智园重点片区附近",
        "redline_status": "none_conceptual_centerline_only",
        "design_note_zh": "重点片区附近的局部辅助连接，仅衔接相邻横向日常缝合，不构成全长主轴或法定交通走廊。",
        "length_m_declared": 1110.391
      },
      "geometry": {
        "type": "LineString",
        "coordinates": [
          [
            116.3505,
            40.007
          ],
          [
            116.3505,
            40.017
          ]
        ]
      }
    },
    {
      "type": "Feature",
      "id": "ROAD-013",
      "properties": {
        "id": "ROAD-013",
        "layer": "ROAD_CENTERLINE",
        "source_type": "agent_generated_design",
        "confidence": "medium",
        "geometry_role": "design_proposal",
        "conceptual_not_statutory": true,
        "legal_status": "conceptual_not_statutory",
        "name_zh": "众智园无障碍接驳慢行支线",
        "road_class": "transit_connection",
        "orientation": "longitudinal_support",
        "network_role": "local_vertical_support_not_corridor",
        "primary_design_emphasis": false,
        "segment_context_zh": "众智园重点片区附近",
        "redline_status": "none_conceptual_centerline_only",
        "design_note_zh": "重点片区附近的局部辅助连接，仅衔接相邻横向日常缝合，不构成全长主轴或法定交通走廊。",
        "length_m_declared": 943.833
      },
      "geometry": {
        "type": "LineString",
        "coordinates": [
          [
            116.353,
            40.017
          ],
          [
            116.353,
            40.0255
          ]
        ]
      }
    }
  ],
  "hierarchy_note": "Nine transverse daily-stitch lines are primary; four short vertical segments provide local focus-area support only."
}
