{
  "type": "FeatureCollection",
  "name": "apprentice_city_four_semesters",
  "features": [
    {
      "type": "Feature",
      "id": "PHASE-P0",
      "properties": {
        "id": "PHASE-P0",
        "layer": "PHASE",
        "source_type": "agent_generated_design",
        "confidence": "low",
        "geometry_role": "design_proposal",
        "phase": "P0",
        "name_zh": "立课：100 日可证伪样板",
        "name_en": "Set the syllabus: 100-day falsifiable pilots",
        "area_sqm_declared": 3090067.338
      },
      "geometry": {
        "type": "Polygon",
        "coordinates": [
          [
            [
              116.34070000000001,
              39.93899999999999
            ],
            [
              116.34009439985525,
              39.96080725742202
            ],
            [
              116.35530000879518,
              39.96089281961003
            ],
            [
              116.3553,
              39.939
            ],
            [
              116.34070000000001,
              39.93899999999999
            ]
          ]
        ]
      }
    },
    {
      "type": "Feature",
      "id": "PHASE-P1",
      "properties": {
        "id": "PHASE-P1",
        "layer": "PHASE",
        "source_type": "agent_generated_design",
        "confidence": "low",
        "geometry_role": "design_proposal",
        "phase": "P1",
        "name_zh": "开课：三区低资本样板",
        "name_en": "Open classes: low-capital pilots in three schools",
        "area_sqm_declared": 3075176.019
      },
      "geometry": {
        "type": "Polygon",
        "coordinates": [
          [
            [
              116.3553,
              39.965
            ],
            [
              116.35530000879518,
              39.96089281961003
            ],
            [
              116.34009439985525,
              39.96080725742202
            ],
            [
              116.3397,
              39.975
            ],
            [
              116.34019665870896,
              39.98270056586796
            ],
            [
              116.35387795243325,
              39.9827776388478
            ],
            [
              116.3553,
              39.965
            ]
          ]
        ]
      }
    },
    {
      "type": "Feature",
      "id": "PHASE-P2",
      "properties": {
        "id": "PHASE-P2",
        "layer": "PHASE",
        "source_type": "agent_generated_design",
        "confidence": "low",
        "geometry_role": "design_proposal",
        "phase": "P2",
        "name_zh": "成校：十六场景与独立毕业评估",
        "name_en": "Form the schools: 16 scenarios and independent jury",
        "area_sqm_declared": 2649459.662
      },
      "geometry": {
        "type": "Polygon",
        "coordinates": [
          [
            [
              116.3533,
              39.989999999999995
            ],
            [
              116.35387795243325,
              39.9827776388478
            ],
            [
              116.34019665870896,
              39.98270056586796
            ],
            [
              116.34160972275413,
              40.00460124667962
            ],
            [
              116.35410369428702,
              40.0046715519075
            ],
            [
              116.3533,
              39.989999999999995
            ]
          ]
        ]
      }
    },
    {
      "type": "Feature",
      "id": "PHASE-P3",
      "properties": {
        "id": "PHASE-P3",
        "layer": "PHASE",
        "source_type": "agent_generated_design",
        "confidence": "low",
        "geometry_role": "design_proposal",
        "phase": "P3",
        "name_zh": "交换：区域教师包与依法重验",
        "name_en": "Exchange: train-the-trainer kits and local revalidation",
        "area_sqm_declared": 2598122.367
      },
      "geometry": {
        "type": "Polygon",
        "coordinates": [
          [
            [
              116.3553,
              40.0265
            ],
            [
              116.35410369428702,
              40.0046715519075
            ],
            [
              116.34160972275413,
              40.00460124667962
            ],
            [
              116.34169999999999,
              40.00600000000001
            ],
            [
              116.34270000000001,
              40.0265
            ],
            [
              116.3553,
              40.0265
            ]
          ]
        ]
      }
    }
  ]
}
