{
  "type": "FeatureCollection",
  "name": "apprentice_city_learning_streets",
  "features": [
    {
      "type": "Feature",
      "id": "ROAD-001",
      "properties": {
        "id": "ROAD-001",
        "layer": "ROAD_CENTERLINE",
        "source_type": "agent_generated_design",
        "confidence": "low",
        "geometry_role": "design_proposal",
        "road_class": "greenway",
        "name_zh": "百年课程公园连续无障碍线",
        "name_en": "Centennial Syllabus Park accessible line",
        "operating_rule": "public-first; static and staffed wayfinding remain available"
      },
      "geometry": {
        "type": "LineString",
        "coordinates": [
          [
            116.35316491212959,
            39.93898810779224
          ],
          [
            116.34793361559616,
            39.94382388070218
          ],
          [
            116.34786608501207,
            39.94868857367502
          ],
          [
            116.34779854017741,
            39.953553262463515
          ],
          [
            116.34773098108793,
            39.95841794706752
          ],
          [
            116.34766340773959,
            39.9632826274869
          ],
          [
            116.34746830973829,
            39.96814658600512
          ],
          [
            116.3472062441831,
            39.973010162967725
          ],
          [
            116.34707487865818,
            39.97787447151041
          ],
          [
            116.34703729897655,
            39.98273930419414
          ],
          [
            116.34699970927474,
            39.987604132753816
          ],
          [
            116.3471308953173,
            39.99246990807926
          ],
          [
            116.3474211909878,
            39.99733657525508
          ],
          [
            116.3477115231977,
            40.00220323796214
          ],
          [
            116.34799372902407,
            40.00706985027528
          ],
          [
            116.34824573389838,
            40.01193628810373
          ],
          [
            116.34849776989596,
            40.01680272159836
          ],
          [
            116.34874983702917,
            40.02166915075874
          ],
          [
            116.3448366091351,
            40.02651209995551
          ]
        ]
      }
    },
    {
      "type": "Feature",
      "id": "ROAD-002",
      "properties": {
        "id": "ROAD-002",
        "layer": "ROAD_CENTERLINE",
        "source_type": "agent_generated_design",
        "confidence": "low",
        "geometry_role": "design_proposal",
        "road_class": "pedestrian",
        "name_zh": "课程穿越 01",
        "name_en": "Cross-classroom street 01",
        "operating_rule": "ground-level-first; exact section and redline pending professional confirmation"
      },
      "geometry": {
        "type": "LineString",
        "coordinates": [
          [
            116.3404834980888,
            39.94679808378519
          ],
          [
            116.35530001396587,
            39.94688142455228
          ]
        ]
      }
    },
    {
      "type": "Feature",
      "id": "ROAD-003",
      "properties": {
        "id": "ROAD-003",
        "layer": "ROAD_CENTERLINE",
        "source_type": "agent_generated_design",
        "confidence": "low",
        "geometry_role": "design_proposal",
        "road_class": "cycleway",
        "name_zh": "课程穿越 02",
        "name_en": "Cross-classroom street 02",
        "operating_rule": "ground-level-first; exact section and redline pending professional confirmation"
      },
      "geometry": {
        "type": "LineString",
        "coordinates": [
          [
            116.34016737086108,
            39.95818054013251
          ],
          [
            116.35530001269014,
            39.95826568560773
          ]
        ]
      }
    },
    {
      "type": "Feature",
      "id": "ROAD-004",
      "properties": {
        "id": "ROAD-004",
        "layer": "ROAD_CENTERLINE",
        "source_type": "agent_generated_design",
        "confidence": "low",
        "geometry_role": "design_proposal",
        "road_class": "pedestrian",
        "name_zh": "课程穿越 03",
        "name_en": "Cross-classroom street 03",
        "operating_rule": "ground-level-first; exact section and redline pending professional confirmation"
      },
      "geometry": {
        "type": "LineString",
        "coordinates": [
          [
            116.33982677989505,
            39.970438543221775
          ],
          [
            116.3548582828457,
            39.97052317666418
          ]
        ]
      }
    },
    {
      "type": "Feature",
      "id": "ROAD-005",
      "properties": {
        "id": "ROAD-005",
        "layer": "ROAD_CENTERLINE",
        "source_type": "agent_generated_design",
        "confidence": "low",
        "geometry_role": "design_proposal",
        "road_class": "cycleway",
        "name_zh": "课程穿越 04",
        "name_en": "Cross-classroom street 04",
        "operating_rule": "ground-level-first; exact section and redline pending professional confirmation"
      },
      "geometry": {
        "type": "LineString",
        "coordinates": [
          [
            116.34019665870896,
            39.98270056586796
          ],
          [
            116.35387795243325,
            39.9827776388478
          ]
        ]
      }
    },
    {
      "type": "Feature",
      "id": "ROAD-006",
      "properties": {
        "id": "ROAD-006",
        "layer": "ROAD_CENTERLINE",
        "source_type": "agent_generated_design",
        "confidence": "low",
        "geometry_role": "design_proposal",
        "road_class": "pedestrian",
        "name_zh": "课程穿越 05",
        "name_en": "Cross-classroom street 05",
        "operating_rule": "ground-level-first; exact section and redline pending professional confirmation"
      },
      "geometry": {
        "type": "LineString",
        "coordinates": [
          [
            116.34098787514128,
            39.994964958502194
          ],
          [
            116.35357582506833,
            39.99503585087792
          ]
        ]
      }
    },
    {
      "type": "Feature",
      "id": "ROAD-007",
      "properties": {
        "id": "ROAD-007",
        "layer": "ROAD_CENTERLINE",
        "source_type": "agent_generated_design",
        "confidence": "low",
        "geometry_role": "design_proposal",
        "road_class": "cycleway",
        "name_zh": "课程穿越 06",
        "name_en": "Cross-classroom street 06",
        "operating_rule": "ground-level-first; exact section and redline pending professional confirmation"
      },
      "geometry": {
        "type": "LineString",
        "coordinates": [
          [
            116.34175994695349,
            40.00722921199496
          ],
          [
            116.35424768122651,
            40.00729946738624
          ]
        ]
      }
    },
    {
      "type": "Feature",
      "id": "ROAD-008",
      "properties": {
        "id": "ROAD-008",
        "layer": "ROAD_CENTERLINE",
        "source_type": "agent_generated_design",
        "confidence": "low",
        "geometry_role": "design_proposal",
        "road_class": "pedestrian",
        "name_zh": "课程穿越 07",
        "name_en": "Cross-classroom street 07",
        "operating_rule": "ground-level-first; exact section and redline pending professional confirmation"
      },
      "geometry": {
        "type": "LineString",
        "coordinates": [
          [
            116.34231537786361,
            40.01861650393943
          ],
          [
            116.35487173666182,
            40.01868708634794
          ]
        ]
      }
    },
    {
      "type": "Feature",
      "id": "ROAD-009",
      "properties": {
        "id": "ROAD-009",
        "layer": "ROAD_CENTERLINE",
        "source_type": "agent_generated_design",
        "confidence": "low",
        "geometry_role": "design_proposal",
        "road_class": "local_access",
        "name_zh": "众智园 · 全栈实训校场步行实作环",
        "name_en": "ZHONGZHIYUAN · FULL-STACK PRACTICE YARD practice walk",
        "operating_rule": "concept loop; not a proposed road redline"
      },
      "geometry": {
        "type": "LineString",
        "coordinates": [
          [
            116.34364412553725,
            40.0079953499198
          ],
          [
            116.34364429018851,
            40.025504709184155
          ],
          [
            116.35335571079492,
            40.02550470862211
          ],
          [
            116.35335587544584,
            40.00799535048206
          ],
          [
            116.34364412553725,
            40.0079953499198
          ]
        ]
      }
    },
    {
      "type": "Feature",
      "id": "ROAD-010",
      "properties": {
        "id": "ROAD-010",
        "layer": "ROAD_CENTERLINE",
        "source_type": "agent_generated_design",
        "confidence": "low",
        "geometry_role": "design_proposal",
        "road_class": "local_access",
        "name_zh": "AI 原点 · 公共转译共学堂步行实作环",
        "name_en": "AI ORIGIN · PUBLIC TRANSLATION SCHOOL practice walk",
        "operating_rule": "concept loop; not a proposed road redline"
      },
      "geometry": {
        "type": "LineString",
        "coordinates": [
          [
            116.34264389959051,
            39.98399535189164
          ],
          [
            116.34264398419106,
            39.99300470645609
          ],
          [
            116.35235601595991,
            39.993004705892666
          ],
          [
            116.35235610056033,
            39.98399535245522
          ],
          [
            116.34264389959051,
            39.98399535189164
          ]
        ]
      }
    },
    {
      "type": "Feature",
      "id": "ROAD-011",
      "properties": {
        "id": "ROAD-011",
        "layer": "ROAD_CENTERLINE",
        "source_type": "agent_generated_design",
        "confidence": "low",
        "geometry_role": "design_proposal",
        "road_class": "local_access",
        "name_zh": "大钟寺 · 城市采用毕业台步行实作环",
        "name_en": "DAZHONGSI · CITY ADOPTION STUDIO practice walk",
        "operating_rule": "concept loop; not a proposed road redline"
      },
      "geometry": {
        "type": "LineString",
        "coordinates": [
          [
            116.34264352891883,
            39.94449536078365
          ],
          [
            116.34264357436078,
            39.949344708264974
          ],
          [
            116.35435642523137,
            39.94934470758564
          ],
          [
            116.35435647067331,
            39.94449536146311
          ],
          [
            116.34264352891883,
            39.94449536078365
          ]
        ]
      }
    }
  ]
}
