{
  "type": "FeatureCollection",
  "name": "open_loop_mobility_network",
  "features": [
    {
      "type": "Feature",
      "id": "ROAD-001",
      "properties": {
        "id": "ROAD-001",
        "layer": "ROAD_CENTERLINE",
        "source_type": "agent_generated_design",
        "confidence": "medium",
        "geometry_role": "design_proposal",
        "road_class": "greenway",
        "name_zh": "京张开放源代码公共脊",
        "design_status": "conceptual_alignment_not_engineering"
      },
      "geometry": {
        "type": "LineString",
        "coordinates": [
          [
            116.3474,
            39.941
          ],
          [
            116.347,
            39.9525
          ],
          [
            116.3478,
            39.9655
          ],
          [
            116.3465,
            39.9785
          ],
          [
            116.3477,
            39.9915
          ],
          [
            116.347,
            40.005
          ],
          [
            116.3482,
            40.017
          ],
          [
            116.348,
            40.0252
          ]
        ]
      }
    },
    {
      "type": "Feature",
      "id": "ROAD-002",
      "properties": {
        "id": "ROAD-002",
        "layer": "ROAD_CENTERLINE",
        "source_type": "agent_generated_design",
        "confidence": "medium",
        "geometry_role": "design_proposal",
        "road_class": "pedestrian",
        "name_zh": "大钟寺四象限步行缝合",
        "design_status": "conceptual_alignment_not_engineering"
      },
      "geometry": {
        "type": "LineString",
        "coordinates": [
          [
            116.34045,
            39.948
          ],
          [
            116.3553,
            39.948
          ]
        ]
      }
    },
    {
      "type": "Feature",
      "id": "ROAD-003",
      "properties": {
        "id": "ROAD-003",
        "layer": "ROAD_CENTERLINE",
        "source_type": "agent_generated_design",
        "confidence": "medium",
        "geometry_role": "design_proposal",
        "road_class": "transit_connection",
        "name_zh": "AI原点校园园区缝合",
        "design_status": "conceptual_alignment_not_engineering"
      },
      "geometry": {
        "type": "LineString",
        "coordinates": [
          [
            116.34057096774194,
            39.9885
          ],
          [
            116.35342,
            39.9885
          ]
        ]
      }
    },
    {
      "type": "Feature",
      "id": "ROAD-004",
      "properties": {
        "id": "ROAD-004",
        "layer": "ROAD_CENTERLINE",
        "source_type": "agent_generated_design",
        "confidence": "medium",
        "geometry_role": "design_proposal",
        "road_class": "cycleway",
        "name_zh": "众智园清河慢行缝合",
        "design_status": "conceptual_alignment_not_engineering"
      },
      "geometry": {
        "type": "LineString",
        "coordinates": [
          [
            116.34228536585366,
            40.018
          ],
          [
            116.35483424657534,
            40.018
          ]
        ]
      }
    }
  ]
}
