{
  "type": "FeatureCollection",
  "name": "building_footprints_concept",
  "features": [
    {
      "type": "Feature",
      "id": "BLDG-001",
      "properties": {
        "id": "BLDG-001",
        "layer": "BUILDING_FOOTPRINT",
        "source_type": "agent_generated_design",
        "confidence": "medium",
        "geometry_role": "design_proposal",
        "building_type": "ai_r_and_d",
        "renewal_class": "new_build_reference",
        "key_area_id": "zhongzhiyuan_ai_acceleration_area",
        "name_zh": "众智园测试与研发原型",
        "height_control_status": "待正式控规条件确认",
        "rights_status": "待权属与现状调查",
        "design_note": "概念建筑基底，不代表现状测绘或建设结论",
        "area_sqm_declared": 91003.528
      },
      "geometry": {
        "type": "Polygon",
        "coordinates": [
          [
            [
              116.3434,
              40.0195
            ],
            [
              116.3434,
              40.0225
            ],
            [
              116.3466,
              40.0225
            ],
            [
              116.3466,
              40.0195
            ],
            [
              116.3434,
              40.0195
            ]
          ]
        ]
      }
    },
    {
      "type": "Feature",
      "id": "BLDG-002",
      "properties": {
        "id": "BLDG-002",
        "layer": "BUILDING_FOOTPRINT",
        "source_type": "agent_generated_design",
        "confidence": "medium",
        "geometry_role": "design_proposal",
        "building_type": "lab",
        "renewal_class": "renovate_reference",
        "key_area_id": "zhongzhiyuan_ai_acceleration_area",
        "name_zh": "治理与标准工作坊原型",
        "height_control_status": "待正式控规条件确认",
        "rights_status": "待权属与现状调查",
        "design_note": "概念建筑基底，不代表现状测绘或建设结论",
        "area_sqm_declared": 85315.688
      },
      "geometry": {
        "type": "Polygon",
        "coordinates": [
          [
            [
              116.3495,
              40.0195
            ],
            [
              116.3495,
              40.0225
            ],
            [
              116.3525,
              40.0225
            ],
            [
              116.3525,
              40.0195
            ],
            [
              116.3495,
              40.0195
            ]
          ]
        ]
      }
    },
    {
      "type": "Feature",
      "id": "BLDG-003",
      "properties": {
        "id": "BLDG-003",
        "layer": "BUILDING_FOOTPRINT",
        "source_type": "agent_generated_design",
        "confidence": "medium",
        "geometry_role": "design_proposal",
        "building_type": "incubator",
        "renewal_class": "new_build_reference",
        "key_area_id": "zhongzhiyuan_ai_acceleration_area",
        "name_zh": "花园式孵化共享空间",
        "height_control_status": "待正式控规条件确认",
        "rights_status": "待权属与现状调查",
        "design_note": "概念建筑基底，不代表现状测绘或建设结论",
        "area_sqm_declared": 58398.951
      },
      "geometry": {
        "type": "Polygon",
        "coordinates": [
          [
            [
              116.3461,
              40.0139
            ],
            [
              116.3461,
              40.0161
            ],
            [
              116.3489,
              40.0161
            ],
            [
              116.3489,
              40.0139
            ],
            [
              116.3461,
              40.0139
            ]
          ]
        ]
      }
    },
    {
      "type": "Feature",
      "id": "BLDG-004",
      "properties": {
        "id": "BLDG-004",
        "layer": "BUILDING_FOOTPRINT",
        "source_type": "agent_generated_design",
        "confidence": "medium",
        "geometry_role": "design_proposal",
        "building_type": "education",
        "renewal_class": "retain_reference",
        "key_area_id": "beijing_ai_origin_community",
        "name_zh": "近校学习与成果发布",
        "height_control_status": "待正式控规条件确认",
        "rights_status": "待权属与现状调查",
        "design_note": "概念建筑基底，不代表现状测绘或建设结论",
        "area_sqm_declared": 73974.491
      },
      "geometry": {
        "type": "Polygon",
        "coordinates": [
          [
            [
              116.3435,
              39.9877
            ],
            [
              116.3435,
              39.9903
            ],
            [
              116.3465,
              39.9903
            ],
            [
              116.3465,
              39.9877
            ],
            [
              116.3435,
              39.9877
            ]
          ]
        ]
      }
    },
    {
      "type": "Feature",
      "id": "BLDG-005",
      "properties": {
        "id": "BLDG-005",
        "layer": "BUILDING_FOOTPRINT",
        "source_type": "agent_generated_design",
        "confidence": "medium",
        "geometry_role": "design_proposal",
        "building_type": "mixed_use",
        "renewal_class": "renovate_reference",
        "key_area_id": "beijing_ai_origin_community",
        "name_zh": "成果转化复合界面",
        "height_control_status": "待正式控规条件确认",
        "rights_status": "待权属与现状调查",
        "design_note": "概念建筑基底，不代表现状测绘或建设结论",
        "area_sqm_declared": 73974.387
      },
      "geometry": {
        "type": "Polygon",
        "coordinates": [
          [
            [
              116.3495,
              39.9877
            ],
            [
              116.3495,
              39.9903
            ],
            [
              116.3525,
              39.9903
            ],
            [
              116.3525,
              39.9877
            ],
            [
              116.3495,
              39.9877
            ]
          ]
        ]
      }
    },
    {
      "type": "Feature",
      "id": "BLDG-006",
      "properties": {
        "id": "BLDG-006",
        "layer": "BUILDING_FOOTPRINT",
        "source_type": "agent_generated_design",
        "confidence": "medium",
        "geometry_role": "design_proposal",
        "building_type": "cultural",
        "renewal_class": "new_build_reference",
        "key_area_id": "beijing_ai_origin_community",
        "name_zh": "开源回声展示节点",
        "height_control_status": "待正式控规条件确认",
        "rights_status": "待权属与现状调查",
        "design_note": "概念建筑基底，不代表现状测绘或建设结论",
        "area_sqm_declared": 35566.176
      },
      "geometry": {
        "type": "Polygon",
        "coordinates": [
          [
            [
              116.34625,
              39.98525
            ],
            [
              116.34625,
              39.98675
            ],
            [
              116.34875,
              39.98675
            ],
            [
              116.34875,
              39.98525
            ],
            [
              116.34625,
              39.98525
            ]
          ]
        ]
      }
    },
    {
      "type": "Feature",
      "id": "BLDG-007",
      "properties": {
        "id": "BLDG-007",
        "layer": "BUILDING_FOOTPRINT",
        "source_type": "agent_generated_design",
        "confidence": "medium",
        "geometry_role": "design_proposal",
        "building_type": "office",
        "renewal_class": "retain_reference",
        "key_area_id": "dazhongsi_ai_industry_cluster",
        "name_zh": "城市型产业服务底座",
        "height_control_status": "待正式控规条件确认",
        "rights_status": "待权属与现状调查",
        "design_note": "概念建筑基底，不代表现状测绘或建设结论",
        "area_sqm_declared": 68325.457
      },
      "geometry": {
        "type": "Polygon",
        "coordinates": [
          [
            [
              116.3435,
              39.9458
            ],
            [
              116.3435,
              39.9482
            ],
            [
              116.3465,
              39.9482
            ],
            [
              116.3465,
              39.9458
            ],
            [
              116.3435,
              39.9458
            ]
          ]
        ]
      }
    },
    {
      "type": "Feature",
      "id": "BLDG-008",
      "properties": {
        "id": "BLDG-008",
        "layer": "BUILDING_FOOTPRINT",
        "source_type": "agent_generated_design",
        "confidence": "medium",
        "geometry_role": "design_proposal",
        "building_type": "retail",
        "renewal_class": "renovate_reference",
        "key_area_id": "dazhongsi_ai_industry_cluster",
        "name_zh": "智能原生体验街界面",
        "height_control_status": "待正式控规条件确认",
        "rights_status": "待权属与现状调查",
        "design_note": "概念建筑基底，不代表现状测绘或建设结论",
        "area_sqm_declared": 68325.361
      },
      "geometry": {
        "type": "Polygon",
        "coordinates": [
          [
            [
              116.3495,
              39.9458
            ],
            [
              116.3495,
              39.9482
            ],
            [
              116.3525,
              39.9482
            ],
            [
              116.3525,
              39.9458
            ],
            [
              116.3495,
              39.9458
            ]
          ]
        ]
      }
    },
    {
      "type": "Feature",
      "id": "BLDG-009",
      "properties": {
        "id": "BLDG-009",
        "layer": "BUILDING_FOOTPRINT",
        "source_type": "agent_generated_design",
        "confidence": "medium",
        "geometry_role": "design_proposal",
        "building_type": "community_service",
        "renewal_class": "renovate_reference",
        "key_area_id": "dazhongsi_ai_industry_cluster",
        "name_zh": "公共服务与维护台",
        "height_control_status": "待正式控规条件确认",
        "rights_status": "待权属与现状调查",
        "design_note": "概念建筑基底，不代表现状测绘或建设结论",
        "area_sqm_declared": 49338.34
      },
      "geometry": {
        "type": "Polygon",
        "coordinates": [
          [
            [
              116.3447,
              39.957
            ],
            [
              116.3447,
              39.959
            ],
            [
              116.3473,
              39.959
            ],
            [
              116.3473,
              39.957
            ],
            [
              116.3447,
              39.957
            ]
          ]
        ]
      }
    },
    {
      "type": "Feature",
      "id": "BLDG-010",
      "properties": {
        "id": "BLDG-010",
        "layer": "BUILDING_FOOTPRINT",
        "source_type": "agent_generated_design",
        "confidence": "medium",
        "geometry_role": "design_proposal",
        "building_type": "talent_apartment",
        "renewal_class": "retain_reference",
        "key_area_id": "beijing_ai_origin_community",
        "name_zh": "人才生活支持原型",
        "height_control_status": "待正式控规条件确认",
        "rights_status": "待权属与现状调查",
        "design_note": "概念建筑基底，不代表现状测绘或建设结论",
        "area_sqm_declared": 49334.731
      },
      "geometry": {
        "type": "Polygon",
        "coordinates": [
          [
            [
              116.3497,
              39.962
            ],
            [
              116.3497,
              39.964
            ],
            [
              116.3523,
              39.964
            ],
            [
              116.3523,
              39.962
            ],
            [
              116.3497,
              39.962
            ]
          ]
        ]
      }
    },
    {
      "type": "Feature",
      "id": "BLDG-011",
      "properties": {
        "id": "BLDG-011",
        "layer": "BUILDING_FOOTPRINT",
        "source_type": "agent_generated_design",
        "confidence": "medium",
        "geometry_role": "design_proposal",
        "building_type": "existing_retained",
        "renewal_class": "retain_reference",
        "key_area_id": "beijing_ai_origin_community",
        "name_zh": "既有界面保留参考",
        "height_control_status": "待正式控规条件确认",
        "rights_status": "待权属与现状调查",
        "design_note": "概念建筑基底，不代表现状测绘或建设结论",
        "area_sqm_declared": 47429.794
      },
      "geometry": {
        "type": "Polygon",
        "coordinates": [
          [
            [
              116.34375,
              39.973
            ],
            [
              116.34375,
              39.975
            ],
            [
              116.34625,
              39.975
            ],
            [
              116.34625,
              39.973
            ],
            [
              116.34375,
              39.973
            ]
          ]
        ]
      }
    },
    {
      "type": "Feature",
      "id": "BLDG-012",
      "properties": {
        "id": "BLDG-012",
        "layer": "BUILDING_FOOTPRINT",
        "source_type": "agent_generated_design",
        "confidence": "medium",
        "geometry_role": "design_proposal",
        "building_type": "mixed_use",
        "renewal_class": "reconfigure_candidate",
        "key_area_id": "beijing_ai_origin_community",
        "name_zh": "公共交往与服务重组候选",
        "height_control_status": "待正式控规条件确认",
        "rights_status": "待权属与现状调查",
        "design_note": "概念建筑基底，不代表现状测绘或建设结论",
        "area_sqm_declared": 47428.362
      },
      "geometry": {
        "type": "Polygon",
        "coordinates": [
          [
            [
              116.34975,
              39.975
            ],
            [
              116.34975,
              39.977
            ],
            [
              116.35225,
              39.977
            ],
            [
              116.35225,
              39.975
            ],
            [
              116.34975,
              39.975
            ]
          ]
        ]
      }
    }
  ]
}
