{
  "type": "FeatureCollection",
  "name": "overall_design_area_provisional",
  "features": [
    {
      "type": "Feature",
      "id": "SITE-001",
      "properties": {
        "id": "SITE-001",
        "layer": "SITE_BOUNDARY",
        "source_type": "agent_inferred_from_public_data",
        "confidence": "medium",
        "geometry_role": "provisional_constraint",
        "scope_id": "overall_design_area",
        "name_zh": "总体设计范围临时粗略替代边界",
        "official_boundary": false,
        "boundary_precision": "provisional_rough",
        "source_id": "DATA-SRC-PROVISIONAL-BOUNDARIES-20260605",
        "derived_from_source_ids": [
          "DATA-SRC-OFFICIAL-ANNOUNCEMENT-20260509"
        ],
        "source_title": "依据公告文字四至、约11.4平方公里约束与道路名称形成的临时粗略范围",
        "derivation_method": "仓库公开资料推定并在EPSG:4548下复核面积；仅用于概念生成与自检，不代表道路或地块红线。",
        "area_sqm_declared": 11412825.386,
        "area_sqm_calculated": 11412825.386,
        "usage_note": "不得作为official redline、审批依据或精确选址依据；取得官方矢量后须整体重算。",
        "name_en": "Provisional rough substitute for the overall design area"
      },
      "geometry": {
        "type": "Polygon",
        "coordinates": [
          [
            [
              116.3407,
              39.939
            ],
            [
              116.3553,
              39.939
            ],
            [
              116.3553,
              39.965
            ],
            [
              116.3533,
              39.99
            ],
            [
              116.3553,
              40.0265
            ],
            [
              116.3427,
              40.0265
            ],
            [
              116.3417,
              40.006
            ],
            [
              116.3397,
              39.975
            ],
            [
              116.3407,
              39.939
            ]
          ]
        ]
      }
    }
  ]
}
