{
  "type": "FeatureCollection",
  "features": [
    {
      "type": "Feature",
      "id": "ROAD-EVIDENCE-001",
      "properties": {
        "id": "ROAD-EVIDENCE-001",
        "layer": "ROAD_CENTERLINE",
        "source_type": "agent_generated_design",
        "confidence": "medium",
        "geometry_role": "design_proposal",
        "road_class": "greenway",
        "name_zh": "京张公共证据慢行线",
        "name_en": "Jing-Zhang Public Evidence Walk",
        "program_role": "evidence_spine",
        "length_m_declared": 7755.773,
        "engineering_status": "conceptual_connection_not_road_redline"
      },
      "geometry": {
        "type": "LineString",
        "coordinates": [
          [
            116.3485,
            40.01675
          ],
          [
            116.3475,
            39.9885
          ],
          [
            116.3485,
            39.946920000000006
          ]
        ]
      }
    }
  ]
}
