{
 "type": "FeatureCollection",
 "features": [
  {
   "type": "Feature",
   "id": "GREEN-C-S1",
   "properties": {
    "id": "GREEN-C-S1",
    "layer": "GREEN_SPACE",
    "source_type": "agent_generated_design",
    "confidence": "medium",
    "geometry_role": "design_proposal",
    "land_use_code": "1401",
    "land_use_label_zh": "公园绿地",
    "name_zh": "京张遗址公园校准绿轴 · S1",
    "area_sqm_declared": 630565.739,
    "area_sqm_calculated": 630565.739,
    "area_calculation_crs": "EPSG:4548",
    "bm0_role_zh": "Y 形主干 · 真实环境下的校准与里程路径"
   },
   "geometry": {
    "type": "Polygon",
    "coordinates": [
     [
      [
       116.34512102279805,
       39.95470578391445
      ],
      [
       116.3501375365804,
       39.954734013797356
      ],
      [
       116.35028639734958,
       39.93900020728161
      ],
      [
       116.34527076367172,
       39.939000197702505
      ],
      [
       116.34512102279805,
       39.95470578391445
      ]
     ],
     [
      [
       116.34605748034136,
       39.94923642149669
      ],
      [
       116.34608663539623,
       39.946174486017384
      ],
      [
       116.35013793189452,
       39.94619726617839
      ],
      [
       116.35010895743766,
       39.94925920411488
      ],
      [
       116.34605748034136,
       39.94923642149669
      ]
     ]
    ]
   }
  },
  {
   "type": "Feature",
   "id": "GREEN-C-S2",
   "properties": {
    "id": "GREEN-C-S2",
    "layer": "GREEN_SPACE",
    "source_type": "agent_generated_design",
    "confidence": "medium",
    "geometry_role": "design_proposal",
    "land_use_code": "1401",
    "land_use_label_zh": "公园绿地",
    "name_zh": "京张遗址公园校准绿轴 · S2",
    "area_sqm_declared": 882680.428,
    "area_sqm_calculated": 882680.428,
    "area_calculation_crs": "EPSG:4548",
    "bm0_role_zh": "Y 形主干 · 真实环境下的校准与里程路径"
   },
   "geometry": {
    "type": "Polygon",
    "coordinates": [
     [
      [
       116.34492046745646,
       39.97572169511049
      ],
      [
       116.34993851727118,
       39.97574994589751
      ],
      [
       116.3501375365804,
       39.954734013797356
      ],
      [
       116.34512102279805,
       39.95470578391445
      ],
      [
       116.34492046745646,
       39.97572169511049
      ]
     ],
     [
      [
       116.34589063678236,
       39.96674970604356
      ],
      [
       116.3459198173589,
       39.96368777994428
      ],
      [
       116.34997214719436,
       39.96371057416254
      ],
      [
       116.34994314737389,
       39.96677250272023
      ],
      [
       116.34589063678236,
       39.96674970604356
      ]
     ]
    ]
   }
  },
  {
   "type": "Feature",
   "id": "GREEN-C-S3",
   "properties": {
    "id": "GREEN-C-S3",
    "layer": "GREEN_SPACE",
    "source_type": "agent_generated_design",
    "confidence": "medium",
    "geometry_role": "design_proposal",
    "land_use_code": "1401",
    "land_use_label_zh": "公园绿地",
    "name_zh": "京张遗址公园校准绿轴 · S3",
    "area_sqm_declared": 1049414.651,
    "area_sqm_calculated": 1049414.651,
    "area_calculation_crs": "EPSG:4548",
    "bm0_role_zh": "Y 形主干 · 真实环境下的校准与里程路径"
   },
   "geometry": {
    "type": "Polygon",
    "coordinates": [
     [
      [
       116.34468621988586,
       40.00024016051206
      ],
      [
       116.34970606377793,
       40.00026843570321
      ],
      [
       116.34993851727118,
       39.97574994589751
      ],
      [
       116.34492046745646,
       39.97572169511049
      ],
      [
       116.34468621988586,
       40.00024016051206
      ]
     ],
     [
      [
       116.34568187692037,
       39.988641236274816
      ],
      [
       116.34571108943405,
       39.98557932190211
      ],
      [
       116.349764712213,
       39.98560213370189
      ],
      [
       116.34973568065318,
       39.98866405053458
      ],
      [
       116.34568187692037,
       39.988641236274816
      ]
     ]
    ]
   }
  },
  {
   "type": "Feature",
   "id": "GREEN-C-S4",
   "properties": {
    "id": "GREEN-C-S4",
    "layer": "GREEN_SPACE",
    "source_type": "agent_generated_design",
    "confidence": "medium",
    "geometry_role": "design_proposal",
    "land_use_code": "1401",
    "land_use_label_zh": "公园绿地",
    "name_zh": "京张遗址公园校准绿轴 · S4",
    "area_sqm_declared": 1013921.39,
    "area_sqm_calculated": 1013921.39,
    "area_calculation_crs": "EPSG:4548",
    "bm0_role_zh": "Y 形主干 · 真实环境下的校准与里程路径"
   },
   "geometry": {
    "type": "Polygon",
    "coordinates": [
     [
      [
       116.34970606377793,
       40.00026843570321
      ],
      [
       116.34468621988586,
       40.00024016051206
      ],
      [
       116.3444350149315,
       40.026500081342604
      ],
      [
       116.34945705076613,
       40.02650017036285
      ],
      [
       116.34970606377793,
       40.00026843570321
      ]
     ],
     [
      [
       116.34959447359078,
       40.0035502551619
      ],
      [
       116.34553978971363,
       40.003527428939314
      ],
      [
       116.34556902396686,
       40.000465522541624
      ],
      [
       116.34962352675551,
       40.000488346303186
      ],
      [
       116.34959447359078,
       40.0035502551619
      ]
     ],
     [
      [
       116.34946979185484,
       40.01668510940169
      ],
      [
       116.34541433083588,
       40.01666227261941
      ],
      [
       116.34544358428607,
       40.013600373259145
      ],
      [
       116.34949886409764,
       40.01362320757947
      ],
      [
       116.34946979185484,
       40.01668510940169
      ]
     ]
    ]
   }
  },
  {
   "type": "Feature",
   "id": "GREEN-W-S1",
   "properties": {
    "id": "GREEN-W-S1",
    "layer": "GREEN_SPACE",
    "source_type": "agent_generated_design",
    "confidence": "medium",
    "geometry_role": "design_proposal",
    "land_use_code": "1401",
    "land_use_label_zh": "公园绿地",
    "name_zh": "WS1 口袋公园",
    "area_sqm_declared": 25600.0,
    "area_sqm_calculated": 25600.0,
    "area_calculation_crs": "EPSG:4548",
    "bm0_role_zh": "街区级绿色开敞空间"
   },
   "geometry": {
    "type": "Polygon",
    "coordinates": [
     [
      [
       116.34171827612738,
       39.9461134858767
      ],
      [
       116.34170446504028,
       39.94755439564898
      ],
      [
       116.34357658119852,
       39.94756501088474
      ],
      [
       116.34359035301534,
       39.946124100573684
      ],
      [
       116.34171827612738,
       39.9461134858767
      ]
     ]
    ]
   }
  },
  {
   "type": "Feature",
   "id": "GREEN-E-S1",
   "properties": {
    "id": "GREEN-E-S1",
    "layer": "GREEN_SPACE",
    "source_type": "agent_generated_design",
    "confidence": "medium",
    "geometry_role": "design_proposal",
    "land_use_code": "1401",
    "land_use_label_zh": "公园绿地",
    "name_zh": "ES1 口袋公园",
    "area_sqm_declared": 25600.0,
    "area_sqm_calculated": 25600.0,
    "area_calculation_crs": "EPSG:4548",
    "bm0_role_zh": "街区级绿色开敞空间"
   },
   "geometry": {
    "type": "Polygon",
    "coordinates": [
     [
      [
       116.35223356729463,
       39.94614383723107
      ],
      [
       116.35221997679973,
       39.94758475001698
      ],
      [
       116.35409209770283,
       39.947595195458845
      ],
      [
       116.3541056489271,
       39.94615428214278
      ],
      [
       116.35223356729463,
       39.94614383723107
      ]
     ]
    ]
   }
  },
  {
   "type": "Feature",
   "id": "GREEN-W-S2",
   "properties": {
    "id": "GREEN-W-S2",
    "layer": "GREEN_SPACE",
    "source_type": "agent_generated_design",
    "confidence": "medium",
    "geometry_role": "design_proposal",
    "land_use_code": "1401",
    "land_use_label_zh": "公园绿地",
    "name_zh": "WS2 口袋公园",
    "area_sqm_declared": 25600.0,
    "area_sqm_calculated": 25600.0,
    "area_calculation_crs": "EPSG:4548",
    "bm0_role_zh": "街区级绿色开敞空间"
   },
   "geometry": {
    "type": "Polygon",
    "coordinates": [
     [
      [
       116.34135761450979,
       39.96447250164355
      ],
      [
       116.34134378687305,
       39.96591340673437
      ],
      [
       116.34321640356283,
       39.96592403181928
      ],
      [
       116.34323019189331,
       39.964483126189215
      ],
      [
       116.34135761450979,
       39.96447250164355
      ]
     ]
    ]
   }
  },
  {
   "type": "Feature",
   "id": "GREEN-E-S2",
   "properties": {
    "id": "GREEN-E-S2",
    "layer": "GREEN_SPACE",
    "source_type": "agent_generated_design",
    "confidence": "medium",
    "geometry_role": "design_proposal",
    "land_use_code": "1401",
    "land_use_label_zh": "公园绿地",
    "name_zh": "ES2 口袋公园",
    "area_sqm_declared": 25600.0,
    "area_sqm_calculated": 25600.0,
    "area_calculation_crs": "EPSG:4548",
    "bm0_role_zh": "街区级绿色开敞空间"
   },
   "geometry": {
    "type": "Polygon",
    "coordinates": [
     [
      [
       116.35210811498726,
       39.9645330856553
      ],
      [
       116.35209451300932,
       39.965973993820946
      ],
      [
       116.35396713535978,
       39.96598444525446
      ],
      [
       116.353980698031,
       39.964543536558416
      ],
      [
       116.35210811498726,
       39.9645330856553
      ]
     ]
    ]
   }
  },
  {
   "type": "Feature",
   "id": "GREEN-W-S3",
   "properties": {
    "id": "GREEN-W-S3",
    "layer": "GREEN_SPACE",
    "source_type": "agent_generated_design",
    "confidence": "medium",
    "geometry_role": "design_proposal",
    "land_use_code": "1401",
    "land_use_label_zh": "公园绿地",
    "name_zh": "WS3 口袋公园",
    "area_sqm_declared": 25600.0,
    "area_sqm_calculated": 25600.0,
    "area_calculation_crs": "EPSG:4548",
    "bm0_role_zh": "街区级绿色开敞空间"
   },
   "geometry": {
    "type": "Polygon",
    "coordinates": [
     [
      [
       116.3411646712888,
       39.98723982547511
      ],
      [
       116.34115082845145,
       39.98868072483335
      ],
      [
       116.34302406659478,
       39.98869135802668
      ],
      [
       116.3430378700811,
       39.98725045812886
      ],
      [
       116.3411646712888,
       39.98723982547511
      ]
     ]
    ]
   }
  },
  {
   "type": "Feature",
   "id": "GREEN-E-S3",
   "properties": {
    "id": "GREEN-E-S3",
    "layer": "GREEN_SPACE",
    "source_type": "agent_generated_design",
    "confidence": "medium",
    "geometry_role": "design_proposal",
    "land_use_code": "1401",
    "land_use_label_zh": "公园绿地",
    "name_zh": "ES3 口袋公园",
    "area_sqm_declared": 25600.0,
    "area_sqm_calculated": 25600.0,
    "area_calculation_crs": "EPSG:4548",
    "bm0_role_zh": "街区级绿色开敞空间"
   },
   "geometry": {
    "type": "Polygon",
    "coordinates": [
     [
      [
       116.3515127504263,
       39.98729818491025
      ],
      [
       116.35149912497579,
       39.98873908722997
      ],
      [
       116.35337236857447,
       39.98874955319362
      ],
      [
       116.35338595467356,
       39.987308650342825
      ],
      [
       116.3515127504263,
       39.98729818491025
      ]
     ]
    ]
   }
  },
  {
   "type": "Feature",
   "id": "GREEN-W-S4",
   "properties": {
    "id": "GREEN-W-S4",
    "layer": "GREEN_SPACE",
    "source_type": "agent_generated_design",
    "confidence": "medium",
    "geometry_role": "design_proposal",
    "land_use_code": "1401",
    "land_use_label_zh": "公园绿地",
    "name_zh": "WS4 口袋公园",
    "area_sqm_declared": 22376.605,
    "area_sqm_calculated": 22376.605,
    "area_calculation_crs": "EPSG:4548",
    "bm0_role_zh": "街区级绿色开敞空间"
   },
   "geometry": {
    "type": "Polygon",
    "coordinates": [
     [
      [
       116.34209415854485,
       40.01408151910211
      ],
      [
       116.34369006566344,
       40.014090568368935
      ],
      [
       116.34370386755685,
       40.012649674612554
      ],
      [
       116.34202385290362,
       40.01264014810413
      ],
      [
       116.34209415854485,
       40.01408151910211
      ]
     ]
    ]
   }
  },
  {
   "type": "Feature",
   "id": "GREEN-E-S4",
   "properties": {
    "id": "GREEN-E-S4",
    "layer": "GREEN_SPACE",
    "source_type": "agent_generated_design",
    "confidence": "medium",
    "geometry_role": "design_proposal",
    "land_use_code": "1401",
    "land_use_label_zh": "公园绿地",
    "name_zh": "ES4 口袋公园",
    "area_sqm_declared": 25600.0,
    "area_sqm_calculated": 25600.0,
    "area_calculation_crs": "EPSG:4548",
    "bm0_role_zh": "街区级绿色开敞空间"
   },
   "geometry": {
    "type": "Polygon",
    "coordinates": [
     [
      [
       116.3519423569468,
       40.01267497781663
      ],
      [
       116.35192872828904,
       40.014115873930635
      ],
      [
       116.35380266564904,
       40.01412633842158
      ],
      [
       116.35381625490537,
       40.01268544177666
      ],
      [
       116.3519423569468,
       40.01267497781663
      ]
     ]
    ]
   }
  }
 ]
}
