{
  "type": "FeatureCollection",
  "name": "phasing_daynight",
  "features": [
    {
      "type": "Feature",
      "id": "PH-P1",
      "properties": {
        "id": "PH-P1",
        "layer": "PHASE",
        "name_zh": "近期（原点社区全时段：24小时书房先导）",
        "source_type": "agent_generated_design",
        "confidence": "medium",
        "geometry_role": "design_proposal",
        "official_boundary": false,
        "design_phase": "concept_proposal",
        "area_sqm_declared": 3907456.25,
        "phase_code": "P1",
        "phase_key": "phase_1_immediate",
        "phase_order": 1,
        "phase_coverage_note": "phase bands partition the full submitted boundary into three sequential phases; day/night operating zones are a separate narrative concept"
      },
      "geometry": {
        "type": "Polygon",
        "coordinates": [
          [
            [
              116.34000752052772,
              39.96393430014885
            ],
            [
              116.3397,
              39.975
            ],
            [
              116.3408694456975,
              39.99312947301216
            ],
            [
              116.35347529331356,
              39.99320047730413
            ],
            [
              116.3533,
              39.989999999999995
            ],
            [
              116.3553,
              39.965
            ],
            [
              116.35530000239758,
              39.964020358541696
            ],
            [
              116.34000752052772,
              39.96393430014885
            ]
          ]
        ]
      }
    },
    {
      "type": "Feature",
      "id": "PH-P2",
      "properties": {
        "id": "PH-P2",
        "layer": "PHASE",
        "name_zh": "中期（众智园晨时区：晨光台与青年运动）",
        "source_type": "agent_generated_design",
        "confidence": "medium",
        "geometry_role": "design_proposal",
        "official_boundary": false,
        "design_phase": "concept_proposal",
        "area_sqm_declared": 3962822.55,
        "phase_code": "P2",
        "phase_key": "phase_2_medium",
        "phase_order": 2,
        "phase_coverage_note": "phase bands partition the full submitted boundary into three sequential phases; day/night operating zones are a separate narrative concept"
      },
      "geometry": {
        "type": "Polygon",
        "coordinates": [
          [
            [
              116.3408694456975,
              39.99312947301216
            ],
            [
              116.34169999999999,
              40.00600000000001
            ],
            [
              116.34270000000001,
              40.0265
            ],
            [
              116.3553,
              40.0265
            ],
            [
              116.35347529331356,
              39.99320047730413
            ],
            [
              116.3408694456975,
              39.99312947301216
            ]
          ]
        ]
      }
    },
    {
      "type": "Feature",
      "id": "PH-P3",
      "properties": {
        "id": "PH-P3",
        "layer": "PHASE",
        "name_zh": "远期（大钟寺夜时区：午夜穹顶与夜间活力）",
        "source_type": "agent_generated_design",
        "confidence": "medium",
        "geometry_role": "design_proposal",
        "official_boundary": false,
        "design_phase": "concept_proposal",
        "area_sqm_declared": 3542546.59,
        "phase_code": "P3",
        "phase_key": "phase_3_long",
        "phase_order": 3,
        "phase_coverage_note": "phase bands partition the full submitted boundary into three sequential phases; day/night operating zones are a separate narrative concept"
      },
      "geometry": {
        "type": "Polygon",
        "coordinates": [
          [
            [
              116.35530000239758,
              39.964020358541696
            ],
            [
              116.3553,
              39.939
            ],
            [
              116.34070000000001,
              39.93899999999999
            ],
            [
              116.34000752052772,
              39.96393430014885
            ],
            [
              116.35530000239758,
              39.964020358541696
            ]
          ]
        ]
      }
    }
  ]
}