{
  "type": "FeatureCollection",
  "name": "land_use.geojson",
  "crs_note": "Coordinates in EPSG:4326; areas computed in EPSG:4548 (CGCS2000 3-degree GK CM 117E).",
  "features": [
    {
      "type": "Feature",
      "id": "LU-GREEN-SPINE-01",
      "geometry": {
        "type": "Polygon",
        "coordinates": [
          [
            [
              116.34219840171669,
              40.01621875078992
            ],
            [
              116.34841080363503,
              40.01625384806637
            ],
            [
              116.3484092343418,
              40.0162341159459
            ],
            [
              116.34836869511211,
              40.01569352367741
            ],
            [
              116.34832803934185,
              40.01515293069098
            ],
            [
              116.34828750127741,
              40.01461233830383
            ],
            [
              116.34824684667424,
              40.014071745198656
            ],
            [
              116.34820630977498,
              40.013531152692856
            ],
            [
              116.34816565633874,
              40.012990559468975
            ],
            [
              116.34812512060455,
              40.0124499668445
            ],
            [
              116.3480844683352,
              40.0119093735019
            ],
            [
              116.34804393376598,
              40.01136878075878
            ],
            [
              116.34800328266338,
              40.010828187297456
            ],
            [
              116.34796274925901,
              40.01028759443568
            ],
            [
              116.34792209932309,
              40.00974700085564
            ],
            [
              116.34788156708349,
              40.00920640787523
            ],
            [
              116.34784091831415,
              40.00866581417648
            ],
            [
              116.34780038723922,
              40.00812522107744
            ],
            [
              116.34775973963632,
              40.00758462725999
            ],
            [
              116.34771920972595,
              40.0070440340423
            ],
            [
              116.34767856328943,
              40.006503440106165
            ],
            [
              116.34763803454351,
              40.00596284676984
            ],
            [
              116.34759738927326,
              40.005422252714986
            ],
            [
              116.34755686169171,
              40.00488165926004
            ],
            [
              116.34751621758764,
              40.0043410650865
            ],
            [
              116.34747569117036,
              40.00380047151292
            ],
            [
              116.34743504823233,
              40.00325987722069
            ],
            [
              116.34742434653974,
              40.003116980353155
            ],
            [
              116.34151174662131,
              40.003083536785105
            ],
            [
              116.3417000345097,
              40.005999967022184
            ],
            [
              116.34219840171669,
              40.01621875078992
            ]
          ]
        ]
      },
      "properties": {
        "id": "LU-GREEN-SPINE-01",
        "layer": "LAND_USE",
        "source_type": "agent_generated_design",
        "confidence": "medium",
        "geometry_role": "design_proposal",
        "land_use_code": "1401",
        "name_zh": "京张遗址公园绿脊（公园绿地）",
        "structure_role": "west_line_green_spine",
        "area_sqm_declared": 752538.37,
        "design_note_zh": "概念建议，可供专业团队深化研究；不构成法定用地边界或审批结论。"
      }
    },
    {
      "type": "Feature",
      "id": "LU-GREEN-SPINE-02",
      "geometry": {
        "type": "Polygon",
        "coordinates": [
          [
            [
              116.34224675035696,
              40.017209692803256
            ],
            [
              116.34270004550295,
              40.026500035535776
            ],
            [
              116.34918034284398,
              40.02650013848976
            ],
            [
              116.34914009432931,
              40.025964772556236
            ],
            [
              116.34909954460774,
              40.02542418135589
            ],
            [
              116.34905887832936,
              40.02488358943819
            ],
            [
              116.34901832977395,
              40.02434299811915
            ],
            [
              116.34897766466355,
              40.023802406082694
            ],
            [
              116.34893711727419,
              40.02326181464497
            ],
            [
              116.34889645333166,
              40.02272122248975
            ],
            [
              116.34885590710829,
              40.02218063093332
            ],
            [
              116.34881524433352,
              40.02164003865934
            ],
            [
              116.34877469927599,
              40.02109944698423
            ],
            [
              116.3487340376689,
              40.020558854591506
            ],
            [
              116.34869349377716,
              40.020018262797706
            ],
            [
              116.34865283333762,
              40.01947767028623
            ],
            [
              116.34861229061153,
              40.01893707837375
            ],
            [
              116.34857163133948,
              40.01839648574353
            ],
            [
              116.34853108977894,
              40.01785589371238
            ],
            [
              116.34849043167426,
              40.01731530096341
            ],
            [
              116.34848512710853,
              40.017244933733856
            ],
            [
              116.34224675035696,
              40.017209692803256
            ]
          ]
        ]
      },
      "properties": {
        "id": "LU-GREEN-SPINE-02",
        "layer": "LAND_USE",
        "source_type": "agent_generated_design",
        "confidence": "medium",
        "geometry_role": "design_proposal",
        "land_use_code": "1401",
        "name_zh": "京张遗址公园绿脊（公园绿地）",
        "structure_role": "west_line_green_spine",
        "area_sqm_declared": 558893.914,
        "design_note_zh": "概念建议，可供专业团队深化研究；不构成法定用地边界或审批结论。"
      }
    },
    {
      "type": "Feature",
      "id": "LU-GREEN-SPINE-03",
      "geometry": {
        "type": "Polygon",
        "coordinates": [
          [
            [
              116.33989786705907,
              39.96788052503707
            ],
            [
              116.33970002374012,
              39.975000010974995
            ],
            [
              116.34024360680374,
              39.983428066857826
            ],
            [
              116.34611341953507,
              39.983461329771714
            ],
            [
              116.34610481336873,
              39.98325882361025
            ],
            [
              116.34608186837943,
              39.98271832684339
            ],
            [
              116.34605892369385,
              39.98217783002467
            ],
            [
              116.34603609637742,
              39.981637333814575
            ],
            [
              116.3460131522983,
              39.98109683689217
            ],
            [
              116.34599020852288,
              39.980556339917904
            ],
            [
              116.34596726505112,
              39.980015842891774
            ],
            [
              116.34594432188298,
              39.9794753458138
            ],
            [
              116.34592149607936,
              39.97893484934453
            ],
            [
              116.34589855351756,
              39.97839435216287
            ],
            [
              116.34587561125939,
              39.977853854929336
            ],
            [
              116.3458526693048,
              39.977313357643965
            ],
            [
              116.34582984471096,
              39.976772860967365
            ],
            [
              116.34580690336261,
              39.976232363578305
            ],
            [
              116.34578396231781,
              39.97569186613739
            ],
            [
              116.34576102157658,
              39.97515136864462
            ],
            [
              116.34573808113883,
              39.974610871100005
            ],
            [
              116.34571525805714,
              39.97407037416424
            ],
            [
              116.34569231822552,
              39.97352987651594
            ],
            [
              116.34566937869737,
              39.9729893788158
            ],
            [
              116.34564643947269,
              39.972448881063805
            ],
            [
              116.3456236176003,
              39.97190838392072
            ],
            [
              116.3456006789816,
              39.97136788606505
            ],
            [
              116.34557774066631,
              39.97082738815753
            ],
            [
              116.34555480265446,
              39.97028689019815
            ],
            [
              116.34553186494603,
              39.96974639218693
            ],
            [
              116.34550904458519,
              39.96920589478472
            ],
            [
              116.34548610748257,
              39.96866539666984
            ],
            [
              116.34546593274901,
              39.96819119932354
            ],
            [
              116.339890149818,
              39.96815958146373
            ],
            [
              116.33989786705907,
              39.96788052503707
            ]
          ]
        ]
      },
      "properties": {
        "id": "LU-GREEN-SPINE-03",
        "layer": "LAND_USE",
        "source_type": "agent_generated_design",
        "confidence": "medium",
        "geometry_role": "design_proposal",
        "land_use_code": "1401",
        "name_zh": "京张遗址公园绿脊（公园绿地）",
        "structure_role": "west_line_green_spine",
        "area_sqm_declared": 853973.781,
        "design_note_zh": "概念建议，可供专业团队深化研究；不构成法定用地边界或审批结论。"
      }
    },
    {
      "type": "Feature",
      "id": "LU-GREEN-SPINE-04",
      "geometry": {
        "type": "Polygon",
        "coordinates": [
          [
            [
              116.33991770241799,
              39.96716906256553
            ],
            [
              116.34542399971157,
              39.96720028655575
            ],
            [
              116.34541729799486,
              39.967043902014076
            ],
            [
              116.34539447914524,
              39.966503404352736
            ],
            [
              116.34537154355837,
              39.96596290597863
            ],
            [
              116.34534860827482,
              39.96542240755269
            ],
            [
              116.34532567329452,
              39.9648819090749
            ],
            [
              116.34530285565344,
              39.96434141120626
            ],
            [
              116.34527992127876,
              39.96380091262479
            ],
            [
              116.34525698720729,
              39.96326041399151
            ],
            [
              116.34523405343907,
              39.96271991530638
            ],
            [
              116.34521111997407,
              39.9621794165694
            ],
            [
              116.34518830384354,
              39.96163891844165
            ],
            [
              116.345165370984,
              39.961098419601015
            ],
            [
              116.34514243842762,
              39.96055792070853
            ],
            [
              116.34511950617438,
              39.960017421764206
            ],
            [
              116.34509669125192,
              39.959476923429186
            ],
            [
              116.34507375960403,
              39.9589364243812
            ],
            [
              116.34505082825928,
              39.95839592528138
            ],
            [
              116.34502789721762,
              39.95785542612973
            ],
            [
              116.34500496647905,
              39.95731492692625
            ],
            [
              116.34498215306655,
              39.95677442833213
            ],
            [
              116.3449592229332,
              39.956233929024975
            ],
            [
              116.34493629310286,
              39.955693429666
            ],
            [
              116.3449133635756,
              39.955152930255174
            ],
            [
              116.34489055137064,
              39.954612431453796
            ],
            [
              116.34486762244846,
              39.95407193193933
            ],
            [
              116.34484469382929,
              39.95353143237302
            ],
            [
              116.34482176551307,
              39.95299093275489
            ],
            [
              116.34479883749982,
              39.95245043308493
            ],
            [
              116.34477602680424,
              39.95190993402448
            ],
            [
              116.34475309939596,
              39.95136943425085
            ],
            [
              116.34473017229061,
              39.9508289344254
            ],
            [
              116.34470724548817,
              39.95028843454812
            ],
            [
              116.34468443599964,
              39.94974793528042
            ],
            [
              116.34466150980205,
              39.949207435299506
            ],
            [
              116.34463858390731,
              39.94866693526674
            ],
            [
              116.34461565831545,
              39.948126435182154
            ],
            [
              116.34459273302642,
              39.94758593504575
            ],
            [
              116.34458462403916,
              39.94739342721882
            ],
            [
              116.34046761735448,
              39.947370079011826
            ],
            [
              116.34049514916161,
              39.946379556301316
            ],
            [
              116.344542595326,
              39.94640251013363
            ],
            [
              116.34452407598081,
              39.945964434987054
            ],
            [
              116.3445011519021,
              39.94542393464335
            ],
            [
              116.34447834512889,
              39.94488343490937
            ],
            [
              116.34445542165479,
              39.94434293446203
            ],
            [
              116.34443249848341,
              39.94380243396286
            ],
            [
              116.34440957561478,
              39.94326193341186
            ],
            [
              116.34438665304884,
              39.94272143280904
            ],
            [
              116.34436384778375,
              39.942180932816015
            ],
            [
              116.34434092582232,
              39.94164043210956
            ],
            [
              116.34431800416357,
              39.94109993135128
            ],
            [
              116.34429508280745,
              39.940559430541185
            ],
            [
              116.34427227874843,
              39.940018930340955
            ],
            [
              116.34424935799669,
              39.93947842942721
            ],
            [
              116.34422911932126,
              39.93900017639706
            ],
            [
              116.340699962601,
              39.938999974746935
            ],
            [
              116.33991770241799,
              39.96716906256553
            ]
          ]
        ]
      },
      "properties": {
        "id": "LU-GREEN-SPINE-04",
        "layer": "LAND_USE",
        "source_type": "agent_generated_design",
        "confidence": "medium",
        "geometry_role": "design_proposal",
        "land_use_code": "1401",
        "name_zh": "京张遗址公园绿脊（公园绿地）",
        "structure_role": "west_line_green_spine",
        "area_sqm_declared": 1169743.354,
        "design_note_zh": "概念建议，可供专业团队深化研究；不构成法定用地边界或审批结论。"
      }
    },
    {
      "type": "Feature",
      "id": "LU-GREEN-SPINE-05",
      "geometry": {
        "type": "Polygon",
        "coordinates": [
          [
            [
              116.34035323060058,
              39.9851279651763
            ],
            [
              116.34144784144905,
              40.002092503727155
            ],
            [
              116.34734993386786,
              40.002125891184015
            ],
            [
              116.3473133571181,
              40.00163809530677
            ],
            [
              116.34727271651191,
              40.001097500777185
            ],
            [
              116.34723219358683,
              40.00055690684775
            ],
            [
              116.34719167124324,
              40.000016312859046
            ],
            [
              116.3471510323852,
              39.99947571815144
            ],
            [
              116.3471105112054,
              39.99893512404414
            ],
            [
              116.34706987351296,
              39.99839452921786
            ],
            [
              116.34702935349692,
              39.997853934991944
            ],
            [
              116.34698871696999,
              39.997313340047
            ],
            [
              116.34694819811754,
              39.99677274570249
            ],
            [
              116.34690756275602,
              39.99623215063889
            ],
            [
              116.3468670450671,
              39.99569155617579
            ],
            [
              116.34682641087088,
              39.99515096099352
            ],
            [
              116.34678589434539,
              39.99461036641182
            ],
            [
              116.3467452613144,
              39.9940697711109
            ],
            [
              116.3467047459522,
              39.993529176410604
            ],
            [
              116.34670453580642,
              39.993526653516405
            ],
            [
              116.34089298903373,
              39.993493749879434
            ],
            [
              116.34035323060058,
              39.9851279651763
            ]
          ]
        ]
      },
      "properties": {
        "id": "LU-GREEN-SPINE-05",
        "layer": "LAND_USE",
        "source_type": "agent_generated_design",
        "confidence": "medium",
        "geometry_role": "design_proposal",
        "land_use_code": "1401",
        "name_zh": "京张遗址公园绿脊（公园绿地）",
        "structure_role": "west_line_green_spine",
        "area_sqm_declared": 477390.717,
        "design_note_zh": "概念建议，可供专业团队深化研究；不构成法定用地边界或审批结论。"
      }
    },
    {
      "type": "Feature",
      "id": "LU-APEX-PLAZA-01",
      "geometry": {
        "type": "Polygon",
        "coordinates": [
          [
            [
              116.34053633687799,
              39.987965302850476
            ],
            [
              116.34630573556768,
              39.98799798556579
            ],
            [
              116.34628815006744,
              39.98758279455764
            ],
            [
              116.34626520264976,
              39.98704229820562
            ],
            [
              116.34624237260962,
              39.98650180246207
            ],
            [
              116.34621942579867,
              39.985961306006345
            ],
            [
              116.34619647929148,
              39.98542080949875
            ],
            [
              116.34617353308809,
              39.9848803129393
            ],
            [
              116.34615058718846,
              39.984339816327996
            ],
            [
              116.34612775866175,
              39.98379932032526
            ],
            [
              116.34611341953507,
              39.983461329771714
            ],
            [
              116.34024360680374,
              39.983428066857826
            ],
            [
              116.34053633687799,
              39.987965302850476
            ]
          ]
        ]
      },
      "properties": {
        "id": "LU-APEX-PLAZA-01",
        "layer": "LAND_USE",
        "source_type": "agent_generated_design",
        "confidence": "medium",
        "geometry_role": "design_proposal",
        "land_use_code": "1403",
        "name_zh": "人字折返广场（广场用地）",
        "structure_role": "apex_plaza",
        "area_sqm_declared": 250341.964,
        "design_note_zh": "概念建议，可供专业团队深化研究；不构成法定用地边界或审批结论。"
      }
    },
    {
      "type": "Feature",
      "id": "LU-APEX-PLAZA-02",
      "geometry": {
        "type": "Polygon",
        "coordinates": [
          [
            [
              116.34060021850031,
              39.98895633860439
            ],
            [
              116.34089298903373,
              39.993493749879434
            ],
            [
              116.34670453580642,
              39.993526653516405
            ],
            [
              116.34666411408632,
              39.99298858099104
            ],
            [
              116.34662359988734,
              39.992447986172174
            ],
            [
              116.34658296918647,
              39.99190739063395
            ],
            [
              116.34654245615063,
              39.991366795696486
            ],
            [
              116.34650182661468,
              39.990826200039635
            ],
            [
              116.34646131474183,
              39.99028560498362
            ],
            [
              116.34642068637068,
              39.9897450092081
            ],
            [
              116.34638017566077,
              39.989204414033516
            ],
            [
              116.3463639638141,
              39.98898898645367
            ],
            [
              116.34060021850031,
              39.98895633860439
            ]
          ]
        ]
      },
      "properties": {
        "id": "LU-APEX-PLAZA-02",
        "layer": "LAND_USE",
        "source_type": "agent_generated_design",
        "confidence": "medium",
        "geometry_role": "design_proposal",
        "land_use_code": "1403",
        "name_zh": "人字折返广场（广场用地）",
        "structure_role": "apex_plaza",
        "area_sqm_declared": 248957.02,
        "design_note_zh": "概念建议，可供专业团队深化研究；不构成法定用地边界或审批结论。"
      }
    },
    {
      "type": "Feature",
      "id": "LU-RESEARCH-N-01",
      "geometry": {
        "type": "Polygon",
        "coordinates": [
          [
            [
              116.34849043167426,
              40.01731530096341
            ],
            [
              116.34853108977894,
              40.01785589371238
            ],
            [
              116.34857163133948,
              40.01839648574353
            ],
            [
              116.34861229061153,
              40.01893707837375
            ],
            [
              116.34865283333762,
              40.01947767028623
            ],
            [
              116.34869349377716,
              40.020018262797706
            ],
            [
              116.3487340376689,
              40.020558854591506
            ],
            [
              116.34877469927599,
              40.02109944698423
            ],
            [
              116.34881524433352,
              40.02164003865934
            ],
            [
              116.34885590710829,
              40.02218063093332
            ],
            [
              116.34889645333166,
              40.02272122248975
            ],
            [
              116.34893711727419,
              40.02326181464497
            ],
            [
              116.34897766466355,
              40.023802406082694
            ],
            [
              116.34901832977395,
              40.02434299811915
            ],
            [
              116.34905887832936,
              40.02488358943819
            ],
            [
              116.34909954460774,
              40.02542418135589
            ],
            [
              116.34914009432931,
              40.025964772556236
            ],
            [
              116.34918034284398,
              40.02650013848976
            ],
            [
              116.35529994355284,
              40.026500034233216
            ],
            [
              116.3547946105987,
              40.01728023473396
            ],
            [
              116.34848512710853,
              40.017244933733856
            ],
            [
              116.34849043167426,
              40.01731530096341
            ]
          ]
        ]
      },
      "properties": {
        "id": "LU-RESEARCH-N-01",
        "layer": "LAND_USE",
        "source_type": "agent_generated_design",
        "confidence": "medium",
        "geometry_role": "design_proposal",
        "land_use_code": "0802",
        "name_zh": "众智园全栈自主研发用地（科研用地）",
        "structure_role": "east_line_research",
        "area_sqm_declared": 544080.696,
        "design_note_zh": "概念建议，可供专业团队深化研究；不构成法定用地边界或审批结论。"
      }
    },
    {
      "type": "Feature",
      "id": "LU-RESEARCH-N-02",
      "geometry": {
        "type": "Polygon",
        "coordinates": [
          [
            [
              116.34727271651191,
              40.001097500777185
            ],
            [
              116.3473133571181,
              40.00163809530677
            ],
            [
              116.34734993386786,
              40.002125891184015
            ],
            [
              116.35396623304189,
              40.00216296147163
            ],
            [
              116.35387690311514,
              40.00053308055844
            ],
            [
              116.3472276227297,
              40.00049581977616
            ],
            [
              116.34723219358683,
              40.00055690684775
            ],
            [
              116.34727271651191,
              40.001097500777185
            ]
          ]
        ]
      },
      "properties": {
        "id": "LU-RESEARCH-N-02",
        "layer": "LAND_USE",
        "source_type": "agent_generated_design",
        "confidence": "medium",
        "geometry_role": "design_proposal",
        "land_use_code": "0802",
        "name_zh": "众智园全栈自主研发用地（科研用地）",
        "structure_role": "east_line_research",
        "area_sqm_declared": 102477.792,
        "design_note_zh": "概念建议，可供专业团队深化研究；不构成法定用地边界或审批结论。"
      }
    },
    {
      "type": "Feature",
      "id": "LU-RESEARCH-N-03",
      "geometry": {
        "type": "Polygon",
        "coordinates": [
          [
            [
              116.35402048276521,
              40.003153934229644
            ],
            [
              116.34742434653974,
              40.003116980353155
            ],
            [
              116.34743504823233,
              40.00325987722069
            ],
            [
              116.34747569117036,
              40.00380047151292
            ],
            [
              116.34751621758764,
              40.0043410650865
            ],
            [
              116.34755686169171,
              40.00488165926004
            ],
            [
              116.34759738927326,
              40.005422252714986
            ],
            [
              116.34763803454351,
              40.00596284676984
            ],
            [
              116.34767856328943,
              40.006503440106165
            ],
            [
              116.34771920972595,
              40.0070440340423
            ],
            [
              116.34775973963632,
              40.00758462725999
            ],
            [
              116.34780038723922,
              40.00812522107744
            ],
            [
              116.34784091831415,
              40.00866581417648
            ],
            [
              116.34788156708349,
              40.00920640787523
            ],
            [
              116.34792209932309,
              40.00974700085564
            ],
            [
              116.34796274925901,
              40.01028759443568
            ],
            [
              116.34800328266338,
              40.010828187297456
            ],
            [
              116.34804393376598,
              40.01136878075878
            ],
            [
              116.3480844683352,
              40.0119093735019
            ],
            [
              116.34812512060455,
              40.0124499668445
            ],
            [
              116.34816565633874,
              40.012990559468975
            ],
            [
              116.34820630977498,
              40.013531152692856
            ],
            [
              116.34824684667424,
              40.014071745198656
            ],
            [
              116.34828750127741,
              40.01461233830383
            ],
            [
              116.34832803934185,
              40.01515293069098
            ],
            [
              116.34836869511211,
              40.01569352367741
            ],
            [
              116.3484092343418,
              40.0162341159459
            ],
            [
              116.34841080363503,
              40.01625384806637
            ],
            [
              116.35474034123192,
              40.016289264568336
            ],
            [
              116.35402048276521,
              40.003153934229644
            ]
          ]
        ]
      },
      "properties": {
        "id": "LU-RESEARCH-N-03",
        "layer": "LAND_USE",
        "source_type": "agent_generated_design",
        "confidence": "medium",
        "geometry_role": "design_proposal",
        "land_use_code": "0802",
        "name_zh": "众智园全栈自主研发用地（科研用地）",
        "structure_role": "east_line_research",
        "area_sqm_declared": 804621.04,
        "design_note_zh": "概念建议，可供专业团队深化研究；不构成法定用地边界或审批结论。"
      }
    },
    {
      "type": "Feature",
      "id": "LU-COMMUNITY-M-01",
      "geometry": {
        "type": "Polygon",
        "coordinates": [
          [
            [
              116.34542399971157,
              39.96720028655575
            ],
            [
              116.35511967296634,
              39.96725463100494
            ],
            [
              116.35516303592095,
              39.966713062280604
            ],
            [
              116.34540096043752,
              39.96665834668167
            ],
            [
              116.34541729799486,
              39.967043902014076
            ],
            [
              116.34542399971157,
              39.96720028655575
            ]
          ]
        ]
      },
      "properties": {
        "id": "LU-COMMUNITY-M-01",
        "layer": "LAND_USE",
        "source_type": "agent_generated_design",
        "confidence": "medium",
        "geometry_role": "design_proposal",
        "land_use_code": "0701",
        "name_zh": "AI原点社区居住与社区服务用地",
        "structure_role": "east_line_community",
        "area_sqm_declared": 50007.536,
        "design_note_zh": "概念建议，可供专业团队深化研究；不构成法定用地边界或审批结论。"
      }
    },
    {
      "type": "Feature",
      "id": "LU-COMMUNITY-M-02",
      "geometry": {
        "type": "Polygon",
        "coordinates": [
          [
            [
              116.34548610748257,
              39.96866539666984
            ],
            [
              116.34550904458519,
              39.96920589478472
            ],
            [
              116.34553186494603,
              39.96974639218693
            ],
            [
              116.34555480265446,
              39.97028689019815
            ],
            [
              116.34557774066631,
              39.97082738815753
            ],
            [
              116.3456006789816,
              39.97136788606505
            ],
            [
              116.3456236176003,
              39.97190838392072
            ],
            [
              116.34564643947269,
              39.972448881063805
            ],
            [
              116.34566937869737,
              39.9729893788158
            ],
            [
              116.34569231822552,
              39.97352987651594
            ],
            [
              116.34571525805714,
              39.97407037416424
            ],
            [
              116.34573808113883,
              39.974610871100005
            ],
            [
              116.34576102157658,
              39.97515136864462
            ],
            [
              116.34578396231781,
              39.97569186613739
            ],
            [
              116.34580690336261,
              39.976232363578305
            ],
            [
              116.34582984471096,
              39.976772860967365
            ],
            [
              116.3458526693048,
              39.977313357643965
            ],
            [
              116.34587561125939,
              39.977853854929336
            ],
            [
              116.34589855351756,
              39.97839435216287
            ],
            [
              116.34592149607936,
              39.97893484934453
            ],
            [
              116.34594432188298,
              39.9794753458138
            ],
            [
              116.34596726505112,
              39.980015842891774
            ],
            [
              116.34599020852288,
              39.980556339917904
            ],
            [
              116.3460131522983,
              39.98109683689217
            ],
            [
              116.34603609637742,
              39.981637333814575
            ],
            [
              116.34605892369385,
              39.98217783002467
            ],
            [
              116.34608186837943,
              39.98271832684339
            ],
            [
              116.34610481336873,
              39.98325882361025
            ],
            [
              116.34612775866175,
              39.98379932032526
            ],
            [
              116.34615058718846,
              39.984339816327996
            ],
            [
              116.34617353308809,
              39.9848803129393
            ],
            [
              116.34619647929148,
              39.98542080949875
            ],
            [
              116.34621942579867,
              39.985961306006345
            ],
            [
              116.34624237260962,
              39.98650180246207
            ],
            [
              116.34626520264976,
              39.98704229820562
            ],
            [
              116.34628815006744,
              39.98758279455764
            ],
            [
              116.34630573556768,
              39.98799798556579
            ],
            [
              116.35345699780828,
              39.988038097689326
            ],
            [
              116.35504048972369,
              39.9682448667752
            ],
            [
              116.34546593274901,
              39.96819119932354
            ],
            [
              116.34548610748257,
              39.96866539666984
            ]
          ]
        ]
      },
      "properties": {
        "id": "LU-COMMUNITY-M-02",
        "layer": "LAND_USE",
        "source_type": "agent_generated_design",
        "confidence": "medium",
        "geometry_role": "design_proposal",
        "land_use_code": "0701",
        "name_zh": "AI原点社区居住与社区服务用地",
        "structure_role": "east_line_community",
        "area_sqm_declared": 1570829.816,
        "design_note_zh": "概念建议，可供专业团队深化研究；不构成法定用地边界或审批结论。"
      }
    },
    {
      "type": "Feature",
      "id": "LU-COMMUNITY-M-03",
      "geometry": {
        "type": "Polygon",
        "coordinates": [
          [
            [
              116.34638017566077,
              39.989204414033516
            ],
            [
              116.34642068637068,
              39.9897450092081
            ],
            [
              116.34646131474183,
              39.99028560498362
            ],
            [
              116.34650182661468,
              39.990826200039635
            ],
            [
              116.34654245615063,
              39.991366795696486
            ],
            [
              116.34658296918647,
              39.99190739063395
            ],
            [
              116.34662359988734,
              39.992447986172174
            ],
            [
              116.34666411408632,
              39.99298858099104
            ],
            [
              116.3467047459522,
              39.993529176410604
            ],
            [
              116.3467452613144,
              39.9940697711109
            ],
            [
              116.34678589434539,
              39.99461036641182
            ],
            [
              116.34682641087088,
              39.99515096099352
            ],
            [
              116.3468670450671,
              39.99569155617579
            ],
            [
              116.34690756275602,
              39.99623215063889
            ],
            [
              116.34694819811754,
              39.99677274570249
            ],
            [
              116.34698871696999,
              39.997313340047
            ],
            [
              116.34702935349692,
              39.997853934991944
            ],
            [
              116.34706987351296,
              39.99839452921786
            ],
            [
              116.3471105112054,
              39.99893512404414
            ],
            [
              116.3471510323852,
              39.99947571815144
            ],
            [
              116.34719167124324,
              40.000016312859046
            ],
            [
              116.3472276227297,
              40.00049581977616
            ],
            [
              116.35387690311514,
              40.00053308055844
            ],
            [
              116.35329998764635,
              39.99000001444341
            ],
            [
              116.35338067623675,
              39.988992500320165
            ],
            [
              116.35337776255041,
              39.98902832840268
            ],
            [
              116.3463639638141,
              39.98898898645367
            ],
            [
              116.34638017566077,
              39.989204414033516
            ]
          ]
        ]
      },
      "properties": {
        "id": "LU-COMMUNITY-M-03",
        "layer": "LAND_USE",
        "source_type": "agent_generated_design",
        "confidence": "medium",
        "geometry_role": "design_proposal",
        "land_use_code": "0701",
        "name_zh": "AI原点社区居住与社区服务用地",
        "structure_role": "east_line_community",
        "area_sqm_declared": 738603.899,
        "design_note_zh": "概念建议，可供专业团队深化研究；不构成法定用地边界或审批结论。"
      }
    },
    {
      "type": "Feature",
      "id": "LU-SERVICE-S-01",
      "geometry": {
        "type": "Polygon",
        "coordinates": [
          [
            [
              116.34459273302642,
              39.94758593504575
            ],
            [
              116.34461565831545,
              39.948126435182154
            ],
            [
              116.34463858390731,
              39.94866693526674
            ],
            [
              116.34466150980205,
              39.949207435299506
            ],
            [
              116.34468443599964,
              39.94974793528042
            ],
            [
              116.34470724548817,
              39.95028843454812
            ],
            [
              116.34473017229061,
              39.9508289344254
            ],
            [
              116.34475309939596,
              39.95136943425085
            ],
            [
              116.34477602680424,
              39.95190993402448
            ],
            [
              116.34479883749982,
              39.95245043308493
            ],
            [
              116.34482176551307,
              39.95299093275489
            ],
            [
              116.34484469382929,
              39.95353143237302
            ],
            [
              116.34486762244846,
              39.95407193193933
            ],
            [
              116.34489055137064,
              39.954612431453796
            ],
            [
              116.3449133635756,
              39.955152930255174
            ],
            [
              116.34493629310286,
              39.955693429666
            ],
            [
              116.3449592229332,
              39.956233929024975
            ],
            [
              116.34498215306655,
              39.95677442833213
            ],
            [
              116.34500496647905,
              39.95731492692625
            ],
            [
              116.34502789721762,
              39.95785542612973
            ],
            [
              116.34505082825928,
              39.95839592528138
            ],
            [
              116.34507375960403,
              39.9589364243812
            ],
            [
              116.34509669125192,
              39.959476923429186
            ],
            [
              116.34511950617438,
              39.960017421764206
            ],
            [
              116.34514243842762,
              39.96055792070853
            ],
            [
              116.345165370984,
              39.961098419601015
            ],
            [
              116.34518830384354,
              39.96163891844165
            ],
            [
              116.34521111997407,
              39.9621794165694
            ],
            [
              116.34523405343907,
              39.96271991530638
            ],
            [
              116.34525698720729,
              39.96326041399151
            ],
            [
              116.34527992127876,
              39.96380091262479
            ],
            [
              116.34530285565344,
              39.96434141120626
            ],
            [
              116.34532567329452,
              39.9648819090749
            ],
            [
              116.34534860827482,
              39.96542240755269
            ],
            [
              116.34537154355837,
              39.96596290597863
            ],
            [
              116.34539447914524,
              39.966503404352736
            ],
            [
              116.34540096043752,
              39.96665834668167
            ],
            [
              116.35516303592095,
              39.966713062280604
            ],
            [
              116.35530003613047,
              39.965000043781814
            ],
            [
              116.3553000262521,
              39.947453510481466
            ],
            [
              116.34458462403916,
              39.94739342721882
            ],
            [
              116.34459273302642,
              39.94758593504575
            ]
          ]
        ]
      },
      "properties": {
        "id": "LU-SERVICE-S-01",
        "layer": "LAND_USE",
        "source_type": "agent_generated_design",
        "confidence": "medium",
        "geometry_role": "design_proposal",
        "land_use_code": "05",
        "name_zh": "大钟寺智能原生商业服务业用地",
        "structure_role": "east_line_service",
        "area_sqm_declared": 1882507.501,
        "design_note_zh": "概念建议，可供专业团队深化研究；不构成法定用地边界或审批结论。"
      }
    },
    {
      "type": "Feature",
      "id": "LU-SERVICE-S-02",
      "geometry": {
        "type": "Polygon",
        "coordinates": [
          [
            [
              116.34429508280745,
              39.940559430541185
            ],
            [
              116.34431800416357,
              39.94109993135128
            ],
            [
              116.34434092582232,
              39.94164043210956
            ],
            [
              116.34436384778375,
              39.942180932816015
            ],
            [
              116.34438665304884,
              39.94272143280904
            ],
            [
              116.34440957561478,
              39.94326193341186
            ],
            [
              116.34443249848341,
              39.94380243396286
            ],
            [
              116.34445542165479,
              39.94434293446203
            ],
            [
              116.34447834512889,
              39.94488343490937
            ],
            [
              116.3445011519021,
              39.94542393464335
            ],
            [
              116.34452407598081,
              39.945964434987054
            ],
            [
              116.344542595326,
              39.94640251013363
            ],
            [
              116.35529996489966,
              39.94646283030309
            ],
            [
              116.35530003946621,
              39.93900003411558
            ],
            [
              116.34422911932126,
              39.93900017639706
            ],
            [
              116.34424935799669,
              39.93947842942721
            ],
            [
              116.34427227874843,
              39.940018930340955
            ],
            [
              116.34429508280745,
              39.940559430541185
            ]
          ]
        ]
      },
      "properties": {
        "id": "LU-SERVICE-S-02",
        "layer": "LAND_USE",
        "source_type": "agent_generated_design",
        "confidence": "medium",
        "geometry_role": "design_proposal",
        "land_use_code": "05",
        "name_zh": "大钟寺智能原生商业服务业用地",
        "structure_role": "east_line_service",
        "area_sqm_declared": 769802.269,
        "design_note_zh": "概念建议，可供专业团队深化研究；不构成法定用地边界或审批结论。"
      }
    },
    {
      "type": "Feature",
      "id": "LU-ROAD-TIES-01",
      "geometry": {
        "type": "Polygon",
        "coordinates": [
          [
            [
              116.34219840171669,
              40.01621875078992
            ],
            [
              116.34224675035696,
              40.017209692803256
            ],
            [
              116.3547946105987,
              40.01728023473396
            ],
            [
              116.35475802145586,
              40.016613311466635
            ],
            [
              116.35474034123192,
              40.016289264568336
            ],
            [
              116.34219840171669,
              40.01621875078992
            ]
          ]
        ]
      },
      "properties": {
        "id": "LU-ROAD-TIES-01",
        "layer": "LAND_USE",
        "source_type": "agent_generated_design",
        "confidence": "medium",
        "geometry_role": "design_proposal",
        "land_use_code": "1207",
        "name_zh": "东西缝合道路用地（城镇村道路用地）",
        "structure_role": "cross_tie_road",
        "area_sqm_declared": 117816.841,
        "design_note_zh": "概念建议，可供专业团队深化研究；不构成法定用地边界或审批结论。"
      }
    },
    {
      "type": "Feature",
      "id": "LU-ROAD-TIES-02",
      "geometry": {
        "type": "Polygon",
        "coordinates": [
          [
            [
              116.35511967296634,
              39.96725463100494
            ],
            [
              116.33991758537736,
              39.96716906189906
            ],
            [
              116.339890149818,
              39.96815958146373
            ],
            [
              116.35504048972369,
              39.9682448667752
            ],
            [
              116.35511967296634,
              39.96725463100494
            ]
          ]
        ]
      },
      "properties": {
        "id": "LU-ROAD-TIES-02",
        "layer": "LAND_USE",
        "source_type": "agent_generated_design",
        "confidence": "medium",
        "geometry_role": "design_proposal",
        "land_use_code": "1207",
        "name_zh": "东西缝合道路用地（城镇村道路用地）",
        "structure_role": "cross_tie_road",
        "area_sqm_declared": 142631.5,
        "design_note_zh": "概念建议，可供专业团队深化研究；不构成法定用地边界或审批结论。"
      }
    },
    {
      "type": "Feature",
      "id": "LU-ROAD-TIES-03",
      "geometry": {
        "type": "Polygon",
        "coordinates": [
          [
            [
              116.35530003328232,
              39.947278250263395
            ],
            [
              116.35529996489966,
              39.94646283030309
            ],
            [
              116.34049514916161,
              39.946379556301316
            ],
            [
              116.34046761735448,
              39.947370079011826
            ],
            [
              116.3553000262521,
              39.947453510481466
            ],
            [
              116.35530003328232,
              39.947278250263395
            ]
          ]
        ]
      },
      "properties": {
        "id": "LU-ROAD-TIES-03",
        "layer": "LAND_USE",
        "source_type": "agent_generated_design",
        "confidence": "medium",
        "geometry_role": "design_proposal",
        "land_use_code": "1207",
        "name_zh": "东西缝合道路用地（城镇村道路用地）",
        "structure_role": "cross_tie_road",
        "area_sqm_declared": 139312.884,
        "design_note_zh": "概念建议，可供专业团队深化研究；不构成法定用地边界或审批结论。"
      }
    },
    {
      "type": "Feature",
      "id": "LU-ROAD-TIES-04",
      "geometry": {
        "type": "Polygon",
        "coordinates": [
          [
            [
              116.34144784144905,
              40.002092503727155
            ],
            [
              116.34151174662131,
              40.003083536785105
            ],
            [
              116.35402059986758,
              40.00315393488237
            ],
            [
              116.35401300207276,
              40.00301573905749
            ],
            [
              116.35396623304189,
              40.00216296147163
            ],
            [
              116.34144784144905,
              40.002092503727155
            ]
          ]
        ]
      },
      "properties": {
        "id": "LU-ROAD-TIES-04",
        "layer": "LAND_USE",
        "source_type": "agent_generated_design",
        "confidence": "medium",
        "geometry_role": "design_proposal",
        "land_use_code": "1207",
        "name_zh": "东西缝合道路用地（城镇村道路用地）",
        "structure_role": "cross_tie_road",
        "area_sqm_declared": 117547.575,
        "design_note_zh": "概念建议，可供专业团队深化研究；不构成法定用地边界或审批结论。"
      }
    },
    {
      "type": "Feature",
      "id": "LU-ROAD-TIES-05",
      "geometry": {
        "type": "Polygon",
        "coordinates": [
          [
            [
              116.35339687287495,
              39.98878968290314
            ],
            [
              116.35345699780828,
              39.988038097689326
            ],
            [
              116.34053621980188,
              39.98796530218434
            ],
            [
              116.34060021850031,
              39.98895633860439
            ],
            [
              116.35337776255041,
              39.98902832840268
            ],
            [
              116.35339687287495,
              39.98878968290314
            ]
          ]
        ]
      },
      "properties": {
        "id": "LU-ROAD-TIES-05",
        "layer": "LAND_USE",
        "source_type": "agent_generated_design",
        "confidence": "medium",
        "geometry_role": "design_proposal",
        "land_use_code": "1207",
        "name_zh": "东西缝合道路用地（城镇村道路用地）",
        "structure_role": "cross_tie_road",
        "area_sqm_declared": 120724.518,
        "design_note_zh": "概念建议，可供专业团队深化研究；不构成法定用地边界或审批结论。"
      }
    }
  ]
}
