{
  "type": "FeatureCollection",
  "name": "public_space_interventions",
  "hierarchy": "four_site_specific_public_interfaces",
  "features": [
    {
      "type": "Feature",
      "id": "PUBLIC-DZ-RELEASE-001",
      "properties": {
        "id": "PUBLIC-DZ-RELEASE-001",
        "layer": "PUBLIC_SPACE",
        "source_type": "agent_generated_design",
        "confidence": "low",
        "geometry_role": "design_proposal",
        "name_zh": "大钟寺站西侧发布前庭",
        "name_en": "Dazhongsi west-station release forecourt",
        "public_space_type": "release_forecourt",
        "data_status": "indicative_within_osm_pedestrian_precinct",
        "source_basis": "OSM pedestrian precinct way 1324063875; public access and station entrances require survey",
        "proposed": true,
        "ordinary_use": "station waiting, meeting, resting and commercial-pedestrian circulation",
        "area_sqm_declared": 684.97,
        "unexplained_building_overlap_sqm": 0,
        "include_in_public_space_metric": true
      },
      "geometry": {
        "type": "Polygon",
        "coordinates": [
          [
            [
              116.3382519,
              39.9655978
            ],
            [
              116.33831941683465,
              39.965250000365636
            ],
            [
              116.33811185878328,
              39.9652500004384
            ],
            [
              116.33816840000001,
              39.9655212
            ],
            [
              116.33785000000238,
              39.96553780931736
            ],
            [
              116.33785000000029,
              39.96561198951287
            ],
            [
              116.3379287,
              39.965605
            ],
            [
              116.3382519,
              39.9655978
            ]
          ]
        ]
      }
    },
    {
      "type": "Feature",
      "id": "PUBLIC-RETIRE-001",
      "properties": {
        "id": "PUBLIC-RETIRE-001",
        "layer": "PUBLIC_SPACE",
        "source_type": "agent_generated_design",
        "confidence": "low",
        "geometry_role": "design_proposal",
        "name_zh": "站边退场记忆廊",
        "name_en": "Station-edge Retirement Memory walk",
        "public_space_type": "retirement_memory_walk",
        "data_status": "indicative_survey_required",
        "source_basis": "Rail-parallel station-edge strip derived from OSM context; no specific heritage artifact is claimed",
        "proposed": true,
        "ordinary_use": "accessible walking, shade, seating, waiting and durable non-screen public archive",
        "area_sqm_declared": 535.444,
        "unexplained_building_overlap_sqm": 0,
        "include_in_public_space_metric": true
      },
      "geometry": {
        "type": "Polygon",
        "coordinates": [
          [
            [
              116.33855825147907,
              39.96530431121476
            ],
            [
              116.33861825107627,
              39.96482431118166
            ],
            [
              116.33850174893144,
              39.96481568878912
            ],
            [
              116.33844174852862,
              39.96529568875604
            ],
            [
              116.33855825147907,
              39.96530431121476
            ]
          ]
        ]
      }
    }
  ]
}
