{
  "type": "FeatureCollection",
  "name": "home_work_relay_public_mainline_and_stations",
  "features": [
    {
      "type": "Feature",
      "id": "PUBLIC-001",
      "properties": {
        "id": "PUBLIC-001",
        "layer": "PUBLIC_SPACE",
        "source_type": "agent_generated_design",
        "confidence": "low",
        "geometry_role": "design_proposal",
        "public_space_type": "relay_mainline",
        "name_zh": "居业接力公共主线",
        "name_en": "Home-Work Relay Public Mainline",
        "program_status": "concept_only",
        "assumption_ids": [
          "A-BOUNDARY-001",
          "A-IMPLEMENTATION-001"
        ],
        "area_sqm_declared": 259492.72
      },
      "geometry": {
        "type": "Polygon",
        "coordinates": [
          [
            [
              116.347799792,
              39.941292317
            ],
            [
              116.347792517,
              39.941441079
            ],
            [
              116.347782816,
              39.941639428
            ],
            [
              116.347770691,
              39.941887365
            ],
            [
              116.347756139,
              39.942184889
            ],
            [
              116.347739163,
              39.942532
            ],
            [
              116.347719761,
              39.942928699
            ],
            [
              116.347697933,
              39.943374985
            ],
            [
              116.34767368,
              39.943870858
            ],
            [
              116.347647001,
              39.944416318
            ],
            [
              116.347617896,
              39.945011366
            ],
            [
              116.347586365,
              39.945656001
            ],
            [
              116.347552408,
              39.946350223
            ],
            [
              116.347516024,
              39.947094032
            ],
            [
              116.347477214,
              39.947887428
            ],
            [
              116.347477183,
              39.9478881
            ],
            [
              116.347443515,
              39.948690077
            ],
            [
              116.347443489,
              39.948690735
            ],
            [
              116.347414962,
              39.949501293
            ],
            [
              116.347414942,
              39.949501937
            ],
            [
              116.347391557,
              39.950321076
            ],
            [
              116.347391541,
              39.950321707
            ],
            [
              116.347373298,
              39.951149426
            ],
            [
              116.347373287,
              39.951150045
            ],
            [
              116.347360186,
              39.951986345
            ],
            [
              116.347360178,
              39.951986951
            ],
            [
              116.34735222,
              39.952831831
            ],
            [
              116.347352217,
              39.952832425
            ],
            [
              116.347349401,
              39.953685886
            ],
            [
              116.347349401,
              39.953686469
            ],
            [
              116.347351729,
              39.954548511
            ],
            [
              116.347351732,
              39.954549081
            ],
            [
              116.347359202,
              39.955419704
            ],
            [
              116.347359209,
              39.955420263
            ],
            [
              116.347371822,
              39.956299467
            ],
            [
              116.347371832,
              39.956300015
            ],
            [
              116.347389589,
              39.957187799
            ],
            [
              116.347389601,
              39.957188337
            ],
            [
              116.347412502,
              39.958084702
            ],
            [
              116.347412517,
              39.95808523
            ],
            [
              116.347440561,
              39.958990175
            ],
            [
              116.347440579,
              39.958990693
            ],
            [
              116.347473767,
              39.959904219
            ],
            [
              116.347473787,
              39.959904727
            ],
            [
              116.34751212,
              39.960826833
            ],
            [
              116.347512142,
              39.960827331
            ],
            [
              116.347555598,
              39.961757567
            ],
            [
              116.34759035,
              39.9626873
            ],
            [
              116.347616418,
              39.963616984
            ],
            [
              116.347633802,
              39.964546618
            ],
            [
              116.347642503,
              39.965476203
            ],
            [
              116.347642518,
              39.966405739
            ],
            [
              116.347633849,
              39.967335226
            ],
            [
              116.347616495,
              39.968264663
            ],
            [
              116.347590454,
              39.969194052
            ],
            [
              116.347555728,
              39.970123392
            ],
            [
              116.347512316,
              39.971052684
            ],
            [
              116.347460217,
              39.971981927
            ],
            [
              116.34739943,
              39.972911122
            ],
            [
              116.347329957,
              39.973840269
            ],
            [
              116.347251795,
              39.974769367
            ],
            [
              116.347164945,
              39.975698418
            ],
            [
              116.347069361,
              39.97662787
            ],
            [
              116.347069241,
              39.97662911
            ],
            [
              116.346985589,
              39.977559079
            ],
            [
              116.346985485,
              39.977560322
            ],
            [
              116.346913813,
              39.978490358
            ],
            [
              116.346913725,
              39.978491602
            ],
            [
              116.346854032,
              39.979421706
            ],
            [
              116.34685396,
              39.979422952
            ],
            [
              116.346806248,
              39.980353123
            ],
            [
              116.346806192,
              39.980354371
            ],
            [
              116.346770461,
              39.981284609
            ],
            [
              116.346770421,
              39.981285857
            ],
            [
              116.346746671,
              39.982216163
            ],
            [
              116.346746647,
              39.982217412
            ],
            [
              116.346734879,
              39.983147785
            ],
            [
              116.346734872,
              39.983149034
            ],
            [
              116.346735086,
              39.984079475
            ],
            [
              116.346735094,
              39.984080723
            ],
            [
              116.346747291,
              39.985011231
            ],
            [
              116.346747316,
              39.98501248
            ],
            [
              116.346771496,
              39.985943055
            ],
            [
              116.346771537,
              39.985944302
            ],
            [
              116.346807701,
              39.986874945
            ],
            [
              116.346807758,
              39.986876191
            ],
            [
              116.346855906,
              39.987806901
            ],
            [
              116.346855979,
              39.987808146
            ],
            [
              116.346916112,
              39.988738923
            ],
            [
              116.346916201,
              39.988740165
            ],
            [
              116.346988319,
              39.98967101
            ],
            [
              116.346988423,
              39.98967225
            ],
            [
              116.347072528,
              39.990603162
            ],
            [
              116.347072648,
              39.9906044
            ],
            [
              116.347168705,
              39.991535052
            ],
            [
              116.347258405,
              39.992465342
            ],
            [
              116.347341781,
              39.993395595
            ],
            [
              116.347418833,
              39.994325812
            ],
            [
              116.347489561,
              39.995255992
            ],
            [
              116.347553965,
              39.996186136
            ],
            [
              116.347612044,
              39.997116243
            ],
            [
              116.347663798,
              39.998046314
            ],
            [
              116.347709226,
              39.998976349
            ],
            [
              116.347748329,
              39.999906347
            ],
            [
              116.347781107,
              40.000836309
            ],
            [
              116.347807558,
              40.001766236
            ],
            [
              116.347827684,
              40.002696126
            ],
            [
              116.347841482,
              40.00362598
            ],
            [
              116.347848954,
              40.004555799
            ],
            [
              116.347850099,
              40.005485581
            ],
            [
              116.347844915,
              40.006415658
            ],
            [
              116.347844914,
              40.006416063
            ],
            [
              116.347843639,
              40.007331098
            ],
            [
              116.347843639,
              40.007331517
            ],
            [
              116.347846275,
              40.008231181
            ],
            [
              116.347846278,
              40.008231615
            ],
            [
              116.347852825,
              40.009115907
            ],
            [
              116.347852829,
              40.009116356
            ],
            [
              116.347863288,
              40.009985277
            ],
            [
              116.347863295,
              40.009985743
            ],
            [
              116.347877665,
              40.010839292
            ],
            [
              116.347877674,
              40.010839775
            ],
            [
              116.347895956,
              40.011677953
            ],
            [
              116.347895968,
              40.011678453
            ],
            [
              116.347918162,
              40.01250126
            ],
            [
              116.347918177,
              40.012501779
            ],
            [
              116.347944282,
              40.013309215
            ],
            [
              116.347944301,
              40.013309754
            ],
            [
              116.347974319,
              40.014101818
            ],
            [
              116.347974342,
              40.014102378
            ],
            [
              116.348008271,
              40.014879071
            ],
            [
              116.348008298,
              40.014879654
            ],
            [
              116.34804614,
              40.015640976
            ],
            [
              116.348046172,
              40.015641582
            ],
            [
              116.348087927,
              40.016387532
            ],
            [
              116.348087964,
              40.016388164
            ],
            [
              116.348133631,
              40.017118743
            ],
            [
              116.348133674,
              40.017119401
            ],
            [
              116.348183254,
              40.017834608
            ],
            [
              116.348183304,
              40.017835295
            ],
            [
              116.348236796,
              40.018535131
            ],
            [
              116.348236853,
              40.018535848
            ],
            [
              116.348294258,
              40.019220313
            ],
            [
              116.348348076,
              40.019861999
            ],
            [
              116.348398307,
              40.020460906
            ],
            [
              116.348444951,
              40.021017034
            ],
            [
              116.348488008,
              40.021530382
            ],
            [
              116.348527477,
              40.022000952
            ],
            [
              116.348563358,
              40.022428742
            ],
            [
              116.348595651,
              40.022813754
            ],
            [
              116.348624357,
              40.023155986
            ],
            [
              116.348649475,
              40.023455439
            ],
            [
              116.348671004,
              40.023712113
            ],
            [
              116.348688946,
              40.023926009
            ],
            [
              116.348703299,
              40.024097125
            ],
            [
              116.348714064,
              40.024225462
            ],
            [
              116.348721241,
              40.02431102
            ],
            [
              116.348724829,
              40.024353799
            ],
            [
              116.348726651,
              40.024366092
            ],
            [
              116.348730033,
              40.024378189
            ],
            [
              116.34873494,
              40.024389973
            ],
            [
              116.348741325,
              40.024401331
            ],
            [
              116.348749129,
              40.024412152
            ],
            [
              116.348758274,
              40.024422333
            ],
            [
              116.348768673,
              40.024431777
            ],
            [
              116.348780226,
              40.024440391
            ],
            [
              116.348792822,
              40.024448093
            ],
            [
              116.348806339,
              40.024454808
            ],
            [
              116.348820647,
              40.024460473
            ],
            [
              116.348835609,
              40.024465033
            ],
            [
              116.348851079,
              40.024468443
            ],
            [
              116.34886691,
              40.02447067
            ],
            [
              116.348882949,
              40.024471695
            ],
            [
              116.348899041,
              40.024471505
            ],
            [
              116.348915032,
              40.024470104
            ],
            [
              116.348930767,
              40.024467504
            ],
            [
              116.348946095,
              40.024463732
            ],
            [
              116.348960867,
              40.024458822
            ],
            [
              116.348974943,
              40.024452823
            ],
            [
              116.348988187,
              40.024445793
            ],
            [
              116.34900047,
              40.024437798
            ],
            [
              116.349011674,
              40.024428916
            ],
            [
              116.349021692,
              40.024419232
            ],
            [
              116.349030428,
              40.02440884
            ],
            [
              116.349037796,
              40.02439784
            ],
            [
              116.349043727,
              40.024386338
            ],
            [
              116.349048162,
              40.024374444
            ],
            [
              116.34905106,
              40.024362273
            ],
            [
              116.349052392,
              40.024349942
            ],
            [
              116.349052145,
              40.024337571
            ],
            [
              116.349048557,
              40.024294792
            ],
            [
              116.34904138,
              40.024209234
            ],
            [
              116.349030614,
              40.024080897
            ],
            [
              116.34901626,
              40.023909781
            ],
            [
              116.348998318,
              40.023695885
            ],
            [
              116.348976787,
              40.023439211
            ],
            [
              116.348951668,
              40.023139758
            ],
            [
              116.348922961,
              40.022797526
            ],
            [
              116.348890665,
              40.022412515
            ],
            [
              116.348854782,
              40.021984724
            ],
            [
              116.348815311,
              40.021514155
            ],
            [
              116.348772252,
              40.021000806
            ],
            [
              116.348725605,
              40.020444678
            ],
            [
              116.348675372,
              40.019845772
            ],
            [
              116.34862155,
              40.019204086
            ],
            [
              116.348564172,
              40.018519979
            ],
            [
              116.34851073,
              40.017820844
            ],
            [
              116.348461194,
              40.017106308
            ],
            [
              116.348415564,
              40.016376373
            ],
            [
              116.348373841,
              40.015631042
            ],
            [
              116.348336025,
              40.014870314
            ],
            [
              116.348302116,
              40.014094193
            ],
            [
              116.348272116,
              40.013302678
            ],
            [
              116.348246024,
              40.012495771
            ],
            [
              116.34822384,
              40.011673474
            ],
            [
              116.348205565,
              40.010835787
            ],
            [
              116.348191199,
              40.009982711
            ],
            [
              116.348180741,
              40.009114247
            ],
            [
              116.348174193,
              40.008230396
            ],
            [
              116.348171554,
              40.007331158
            ],
            [
              116.348172824,
              40.006416535
            ],
            [
              116.348178004,
              40.005486332
            ],
            [
              116.348178006,
              40.005485672
            ],
            [
              116.348176856,
              40.004555229
            ],
            [
              116.348176852,
              40.00455457
            ],
            [
              116.348169371,
              40.003624092
            ],
            [
              116.348169363,
              40.003623432
            ],
            [
              116.34815555,
              40.002692918
            ],
            [
              116.348155538,
              40.002692259
            ],
            [
              116.348135394,
              40.001761709
            ],
            [
              116.348135378,
              40.00176105
            ],
            [
              116.348108903,
              40.000830465
            ],
            [
              116.348108882,
              40.000829806
            ],
            [
              116.348076077,
              39.999899184
            ],
            [
              116.348076051,
              39.999898526
            ],
            [
              116.348036916,
              39.998967869
            ],
            [
              116.348036886,
              39.998967211
            ],
            [
              116.347991421,
              39.998036518
            ],
            [
              116.347991387,
              39.99803586
            ],
            [
              116.347939592,
              39.997105132
            ],
            [
              116.347939553,
              39.997104475
            ],
            [
              116.347881429,
              39.99617371
            ],
            [
              116.347881385,
              39.996173054
            ],
            [
              116.347816932,
              39.995242254
            ],
            [
              116.347816884,
              39.995241597
            ],
            [
              116.347746102,
              39.994310762
            ],
            [
              116.34774605,
              39.994310106
            ],
            [
              116.347668939,
              39.993379235
            ],
            [
              116.347668882,
              39.99337858
            ],
            [
              116.347585443,
              39.992447672
            ],
            [
              116.347585382,
              39.992447018
            ],
            [
              116.347495615,
              39.991516075
            ],
            [
              116.34749555,
              39.991515422
            ],
            [
              116.347399518,
              39.990585061
            ],
            [
              116.347315521,
              39.989655388
            ],
            [
              116.347243494,
              39.988725785
            ],
            [
              116.347183436,
              39.987796251
            ],
            [
              116.347135348,
              39.986866787
            ],
            [
              116.347099227,
              39.985937391
            ],
            [
              116.347075075,
              39.985008064
            ],
            [
              116.34706289,
              39.984078805
            ],
            [
              116.347062671,
              39.983149614
            ],
            [
              116.347074419,
              39.98222049
            ],
            [
              116.347098132,
              39.981291432
            ],
            [
              116.347133811,
              39.980362442
            ],
            [
              116.347181455,
              39.979433518
            ],
            [
              116.347241063,
              39.978504659
            ],
            [
              116.347312636,
              39.977575866
            ],
            [
              116.347396171,
              39.976647139
            ],
            [
              116.347491734,
              39.975717856
            ],
            [
              116.347491823,
              39.975716957
            ],
            [
              116.347578752,
              39.974787005
            ],
            [
              116.347578832,
              39.974786105
            ],
            [
              116.347657065,
              39.973856104
            ],
            [
              116.347657137,
              39.973855202
            ],
            [
              116.347726674,
              39.972925152
            ],
            [
              116.347726737,
              39.972924249
            ],
            [
              116.347787578,
              39.971994151
            ],
            [
              116.347787633,
              39.971993247
            ],
            [
              116.347839778,
              39.971063099
            ],
            [
              116.347839825,
              39.971062194
            ],
            [
              116.347883275,
              39.970131997
            ],
            [
              116.347883313,
              39.970131092
            ],
            [
              116.347918069,
              39.969200846
            ],
            [
              116.347918098,
              39.96919994
            ],
            [
              116.347944159,
              39.968269645
            ],
            [
              116.347944181,
              39.968268739
            ],
            [
              116.347961548,
              39.967338395
            ],
            [
              116.34796156,
              39.967337488
            ],
            [
              116.347970233,
              39.966407095
            ],
            [
              116.347970238,
              39.966406189
            ],
            [
              116.347970218,
              39.965475747
            ],
            [
              116.347970213,
              39.96547484
            ],
            [
              116.3479615,
              39.964544349
            ],
            [
              116.347961487,
              39.964543443
            ],
            [
              116.347944082,
              39.963612903
            ],
            [
              116.34794406,
              39.963611997
            ],
            [
              116.347917962,
              39.962681408
            ],
            [
              116.347917933,
              39.962680502
            ],
            [
              116.347883143,
              39.961749864
            ],
            [
              116.347883105,
              39.961748959
            ],
            [
              116.347839635,
              39.960818521
            ],
            [
              116.347801318,
              39.959896917
            ],
            [
              116.347768144,
              39.958983904
            ],
            [
              116.347740111,
              39.958079481
            ],
            [
              116.34771722,
              39.957183649
            ],
            [
              116.347699469,
              39.956296408
            ],
            [
              116.34768686,
              39.955417759
            ],
            [
              116.34767939,
              39.954547701
            ],
            [
              116.34767706,
              39.953686235
            ],
            [
              116.347679869,
              39.952833362
            ],
            [
              116.347687818,
              39.951989081
            ],
            [
              116.347700904,
              39.951153393
            ],
            [
              116.34771913,
              39.950326299
            ],
            [
              116.347742492,
              39.949507798
            ],
            [
              116.347770992,
              39.948697892
            ],
            [
              116.347804629,
              39.947896579
            ],
            [
              116.347843419,
              39.947103519
            ],
            [
              116.347879799,
              39.946359709
            ],
            [
              116.347913753,
              39.945665487
            ],
            [
              116.347945281,
              39.945020852
            ],
            [
              116.347974383,
              39.944425804
            ],
            [
              116.34800106,
              39.943880344
            ],
            [
              116.348025311,
              39.943384471
            ],
            [
              116.348047136,
              39.942938185
            ],
            [
              116.348066536,
              39.942541486
            ],
            [
              116.348083511,
              39.942194375
            ],
            [
              116.348098061,
              39.941896851
            ],
            [
              116.348110186,
              39.941648914
            ],
            [
              116.348119885,
              39.941450565
            ],
            [
              116.34812716,
              39.941301803
            ],
            [
              116.34813201,
              39.941202628
            ],
            [
              116.348134435,
              39.94115304
            ],
            [
              116.348134251,
              39.941140668
            ],
            [
              116.348132492,
              39.941128369
            ],
            [
              116.348129175,
              39.941116262
            ],
            [
              116.348124333,
              39.941104464
            ],
            [
              116.348118012,
              39.941093087
            ],
            [
              116.348110272,
              39.941082243
            ],
            [
              116.348101189,
              39.941072034
            ],
            [
              116.34809085,
              39.94106256
            ],
            [
              116.348079354,
              39.941053912
            ],
            [
              116.348066812,
              39.941046173
            ],
            [
              116.348053345,
              39.941039417
            ],
            [
              116.348039083,
              39.941033709
            ],
            [
              116.348024162,
              39.941029106
            ],
            [
              116.348008728,
              39.94102565
            ],
            [
              116.347992927,
              39.941023375
            ],
            [
              116.347976913,
              39.941022304
            ],
            [
              116.347960839,
              39.941022446
            ],
            [
              116.347944862,
              39.941023799
            ],
            [
              116.347929133,
              39.941026352
            ],
            [
              116.347913805,
              39.941030079
            ],
            [
              116.347899026,
              39.941034945
            ],
            [
              116.347884937,
              39.941040903
            ],
            [
              116.347871675,
              39.941047894
            ],
            [
              116.347859367,
              39.941055853
            ],
            [
              116.347848131,
              39.941064702
            ],
            [
              116.347838077,
              39.941074356
            ],
            [
              116.3478293,
              39.941084722
            ],
            [
              116.347821886,
              39.9410957
            ],
            [
              116.347815905,
              39.941107185
            ],
            [
              116.347811415,
              39.941119066
            ],
            [
              116.34780846,
              39.941131228
            ],
            [
              116.347807068,
              39.941143555
            ],
            [
              116.347804643,
              39.941193142
            ],
            [
              116.347799792,
              39.941292317
            ]
          ]
        ]
      }
    },
    {
      "type": "Feature",
      "id": "PUBLIC-002",
      "properties": {
        "id": "PUBLIC-002",
        "layer": "PUBLIC_SPACE",
        "source_type": "agent_generated_design",
        "confidence": "low",
        "geometry_role": "design_proposal",
        "public_space_type": "relay_station_prototype",
        "station_id": "dazhongsi_arrival_transfer_station",
        "name_zh": "大钟寺抵达换乘站",
        "name_en": "Dazhongsi Arrival Transfer Station",
        "landmark_name_zh": "第一把钥匙",
        "landmark_name_en": "The First Key",
        "landmark_status": "concept_only",
        "assumption_ids": [
          "A-BOUNDARY-001",
          "A-KEYAREA-LOCATION-001",
          "A-IMPLEMENTATION-001"
        ],
        "area_sqm_declared": 16751.574
      },
      "geometry": {
        "type": "Polygon",
        "coordinates": [
          [
            [
              116.348599557,
              39.951005675
            ],
            [
              116.348587631,
              39.950972492
            ],
            [
              116.348571209,
              39.950940002
            ],
            [
              116.34855036,
              39.950908344
            ],
            [
              116.348525173,
              39.950877654
            ],
            [
              116.348495757,
              39.950848063
            ],
            [
              116.348462238,
              39.950819699
            ],
            [
              116.348424759,
              39.950792682
            ],
            [
              116.34838348,
              39.950767128
            ],
            [
              116.348338579,
              39.950743147
            ],
            [
              116.348290248,
              39.950720841
            ],
            [
              116.348238692,
              39.950700306
            ],
            [
              116.348184135,
              39.950681629
            ],
            [
              116.348126808,
              39.950664891
            ],
            [
              116.348066958,
              39.950650164
            ],
            [
              116.34800484,
              39.95063751
            ],
            [
              116.347940721,
              39.950626984
            ],
            [
              116.347874875,
              39.95061863
            ],
            [
              116.347807585,
              39.950612485
            ],
            [
              116.347739138,
              39.950608574
            ],
            [
              116.347669827,
              39.950606915
            ],
            [
              116.34759995,
              39.950607515
            ],
            [
              116.347529805,
              39.950610371
            ],
            [
              116.347459693,
              39.95061547
            ],
            [
              116.347389914,
              39.950622792
            ],
            [
              116.347320767,
              39.950632304
            ],
            [
              116.347252548,
              39.950643966
            ],
            [
              116.347185549,
              39.950657728
            ],
            [
              116.347120057,
              39.950673531
            ],
            [
              116.347056353,
              39.950691307
            ],
            [
              116.346994708,
              39.950710981
            ],
            [
              116.346935388,
              39.950732468
            ],
            [
              116.346878646,
              39.950755675
            ],
            [
              116.346824725,
              39.950780504
            ],
            [
              116.346773856,
              39.950806849
            ],
            [
              116.346726257,
              39.950834596
            ],
            [
              116.346682132,
              39.950863627
            ],
            [
              116.346641669,
              39.950893817
            ],
            [
              116.346605042,
              39.950925037
            ],
            [
              116.346572409,
              39.950957154
            ],
            [
              116.346543907,
              39.950990029
            ],
            [
              116.34651966,
              39.951023523
            ],
            [
              116.346499772,
              39.951057491
            ],
            [
              116.346484327,
              39.951091788
            ],
            [
              116.346473392,
              39.951126268
            ],
            [
              116.346467014,
              39.951160783
            ],
            [
              116.346465219,
              39.951195184
            ],
            [
              116.346468016,
              39.951229326
            ],
            [
              116.346475393,
              39.95126306
            ],
            [
              116.346487318,
              39.951296244
            ],
            [
              116.346503739,
              39.951328734
            ],
            [
              116.346524587,
              39.951360392
            ],
            [
              116.346549773,
              39.951391083
            ],
            [
              116.346579188,
              39.951420674
            ],
            [
              116.346612707,
              39.951449039
            ],
            [
              116.346650186,
              39.951476056
            ],
            [
              116.346691464,
              39.951501611
            ],
            [
              116.346736365,
              39.951525593
            ],
            [
              116.346784697,
              39.951547899
            ],
            [
              116.346836252,
              39.951568435
            ],
            [
              116.34689081,
              39.951587112
            ],
            [
              116.346948138,
              39.951603851
            ],
            [
              116.347007989,
              39.951618578
            ],
            [
              116.347070107,
              39.951631233
            ],
            [
              116.347134227,
              39.95164176
            ],
            [
              116.347200073,
              39.951650114
            ],
            [
              116.347267364,
              39.95165626
            ],
            [
              116.347335812,
              39.95166017
            ],
            [
              116.347405124,
              39.951661829
            ],
            [
              116.347475002,
              39.95166123
            ],
            [
              116.347545148,
              39.951658374
            ],
            [
              116.347615261,
              39.951653275
            ],
            [
              116.347685041,
              39.951645953
            ],
            [
              116.347754189,
              39.951636441
            ],
            [
              116.347822409,
              39.951624778
            ],
            [
              116.347889409,
              39.951611016
            ],
            [
              116.347954902,
              39.951595213
            ],
            [
              116.348018607,
              39.951577436
            ],
            [
              116.348080252,
              39.951557762
            ],
            [
              116.348139573,
              39.951536274
            ],
            [
              116.348196315,
              39.951513066
            ],
            [
              116.348250236,
              39.951488236
            ],
            [
              116.348301105,
              39.951461891
            ],
            [
              116.348348704,
              39.951434143
            ],
            [
              116.348392829,
              39.951405112
            ],
            [
              116.348433291,
              39.951374921
            ],
            [
              116.348469917,
              39.951343701
            ],
            [
              116.34850255,
              39.951311584
            ],
            [
              116.348531051,
              39.951278708
            ],
            [
              116.348555296,
              39.951245214
            ],
            [
              116.348575184,
              39.951211245
            ],
            [
              116.348590628,
              39.951176947
            ],
            [
              116.348601562,
              39.951142467
            ],
            [
              116.348607939,
              39.951107952
            ],
            [
              116.348609732,
              39.951073551
            ],
            [
              116.348606934,
              39.95103941
            ],
            [
              116.348599557,
              39.951005675
            ]
          ]
        ]
      }
    },
    {
      "type": "Feature",
      "id": "PUBLIC-003",
      "properties": {
        "id": "PUBLIC-003",
        "layer": "PUBLIC_SPACE",
        "source_type": "agent_generated_design",
        "confidence": "low",
        "geometry_role": "design_proposal",
        "public_space_type": "relay_station_prototype",
        "station_id": "ai_origin_family_conversion_station",
        "name_zh": "AI原点家庭转换站",
        "name_en": "AI Origin Family Transition Station",
        "landmark_name_zh": "居业里程表",
        "landmark_name_en": "Home-Work Mileage Board",
        "landmark_status": "concept_only",
        "assumption_ids": [
          "A-BOUNDARY-001",
          "A-KEYAREA-LOCATION-001",
          "A-IMPLEMENTATION-001"
        ],
        "area_sqm_declared": 16751.571
      },
      "geometry": {
        "type": "Polygon",
        "coordinates": [
          [
            [
              116.348048077,
              39.986960514
            ],
            [
              116.348045375,
              39.986926147
            ],
            [
              116.348038085,
              39.986891739
            ],
            [
              116.348026238,
              39.986857437
            ],
            [
              116.348009885,
              39.986823388
            ],
            [
              116.347989095,
              39.986789737
            ],
            [
              116.347963958,
              39.986756629
            ],
            [
              116.347934582,
              39.986724205
            ],
            [
              116.347901091,
              39.986692604
            ],
            [
              116.347863631,
              39.986661962
            ],
            [
              116.34782236,
              39.986632409
            ],
            [
              116.347777456,
              39.986604073
            ],
            [
              116.347729111,
              39.986577075
            ],
            [
              116.347677531,
              39.986551529
            ],
            [
              116.347622939,
              39.986527546
            ],
            [
              116.347565568,
              39.986505229
            ],
            [
              116.347505663,
              39.986484672
            ],
            [
              116.34744348,
              39.986465964
            ],
            [
              116.347379287,
              39.986449185
            ],
            [
              116.347313358,
              39.986434407
            ],
            [
              116.347245975,
              39.986421693
            ],
            [
              116.347177427,
              39.986411098
            ],
            [
              116.347108008,
              39.986402666
            ],
            [
              116.347038014,
              39.986396435
            ],
            [
              116.346967745,
              39.98639243
            ],
            [
              116.346897503,
              39.986390669
            ],
            [
              116.346827588,
              39.98639116
            ],
            [
              116.346758299,
              39.986393899
            ],
            [
              116.346689934,
              39.986398877
            ],
            [
              116.346622784,
              39.98640607
            ],
            [
              116.346557138,
              39.986415449
            ],
            [
              116.346493276,
              39.986426974
            ],
            [
              116.346431472,
              39.986440594
            ],
            [
              116.346371991,
              39.986456252
            ],
            [
              116.346315087,
              39.98647388
            ],
            [
              116.346261004,
              39.986493404
            ],
            [
              116.346209974,
              39.986514739
            ],
            [
              116.346162214,
              39.986537794
            ],
            [
              116.346117931,
              39.986562471
            ],
            [
              116.346077313,
              39.986588663
            ],
            [
              116.346040533,
              39.986616259
            ],
            [
              116.346007751,
              39.98664514
            ],
            [
              116.345979105,
              39.986675183
            ],
            [
              116.34595472,
              39.98670626
            ],
            [
              116.345934698,
              39.986738236
            ],
            [
              116.345919127,
              39.986770975
            ],
            [
              116.345908072,
              39.986804338
            ],
            [
              116.345901581,
              39.98683818
            ],
            [
              116.345899681,
              39.986872358
            ],
            [
              116.345902382,
              39.986906724
            ],
            [
              116.345909671,
              39.986941132
            ],
            [
              116.345921516,
              39.986975434
            ],
            [
              116.345937869,
              39.987009484
            ],
            [
              116.345958658,
              39.987043135
            ],
            [
              116.345983794,
              39.987076244
            ],
            [
              116.346013169,
              39.987108668
            ],
            [
              116.346046659,
              39.987140269
            ],
            [
              116.346084119,
              39.987170912
            ],
            [
              116.34612539,
              39.987200465
            ],
            [
              116.346170294,
              39.987228802
            ],
            [
              116.346218639,
              39.987255802
            ],
            [
              116.346270218,
              39.987281348
            ],
            [
              116.34632481,
              39.987305331
            ],
            [
              116.346382182,
              39.987327649
            ],
            [
              116.346442087,
              39.987348207
            ],
            [
              116.34650427,
              39.987366915
            ],
            [
              116.346568464,
              39.987383694
            ],
            [
              116.346634394,
              39.987398473
            ],
            [
              116.346701777,
              39.987411187
            ],
            [
              116.346770326,
              39.987421783
            ],
            [
              116.346839747,
              39.987430215
            ],
            [
              116.346909742,
              39.987436446
            ],
            [
              116.346980011,
              39.987440451
            ],
            [
              116.347050254,
              39.987442212
            ],
            [
              116.347120171,
              39.987441721
            ],
            [
              116.347189461,
              39.987438981
            ],
            [
              116.347257827,
              39.987434004
            ],
            [
              116.347324978,
              39.98742681
            ],
            [
              116.347390625,
              39.98741743
            ],
            [
              116.347454488,
              39.987405905
            ],
            [
              116.347516292,
              39.987392285
            ],
            [
              116.347575774,
              39.987376626
            ],
            [
              116.347632678,
              39.987358997
            ],
            [
              116.347686761,
              39.987339473
            ],
            [
              116.347737792,
              39.987318137
            ],
            [
              116.347785551,
              39.987295081
            ],
            [
              116.347829835,
              39.987270404
            ],
            [
              116.347870453,
              39.987244211
            ],
            [
              116.347907231,
              39.987216615
            ],
            [
              116.347940013,
              39.987187733
            ],
            [
              116.347968658,
              39.987157689
            ],
            [
              116.347993043,
              39.987126612
            ],
            [
              116.348013064,
              39.987094636
            ],
            [
              116.348028634,
              39.987061896
            ],
            [
              116.348039688,
              39.987028534
            ],
            [
              116.348046179,
              39.986994691
            ],
            [
              116.348048077,
              39.986960514
            ]
          ]
        ]
      }
    },
    {
      "type": "Feature",
      "id": "PUBLIC-004",
      "properties": {
        "id": "PUBLIC-004",
        "layer": "PUBLIC_SPACE",
        "source_type": "agent_generated_design",
        "confidence": "low",
        "geometry_role": "design_proposal",
        "public_space_type": "relay_station_prototype",
        "station_id": "zhongzhiyuan_project_live_work_station",
        "name_zh": "众智园项目研居站",
        "name_en": "Zhongzhiyuan Project Live-Work Station",
        "landmark_name_zh": "回程票档案",
        "landmark_name_en": "Return Ticket Archive",
        "landmark_status": "concept_only",
        "assumption_ids": [
          "A-BOUNDARY-001",
          "A-KEYAREA-LOCATION-001",
          "A-IMPLEMENTATION-001"
        ],
        "area_sqm_declared": 16751.574
      },
      "geometry": {
        "type": "Polygon",
        "coordinates": [
          [
            [
              116.349220284,
              40.01445786
            ],
            [
              116.349219924,
              40.014423432
            ],
            [
              116.349214982,
              40.014388778
            ],
            [
              116.349205481,
              40.014354046
            ],
            [
              116.349191461,
              40.014319385
            ],
            [
              116.349172981,
              40.014284944
            ],
            [
              116.349150122,
              40.014250869
            ],
            [
              116.34912298,
              40.014217308
            ],
            [
              116.349091673,
              40.014184402
            ],
            [
              116.349056334,
              40.014152294
            ],
            [
              116.349017114,
              40.014121121
            ],
            [
              116.348974182,
              40.014091016
            ],
            [
              116.348927721,
              40.014062109
            ],
            [
              116.34887793,
              40.014034522
            ],
            [
              116.348825023,
              40.014008375
            ],
            [
              116.348769226,
              40.013983779
            ],
            [
              116.348710778,
              40.013960839
            ],
            [
              116.348649929,
              40.013939654
            ],
            [
              116.34858694,
              40.013920315
            ],
            [
              116.34852208,
              40.013902903
            ],
            [
              116.348455628,
              40.013887495
            ],
            [
              116.348387867,
              40.013874155
            ],
            [
              116.348319089,
              40.013862941
            ],
            [
              116.348249587,
              40.0138539
            ],
            [
              116.348179659,
              40.013847073
            ],
            [
              116.348109605,
              40.013842487
            ],
            [
              116.348039724,
              40.013840163
            ],
            [
              116.347970316,
              40.01384011
            ],
            [
              116.347901678,
              40.013842328
            ],
            [
              116.347834104,
              40.013846809
            ],
            [
              116.347767883,
              40.013853533
            ],
            [
              116.347703299,
              40.013862471
            ],
            [
              116.347640628,
              40.013873585
            ],
            [
              116.347580139,
              40.013886827
            ],
            [
              116.347522091,
              40.013902141
            ],
            [
              116.347466732,
              40.013919461
            ],
            [
              116.347414299,
              40.013938712
            ],
            [
              116.347365017,
              40.013959814
            ],
            [
              116.347319097,
              40.013982674
            ],
            [
              116.347276736,
              40.014007195
            ],
            [
              116.347238115,
              40.014033273
            ],
            [
              116.347203399,
              40.014060795
            ],
            [
              116.347172736,
              40.014089644
            ],
            [
              116.34714626,
              40.014119696
            ],
            [
              116.347124081,
              40.014150822
            ],
            [
              116.347106297,
              40.01418289
            ],
            [
              116.347092982,
              40.014215761
            ],
            [
              116.347084194,
              40.014249296
            ],
            [
              116.347079971,
              40.01428335
            ],
            [
              116.34708033,
              40.014317778
            ],
            [
              116.34708527,
              40.014352432
            ],
            [
              116.34709477,
              40.014387164
            ],
            [
              116.34710879,
              40.014421825
            ],
            [
              116.347127268,
              40.014456266
            ],
            [
              116.347150127,
              40.014490341
            ],
            [
              116.347177267,
              40.014523904
            ],
            [
              116.347208574,
              40.01455681
            ],
            [
              116.347243913,
              40.014588918
            ],
            [
              116.347283132,
              40.014620092
            ],
            [
              116.347326064,
              40.014650197
            ],
            [
              116.347372524,
              40.014679105
            ],
            [
              116.347422315,
              40.014706692
            ],
            [
              116.347475222,
              40.01473284
            ],
            [
              116.347531019,
              40.014757437
            ],
            [
              116.347589468,
              40.014780377
            ],
            [
              116.347650317,
              40.014801563
            ],
            [
              116.347713307,
              40.014820903
            ],
            [
              116.347778167,
              40.014838315
            ],
            [
              116.34784462,
              40.014853724
            ],
            [
              116.347912381,
              40.014867064
            ],
            [
              116.34798116,
              40.014878279
            ],
            [
              116.348050663,
              40.014887319
            ],
            [
              116.348120592,
              40.014894147
            ],
            [
              116.348190648,
              40.014898733
            ],
            [
              116.348260529,
              40.014901057
            ],
            [
              116.348329938,
              40.01490111
            ],
            [
              116.348398578,
              40.014898891
            ],
            [
              116.348466153,
              40.014894409
            ],
            [
              116.348532375,
              40.014887685
            ],
            [
              116.34859696,
              40.014878747
            ],
            [
              116.348659631,
              40.014867632
            ],
            [
              116.348720121,
              40.01485439
            ],
            [
              116.34877817,
              40.014839075
            ],
            [
              116.348833529,
              40.014821755
            ],
            [
              116.348885962,
              40.014802502
            ],
            [
              116.348935244,
              40.014781401
            ],
            [
              116.348981164,
              40.01475854
            ],
            [
              116.349023525,
              40.014734018
            ],
            [
              116.349062146,
              40.01470794
            ],
            [
              116.349096862,
              40.014680417
            ],
            [
              116.349127524,
              40.014651567
            ],
            [
              116.349154,
              40.014621515
            ],
            [
              116.349176177,
              40.014590388
            ],
            [
              116.349193961,
              40.01455832
            ],
            [
              116.349207275,
              40.014525449
            ],
            [
              116.349216061,
              40.014491914
            ],
            [
              116.349220284,
              40.01445786
            ]
          ]
        ]
      }
    }
  ]
}
