{
 "type": "FeatureCollection",
 "features": [
  {
   "type": "Feature",
   "id": "GRN-001",
   "properties": {
    "id": "GRN-001",
    "layer": "GREEN_SPACE",
    "source_type": "agent_inferred_from_public_data",
    "confidence": "medium",
    "geometry_role": "provisional_constraint",
    "official_boundary": false,
    "boundary_precision": "provisional_rough",
    "name_zh": "京张遗址公园绿廊带",
    "green_type": "rail_heritage_corridor",
    "area_sqm_declared": 323529.5
   },
   "geometry": {
    "type": "Polygon",
    "coordinates": [
     [
      [
       116.34321,
       39.9935
      ],
      [
       116.35179,
       39.9935
      ],
      [
       116.35179,
       39.997499999999995
      ],
      [
       116.34321,
       39.997499999999995
      ],
      [
       116.34321,
       39.9935
      ]
     ]
    ]
   }
  }
 ]
}