{
 "type": "FeatureCollection",
 "name": "public_space",
 "metadata": {
  "coordinate_reference_system": "EPSG:4326",
  "area_calculation_crs": "EPSG:4548",
  "boundary_status": "provisional",
  "official_boundary_available_in_repository": false
 },
 "features": [
  {
   "type": "Feature",
   "id": "PUBLIC-001",
   "properties": {
    "id": "PUBLIC-001",
    "layer": "PUBLIC_SPACE",
    "land_use_code": "1401",
    "land_use_label_zh": "公园绿地-蓝绿网络",
    "usage_type": "park_green",
    "source_type": "agent_generated_design",
    "confidence": "medium",
    "geometry_role": "design_proposal",
    "official_boundary": false,
    "area_sqm_declared": null,
    "public_space_type": "park_node"
   },
   "geometry": {
    "type": "Polygon",
    "coordinates": [
     [
      [
       116.3415,
       39.94984
      ],
      [
       116.342,
       39.94984
      ],
      [
       116.342,
       39.944
      ],
      [
       116.3415,
       39.944
      ],
      [
       116.340561111,
       39.944
      ],
      [
       116.340398889,
       39.94984
      ],
      [
       116.340172222,
       39.958
      ],
      [
       116.3415,
       39.958
      ],
      [
       116.3415,
       39.94984
      ]
     ]
    ]
   }
  },
  {
   "type": "Feature",
   "id": "PUBLIC-002",
   "properties": {
    "id": "PUBLIC-002",
    "layer": "PUBLIC_SPACE",
    "land_use_code": "1401",
    "land_use_label_zh": "公园绿地-蓝绿网络",
    "usage_type": "park_green",
    "source_type": "agent_generated_design",
    "confidence": "medium",
    "geometry_role": "design_proposal",
    "official_boundary": false,
    "area_sqm_declared": null,
    "public_space_type": "park_node"
   },
   "geometry": {
    "type": "Polygon",
    "coordinates": [
     [
      [
       116.346,
       39.9835
      ],
      [
       116.345,
       39.9835
      ],
      [
       116.345,
       39.9935
      ],
      [
       116.346,
       39.9935
      ],
      [
       116.346,
       40.0045
      ],
      [
       116.346,
       40.0075
      ],
      [
       116.3465,
       40.0075
      ],
      [
       116.3475,
       40.0075
      ],
      [
       116.3475,
       40.0045
      ],
      [
       116.3475,
       39.9935
      ],
      [
       116.3465,
       39.9935
      ],
      [
       116.3465,
       39.9835
      ],
      [
       116.3475,
       39.9835
      ],
      [
       116.3475,
       39.975
      ],
      [
       116.3475,
       39.965
      ],
      [
       116.3475,
       39.958
      ],
      [
       116.3465,
       39.958
      ],
      [
       116.346,
       39.958
      ],
      [
       116.346,
       39.965
      ],
      [
       116.346,
       39.975
      ],
      [
       116.346,
       39.9835
      ]
     ]
    ]
   }
  },
  {
   "type": "Feature",
   "id": "PUBLIC-003",
   "properties": {
    "id": "PUBLIC-003",
    "layer": "PUBLIC_SPACE",
    "land_use_code": "1401",
    "land_use_label_zh": "公园绿地-蓝绿网络",
    "usage_type": "park_green",
    "source_type": "agent_generated_design",
    "confidence": "medium",
    "geometry_role": "design_proposal",
    "official_boundary": false,
    "area_sqm_declared": null,
    "public_space_type": "park_node"
   },
   "geometry": {
    "type": "Polygon",
    "coordinates": [
     [
      [
       116.340893548,
       39.9935
      ],
      [
       116.3415,
       40.0029
      ],
      [
       116.3415,
       39.9935
      ],
      [
       116.342,
       39.9935
      ],
      [
       116.342,
       39.9835
      ],
      [
       116.342,
       39.975
      ],
      [
       116.3415,
       39.975
      ],
      [
       116.3397,
       39.975
      ],
      [
       116.340248387,
       39.9835
      ],
      [
       116.340893548,
       39.9935
      ]
     ]
    ]
   }
  },
  {
   "type": "Feature",
   "id": "PUBLIC-004",
   "properties": {
    "id": "PUBLIC-004",
    "layer": "PUBLIC_SPACE",
    "land_use_code": "1401",
    "land_use_label_zh": "公园绿地-蓝绿网络",
    "usage_type": "park_green",
    "source_type": "agent_generated_design",
    "confidence": "medium",
    "geometry_role": "design_proposal",
    "official_boundary": false,
    "area_sqm_declared": null,
    "public_space_type": "park_node"
   },
   "geometry": {
    "type": "Polygon",
    "coordinates": [
     [
      [
       116.345,
       40.0265
      ],
      [
       116.346,
       40.0265
      ],
      [
       116.346,
       40.021
      ],
      [
       116.345,
       40.021
      ],
      [
       116.343,
       40.021
      ],
      [
       116.342431707,
       40.021
      ],
      [
       116.3427,
       40.0265
      ],
      [
       116.343,
       40.0265
      ],
      [
       116.345,
       40.0265
      ]
     ]
    ]
   }
  },
  {
   "type": "Feature",
   "id": "PUBLIC-005",
   "properties": {
    "id": "PUBLIC-005",
    "layer": "PUBLIC_SPACE",
    "land_use_code": "1401",
    "land_use_label_zh": "公园绿地-蓝绿网络",
    "usage_type": "park_green",
    "source_type": "agent_generated_design",
    "confidence": "medium",
    "geometry_role": "design_proposal",
    "official_boundary": false,
    "area_sqm_declared": null,
    "public_space_type": "park_node"
   },
   "geometry": {
    "type": "Polygon",
    "coordinates": [
     [
      [
       116.3505,
       39.944
      ],
      [
       116.351,
       39.944
      ],
      [
       116.352,
       39.944
      ],
      [
       116.352,
       39.94984
      ],
      [
       116.353,
       39.94984
      ],
      [
       116.3533,
       39.94984
      ],
      [
       116.354,
       39.94984
      ],
      [
       116.3553,
       39.94984
      ],
      [
       116.3553,
       39.944
      ],
      [
       116.3553,
       39.939
      ],
      [
       116.354,
       39.939
      ],
      [
       116.3533,
       39.939
      ],
      [
       116.353,
       39.939
      ],
      [
       116.352,
       39.939
      ],
      [
       116.351,
       39.939
      ],
      [
       116.3505,
       39.939
      ],
      [
       116.3485,
       39.939
      ],
      [
       116.348,
       39.939
      ],
      [
       116.3475,
       39.939
      ],
      [
       116.3475,
       39.944
      ],
      [
       116.348,
       39.944
      ],
      [
       116.3485,
       39.944
      ],
      [
       116.3505,
       39.944
      ]
     ]
    ]
   }
  },
  {
   "type": "Feature",
   "id": "PUBLIC-006",
   "properties": {
    "id": "PUBLIC-006",
    "layer": "PUBLIC_SPACE",
    "land_use_code": "1401",
    "land_use_label_zh": "公园绿地-蓝绿网络",
    "usage_type": "park_green",
    "source_type": "agent_generated_design",
    "confidence": "medium",
    "geometry_role": "design_proposal",
    "official_boundary": false,
    "area_sqm_declared": null,
    "public_space_type": "park_node"
   },
   "geometry": {
    "type": "Polygon",
    "coordinates": [
     [
      [
       116.346,
       40.017
      ],
      [
       116.346,
       40.021
      ],
      [
       116.3465,
       40.021
      ],
      [
       116.3475,
       40.021
      ],
      [
       116.348,
       40.021
      ],
      [
       116.348,
       40.017
      ],
      [
       116.348,
       40.0125
      ],
      [
       116.3475,
       40.0125
      ],
      [
       116.3465,
       40.0125
      ],
      [
       116.346,
       40.0125
      ],
      [
       116.346,
       40.017
      ]
     ]
    ]
   }
  },
  {
   "type": "Feature",
   "id": "PUBLIC-007",
   "properties": {
    "id": "PUBLIC-007",
    "layer": "PUBLIC_SPACE",
    "land_use_code": "1401",
    "land_use_label_zh": "公园绿地-蓝绿网络",
    "usage_type": "park_green",
    "source_type": "agent_generated_design",
    "confidence": "medium",
    "geometry_role": "design_proposal",
    "official_boundary": false,
    "area_sqm_declared": null,
    "public_space_type": "park_node"
   },
   "geometry": {
    "type": "Polygon",
    "coordinates": [
     [
      [
       116.3545,
       39.975
      ],
      [
       116.3553,
       39.965
      ],
      [
       116.3553,
       39.958
      ],
      [
       116.354,
       39.958
      ],
      [
       116.3533,
       39.958
      ],
      [
       116.3533,
       39.965
      ],
      [
       116.3533,
       39.975
      ],
      [
       116.354,
       39.975
      ],
      [
       116.3545,
       39.975
      ]
     ]
    ]
   }
  },
  {
   "type": "Feature",
   "id": "PUBLIC-008",
   "properties": {
    "id": "PUBLIC-008",
    "layer": "PUBLIC_SPACE",
    "land_use_code": "1401",
    "land_use_label_zh": "公园绿地-蓝绿网络",
    "usage_type": "park_green",
    "source_type": "agent_generated_design",
    "confidence": "medium",
    "geometry_role": "design_proposal",
    "official_boundary": false,
    "area_sqm_declared": null,
    "public_space_type": "park_node"
   },
   "geometry": {
    "type": "Polygon",
    "coordinates": [
     [
      [
       116.353491781,
       39.9935
      ],
      [
       116.3533,
       39.99
      ],
      [
       116.35382,
       39.9835
      ],
      [
       116.3533,
       39.9835
      ],
      [
       116.353,
       39.9835
      ],
      [
       116.353,
       39.9935
      ],
      [
       116.3533,
       39.9935
      ],
      [
       116.353491781,
       39.9935
      ]
     ]
    ]
   }
  },
  {
   "type": "Feature",
   "id": "PUBLIC-009",
   "properties": {
    "id": "PUBLIC-009",
    "layer": "PUBLIC_SPACE",
    "land_use_code": "1401",
    "land_use_label_zh": "公园绿地-蓝绿网络",
    "usage_type": "park_green",
    "source_type": "agent_generated_design",
    "confidence": "medium",
    "geometry_role": "design_proposal",
    "official_boundary": false,
    "area_sqm_declared": null,
    "public_space_type": "park_node"
   },
   "geometry": {
    "type": "Polygon",
    "coordinates": [
     [
      [
       116.354,
       40.002775
      ],
      [
       116.354,
       40.0045
      ],
      [
       116.354,
       40.0075
      ],
      [
       116.354258904,
       40.0075
      ],
      [
       116.354094521,
       40.0045
      ],
      [
       116.354,
       40.002775
      ]
     ]
    ]
   }
  },
  {
   "type": "Feature",
   "id": "PUBLIC-010",
   "properties": {
    "id": "PUBLIC-010",
    "layer": "PUBLIC_SPACE",
    "land_use_code": "1401",
    "land_use_label_zh": "公园绿地-蓝绿网络",
    "usage_type": "park_green",
    "source_type": "agent_generated_design",
    "confidence": "medium",
    "geometry_role": "design_proposal",
    "official_boundary": false,
    "area_sqm_declared": null,
    "public_space_type": "park_node"
   },
   "geometry": {
    "type": "Polygon",
    "coordinates": [
     [
      [
       116.354,
       40.0265
      ],
      [
       116.3553,
       40.0265
      ],
      [
       116.35499863,
       40.021
      ],
      [
       116.354,
       40.021
      ],
      [
       116.354,
       40.0265
      ]
     ]
    ]
   }
  },
  {
   "type": "Feature",
   "id": "PUBLIC-011",
   "properties": {
    "id": "PUBLIC-011",
    "layer": "PUBLIC_SPACE",
    "land_use_code": "1403",
    "land_use_label_zh": "广场用地-公共广场",
    "usage_type": "plaza",
    "source_type": "agent_generated_design",
    "confidence": "medium",
    "geometry_role": "design_proposal",
    "official_boundary": false,
    "area_sqm_declared": null,
    "public_space_type": "plaza"
   },
   "geometry": {
    "type": "Polygon",
    "coordinates": [
     [
      [
       116.348,
       39.94984
      ],
      [
       116.348,
       39.944
      ],
      [
       116.3475,
       39.944
      ],
      [
       116.3465,
       39.944
      ],
      [
       116.3465,
       39.94984
      ],
      [
       116.3475,
       39.94984
      ],
      [
       116.348,
       39.94984
      ]
     ]
    ]
   }
  },
  {
   "type": "Feature",
   "id": "PUBLIC-012",
   "properties": {
    "id": "PUBLIC-012",
    "layer": "PUBLIC_SPACE",
    "land_use_code": "1403",
    "land_use_label_zh": "广场用地-公共广场",
    "usage_type": "plaza",
    "source_type": "agent_generated_design",
    "confidence": "medium",
    "geometry_role": "design_proposal",
    "official_boundary": false,
    "area_sqm_declared": null,
    "public_space_type": "plaza"
   },
   "geometry": {
    "type": "Polygon",
    "coordinates": [
     [
      [
       116.3475,
       40.0125
      ],
      [
       116.348,
       40.0125
      ],
      [
       116.348,
       40.0075
      ],
      [
       116.3475,
       40.0075
      ],
      [
       116.3465,
       40.0075
      ],
      [
       116.346,
       40.0075
      ],
      [
       116.346,
       40.0125
      ],
      [
       116.3465,
       40.0125
      ],
      [
       116.3475,
       40.0125
      ]
     ]
    ]
   }
  }
 ]
}