{
 "type": "FeatureCollection",
 "name": "constraints.geojson",
 "features": [
  {
   "type": "Feature",
   "id": "CZ-001",
   "properties": {
    "id": "CZ-001",
    "layer": "AI_SERVICE_ZONE",
    "source_type": "agent_generated_design",
    "confidence": "medium",
    "geometry_role": "design_proposal",
    "zone_id": "zhongzhiyuan_testbed_zone",
    "zone_name_zh": "众智园全栈验证与AI治理区",
    "operational_note_zh": "AI场景开放运营概念分区",
    "area_sqm_declared": 1929201.88
   },
   "geometry": {
    "type": "Polygon",
    "coordinates": [
     [
      [
       116.343,
       40.026
      ],
      [
       116.354,
       40.026
      ],
      [
       116.354,
       40.0075
      ],
      [
       116.343,
       40.0075
      ],
      [
       116.343,
       40.026
      ]
     ]
    ]
   }
  },
  {
   "type": "Feature",
   "id": "CZ-002",
   "properties": {
    "id": "CZ-002",
    "layer": "AI_SERVICE_ZONE",
    "source_type": "agent_generated_design",
    "confidence": "medium",
    "geometry_role": "design_proposal",
    "zone_id": "origin_open_source_zone",
    "zone_name_zh": "原点社区开源创新与转化区",
    "operational_note_zh": "AI场景开放运营概念分区",
    "area_sqm_declared": 1043236.91
   },
   "geometry": {
    "type": "Polygon",
    "coordinates": [
     [
      [
       116.342,
       39.9935
      ],
      [
       116.353,
       39.9935
      ],
      [
       116.353,
       39.9835
      ],
      [
       116.342,
       39.9835
      ],
      [
       116.342,
       39.9935
      ]
     ]
    ]
   }
  },
  {
   "type": "Feature",
   "id": "CZ-003",
   "properties": {
    "id": "CZ-003",
    "layer": "AI_SERVICE_ZONE",
    "source_type": "agent_generated_design",
    "confidence": "medium",
    "geometry_role": "design_proposal",
    "zone_id": "dazhongsi_intelligent_economy_zone",
    "zone_name_zh": "大钟寺智能经济与体验区",
    "operational_note_zh": "AI场景开放运营概念分区",
    "area_sqm_declared": 720454.22
   },
   "geometry": {
    "type": "Polygon",
    "coordinates": [
     [
      [
       116.342,
       39.94984
      ],
      [
       116.355,
       39.94984
      ],
      [
       116.355,
       39.944
      ],
      [
       116.342,
       39.944
      ],
      [
       116.342,
       39.94984
      ]
     ]
    ]
   }
  },
  {
   "type": "Feature",
   "id": "CZ-004",
   "properties": {
    "id": "CZ-004",
    "layer": "AI_SERVICE_ZONE",
    "source_type": "agent_generated_design",
    "confidence": "medium",
    "geometry_role": "design_proposal",
    "zone_id": "xiaoyuehe_scenario_wing",
    "zone_name_zh": "小月河场景赋能翼（概念研究界）",
    "area_sqm_declared": 3969231.95
   },
   "geometry": {
    "type": "Polygon",
    "coordinates": [
     [
      [
       116.345628,
       39.939
      ],
      [
       116.3407,
       39.939
      ],
      [
       116.3397,
       39.975
      ],
      [
       116.3417,
       40.006
      ],
      [
       116.3427,
       40.0265
      ],
      [
       116.345628,
       40.0265
      ],
      [
       116.345628,
       39.939
      ]
     ]
    ]
   }
  },
  {
   "type": "Feature",
   "id": "CZ-005",
   "properties": {
    "id": "CZ-005",
    "layer": "AI_SERVICE_ZONE",
    "source_type": "agent_generated_design",
    "confidence": "medium",
    "geometry_role": "design_proposal",
    "zone_id": "zhongguancun_service_wing",
    "zone_name_zh": "中关村科技服务翼（概念研究界）",
    "area_sqm_declared": 4336394.66
   },
   "geometry": {
    "type": "Polygon",
    "coordinates": [
     [
      [
       116.349372,
       40.0265
      ],
      [
       116.3553,
       40.0265
      ],
      [
       116.3533,
       39.99
      ],
      [
       116.3553,
       39.965
      ],
      [
       116.3553,
       39.939
      ],
      [
       116.349372,
       39.939
      ],
      [
       116.349372,
       40.0265
      ]
     ]
    ]
   }
  },
  {
   "type": "Feature",
   "id": "SN-001",
   "properties": {
    "id": "SN-001",
    "layer": "SCENARIO_NODE",
    "source_type": "agent_generated_design",
    "confidence": "medium",
    "geometry_role": "design_proposal",
    "node_name_zh": "五道口·智脉接驳",
    "scenario_ref": "ai-traffic-walkability",
    "ai_scenario_card": "五道口·智脉接驳"
   },
   "geometry": {
    "type": "Point",
    "coordinates": [
     116.34081,
     39.992199
    ]
   }
  },
  {
   "type": "Feature",
   "id": "SN-002",
   "properties": {
    "id": "SN-002",
    "layer": "SCENARIO_NODE",
    "source_type": "agent_generated_design",
    "confidence": "medium",
    "geometry_role": "design_proposal",
    "node_name_zh": "清华东路西口·原点门户",
    "scenario_ref": "ai-origin-community",
    "ai_scenario_card": "清华东路西口·原点门户"
   },
   "geometry": {
    "type": "Point",
    "coordinates": [
     116.3496,
     40.0008
    ]
   }
  },
  {
   "type": "Feature",
   "id": "SN-003",
   "properties": {
    "id": "SN-003",
    "layer": "SCENARIO_NODE",
    "source_type": "agent_generated_design",
    "confidence": "medium",
    "geometry_role": "design_proposal",
    "node_name_zh": "大钟寺·四象限步行",
    "scenario_ref": "ai-traffic-walkability",
    "ai_scenario_card": "大钟寺·四象限步行"
   },
   "geometry": {
    "type": "Point",
    "coordinates": [
     116.3477,
     39.97
    ]
   }
  },
  {
   "type": "Feature",
   "id": "SN-004",
   "properties": {
    "id": "SN-004",
    "layer": "SCENARIO_NODE",
    "source_type": "agent_generated_design",
    "confidence": "medium",
    "geometry_role": "design_proposal",
    "node_name_zh": "知春路·服务翼驿站",
    "scenario_ref": "enterprise-service-copilot",
    "ai_scenario_card": "知春路·服务翼驿站"
   },
   "geometry": {
    "type": "Point",
    "coordinates": [
     116.344,
     39.977
    ]
   }
  },
  {
   "type": "Feature",
   "id": "SN-005",
   "properties": {
    "id": "SN-005",
    "layer": "SCENARIO_NODE",
    "source_type": "agent_generated_design",
    "confidence": "medium",
    "geometry_role": "design_proposal",
    "node_name_zh": "西土城·AI+法律驿站",
    "scenario_ref": "ai-public-services",
    "ai_scenario_card": "西土城·AI+法律驿站"
   },
   "geometry": {
    "type": "Point",
    "coordinates": [
     116.354907,
     39.969913
    ]
   }
  },
  {
   "type": "Feature",
   "id": "SN-006",
   "properties": {
    "id": "SN-006",
    "layer": "SCENARIO_NODE",
    "source_type": "agent_generated_design",
    "confidence": "medium",
    "geometry_role": "design_proposal",
    "node_name_zh": "学院桥·教育AI实验站",
    "scenario_ref": "ai-public-services",
    "ai_scenario_card": "学院桥·教育AI实验站"
   },
   "geometry": {
    "type": "Point",
    "coordinates": [
     116.351,
     39.984
    ]
   }
  },
  {
   "type": "Feature",
   "id": "SN-007",
   "properties": {
    "id": "SN-007",
    "layer": "SCENARIO_NODE",
    "source_type": "agent_generated_design",
    "confidence": "medium",
    "geometry_role": "design_proposal",
    "node_name_zh": "学知园·无人配送试点",
    "scenario_ref": "robot-delivery-low-speed",
    "ai_scenario_card": "学知园·无人配送试点"
   },
   "geometry": {
    "type": "Point",
    "coordinates": [
     116.353,
     39.99
    ]
   }
  },
  {
   "type": "Feature",
   "id": "SN-008",
   "properties": {
    "id": "SN-008",
    "layer": "SCENARIO_NODE",
    "source_type": "agent_generated_design",
    "confidence": "medium",
    "geometry_role": "design_proposal",
    "node_name_zh": "清河小营桥·全栈验证北门",
    "scenario_ref": "enterprise-service-copilot",
    "ai_scenario_card": "清河小营桥·全栈验证北门"
   },
   "geometry": {
    "type": "Point",
    "coordinates": [
     116.352,
     40.02
    ]
   }
  },
  {
   "type": "Feature",
   "id": "SN-009",
   "properties": {
    "id": "SN-009",
    "layer": "SCENARIO_NODE",
    "source_type": "agent_generated_design",
    "confidence": "medium",
    "geometry_role": "design_proposal",
    "node_name_zh": "六道口·青年第三空间",
    "scenario_ref": "youth-friendly-public-space",
    "ai_scenario_card": "六道口·青年第三空间"
   },
   "geometry": {
    "type": "Point",
    "coordinates": [
     116.349,
     39.995
    ]
   }
  },
  {
   "type": "Feature",
   "id": "SN-010",
   "properties": {
    "id": "SN-010",
    "layer": "SCENARIO_NODE",
    "source_type": "agent_generated_design",
    "confidence": "medium",
    "geometry_role": "design_proposal",
    "node_name_zh": "清华园·时光站",
    "scenario_ref": "jingzhang-heritage-narrative",
    "ai_scenario_card": "清华园·时光站"
   },
   "geometry": {
    "type": "Point",
    "coordinates": [
     116.3465,
     40.0
    ]
   }
  },
  {
   "type": "Feature",
   "id": "SN-011",
   "properties": {
    "id": "SN-011",
    "layer": "SCENARIO_NODE",
    "source_type": "agent_generated_design",
    "confidence": "medium",
    "geometry_role": "design_proposal",
    "node_name_zh": "众智园·治理之环",
    "scenario_ref": "civic-agent-governance",
    "ai_scenario_card": "众智园·治理之环"
   },
   "geometry": {
    "type": "Point",
    "coordinates": [
     116.346,
     40.018
    ]
   }
  },
  {
   "type": "Feature",
   "id": "SN-012",
   "properties": {
    "id": "SN-012",
    "layer": "SCENARIO_NODE",
    "source_type": "agent_generated_design",
    "confidence": "medium",
    "geometry_role": "design_proposal",
    "node_name_zh": "北沙滩·健康服务导航站",
    "scenario_ref": "ai-health-service-navigation",
    "ai_scenario_card": "北沙滩·健康服务导航站"
   },
   "geometry": {
    "type": "Point",
    "coordinates": [
     116.35407,
     40.004051
    ]
   }
  },
  {
   "type": "Feature",
   "id": "RL-001",
   "properties": {
    "id": "RL-001",
    "layer": "EXISTING_RAIL",
    "source_type": "osm",
    "confidence": "medium",
    "geometry_role": "existing_condition",
    "railway_kind": "rail",
    "note_zh": "现状轨道参考线（OSM，非红线）"
   },
   "geometry": {
    "type": "LineString",
    "coordinates": [
     [
      116.347961,
      39.941604
     ],
     [
      116.34739,
      39.943196
     ],
     [
      116.346861,
      39.944674
     ],
     [
      116.346724,
      39.945079
     ],
     [
      116.346643,
      39.945354
     ],
     [
      116.346575,
      39.945635
     ],
     [
      116.346521,
      39.945942
     ],
     [
      116.346451,
      39.946391
     ],
     [
      116.346417,
      39.946767
     ],
     [
      116.346389,
      39.947084
     ],
     [
      116.346358,
      39.94736
     ],
     [
      116.346327,
      39.947608
     ],
     [
      116.346221,
      39.948206
     ]
    ]
   }
  },
  {
   "type": "Feature",
   "id": "RL-002",
   "properties": {
    "id": "RL-002",
    "layer": "EXISTING_RAIL",
    "source_type": "osm",
    "confidence": "medium",
    "geometry_role": "existing_condition",
    "railway_kind": "subway",
    "note_zh": "现状轨道参考线（OSM，非红线）"
   },
   "geometry": {
    "type": "LineString",
    "coordinates": [
     [
      116.347295,
      39.93974
     ],
     [
      116.347071,
      39.940305
     ]
    ]
   }
  },
  {
   "type": "Feature",
   "id": "RL-003",
   "properties": {
    "id": "RL-003",
    "layer": "EXISTING_RAIL",
    "source_type": "osm",
    "confidence": "medium",
    "geometry_role": "existing_condition",
    "railway_kind": "subway",
    "note_zh": "现状轨道参考线（OSM，非红线）"
   },
   "geometry": {
    "type": "LineString",
    "coordinates": [
     [
      116.346251,
      39.942439
     ],
     [
      116.346271,
      39.942337
     ],
     [
      116.346291,
      39.942237
     ]
    ]
   }
  },
  {
   "type": "Feature",
   "id": "RL-004",
   "properties": {
    "id": "RL-004",
    "layer": "EXISTING_RAIL",
    "source_type": "osm",
    "confidence": "medium",
    "geometry_role": "existing_condition",
    "railway_kind": "subway",
    "note_zh": "现状轨道参考线（OSM，非红线）"
   },
   "geometry": {
    "type": "LineString",
    "coordinates": [
     [
      116.346209,
      39.942421
     ],
     [
      116.346271,
      39.942337
     ],
     [
      116.346331,
      39.942255
     ]
    ]
   }
  },
  {
   "type": "Feature",
   "id": "RL-005",
   "properties": {
    "id": "RL-005",
    "layer": "EXISTING_RAIL",
    "source_type": "osm",
    "confidence": "medium",
    "geometry_role": "existing_condition",
    "railway_kind": "subway",
    "note_zh": "现状轨道参考线（OSM，非红线）"
   },
   "geometry": {
    "type": "LineString",
    "coordinates": [
     [
      116.34715,
      39.940429
     ],
     [
      116.346517,
      39.942059
     ],
     [
      116.346379,
      39.942351
     ],
     [
      116.346259,
      39.942564
     ],
     [
      116.346078,
      39.942888
     ]
    ]
   }
  },
  {
   "type": "Feature",
   "id": "RL-006",
   "properties": {
    "id": "RL-006",
    "layer": "EXISTING_RAIL",
    "source_type": "osm",
    "confidence": "medium",
    "geometry_role": "existing_condition",
    "railway_kind": "subway",
    "note_zh": "现状轨道参考线（OSM，非红线）"
   },
   "geometry": {
    "type": "LineString",
    "coordinates": [
     [
      116.345844,
      39.943351
     ],
     [
      116.345963,
      39.943168
     ]
    ]
   }
  },
  {
   "type": "Feature",
   "id": "RL-007",
   "properties": {
    "id": "RL-007",
    "layer": "EXISTING_RAIL",
    "source_type": "osm",
    "confidence": "medium",
    "geometry_role": "existing_condition",
    "railway_kind": "rail",
    "note_zh": "现状轨道参考线（OSM，非红线）"
   },
   "geometry": {
    "type": "LineString",
    "coordinates": [
     [
      116.34756,
      39.941518
     ],
     [
      116.346988,
      39.943124
     ],
     [
      116.34647,
      39.944608
     ],
     [
      116.346367,
      39.944933
     ],
     [
      116.346267,
      39.945274
     ],
     [
      116.346191,
      39.945564
     ],
     [
      116.346153,
      39.945738
     ],
     [
      116.3461,
      39.946129
     ],
     [
      116.346079,
      39.946369
     ],
     [
      116.346068,
      39.94662
     ],
     [
      116.34607,
      39.946978
     ],
     [
      116.346065,
      39.94733
     ],
     [
      116.346083,
      39.9478
     ],
     [
      116.346087,
      39.948066
     ],
     [
      116.346076,
      39.948225
     ],
     [
      116.346075,
      39.948245
     ],
     [
      116.346039,
      39.948588
     ]
    ]
   }
  },
  {
   "type": "Feature",
   "id": "RL-008",
   "properties": {
    "id": "RL-008",
    "layer": "EXISTING_RAIL",
    "source_type": "osm",
    "confidence": "medium",
    "geometry_role": "existing_condition",
    "railway_kind": "rail",
    "note_zh": "现状轨道参考线（OSM，非红线）"
   },
   "geometry": {
    "type": "LineString",
    "coordinates": [
     [
      116.345938,
      39.949121
     ],
     [
      116.345981,
      39.948714
     ],
     [
      116.346001,
      39.948448
     ],
     [
      116.346025,
      39.948071
     ],
     [
      116.346019,
      39.947803
     ],
     [
      116.346002,
      39.947327
     ],
     [
      116.346002,
      39.94698
     ],
     [
      116.346003,
      39.946607
     ],
     [
      116.346011,
      39.946391
     ],
     [
      116.346034,
      39.946108
     ],
     [
      116.346082,
      39.945728
     ],
     [
      116.346126,
      39.945513
     ],
     [
      116.346268,
      39.944988
     ],
     [
      116.34638,
      39.944625
     ],
     [
      116.34656,
      39.944121
     ],
     [
      116.346912,
      39.943111
     ],
     [
      116.347504,
      39.941505
     ]
    ]
   }
  },
  {
   "type": "Feature",
   "id": "RL-009",
   "properties": {
    "id": "RL-009",
    "layer": "EXISTING_RAIL",
    "source_type": "osm",
    "confidence": "medium",
    "geometry_role": "existing_condition",
    "railway_kind": "rail",
    "note_zh": "现状轨道参考线（OSM，非红线）"
   },
   "geometry": {
    "type": "LineString",
    "coordinates": [
     [
      116.347787,
      39.941568
     ],
     [
      116.347549,
      39.942199
     ],
     [
      116.347198,
      39.943156
     ],
     [
      116.346908,
      39.94398
     ],
     [
      116.346622,
      39.944778
     ],
     [
      116.346566,
      39.944956
     ],
     [
      116.346523,
      39.945107
     ],
     [
      116.346469,
      39.945297
     ],
     [
      116.346417,
      39.945527
     ],
     [
      116.346372,
      39.945753
     ],
     [
      116.346344,
      39.945932
     ],
     [
      116.346311,
      39.946177
     ],
     [
      116.346295,
      39.946362
     ],
     [
      116.346277,
      39.946642
     ],
     [
      116.346267,
      39.946933
     ],
     [
      116.346257,
      39.947195
     ],
     [
      116.346248,
      39.947352
     ],
     [
      116.346232,
      39.947637
     ],
     [
      116.346186,
      39.948014
     ],
     [
      116.346166,
      39.948303
     ],
     [
      116.346147,
      39.948598
     ]
    ]
   }
  },
  {
   "type": "Feature",
   "id": "RL-010",
   "properties": {
    "id": "RL-010",
    "layer": "EXISTING_RAIL",
    "source_type": "osm",
    "confidence": "medium",
    "geometry_role": "existing_condition",
    "railway_kind": "rail",
    "note_zh": "现状轨道参考线（OSM，非红线）"
   },
   "geometry": {
    "type": "LineString",
    "coordinates": [
     [
      116.347387,
      39.941482
     ],
     [
      116.346789,
      39.943089
     ],
     [
      116.346382,
      39.944212
     ],
     [
      116.346237,
      39.944609
     ],
     [
      116.346201,
      39.94472
     ],
     [
      116.346148,
      39.944899
     ],
     [
      116.346061,
      39.945217
     ],
     [
      116.345987,
      39.945549
     ],
     [
      116.345939,
      39.945762
     ],
     [
      116.345896,
      39.946047
     ],
     [
      116.345873,
      39.946241
     ],
     [
      116.345867,
      39.946376
     ],
     [
      116.345863,
      39.946583
     ],
     [
      116.345871,
      39.946914
     ],
     [
      116.345881,
      39.947312
     ],
     [
      116.34588,
      39.947642
     ],
     [
      116.345891,
      39.948154
     ],
     [
      116.345892,
      39.948416
     ],
     [
      116.345892,
      39.948691
     ]
    ]
   }
  },
  {
   "type": "Feature",
   "id": "RL-011",
   "properties": {
    "id": "RL-011",
    "layer": "EXISTING_RAIL",
    "source_type": "osm",
    "confidence": "medium",
    "geometry_role": "existing_condition",
    "railway_kind": "rail",
    "note_zh": "现状轨道参考线（OSM，非红线）"
   },
   "geometry": {
    "type": "LineString",
    "coordinates": [
     [
      116.346039,
      39.948588
     ],
     [
      116.346105,
      39.948227
     ],
     [
      116.346127,
      39.948036
     ],
     [
      116.346148,
      39.947806
     ],
     [
      116.346162,
      39.947669
     ],
     [
      116.346172,
      39.947554
     ],
     [
      116.346208,
      39.946933
     ],
     [
      116.346219,
      39.946632
     ],
     [
      116.346232,
      39.946347
     ],
     [
      116.346248,
      39.946166
     ],
     [
      116.346275,
      39.945923
     ],
     [
      116.346303,
      39.945744
     ],
     [
      116.346351,
      39.945514
     ],
     [
      116.346403,
      39.945282
     ],
     [
      116.346454,
      39.945092
     ],
     [
      116.346496,
      39.944945
     ],
     [
      116.346554,
      39.944765
     ],
     [
      116.347129,
      39.943145
     ],
     [
      116.347492,
      39.942186
     ],
     [
      116.347729,
      39.941555
     ]
    ]
   }
  },
  {
   "type": "Feature",
   "id": "RL-012",
   "properties": {
    "id": "RL-012",
    "layer": "EXISTING_RAIL",
    "source_type": "osm",
    "confidence": "medium",
    "geometry_role": "existing_condition",
    "railway_kind": "rail",
    "note_zh": "现状轨道参考线（OSM，非红线）"
   },
   "geometry": {
    "type": "LineString",
    "coordinates": [
     [
      116.348023,
      39.941618
     ],
     [
      116.347452,
      39.943211
     ],
     [
      116.346923,
      39.944687
     ],
     [
      116.346787,
      39.94509
     ],
     [
      116.346706,
      39.945364
     ],
     [
      116.346639,
      39.945643
     ],
     [
      116.346585,
      39.945948
     ],
     [
      116.346515,
      39.946396
     ],
     [
      116.346469,
      39.946906
     ],
     [
      116.346455,
      39.947069
     ],
     [
      116.346424,
      39.947362
     ],
     [
      116.346375,
      39.947623
     ],
     [
      116.346325,
      39.94781
     ],
     [
      116.346278,
      39.947982
     ],
     [
      116.346221,
      39.948206
     ]
    ]
   }
  },
  {
   "type": "Feature",
   "id": "RL-013",
   "properties": {
    "id": "RL-013",
    "layer": "EXISTING_RAIL",
    "source_type": "osm",
    "confidence": "medium",
    "geometry_role": "existing_condition",
    "railway_kind": "subway",
    "note_zh": "现状轨道参考线（OSM，非红线）"
   },
   "geometry": {
    "type": "LineString",
    "coordinates": [
     [
      116.349402,
      39.939
     ],
     [
      116.349398,
      39.939136
     ]
    ]
   }
  },
  {
   "type": "Feature",
   "id": "RL-014",
   "properties": {
    "id": "RL-014",
    "layer": "EXISTING_RAIL",
    "source_type": "osm",
    "confidence": "medium",
    "geometry_role": "existing_condition",
    "railway_kind": "subway",
    "note_zh": "现状轨道参考线（OSM，非红线）"
   },
   "geometry": {
    "type": "LineString",
    "coordinates": [
     [
      116.352161,
      39.943123
     ],
     [
      116.352592,
      39.9432
     ]
    ]
   }
  },
  {
   "type": "Feature",
   "id": "RL-015",
   "properties": {
    "id": "RL-015",
    "layer": "EXISTING_RAIL",
    "source_type": "osm",
    "confidence": "medium",
    "geometry_role": "existing_condition",
    "railway_kind": "subway",
    "note_zh": "现状轨道参考线（OSM，非红线）"
   },
   "geometry": {
    "type": "LineString",
    "coordinates": [
     [
      116.352592,
      39.9432
     ],
     [
      116.352181,
      39.943044
     ]
    ]
   }
  },
  {
   "type": "Feature",
   "id": "RL-016",
   "properties": {
    "id": "RL-016",
    "layer": "EXISTING_RAIL",
    "source_type": "osm",
    "confidence": "medium",
    "geometry_role": "existing_condition",
    "railway_kind": "subway",
    "note_zh": "现状轨道参考线（OSM，非红线）"
   },
   "geometry": {
    "type": "LineString",
    "coordinates": [
     [
      116.3553,
      39.944069
     ],
     [
      116.354408,
      39.943759
     ],
     [
      116.353545,
      39.943479
     ],
     [
      116.352592,
      39.9432
     ]
    ]
   }
  },
  {
   "type": "Feature",
   "id": "RL-017",
   "properties": {
    "id": "RL-017",
    "layer": "EXISTING_RAIL",
    "source_type": "osm",
    "confidence": "medium",
    "geometry_role": "existing_condition",
    "railway_kind": "subway",
    "note_zh": "现状轨道参考线（OSM，非红线）"
   },
   "geometry": {
    "type": "LineString",
    "coordinates": [
     [
      116.353846,
      39.999956
     ],
     [
      116.349099,
      39.999818
     ],
     [
      116.34664,
      39.999744
     ],
     [
      116.343948,
      39.999657
     ],
     [
      116.341285,
      39.999566
     ]
    ]
   }
  },
  {
   "type": "Feature",
   "id": "RL-018",
   "properties": {
    "id": "RL-018",
    "layer": "EXISTING_RAIL",
    "source_type": "osm",
    "confidence": "medium",
    "geometry_role": "existing_condition",
    "railway_kind": "subway",
    "note_zh": "现状轨道参考线（OSM，非红线）"
   },
   "geometry": {
    "type": "LineString",
    "coordinates": [
     [
      116.346972,
      39.940281
     ],
     [
      116.347188,
      39.939714
     ]
    ]
   }
  },
  {
   "type": "Feature",
   "id": "RL-019",
   "properties": {
    "id": "RL-019",
    "layer": "EXISTING_RAIL",
    "source_type": "osm",
    "confidence": "medium",
    "geometry_role": "existing_condition",
    "railway_kind": "subway",
    "note_zh": "现状轨道参考线（OSM，非红线）"
   },
   "geometry": {
    "type": "LineString",
    "coordinates": [
     [
      116.347071,
      39.940305
     ],
     [
      116.346573,
      39.941621
     ],
     [
      116.346331,
      39.942255
     ],
     [
      116.346251,
      39.942439
     ],
     [
      116.346078,
      39.942888
     ],
     [
      116.345963,
      39.943168
     ],
     [
      116.345327,
      39.944788
     ],
     [
      116.345233,
      39.945034
     ],
     [
      116.345159,
      39.945274
     ],
     [
      116.345111,
      39.945611
     ],
     [
      116.345093,
      39.945974
     ],
     [
      116.345106,
      39.946234
     ],
     [
      116.345151,
      39.946496
     ],
     [
      116.345283,
      39.947316
     ],
     [
      116.345374,
      39.947841
     ],
     [
      116.345467,
      39.948362
     ],
     [
      116.345498,
      39.948522
     ],
     [
      116.345515,
      39.948696
     ],
     [
      116.345521,
      39.949008
     ],
     [
      116.345517,
      39.949157
     ],
     [
      116.345505,
      39.949307
     ],
     [
      116.345489,
      39.949445
     ],
     [
      116.34546,
      39.949578
     ],
     [
      116.345389,
      39.949834
     ],
     [
      116.345253,
      39.950159
     ],
     [
      116.345096,
      39.950453
     ],
     [
      116.343482,
      39.953491
     ],
     [
      116.342644,
      39.955001
     ],
     [
      116.342218,
      39.955764
     ],
     [
      116.341973,
      39.956216
     ],
     [
      116.341805,
      39.956551
     ],
     [
      116.341539,
      39.957124
     ],
     [
      116.341378,
      39.95746
     ],
     [
      116.341105,
      39.958002
     ],
     [
      116.340503,
      39.959093
     ],
     [
      116.34039,
      39.959313
     ],
     [
      116.340278,
      39.959534
     ],
     [
      116.34012,
      39.959885
     ]
    ]
   }
  },
  {
   "type": "Feature",
   "id": "RL-020",
   "properties": {
    "id": "RL-020",
    "layer": "EXISTING_RAIL",
    "source_type": "osm",
    "confidence": "medium",
    "geometry_role": "existing_condition",
    "railway_kind": "subway",
    "note_zh": "现状轨道参考线（OSM，非红线）"
   },
   "geometry": {
    "type": "LineString",
    "coordinates": [
     [
      116.340123,
      39.959785
     ],
     [
      116.340235,
      39.959518
     ],
     [
      116.340342,
      39.959304
     ],
     [
      116.340458,
      39.95908
     ],
     [
      116.341065,
      39.957988
     ],
     [
      116.34122,
      39.957687
     ],
     [
      116.341342,
      39.957449
     ],
     [
      116.3415,
      39.957117
     ],
     [
      116.341768,
      39.956537
     ],
     [
      116.341938,
      39.956205
     ],
     [
      116.342181,
      39.955753
     ],
     [
      116.342606,
      39.954985
     ],
     [
      116.343456,
      39.953485
     ],
     [
      116.345077,
      39.950446
     ],
     [
      116.345231,
      39.950149
     ],
     [
      116.345364,
      39.949823
     ],
     [
      116.345432,
      39.949577
     ],
     [
      116.345466,
      39.949444
     ],
     [
      116.345484,
      39.949298
     ],
     [
      116.34549,
      39.949154
     ],
     [
      116.345498,
      39.949006
     ],
     [
      116.345488,
      39.948692
     ],
     [
      116.345469,
      39.948528
     ],
     [
      116.345439,
      39.948364
     ],
     [
      116.345349,
      39.947841
     ],
     [
      116.345256,
      39.947318
     ],
     [
      116.345126,
      39.946503
     ],
     [
      116.345081,
      39.946233
     ],
     [
      116.345068,
      39.945973
     ],
     [
      116.34508,
      39.945606
     ],
     [
      116.345125,
      39.945266
     ],
     [
      116.345195,
      39.945021
     ],
     [
      116.345287,
      39.944774
     ],
     [
      116.345844,
      39.943351
     ],
     [
      116.34598,
      39.942989
     ],
     [
      116.346139,
      39.942586
     ],
     [
      116.346209,
      39.942421
     ],
     [
      116.346291,
      39.942237
     ],
     [
      116.346429,
      39.941693
     ],
     [
      116.346972,
      39.940281
     ]
    ]
   }
  },
  {
   "type": "Feature",
   "id": "RL-021",
   "properties": {
    "id": "RL-021",
    "layer": "EXISTING_RAIL",
    "source_type": "osm",
    "confidence": "medium",
    "geometry_role": "existing_condition",
    "railway_kind": "subway",
    "note_zh": "现状轨道参考线（OSM，非红线）"
   },
   "geometry": {
    "type": "LineString",
    "coordinates": [
     [
      116.354503,
      39.974956
     ],
     [
      116.347761,
      39.97495
     ],
     [
      116.346727,
      39.974944
     ],
     [
      116.345624,
      39.975013
     ],
     [
      116.343963,
      39.97508
     ],
     [
      116.343503,
      39.975175
     ],
     [
      116.342634,
      39.97522
     ],
     [
      116.342048,
      39.975222
     ],
     [
      116.341989,
      39.975223
     ],
     [
      116.339715,
      39.97523
     ]
    ]
   }
  },
  {
   "type": "Feature",
   "id": "RL-022",
   "properties": {
    "id": "RL-022",
    "layer": "EXISTING_RAIL",
    "source_type": "osm",
    "confidence": "medium",
    "geometry_role": "existing_condition",
    "railway_kind": "subway",
    "note_zh": "现状轨道参考线（OSM，非红线）"
   },
   "geometry": {
    "type": "LineString",
    "coordinates": [
     [
      116.339701,
      39.975018
     ],
     [
      116.342083,
      39.975007
     ],
     [
      116.343376,
      39.974966
     ],
     [
      116.344025,
      39.974905
     ],
     [
      116.3453,
      39.974835
     ],
     [
      116.345846,
      39.974805
     ],
     [
      116.346722,
      39.974793
     ],
     [
      116.347757,
      39.974803
     ],
     [
      116.354514,
      39.974821
     ]
    ]
   }
  },
  {
   "type": "Feature",
   "id": "RL-023",
   "properties": {
    "id": "RL-023",
    "layer": "EXISTING_RAIL",
    "source_type": "osm",
    "confidence": "medium",
    "geometry_role": "existing_condition",
    "railway_kind": "subway",
    "note_zh": "现状轨道参考线（OSM，非红线）"
   },
   "geometry": {
    "type": "LineString",
    "coordinates": [
     [
      116.355231,
      40.025235
     ],
     [
      116.353181,
      40.02631
     ],
     [
      116.352921,
      40.0265
     ]
    ]
   }
  },
  {
   "type": "Feature",
   "id": "RL-024",
   "properties": {
    "id": "RL-024",
    "layer": "EXISTING_RAIL",
    "source_type": "osm",
    "confidence": "medium",
    "geometry_role": "existing_condition",
    "railway_kind": "subway",
    "note_zh": "现状轨道参考线（OSM，非红线）"
   },
   "geometry": {
    "type": "LineString",
    "coordinates": [
     [
      116.347164,
      39.939
     ],
     [
      116.34734,
      39.939017
     ],
     [
      116.347557,
      39.939034
     ],
     [
      116.347756,
      39.939047
     ],
     [
      116.348009,
      39.939057
     ],
     [
      116.348248,
      39.939062
     ],
     [
      116.349327,
      39.939093
     ],
     [
      116.350302,
      39.939119
     ],
     [
      116.3553,
      39.939246
     ]
    ]
   }
  },
  {
   "type": "Feature",
   "id": "RL-025",
   "properties": {
    "id": "RL-025",
    "layer": "EXISTING_RAIL",
    "source_type": "osm",
    "confidence": "medium",
    "geometry_role": "existing_condition",
    "railway_kind": "subway",
    "note_zh": "现状轨道参考线（OSM，非红线）"
   },
   "geometry": {
    "type": "LineString",
    "coordinates": [
     [
      116.3553,
      39.939345
     ],
     [
      116.350295,
      39.939205
     ],
     [
      116.349323,
      39.939173
     ],
     [
      116.348244,
      39.939146
     ],
     [
      116.347342,
      39.939091
     ],
     [
      116.346708,
      39.939023
     ],
     [
      116.346518,
      39.939
     ]
    ]
   }
  },
  {
   "type": "Feature",
   "id": "RL-026",
   "properties": {
    "id": "RL-026",
    "layer": "EXISTING_RAIL",
    "source_type": "osm",
    "confidence": "medium",
    "geometry_role": "existing_condition",
    "railway_kind": "subway",
    "note_zh": "现状轨道参考线（OSM，非红线）"
   },
   "geometry": {
    "type": "LineString",
    "coordinates": [
     [
      116.341278,
      39.999464
     ],
     [
      116.342551,
      39.999492
     ],
     [
      116.342594,
      39.999493
     ],
     [
      116.342673,
      39.999495
     ],
     [
      116.345749,
      39.999574
     ],
     [
      116.346644,
      39.999599
     ],
     [
      116.348945,
      39.999669
     ],
     [
      116.350252,
      39.999703
     ],
     [
      116.353838,
      39.999812
     ]
    ]
   }
  },
  {
   "type": "Feature",
   "id": "RL-027",
   "properties": {
    "id": "RL-027",
    "layer": "EXISTING_RAIL",
    "source_type": "osm",
    "confidence": "medium",
    "geometry_role": "existing_condition",
    "railway_kind": "rail",
    "note_zh": "现状轨道参考线（OSM，非红线）"
   },
   "geometry": {
    "type": "LineString",
    "coordinates": [
     [
      116.344451,
      39.952175
     ],
     [
      116.344705,
      39.951788
     ],
     [
      116.344764,
      39.9517
     ],
     [
      116.344885,
      39.951507
     ],
     [
      116.345335,
      39.950691
     ],
     [
      116.345711,
      39.950005
     ],
     [
      116.345811,
      39.949827
     ],
     [
      116.34591,
      39.949613
     ],
     [
      116.345928,
      39.949565
     ]
    ]
   }
  },
  {
   "type": "Feature",
   "id": "RL-028",
   "properties": {
    "id": "RL-028",
    "layer": "EXISTING_RAIL",
    "source_type": "osm",
    "confidence": "medium",
    "geometry_role": "existing_condition",
    "railway_kind": "subway",
    "note_zh": "现状轨道参考线（OSM，非红线）"
   },
   "geometry": {
    "type": "LineString",
    "coordinates": [
     [
      116.347318,
      39.939998
     ],
     [
      116.34715,
      39.940429
     ]
    ]
   }
  },
  {
   "type": "Feature",
   "id": "RL-029",
   "properties": {
    "id": "RL-029",
    "layer": "EXISTING_RAIL",
    "source_type": "osm",
    "confidence": "medium",
    "geometry_role": "existing_condition",
    "railway_kind": "subway",
    "note_zh": "现状轨道参考线（OSM，非红线）"
   },
   "geometry": {
    "type": "LineString",
    "coordinates": [
     [
      116.355234,
      40.025298
     ],
     [
      116.35335,
      40.026286
     ],
     [
      116.353059,
      40.0265
     ]
    ]
   }
  },
  {
   "type": "Feature",
   "id": "RL-030",
   "properties": {
    "id": "RL-030",
    "layer": "EXISTING_RAIL",
    "source_type": "osm",
    "confidence": "medium",
    "geometry_role": "existing_condition",
    "railway_kind": "subway",
    "note_zh": "现状轨道参考线（OSM，非红线）"
   },
   "geometry": {
    "type": "LineString",
    "coordinates": [
     [
      116.339948,
      39.966077
     ],
     [
      116.341233,
      39.966125
     ],
     [
      116.342777,
      39.966169
     ],
     [
      116.344924,
      39.966199
     ],
     [
      116.346487,
      39.966223
     ],
     [
      116.348078,
      39.966222
     ],
     [
      116.349662,
      39.966229
     ],
     [
      116.353714,
      39.966246
     ],
     [
      116.3552,
      39.966254
     ]
    ]
   }
  },
  {
   "type": "Feature",
   "id": "RL-031",
   "properties": {
    "id": "RL-031",
    "layer": "EXISTING_RAIL",
    "source_type": "osm",
    "confidence": "medium",
    "geometry_role": "existing_condition",
    "railway_kind": "subway",
    "note_zh": "现状轨道参考线（OSM，非红线）"
   },
   "geometry": {
    "type": "LineString",
    "coordinates": [
     [
      116.343385,
      40.0265
     ],
     [
      116.343742,
      40.026024
     ],
     [
      116.34403,
      40.025604
     ],
     [
      116.344432,
      40.024694
     ],
     [
      116.34493,
      40.023803
     ],
     [
      116.345212,
      40.022774
     ],
     [
      116.345273,
      40.021485
     ],
     [
      116.345428,
      40.020041
     ],
     [
      116.345377,
      40.017976
     ],
     [
      116.345496,
      40.015916
     ],
     [
      116.345688,
      40.013629
     ],
     [
      116.346156,
      40.008042
     ],
     [
      116.346298,
      40.004189
     ],
     [
      116.346459,
      40.001102
     ]
    ]
   }
  },
  {
   "type": "Feature",
   "id": "RL-032",
   "properties": {
    "id": "RL-032",
    "layer": "EXISTING_RAIL",
    "source_type": "osm",
    "confidence": "medium",
    "geometry_role": "existing_condition",
    "railway_kind": "rail",
    "note_zh": "现状轨道参考线（OSM，非红线）"
   },
   "geometry": {
    "type": "LineString",
    "coordinates": [
     [
      116.34312,
      39.954476
     ],
     [
      116.342102,
      39.956327
     ],
     [
      116.340627,
      39.959086
     ],
     [
      116.340338,
      39.959666
     ],
     [
      116.340118,
      39.960198
     ],
     [
      116.34011,
      39.960223
     ]
    ]
   }
  },
  {
   "type": "Feature",
   "id": "RL-033",
   "properties": {
    "id": "RL-033",
    "layer": "EXISTING_RAIL",
    "source_type": "osm",
    "confidence": "medium",
    "geometry_role": "existing_condition",
    "railway_kind": "subway",
    "note_zh": "现状轨道参考线（OSM，非红线）"
   },
   "geometry": {
    "type": "LineString",
    "coordinates": [
     [
      116.34926,
      39.939132
     ],
     [
      116.349266,
      39.939
     ]
    ]
   }
  },
  {
   "type": "Feature",
   "id": "RL-034",
   "properties": {
    "id": "RL-034",
    "layer": "EXISTING_RAIL",
    "source_type": "osm",
    "confidence": "medium",
    "geometry_role": "existing_condition",
    "railway_kind": "rail",
    "note_zh": "现状轨道参考线（OSM，非红线）"
   },
   "geometry": {
    "type": "LineString",
    "coordinates": [
     [
      116.340103,
      39.960483
     ],
     [
      116.340163,
      39.960301
     ],
     [
      116.340397,
      39.959693
     ],
     [
      116.341036,
      39.958423
     ],
     [
      116.341717,
      39.957168
     ],
     [
      116.342121,
      39.956417
     ],
     [
      116.343179,
      39.95449
     ]
    ]
   }
  },
  {
   "type": "Feature",
   "id": "RL-035",
   "properties": {
    "id": "RL-035",
    "layer": "EXISTING_RAIL",
    "source_type": "osm",
    "confidence": "medium",
    "geometry_role": "existing_condition",
    "railway_kind": "rail",
    "note_zh": "现状轨道参考线（OSM，非红线）"
   },
   "geometry": {
    "type": "LineString",
    "coordinates": [
     [
      116.344796,
      39.951548
     ],
     [
      116.344994,
      39.951186
     ],
     [
      116.345167,
      39.95087
     ],
     [
      116.345251,
      39.950723
     ],
     [
      116.345614,
      39.950068
     ],
     [
      116.345648,
      39.950006
     ],
     [
      116.34567,
      39.949963
     ],
     [
      116.345746,
      39.949807
     ],
     [
      116.345828,
      39.949596
     ],
     [
      116.345848,
      39.949535
     ]
    ]
   }
  },
  {
   "type": "Feature",
   "id": "RL-036",
   "properties": {
    "id": "RL-036",
    "layer": "EXISTING_RAIL",
    "source_type": "osm",
    "confidence": "medium",
    "geometry_role": "existing_condition",
    "railway_kind": "rail",
    "note_zh": "现状轨道参考线（OSM，非红线）"
   },
   "geometry": {
    "type": "LineString",
    "coordinates": [
     [
      116.344282,
      39.952375
     ],
     [
      116.344101,
      39.952691
     ],
     [
      116.34312,
      39.954476
     ]
    ]
   }
  },
  {
   "type": "Feature",
   "id": "RL-037",
   "properties": {
    "id": "RL-037",
    "layer": "EXISTING_RAIL",
    "source_type": "osm",
    "confidence": "medium",
    "geometry_role": "existing_condition",
    "railway_kind": "rail",
    "note_zh": "现状轨道参考线（OSM，非红线）"
   },
   "geometry": {
    "type": "LineString",
    "coordinates": [
     [
      116.343179,
      39.95449
     ],
     [
      116.344332,
      39.952391
     ]
    ]
   }
  },
  {
   "type": "Feature",
   "id": "RL-038",
   "properties": {
    "id": "RL-038",
    "layer": "EXISTING_RAIL",
    "source_type": "osm",
    "confidence": "medium",
    "geometry_role": "existing_condition",
    "railway_kind": "rail",
    "note_zh": "现状轨道参考线（OSM，非红线）"
   },
   "geometry": {
    "type": "LineString",
    "coordinates": [
     [
      116.345711,
      39.949486
     ],
     [
      116.345732,
      39.949384
     ],
     [
      116.34575,
      39.949291
     ]
    ]
   }
  },
  {
   "type": "Feature",
   "id": "RL-039",
   "properties": {
    "id": "RL-039",
    "layer": "EXISTING_RAIL",
    "source_type": "osm",
    "confidence": "medium",
    "geometry_role": "existing_condition",
    "railway_kind": "rail",
    "note_zh": "现状轨道参考线（OSM，非红线）"
   },
   "geometry": {
    "type": "LineString",
    "coordinates": [
     [
      116.345792,
      39.948725
     ],
     [
      116.345787,
      39.948385
     ],
     [
      116.345781,
      39.948168
     ],
     [
      116.345747,
      39.947888
     ],
     [
      116.345707,
      39.947562
     ],
     [
      116.345676,
      39.947266
     ],
     [
      116.345646,
      39.94702
     ],
     [
      116.345611,
      39.946696
     ],
     [
      116.345602,
      39.946519
     ],
     [
      116.345599,
      39.946342
     ],
     [
      116.345603,
      39.946153
     ],
     [
      116.345616,
      39.945976
     ],
     [
      116.345637,
      39.945783
     ],
     [
      116.34566,
      39.945619
     ],
     [
      116.34569,
      39.945459
     ],
     [
      116.345728,
      39.945285
     ],
     [
      116.345787,
      39.945061
     ],
     [
      116.345841,
      39.944866
     ],
     [
      116.345907,
      39.944643
     ],
     [
      116.346478,
      39.943029
     ],
     [
      116.346647,
      39.94255
     ]
    ]
   }
  },
  {
   "type": "Feature",
   "id": "RL-040",
   "properties": {
    "id": "RL-040",
    "layer": "EXISTING_RAIL",
    "source_type": "osm",
    "confidence": "medium",
    "geometry_role": "existing_condition",
    "railway_kind": "rail",
    "note_zh": "现状轨道参考线（OSM，非红线）"
   },
   "geometry": {
    "type": "LineString",
    "coordinates": [
     [
      116.345892,
      39.948691
     ],
     [
      116.345874,
      39.948403
     ],
     [
      116.345845,
      39.948181
     ],
     [
      116.34581,
      39.947884
     ],
     [
      116.345772,
      39.947563
     ],
     [
      116.345738,
      39.947267
     ],
     [
      116.34571,
      39.94702
     ],
     [
      116.345681,
      39.946687
     ],
     [
      116.345673,
      39.946519
     ],
     [
      116.345669,
      39.946342
     ],
     [
      116.345673,
      39.946155
     ],
     [
      116.345686,
      39.945979
     ],
     [
      116.345707,
      39.945788
     ],
     [
      116.34573,
      39.945626
     ],
     [
      116.34576,
      39.945467
     ],
     [
      116.345797,
      39.945295
     ],
     [
      116.345855,
      39.945072
     ],
     [
      116.34591,
      39.944877
     ],
     [
      116.345975,
      39.944655
     ],
     [
      116.346042,
      39.944465
     ],
     [
      116.346715,
      39.942565
     ]
    ]
   }
  },
  {
   "type": "Feature",
   "id": "RL-041",
   "properties": {
    "id": "RL-041",
    "layer": "EXISTING_RAIL",
    "source_type": "osm",
    "confidence": "medium",
    "geometry_role": "existing_condition",
    "railway_kind": "rail",
    "note_zh": "现状轨道参考线（OSM，非红线）"
   },
   "geometry": {
    "type": "LineString",
    "coordinates": [
     [
      116.345711,
      39.950005
     ],
     [
      116.345555,
      39.950261
     ],
     [
      116.3454,
      39.950492
     ],
     [
      116.345251,
      39.950723
     ]
    ]
   }
  },
  {
   "type": "Feature",
   "id": "RL-042",
   "properties": {
    "id": "RL-042",
    "layer": "EXISTING_RAIL",
    "source_type": "osm",
    "confidence": "medium",
    "geometry_role": "existing_condition",
    "railway_kind": "rail",
    "note_zh": "现状轨道参考线（OSM，非红线）"
   },
   "geometry": {
    "type": "LineString",
    "coordinates": [
     [
      116.345572,
      39.949889
     ],
     [
      116.345387,
      39.950315
     ],
     [
      116.345328,
      39.950439
     ],
     [
      116.345197,
      39.950705
     ]
    ]
   }
  },
  {
   "type": "Feature",
   "id": "RL-043",
   "properties": {
    "id": "RL-043",
    "layer": "EXISTING_RAIL",
    "source_type": "osm",
    "confidence": "medium",
    "geometry_role": "existing_condition",
    "railway_kind": "rail",
    "note_zh": "现状轨道参考线（OSM，非红线）"
   },
   "geometry": {
    "type": "LineString",
    "coordinates": [
     [
      116.345167,
      39.95087
     ],
     [
      116.344967,
      39.951181
     ],
     [
      116.344745,
      39.951529
     ]
    ]
   }
  },
  {
   "type": "Feature",
   "id": "RL-044",
   "properties": {
    "id": "RL-044",
    "layer": "EXISTING_RAIL",
    "source_type": "osm",
    "confidence": "medium",
    "geometry_role": "existing_condition",
    "railway_kind": "rail",
    "note_zh": "现状轨道参考线（OSM，非红线）"
   },
   "geometry": {
    "type": "LineString",
    "coordinates": [
     [
      116.345114,
      39.950854
     ],
     [
      116.344967,
      39.951181
     ],
     [
      116.344796,
      39.951548
     ]
    ]
   }
  },
  {
   "type": "Feature",
   "id": "RL-045",
   "properties": {
    "id": "RL-045",
    "layer": "EXISTING_RAIL",
    "source_type": "osm",
    "confidence": "medium",
    "geometry_role": "existing_condition",
    "railway_kind": "rail",
    "note_zh": "现状轨道参考线（OSM，非红线）"
   },
   "geometry": {
    "type": "LineString",
    "coordinates": [
     [
      116.345836,
      39.949319
     ],
     [
      116.345818,
      39.949408
     ],
     [
      116.345789,
      39.949513
     ]
    ]
   }
  },
  {
   "type": "Feature",
   "id": "RL-046",
   "properties": {
    "id": "RL-046",
    "layer": "EXISTING_RAIL",
    "source_type": "osm",
    "confidence": "medium",
    "geometry_role": "existing_condition",
    "railway_kind": "rail",
    "note_zh": "现状轨道参考线（OSM，非红线）"
   },
   "geometry": {
    "type": "LineString",
    "coordinates": [
     [
      116.345928,
      39.949565
     ],
     [
      116.345969,
      39.949448
     ],
     [
      116.345992,
      39.94937
     ]
    ]
   }
  },
  {
   "type": "Feature",
   "id": "RL-047",
   "properties": {
    "id": "RL-047",
    "layer": "EXISTING_RAIL",
    "source_type": "osm",
    "confidence": "medium",
    "geometry_role": "existing_condition",
    "railway_kind": "rail",
    "note_zh": "现状轨道参考线（OSM，非红线）"
   },
   "geometry": {
    "type": "LineString",
    "coordinates": [
     [
      116.344404,
      39.952164
     ],
     [
      116.344595,
      39.951749
     ],
     [
      116.344638,
      39.951656
     ],
     [
      116.344729,
      39.951465
     ]
    ]
   }
  },
  {
   "type": "Feature",
   "id": "RL-048",
   "properties": {
    "id": "RL-048",
    "layer": "EXISTING_RAIL",
    "source_type": "osm",
    "confidence": "medium",
    "geometry_role": "existing_condition",
    "railway_kind": "rail",
    "note_zh": "现状轨道参考线（OSM，非红线）"
   },
   "geometry": {
    "type": "LineString",
    "coordinates": [
     [
      116.345114,
      39.950854
     ],
     [
      116.344939,
      39.951173
     ],
     [
      116.344745,
      39.951529
     ],
     [
      116.344696,
      39.951617
     ],
     [
      116.344404,
      39.952164
     ]
    ]
   }
  },
  {
   "type": "Feature",
   "id": "RL-049",
   "properties": {
    "id": "RL-049",
    "layer": "EXISTING_RAIL",
    "source_type": "osm",
    "confidence": "medium",
    "geometry_role": "existing_condition",
    "railway_kind": "rail",
    "note_zh": "现状轨道参考线（OSM，非红线）"
   },
   "geometry": {
    "type": "LineString",
    "coordinates": [
     [
      116.345848,
      39.949535
     ],
     [
      116.3459,
      39.94934
     ]
    ]
   }
  },
  {
   "type": "Feature",
   "id": "RL-050",
   "properties": {
    "id": "RL-050",
    "layer": "EXISTING_RAIL",
    "source_type": "osm",
    "confidence": "medium",
    "geometry_role": "existing_condition",
    "railway_kind": "rail",
    "note_zh": "现状轨道参考线（OSM，非红线）"
   },
   "geometry": {
    "type": "LineString",
    "coordinates": [
     [
      116.345992,
      39.94937
     ],
     [
      116.346052,
      39.949112
     ],
     [
      116.346105,
      39.948828
     ],
     [
      116.346147,
      39.948598
     ],
     [
      116.346221,
      39.948206
     ]
    ]
   }
  },
  {
   "type": "Feature",
   "id": "RL-051",
   "properties": {
    "id": "RL-051",
    "layer": "EXISTING_RAIL",
    "source_type": "osm",
    "confidence": "medium",
    "geometry_role": "existing_condition",
    "railway_kind": "rail",
    "note_zh": "现状轨道参考线（OSM，非红线）"
   },
   "geometry": {
    "type": "LineString",
    "coordinates": [
     [
      116.345792,
      39.948725
     ],
     [
      116.345761,
      39.948385
     ],
     [
      116.345731,
      39.948162
     ],
     [
      116.345665,
      39.947761
     ],
     [
      116.345623,
      39.947511
     ],
     [
      116.345592,
      39.947279
     ],
     [
      116.345548,
      39.946972
     ],
     [
      116.345484,
      39.946487
     ],
     [
      116.345464,
      39.94629
     ],
     [
      116.345461,
      39.946098
     ],
     [
      116.345474,
      39.945803
     ],
     [
      116.345509,
      39.94551
     ],
     [
      116.345536,
      39.945386
     ],
     [
      116.34558,
      39.945187
     ],
     [
      116.345653,
      39.944928
     ],
     [
      116.346318,
      39.942988
     ],
     [
      116.346498,
      39.942481
     ]
    ]
   }
  },
  {
   "type": "Feature",
   "id": "RL-052",
   "properties": {
    "id": "RL-052",
    "layer": "EXISTING_RAIL",
    "source_type": "osm",
    "confidence": "medium",
    "geometry_role": "existing_condition",
    "railway_kind": "rail",
    "note_zh": "现状轨道参考线（OSM，非红线）"
   },
   "geometry": {
    "type": "LineString",
    "coordinates": [
     [
      116.347306,
      39.941465
     ],
     [
      116.346887,
      39.942602
     ],
     [
      116.346714,
      39.943071
     ],
     [
      116.346377,
      39.944012
     ],
     [
      116.346137,
      39.944689
     ],
     [
      116.346031,
      39.945033
     ],
     [
      116.345913,
      39.945536
     ],
     [
      116.34587,
      39.945756
     ],
     [
      116.345832,
      39.94604
     ],
     [
      116.34581,
      39.946238
     ],
     [
      116.345803,
      39.946377
     ],
     [
      116.345802,
      39.946582
     ],
     [
      116.34581,
      39.946915
     ],
     [
      116.34582,
      39.947308
     ],
     [
      116.345827,
      39.94747
     ],
     [
      116.34584,
      39.947645
     ],
     [
      116.345871,
      39.947904
     ],
     [
      116.345891,
      39.948154
     ]
    ]
   }
  },
  {
   "type": "Feature",
   "id": "RL-053",
   "properties": {
    "id": "RL-053",
    "layer": "EXISTING_RAIL",
    "source_type": "osm",
    "confidence": "medium",
    "geometry_role": "existing_condition",
    "railway_kind": "subway",
    "note_zh": "现状轨道参考线（OSM，非红线）"
   },
   "geometry": {
    "type": "LineString",
    "coordinates": [
     [
      116.346545,
      40.001102
     ],
     [
      116.346317,
      40.006011
     ],
     [
      116.345785,
      40.01363
     ],
     [
      116.345752,
      40.014106
     ],
     [
      116.345603,
      40.01632
     ],
     [
      116.345494,
      40.017966
     ],
     [
      116.345501,
      40.020315
     ],
     [
      116.345358,
      40.022768
     ],
     [
      116.345106,
      40.023799
     ],
     [
      116.34461,
      40.024523
     ],
     [
      116.344079,
      40.025638
     ],
     [
      116.343463,
      40.0265
     ]
    ]
   }
  },
  {
   "type": "Feature",
   "id": "RL-054",
   "properties": {
    "id": "RL-054",
    "layer": "EXISTING_RAIL",
    "source_type": "osm",
    "confidence": "medium",
    "geometry_role": "existing_condition",
    "railway_kind": "subway",
    "note_zh": "现状轨道参考线（OSM，非红线）"
   },
   "geometry": {
    "type": "LineString",
    "coordinates": [
     [
      116.3553,
      39.943987
     ],
     [
      116.354194,
      39.943689
     ],
     [
      116.352161,
      39.943123
     ],
     [
      116.351498,
      39.942921
     ],
     [
      116.351082,
      39.942794
     ],
     [
      116.350767,
      39.942661
     ],
     [
      116.350476,
      39.942496
     ],
     [
      116.350246,
      39.942322
     ],
     [
      116.349971,
      39.942087
     ],
     [
      116.349744,
      39.941851
     ],
     [
      116.34955,
      39.941577
     ],
     [
      116.349441,
      39.941198
     ],
     [
      116.349247,
      39.940461
     ],
     [
      116.349236,
      39.940372
     ],
     [
      116.34923,
      39.940274
     ],
     [
      116.349226,
      39.940175
     ],
     [
      116.349225,
      39.940062
     ],
     [
      116.349232,
      39.93973
     ],
     [
      116.34926,
      39.939132
     ]
    ]
   }
  },
  {
   "type": "Feature",
   "id": "RL-055",
   "properties": {
    "id": "RL-055",
    "layer": "EXISTING_RAIL",
    "source_type": "osm",
    "confidence": "medium",
    "geometry_role": "existing_condition",
    "railway_kind": "subway",
    "note_zh": "现状轨道参考线（OSM，非红线）"
   },
   "geometry": {
    "type": "LineString",
    "coordinates": [
     [
      116.349398,
      39.939136
     ],
     [
      116.34938,
      39.93974
     ],
     [
      116.349371,
      39.940057
     ],
     [
      116.349372,
      39.940178
     ],
     [
      116.349376,
      39.940285
     ],
     [
      116.349381,
      39.940369
     ],
     [
      116.349386,
      39.940458
     ],
     [
      116.349484,
      39.941195
     ],
     [
      116.349598,
      39.94157
     ],
     [
      116.34978,
      39.941825
     ],
     [
      116.350006,
      39.94206
     ],
     [
      116.350285,
      39.942301
     ],
     [
      116.350515,
      39.94247
     ],
     [
      116.350784,
      39.942631
     ],
     [
      116.351101,
      39.942765
     ],
     [
      116.351513,
      39.942883
     ],
     [
      116.352181,
      39.943044
     ],
     [
      116.354224,
      39.943638
     ],
     [
      116.3553,
      39.943928
     ]
    ]
   }
  },
  {
   "type": "Feature",
   "id": "RL-056",
   "properties": {
    "id": "RL-056",
    "layer": "EXISTING_RAIL",
    "source_type": "osm",
    "confidence": "medium",
    "geometry_role": "existing_condition",
    "railway_kind": "rail",
    "note_zh": "现状轨道参考线（OSM，非红线）"
   },
   "geometry": {
    "type": "LineString",
    "coordinates": [
     [
      116.344332,
      39.952391
     ],
     [
      116.344451,
      39.952175
     ],
     [
      116.344751,
      39.951635
     ],
     [
      116.344796,
      39.951548
     ]
    ]
   }
  },
  {
   "type": "Feature",
   "id": "RL-057",
   "properties": {
    "id": "RL-057",
    "layer": "EXISTING_RAIL",
    "source_type": "osm",
    "confidence": "medium",
    "geometry_role": "existing_condition",
    "railway_kind": "rail",
    "note_zh": "现状轨道参考线（OSM，非红线）"
   },
   "geometry": {
    "type": "LineString",
    "coordinates": [
     [
      116.345789,
      39.949513
     ],
     [
      116.345766,
      39.949584
     ],
     [
      116.345691,
      39.949786
     ],
     [
      116.345616,
      39.949943
     ],
     [
      116.345591,
      39.949988
     ],
     [
      116.345557,
      39.950049
     ],
     [
      116.345197,
      39.950705
     ]
    ]
   }
  },
  {
   "type": "Feature",
   "id": "RL-058",
   "properties": {
    "id": "RL-058",
    "layer": "EXISTING_RAIL",
    "source_type": "osm",
    "confidence": "medium",
    "geometry_role": "existing_condition",
    "railway_kind": "rail",
    "note_zh": "现状轨道参考线（OSM，非红线）"
   },
   "geometry": {
    "type": "LineString",
    "coordinates": [
     [
      116.345197,
      39.950705
     ],
     [
      116.345114,
      39.950854
     ]
    ]
   }
  },
  {
   "type": "Feature",
   "id": "RL-059",
   "properties": {
    "id": "RL-059",
    "layer": "EXISTING_RAIL",
    "source_type": "osm",
    "confidence": "medium",
    "geometry_role": "existing_condition",
    "railway_kind": "rail",
    "note_zh": "现状轨道参考线（OSM，非红线）"
   },
   "geometry": {
    "type": "LineString",
    "coordinates": [
     [
      116.345572,
      39.949889
     ],
     [
      116.345602,
      39.949816
     ],
     [
      116.345621,
      39.949763
     ],
     [
      116.345689,
      39.949565
     ],
     [
      116.345711,
      39.949486
     ]
    ]
   }
  },
  {
   "type": "Feature",
   "id": "RL-060",
   "properties": {
    "id": "RL-060",
    "layer": "EXISTING_RAIL",
    "source_type": "osm",
    "confidence": "medium",
    "geometry_role": "existing_condition",
    "railway_kind": "rail",
    "note_zh": "现状轨道参考线（OSM，非红线）"
   },
   "geometry": {
    "type": "LineString",
    "coordinates": [
     [
      116.344404,
      39.952164
     ],
     [
      116.344361,
      39.95223
     ],
     [
      116.344282,
      39.952375
     ]
    ]
   }
  },
  {
   "type": "Feature",
   "id": "RL-061",
   "properties": {
    "id": "RL-061",
    "layer": "EXISTING_RAIL",
    "source_type": "osm",
    "confidence": "medium",
    "geometry_role": "existing_condition",
    "railway_kind": "rail",
    "note_zh": "现状轨道参考线（OSM，非红线）"
   },
   "geometry": {
    "type": "LineString",
    "coordinates": [
     [
      116.34575,
      39.949291
     ],
     [
      116.345779,
      39.949105
     ],
     [
      116.345792,
      39.948974
     ],
     [
      116.345792,
      39.948725
     ]
    ]
   }
  },
  {
   "type": "Feature",
   "id": "RL-062",
   "properties": {
    "id": "RL-062",
    "layer": "EXISTING_RAIL",
    "source_type": "osm",
    "confidence": "medium",
    "geometry_role": "existing_condition",
    "railway_kind": "subway",
    "note_zh": "现状轨道参考线（OSM，非红线）"
   },
   "geometry": {
    "type": "LineString",
    "coordinates": [
     [
      116.348158,
      39.973856
     ],
     [
      116.348162,
      39.973205
     ],
     [
      116.348098,
      39.972758
     ],
     [
      116.34811,
      39.972189
     ],
     [
      116.348413,
      39.966434
     ],
     [
      116.348476,
      39.965245
     ],
     [
      116.348652,
      39.9617
     ]
    ]
   }
  },
  {
   "type": "Feature",
   "id": "RL-063",
   "properties": {
    "id": "RL-063",
    "layer": "EXISTING_RAIL",
    "source_type": "osm",
    "confidence": "medium",
    "geometry_role": "existing_condition",
    "railway_kind": "subway",
    "note_zh": "现状轨道参考线（OSM，非红线）"
   },
   "geometry": {
    "type": "LineString",
    "coordinates": [
     [
      116.348802,
      39.961695
     ],
     [
      116.34868,
      39.96411
     ],
     [
      116.348548,
      39.965875
     ],
     [
      116.348526,
      39.96644
     ],
     [
      116.348394,
      39.969822
     ],
     [
      116.348254,
      39.972652
     ],
     [
      116.348237,
      39.973858
     ]
    ]
   }
  },
  {
   "type": "Feature",
   "id": "RL-064",
   "properties": {
    "id": "RL-064",
    "layer": "EXISTING_RAIL",
    "source_type": "osm",
    "confidence": "medium",
    "geometry_role": "existing_condition",
    "railway_kind": "rail",
    "note_zh": "现状轨道参考线（OSM，非红线）"
   },
   "geometry": {
    "type": "LineString",
    "coordinates": [
     [
      116.345892,
      39.948691
     ],
     [
      116.345891,
      39.948862
     ],
     [
      116.345886,
      39.948983
     ],
     [
      116.345872,
      39.949115
     ],
     [
      116.345836,
      39.949319
     ]
    ]
   }
  },
  {
   "type": "Feature",
   "id": "RL-065",
   "properties": {
    "id": "RL-065",
    "layer": "EXISTING_RAIL",
    "source_type": "osm",
    "confidence": "medium",
    "geometry_role": "existing_condition",
    "railway_kind": "rail",
    "note_zh": "现状轨道参考线（OSM，非红线）"
   },
   "geometry": {
    "type": "LineString",
    "coordinates": [
     [
      116.3459,
      39.94934
     ],
     [
      116.345938,
      39.949121
     ],
     [
      116.346039,
      39.948588
     ]
    ]
   }
  },
  {
   "type": "Feature",
   "id": "RL-066",
   "properties": {
    "id": "RL-066",
    "layer": "EXISTING_RAIL",
    "source_type": "osm",
    "confidence": "medium",
    "geometry_role": "existing_condition",
    "railway_kind": "subway",
    "note_zh": "现状轨道参考线（OSM，非红线）"
   },
   "geometry": {
    "type": "LineString",
    "coordinates": [
     [
      116.355183,
      39.966466
     ],
     [
      116.352561,
      39.966398
     ],
     [
      116.34966,
      39.966371
     ],
     [
      116.342873,
      39.966307
     ],
     [
      116.339944,
      39.966219
     ]
    ]
   }
  },
  {
   "type": "Feature",
   "id": "RL-067",
   "properties": {
    "id": "RL-067",
    "layer": "EXISTING_RAIL",
    "source_type": "osm",
    "confidence": "medium",
    "geometry_role": "existing_condition",
    "railway_kind": "rail",
    "note_zh": "现状轨道参考线（OSM，非红线）"
   },
   "geometry": {
    "type": "LineString",
    "coordinates": [
     [
      116.344729,
      39.951465
     ],
     [
      116.345068,
      39.950823
     ],
     [
      116.345313,
      39.950381
     ],
     [
      116.345572,
      39.949889
     ]
    ]
   }
  },
  {
   "type": "Feature",
   "id": "RL-068",
   "properties": {
    "id": "RL-068",
    "layer": "EXISTING_RAIL",
    "source_type": "osm",
    "confidence": "medium",
    "geometry_role": "existing_condition",
    "railway_kind": "subway",
    "note_zh": "现状轨道参考线（OSM，非红线）"
   },
   "geometry": {
    "type": "LineString",
    "coordinates": [
     [
      116.346639,
      39.997654
     ],
     [
      116.346722,
      39.996054
     ],
     [
      116.346935,
      39.991768
     ],
     [
      116.347206,
      39.986798
     ],
     [
      116.347266,
      39.985716
     ],
     [
      116.347321,
      39.984699
     ],
     [
      116.347503,
      39.98196
     ],
     [
      116.347811,
      39.977283
     ],
     [
      116.347852,
      39.976909
     ],
     [
      116.347945,
      39.976514
     ],
     [
      116.348058,
      39.97557
     ],
     [
      116.348088,
      39.975175
     ],
     [
      116.34812,
      39.974494
     ],
     [
      116.348158,
      39.973856
     ]
    ]
   }
  },
  {
   "type": "Feature",
   "id": "RL-069",
   "properties": {
    "id": "RL-069",
    "layer": "EXISTING_RAIL",
    "source_type": "osm",
    "confidence": "medium",
    "geometry_role": "existing_condition",
    "railway_kind": "subway",
    "note_zh": "现状轨道参考线（OSM，非红线）"
   },
   "geometry": {
    "type": "LineString",
    "coordinates": [
     [
      116.348237,
      39.973858
     ],
     [
      116.348211,
      39.974498
     ],
     [
      116.347982,
      39.976742
     ],
     [
      116.347876,
      39.977101
     ],
     [
      116.347811,
      39.97807
     ],
     [
      116.347734,
      39.979408
     ],
     [
      116.34766,
      39.980659
     ],
     [
      116.347579,
      39.981789
     ],
     [
      116.347442,
      39.983816
     ],
     [
      116.347405,
      39.984361
     ],
     [
      116.347372,
      39.985727
     ],
     [
      116.347313,
      39.986802
     ],
     [
      116.347304,
      39.986969
     ],
     [
      116.347044,
      39.991693
     ],
     [
      116.346717,
      39.997652
     ]
    ]
   }
  },
  {
   "type": "Feature",
   "id": "RL-070",
   "properties": {
    "id": "RL-070",
    "layer": "EXISTING_RAIL",
    "source_type": "osm",
    "confidence": "medium",
    "geometry_role": "existing_condition",
    "railway_kind": "subway",
    "note_zh": "现状轨道参考线（OSM，非红线）"
   },
   "geometry": {
    "type": "LineString",
    "coordinates": [
     [
      116.346459,
      40.001102
     ],
     [
      116.346572,
      39.998939
     ],
     [
      116.346639,
      39.997654
     ]
    ]
   }
  },
  {
   "type": "Feature",
   "id": "RL-071",
   "properties": {
    "id": "RL-071",
    "layer": "EXISTING_RAIL",
    "source_type": "osm",
    "confidence": "medium",
    "geometry_role": "existing_condition",
    "railway_kind": "subway",
    "note_zh": "现状轨道参考线（OSM，非红线）"
   },
   "geometry": {
    "type": "LineString",
    "coordinates": [
     [
      116.346717,
      39.997652
     ],
     [
      116.346646,
      39.998942
     ],
     [
      116.346545,
      40.001102
     ]
    ]
   }
  }
 ]
}