{
  "type": "FeatureCollection",
  "name": "commons_rail_public_rooms",
  "features": [
    {
      "type": "Feature",
      "id": "PUBLIC-001",
      "properties": {
        "id": "PUBLIC-001",
        "layer": "PUBLIC_SPACE",
        "source_type": "agent_generated_design",
        "confidence": "medium",
        "geometry_role": "design_proposal",
        "name_zh": "三站一脊公共智能客厅",
        "area_sqm_declared": 634405.376
      },
      "geometry": {
        "type": "Polygon",
        "coordinates": [
          [
            [
              116.3481004813861,
              39.955666172621164
            ],
            [
              116.34806246146239,
              39.955559914052785
            ],
            [
              116.348014209454,
              39.955457893752644
            ],
            [
              116.34795619005415,
              39.955361094232025
            ],
            [
              116.34788896202137,
              39.95527044772322
            ],
            [
              116.34781317279835,
              39.95518682720163
            ],
            [
              116.3477295522768,
              39.95511103797864
            ],
            [
              116.34763890576797,
              39.95504380994585
            ],
            [
              116.34759998847096,
              39.95502048381572
            ],
            [
              116.34853937728886,
              39.93952056832054
            ],
            [
              116.34786062271115,
              39.939479431679466
            ],
            [
              116.3469288613087,
              39.9548534948198
            ],
            [
              116.34688728028861,
              39.95485553756431
            ],
            [
              116.34677564612967,
              39.95487209692754
            ],
            [
              116.34666617262116,
              39.95489951861391
            ],
            [
              116.34655991405279,
              39.95493753853761
            ],
            [
              116.34645789375263,
              39.954985790546004
            ],
            [
              116.34636109423202,
              39.95504380994585
            ],
            [
              116.3462704477232,
              39.95511103797864
            ],
            [
              116.34618682720163,
              39.955186827201636
            ],
            [
              116.34611103797863,
              39.95527044772321
            ],
            [
              116.34604380994585,
              39.95536109423203
            ],
            [
              116.345985790546,
              39.95545789375265
            ],
            [
              116.3459375385376,
              39.95555991405278
            ],
            [
              116.3458995186139,
              39.955666172621164
            ],
            [
              116.34587209692754,
              39.95577564612969
            ],
            [
              116.3458555375643,
              39.95588728028863
            ],
            [
              116.34585,
              39.95600000000001
            ],
            [
              116.3458555375643,
              39.95611271971139
            ],
            [
              116.34587209692754,
              39.95622435387032
            ],
            [
              116.3458995186139,
              39.95633382737885
            ],
            [
              116.3459375385376,
              39.956440085947214
            ],
            [
              116.345985790546,
              39.956542106247355
            ],
            [
              116.34604380994585,
              39.95663890576798
            ],
            [
              116.34611103797863,
              39.956729552276784
            ],
            [
              116.34618682720163,
              39.95681317279838
            ],
            [
              116.3462704477232,
              39.95688896202136
            ],
            [
              116.34636109423202,
              39.95695619005415
            ],
            [
              116.34645789375263,
              39.957014209454
            ],
            [
              116.34655991405279,
              39.957062461462385
            ],
            [
              116.34666617262116,
              39.95710048138609
            ],
            [
              116.34677564612967,
              39.95712790307247
            ],
            [
              116.34679664141129,
              39.9571310174283
            ],
            [
              116.3458605234799,
              39.97398114019331
            ],
            [
              116.34586098977877,
              39.97402592431102
            ],
            [
              116.34657569652484,
              39.983372089452104
            ],
            [
              116.3465756461297,
              39.98337209692752
            ],
            [
              116.34646617262115,
              39.98339951861391
            ],
            [
              116.34635991405278,
              39.98343753853761
            ],
            [
              116.34625789375265,
              39.983485790546005
            ],
            [
              116.34616109423203,
              39.98354380994585
            ],
            [
              116.34607044772322,
              39.983611037978626
            ],
            [
              116.34598682720163,
              39.98368682720163
            ],
            [
              116.34591103797865,
              39.98377044772322
            ],
            [
              116.34584380994585,
              39.983861094232026
            ],
            [
              116.34578579054602,
              39.983957893752645
            ],
            [
              116.34573753853763,
              39.98405991405277
            ],
            [
              116.34569951861393,
              39.98416617262116
            ],
            [
              116.34567209692756,
              39.984275646129674
            ],
            [
              116.34565553756434,
              39.98438728028861
            ],
            [
              116.34565000000002,
              39.98449999999999
            ],
            [
              116.34565553756434,
              39.984612719711386
            ],
            [
              116.34567209692756,
              39.984724353870305
            ],
            [
              116.34569951861393,
              39.98483382737883
            ],
            [
              116.34573753853763,
              39.984940085947215
            ],
            [
              116.34578579054602,
              39.98504210624735
            ],
            [
              116.34584380994585,
              39.98513890576797
            ],
            [
              116.34591103797865,
              39.985229552276785
            ],
            [
              116.34598682720163,
              39.98531317279836
            ],
            [
              116.34607044772322,
              39.98538896202136
            ],
            [
              116.34616109423203,
              39.98545619005415
            ],
            [
              116.34625789375265,
              39.985514209453996
            ],
            [
              116.34635991405278,
              39.985562461462386
            ],
            [
              116.34646617262115,
              39.985600481386086
            ],
            [
              116.3465756461297,
              39.985627903072455
            ],
            [
              116.34668728028862,
              39.98564446243567
            ],
            [
              116.34674970072213,
              39.98564752895493
            ],
            [
              116.34715918387431,
              39.991002308637356
            ],
            [
              116.34613852114929,
              40.00724012471718
            ],
            [
              116.34611103797863,
              40.00727044772323
            ],
            [
              116.34604380994585,
              40.00736109423203
            ],
            [
              116.345985790546,
              40.007457893752644
            ],
            [
              116.3459375385376,
              40.007559914052784
            ],
            [
              116.3458995186139,
              40.00766617262116
            ],
            [
              116.34587209692754,
              40.007775646129694
            ],
            [
              116.3458555375643,
              40.007887280288614
            ],
            [
              116.34585,
              40.008
            ],
            [
              116.3458555375643,
              40.00811271971139
            ],
            [
              116.34587209692754,
              40.00822435387031
            ],
            [
              116.3458995186139,
              40.00833382737884
            ],
            [
              116.3459375385376,
              40.00844008594722
            ],
            [
              116.345985790546,
              40.008542106247354
            ],
            [
              116.34604380994585,
              40.008638905767974
            ],
            [
              116.34607335302371,
              40.00867873999723
            ],
            [
              116.34746110786304,
              40.0258274247972
            ],
            [
              116.34813889213697,
              40.02577257520278
            ],
            [
              116.34679212223037,
              40.00913034707114
            ],
            [
              116.34688728028861,
              40.00914446243568
            ],
            [
              116.34699999999998,
              40.00915000000001
            ],
            [
              116.34711271971138,
              40.00914446243567
            ],
            [
              116.34722435387033,
              40.00912790307247
            ],
            [
              116.34733382737883,
              40.00910048138609
            ],
            [
              116.34744008594721,
              40.009062461462385
            ],
            [
              116.34754210624736,
              40.009014209453994
            ],
            [
              116.34763890576797,
              40.00895619005416
            ],
            [
              116.3477295522768,
              40.00888896202136
            ],
            [
              116.34781317279835,
              40.00881317279837
            ],
            [
              116.34788896202137,
              40.00872955227678
            ],
            [
              116.34795619005415,
              40.00863890576798
            ],
            [
              116.348014209454,
              40.008542106247354
            ],
            [
              116.34806246146239,
              40.008440085947214
            ],
            [
              116.3481004813861,
              40.00833382737884
            ],
            [
              116.34812790307247,
              40.00822435387031
            ],
            [
              116.34814446243568,
              40.00811271971139
            ],
            [
              116.34815,
              40.007999999999996
            ],
            [
              116.34814446243568,
              40.007887280288614
            ],
            [
              116.34812790307247,
              40.00777564612969
            ],
            [
              116.3481004813861,
              40.00766617262116
            ],
            [
              116.34806246146239,
              40.00755991405279
            ],
            [
              116.348014209454,
              40.00745789375265
            ],
            [
              116.34795619005415,
              40.00736109423202
            ],
            [
              116.34788896202137,
              40.007270447723215
            ],
            [
              116.34781317279835,
              40.00718682720163
            ],
            [
              116.3477295522768,
              40.007111037978646
            ],
            [
              116.34763890576797,
              40.007043809945856
            ],
            [
              116.34754210624736,
              40.00698579054601
            ],
            [
              116.34744008594721,
              40.00693753853762
            ],
            [
              116.34733382737883,
              40.00689951861391
            ],
            [
              116.34722435387033,
              40.00687209692753
            ],
            [
              116.34711271971138,
              40.00685553756433
            ],
            [
              116.34699999999998,
              40.00685000000001
            ],
            [
              116.34688728028861,
              40.00685553756432
            ],
            [
              116.34684363022946,
              40.00686201243895
            ],
            [
              116.34783933031034,
              39.99102132933379
            ],
            [
              116.34783901022122,
              39.99097407568897
            ],
            [
              116.3474180119241,
              39.98546871334219
            ],
            [
              116.34743890576797,
              39.98545619005415
            ],
            [
              116.3475295522768,
              39.98538896202136
            ],
            [
              116.34761317279836,
              39.98531317279836
            ],
            [
              116.34768896202137,
              39.985229552276785
            ],
            [
              116.34775619005417,
              39.98513890576797
            ],
            [
              116.347814209454,
              39.98504210624735
            ],
            [
              116.34786246146238,
              39.984940085947215
            ],
            [
              116.34790048138609,
              39.98483382737884
            ],
            [
              116.34792790307246,
              39.98472435387031
            ],
            [
              116.34794446243568,
              39.984612719711386
            ],
            [
              116.34795,
              39.984500000000004
            ],
            [
              116.34794446243568,
              39.98438728028861
            ],
            [
              116.34792790307246,
              39.98427564612968
            ],
            [
              116.34790048138609,
              39.98416617262115
            ],
            [
              116.34786246146238,
              39.98405991405278
            ],
            [
              116.347814209454,
              39.983957893752645
            ],
            [
              116.34775619005417,
              39.98386109423202
            ],
            [
              116.34768896202137,
              39.98377044772321
            ],
            [
              116.34761317279836,
              39.98368682720163
            ],
            [
              116.3475295522768,
              39.98361103797862
            ],
            [
              116.34743890576797,
              39.98354380994585
            ],
            [
              116.34734210624735,
              39.983485790546005
            ],
            [
              116.34726353489093,
              39.98344862906201
            ],
            [
              116.34654072137832,
              39.97399645235866
            ],
            [
              116.34748261616677,
              39.95704234616663
            ],
            [
              116.34754210624736,
              39.957014209454
            ],
            [
              116.34763890576797,
              39.95695619005415
            ],
            [
              116.3477295522768,
              39.95688896202137
            ],
            [
              116.34781317279835,
              39.95681317279837
            ],
            [
              116.34788896202137,
              39.95672955227679
            ],
            [
              116.34795619005415,
              39.95663890576797
            ],
            [
              116.348014209454,
              39.95654210624735
            ],
            [
              116.34806246146239,
              39.95644008594721
            ],
            [
              116.3481004813861,
              39.95633382737885
            ],
            [
              116.34812790307247,
              39.95622435387031
            ],
            [
              116.34814446243568,
              39.95611271971137
            ],
            [
              116.34815,
              39.956
            ],
            [
              116.34814446243568,
              39.95588728028862
            ],
            [
              116.34812790307247,
              39.95577564612969
            ],
            [
              116.3481004813861,
              39.955666172621164
            ]
          ]
        ]
      }
    }
  ]
}
