{
  "type": "FeatureCollection",
  "name": "jingzhang_civic_stack_mobility",
  "features": [
    {
      "type": "Feature",
      "id": "ROAD-001",
      "properties": {
        "id": "ROAD-001",
        "layer": "ROAD_CENTERLINE",
        "source_type": "agent_generated_design",
        "confidence": "medium",
        "geometry_role": "design_proposal",
        "road_class": "greenway",
        "name_zh": "遗产证据慢行线",
        "name_en": "Heritage evidence greenway",
        "mode": "walk_cycle",
        "surveyed_alignment": false
      },
      "geometry": {
        "type": "LineString",
        "coordinates": [
          [
            116.34685791606299,
            39.93900022420171
          ],
          [
            116.34817320383502,
            39.96348009753248
          ],
          [
            116.34697503825379,
            39.98799319680702
          ],
          [
            116.34807877932012,
            40.0072649296289
          ],
          [
            116.347281437434,
            40.02650015851995
          ]
        ]
      }
    },
    {
      "type": "Feature",
      "id": "ROAD-002",
      "properties": {
        "id": "ROAD-002",
        "layer": "ROAD_CENTERLINE",
        "source_type": "agent_generated_design",
        "confidence": "medium",
        "geometry_role": "design_proposal",
        "road_class": "pedestrian",
        "name_zh": "照护肋 1",
        "name_en": "Care rib 1",
        "operation_rule": "continuous accessible route; delivery and maintenance windows subject to field verification"
      },
      "geometry": {
        "type": "LineString",
        "coordinates": [
          [
            116.34041055725416,
            39.9494248066094
          ],
          [
            116.35530001592156,
            39.94950856369659
          ]
        ]
      }
    },
    {
      "type": "Feature",
      "id": "ROAD-003",
      "properties": {
        "id": "ROAD-003",
        "layer": "ROAD_CENTERLINE",
        "source_type": "agent_generated_design",
        "confidence": "medium",
        "geometry_role": "design_proposal",
        "road_class": "cycleway",
        "name_zh": "照护肋 2",
        "name_en": "Care rib 2",
        "operation_rule": "continuous accessible route; delivery and maintenance windows subject to field verification"
      },
      "geometry": {
        "type": "LineString",
        "coordinates": [
          [
            116.33982677989505,
            39.970438543221775
          ],
          [
            116.3548582828457,
            39.97052317666418
          ]
        ]
      }
    },
    {
      "type": "Feature",
      "id": "ROAD-004",
      "properties": {
        "id": "ROAD-004",
        "layer": "ROAD_CENTERLINE",
        "source_type": "agent_generated_design",
        "confidence": "medium",
        "geometry_role": "design_proposal",
        "road_class": "pedestrian",
        "name_zh": "照护肋 3",
        "name_en": "Care rib 3",
        "operation_rule": "continuous accessible route; delivery and maintenance windows subject to field verification"
      },
      "geometry": {
        "type": "LineString",
        "coordinates": [
          [
            116.34081830746287,
            39.99233687680454
          ],
          [
            116.35343188333394,
            39.99240792943176
          ]
        ]
      }
    },
    {
      "type": "Feature",
      "id": "ROAD-005",
      "properties": {
        "id": "ROAD-005",
        "layer": "ROAD_CENTERLINE",
        "source_type": "agent_generated_design",
        "confidence": "medium",
        "geometry_role": "design_proposal",
        "road_class": "cycleway",
        "name_zh": "照护肋 4",
        "name_en": "Care rib 4",
        "operation_rule": "continuous accessible route; delivery and maintenance windows subject to field verification"
      },
      "geometry": {
        "type": "LineString",
        "coordinates": [
          [
            116.34201627995209,
            40.01248488811593
          ],
          [
            116.35453568418559,
            40.01255529450691
          ]
        ]
      }
    },
    {
      "type": "Feature",
      "id": "ROAD-006",
      "properties": {
        "id": "ROAD-006",
        "layer": "ROAD_CENTERLINE",
        "source_type": "agent_generated_design",
        "confidence": "medium",
        "geometry_role": "design_proposal",
        "road_class": "transit_connection",
        "name_zh": "站城接力线 1",
        "name_en": "Transit relay line 1",
        "operation_rule": "conceptual feeder; exact station, curb, signal and right-of-way conditions pending"
      },
      "geometry": {
        "type": "LineString",
        "coordinates": [
          [
            116.34277902368578,
            39.93900011226727
          ],
          [
            116.34206510384186,
            40.013485860521165
          ]
        ]
      }
    },
    {
      "type": "Feature",
      "id": "ROAD-007",
      "properties": {
        "id": "ROAD-007",
        "layer": "ROAD_CENTERLINE",
        "source_type": "agent_generated_design",
        "confidence": "medium",
        "geometry_role": "design_proposal",
        "road_class": "transit_connection",
        "name_zh": "站城接力线 2",
        "name_en": "Transit relay line 2",
        "operation_rule": "conceptual feeder; exact station, curb, signal and right-of-way conditions pending"
      },
      "geometry": {
        "type": "LineString",
        "coordinates": [
          [
            116.3532282607746,
            39.93900011193896
          ],
          [
            116.35240266930948,
            40.026500121303926
          ]
        ]
      }
    }
  ],
  "metadata": {
    "crs": "EPSG:4326",
    "status": "conceptual centerlines, not road redlines"
  }
}
