{
  "type": "FeatureCollection",
  "name": "buildings",
  "features": [
    {
      "type": "Feature",
      "id": "BLDG-001",
      "properties": {
        "id": "BLDG-001",
        "layer": "BUILDING_FOOTPRINT",
        "source_type": "agent_generated_design",
        "confidence": "medium",
        "geometry_role": "design_proposal",
        "name_zh": "概念建筑基底",
        "building_type": "mixed_use",
        "renewal_action": "concept_new",
        "area_sqm_declared": 37574.1
      },
      "geometry": {
        "type": "Polygon",
        "coordinates": [
          [
            [
              116.35000000000001,
              39.95845
            ],
            [
              116.3508,
              39.95845
            ],
            [
              116.3508,
              39.953500000000005
            ],
            [
              116.35000000000001,
              39.953500000000005
            ],
            [
              116.35000000000001,
              39.95845
            ]
          ]
        ]
      }
    },
    {
      "type": "Feature",
      "id": "BLDG-002",
      "properties": {
        "id": "BLDG-002",
        "layer": "BUILDING_FOOTPRINT",
        "source_type": "agent_generated_design",
        "confidence": "medium",
        "geometry_role": "design_proposal",
        "name_zh": "概念建筑基底",
        "building_type": "mixed_use",
        "renewal_action": "concept_new",
        "area_sqm_declared": 37571.369
      },
      "geometry": {
        "type": "Polygon",
        "coordinates": [
          [
            [
              116.35000000000001,
              39.963499999999996
            ],
            [
              116.3508,
              39.963499999999996
            ],
            [
              116.3508,
              39.95855
            ],
            [
              116.35000000000001,
              39.95855
            ],
            [
              116.35000000000001,
              39.963499999999996
            ]
          ]
        ]
      }
    },
    {
      "type": "Feature",
      "id": "BLDG-003",
      "properties": {
        "id": "BLDG-003",
        "layer": "BUILDING_FOOTPRINT",
        "source_type": "agent_generated_design",
        "confidence": "medium",
        "geometry_role": "design_proposal",
        "name_zh": "概念建筑基底",
        "building_type": "mixed_use",
        "renewal_action": "concept_new",
        "area_sqm_declared": 37574.092
      },
      "geometry": {
        "type": "Polygon",
        "coordinates": [
          [
            [
              116.35090000000001,
              39.95845
            ],
            [
              116.3517,
              39.95845
            ],
            [
              116.3517,
              39.953500000000005
            ],
            [
              116.35090000000001,
              39.953500000000005
            ],
            [
              116.35090000000001,
              39.95845
            ]
          ]
        ]
      }
    },
    {
      "type": "Feature",
      "id": "BLDG-004",
      "properties": {
        "id": "BLDG-004",
        "layer": "BUILDING_FOOTPRINT",
        "source_type": "agent_generated_design",
        "confidence": "medium",
        "geometry_role": "design_proposal",
        "name_zh": "概念建筑基底",
        "building_type": "mixed_use",
        "renewal_action": "concept_new",
        "area_sqm_declared": 37571.361
      },
      "geometry": {
        "type": "Polygon",
        "coordinates": [
          [
            [
              116.35090000000001,
              39.963499999999996
            ],
            [
              116.3517,
              39.963499999999996
            ],
            [
              116.3517,
              39.95855
            ],
            [
              116.35090000000001,
              39.95855
            ],
            [
              116.35090000000001,
              39.963499999999996
            ]
          ]
        ]
      }
    },
    {
      "type": "Feature",
      "id": "BLDG-005",
      "properties": {
        "id": "BLDG-005",
        "layer": "BUILDING_FOOTPRINT",
        "source_type": "agent_generated_design",
        "confidence": "medium",
        "geometry_role": "design_proposal",
        "name_zh": "概念建筑基底",
        "building_type": "mixed_use",
        "renewal_action": "concept_new",
        "area_sqm_declared": 15366.183
      },
      "geometry": {
        "type": "Polygon",
        "coordinates": [
          [
            [
              116.3437,
              39.980199999999996
            ],
            [
              116.34429999999999,
              39.980199999999996
            ],
            [
              116.34429999999999,
              39.9775
            ],
            [
              116.3437,
              39.9775
            ],
            [
              116.3437,
              39.980199999999996
            ]
          ]
        ]
      }
    },
    {
      "type": "Feature",
      "id": "BLDG-006",
      "properties": {
        "id": "BLDG-006",
        "layer": "BUILDING_FOOTPRINT",
        "source_type": "agent_generated_design",
        "confidence": "medium",
        "geometry_role": "design_proposal",
        "name_zh": "概念建筑基底",
        "building_type": "mixed_use",
        "renewal_action": "concept_new",
        "area_sqm_declared": 15365.564
      },
      "geometry": {
        "type": "Polygon",
        "coordinates": [
          [
            [
              116.3437,
              39.983
            ],
            [
              116.34429999999999,
              39.983
            ],
            [
              116.34429999999999,
              39.9803
            ],
            [
              116.3437,
              39.9803
            ],
            [
              116.3437,
              39.983
            ]
          ]
        ]
      }
    },
    {
      "type": "Feature",
      "id": "BLDG-007",
      "properties": {
        "id": "BLDG-007",
        "layer": "BUILDING_FOOTPRINT",
        "source_type": "agent_generated_design",
        "confidence": "medium",
        "geometry_role": "design_proposal",
        "name_zh": "概念建筑基底",
        "building_type": "mixed_use",
        "renewal_action": "concept_new",
        "area_sqm_declared": 15366.181
      },
      "geometry": {
        "type": "Polygon",
        "coordinates": [
          [
            [
              116.3444,
              39.980199999999996
            ],
            [
              116.345,
              39.980199999999996
            ],
            [
              116.345,
              39.9775
            ],
            [
              116.3444,
              39.9775
            ],
            [
              116.3444,
              39.980199999999996
            ]
          ]
        ]
      }
    },
    {
      "type": "Feature",
      "id": "BLDG-008",
      "properties": {
        "id": "BLDG-008",
        "layer": "BUILDING_FOOTPRINT",
        "source_type": "agent_generated_design",
        "confidence": "medium",
        "geometry_role": "design_proposal",
        "name_zh": "概念建筑基底",
        "building_type": "mixed_use",
        "renewal_action": "concept_new",
        "area_sqm_declared": 15365.561
      },
      "geometry": {
        "type": "Polygon",
        "coordinates": [
          [
            [
              116.3444,
              39.983
            ],
            [
              116.345,
              39.983
            ],
            [
              116.345,
              39.9803
            ],
            [
              116.3444,
              39.9803
            ],
            [
              116.3444,
              39.983
            ]
          ]
        ]
      }
    },
    {
      "type": "Feature",
      "id": "BLDG-009",
      "properties": {
        "id": "BLDG-009",
        "layer": "BUILDING_FOOTPRINT",
        "source_type": "agent_generated_design",
        "confidence": "medium",
        "geometry_role": "design_proposal",
        "name_zh": "概念建筑基底",
        "building_type": "mixed_use",
        "renewal_action": "concept_new",
        "area_sqm_declared": 28067.743
      },
      "geometry": {
        "type": "Polygon",
        "coordinates": [
          [
            [
              116.35000000000001,
              40.0022
            ],
            [
              116.3508,
              40.0022
            ],
            [
              116.3508,
              39.9985
            ],
            [
              116.35000000000001,
              39.9985
            ],
            [
              116.35000000000001,
              40.0022
            ]
          ]
        ]
      }
    },
    {
      "type": "Feature",
      "id": "BLDG-010",
      "properties": {
        "id": "BLDG-010",
        "layer": "BUILDING_FOOTPRINT",
        "source_type": "agent_generated_design",
        "confidence": "medium",
        "geometry_role": "design_proposal",
        "name_zh": "概念建筑基底",
        "building_type": "mixed_use",
        "renewal_action": "concept_new",
        "area_sqm_declared": 28066.206
      },
      "geometry": {
        "type": "Polygon",
        "coordinates": [
          [
            [
              116.35000000000001,
              40.006
            ],
            [
              116.3508,
              40.006
            ],
            [
              116.3508,
              40.002300000000005
            ],
            [
              116.35000000000001,
              40.002300000000005
            ],
            [
              116.35000000000001,
              40.006
            ]
          ]
        ]
      }
    },
    {
      "type": "Feature",
      "id": "BLDG-011",
      "properties": {
        "id": "BLDG-011",
        "layer": "BUILDING_FOOTPRINT",
        "source_type": "agent_generated_design",
        "confidence": "medium",
        "geometry_role": "design_proposal",
        "name_zh": "概念建筑基底",
        "building_type": "mixed_use",
        "renewal_action": "concept_new",
        "area_sqm_declared": 28067.738
      },
      "geometry": {
        "type": "Polygon",
        "coordinates": [
          [
            [
              116.35090000000001,
              40.0022
            ],
            [
              116.3517,
              40.0022
            ],
            [
              116.3517,
              39.9985
            ],
            [
              116.35090000000001,
              39.9985
            ],
            [
              116.35090000000001,
              40.0022
            ]
          ]
        ]
      }
    },
    {
      "type": "Feature",
      "id": "BLDG-012",
      "properties": {
        "id": "BLDG-012",
        "layer": "BUILDING_FOOTPRINT",
        "source_type": "agent_generated_design",
        "confidence": "medium",
        "geometry_role": "design_proposal",
        "name_zh": "概念建筑基底",
        "building_type": "mixed_use",
        "renewal_action": "concept_new",
        "area_sqm_declared": 28066.2
      },
      "geometry": {
        "type": "Polygon",
        "coordinates": [
          [
            [
              116.35090000000001,
              40.006
            ],
            [
              116.3517,
              40.006
            ],
            [
              116.3517,
              40.002300000000005
            ],
            [
              116.35090000000001,
              40.002300000000005
            ],
            [
              116.35090000000001,
              40.006
            ]
          ]
        ]
      }
    },
    {
      "type": "Feature",
      "id": "BLDG-013",
      "properties": {
        "id": "BLDG-013",
        "layer": "BUILDING_FOOTPRINT",
        "source_type": "agent_generated_design",
        "confidence": "medium",
        "geometry_role": "design_proposal",
        "name_zh": "概念建筑基底",
        "building_type": "mixed_use",
        "renewal_action": "concept_new",
        "area_sqm_declared": 5864.278
      },
      "geometry": {
        "type": "Polygon",
        "coordinates": [
          [
            [
              116.3437,
              39.95137
            ],
            [
              116.34429999999999,
              39.95137
            ],
            [
              116.34429999999999,
              39.950340000000004
            ],
            [
              116.3437,
              39.950340000000004
            ],
            [
              116.3437,
              39.95137
            ]
          ]
        ]
      }
    },
    {
      "type": "Feature",
      "id": "BLDG-014",
      "properties": {
        "id": "BLDG-014",
        "layer": "BUILDING_FOOTPRINT",
        "source_type": "agent_generated_design",
        "confidence": "medium",
        "geometry_role": "design_proposal",
        "name_zh": "概念建筑基底",
        "building_type": "mixed_use",
        "renewal_action": "concept_new",
        "area_sqm_declared": 5864.182
      },
      "geometry": {
        "type": "Polygon",
        "coordinates": [
          [
            [
              116.3437,
              39.9525
            ],
            [
              116.34429999999999,
              39.9525
            ],
            [
              116.34429999999999,
              39.95147
            ],
            [
              116.3437,
              39.95147
            ],
            [
              116.3437,
              39.9525
            ]
          ]
        ]
      }
    },
    {
      "type": "Feature",
      "id": "BLDG-015",
      "properties": {
        "id": "BLDG-015",
        "layer": "BUILDING_FOOTPRINT",
        "source_type": "agent_generated_design",
        "confidence": "medium",
        "geometry_role": "design_proposal",
        "name_zh": "概念建筑基底",
        "building_type": "mixed_use",
        "renewal_action": "concept_new",
        "area_sqm_declared": 5864.277
      },
      "geometry": {
        "type": "Polygon",
        "coordinates": [
          [
            [
              116.3444,
              39.95137
            ],
            [
              116.345,
              39.95137
            ],
            [
              116.345,
              39.950340000000004
            ],
            [
              116.3444,
              39.950340000000004
            ],
            [
              116.3444,
              39.95137
            ]
          ]
        ]
      }
    },
    {
      "type": "Feature",
      "id": "BLDG-016",
      "properties": {
        "id": "BLDG-016",
        "layer": "BUILDING_FOOTPRINT",
        "source_type": "agent_generated_design",
        "confidence": "medium",
        "geometry_role": "design_proposal",
        "name_zh": "概念建筑基底",
        "building_type": "mixed_use",
        "renewal_action": "concept_new",
        "area_sqm_declared": 5864.181
      },
      "geometry": {
        "type": "Polygon",
        "coordinates": [
          [
            [
              116.3444,
              39.9525
            ],
            [
              116.345,
              39.9525
            ],
            [
              116.345,
              39.95147
            ],
            [
              116.3444,
              39.95147
            ],
            [
              116.3444,
              39.9525
            ]
          ]
        ]
      }
    },
    {
      "type": "Feature",
      "id": "BLDG-017",
      "properties": {
        "id": "BLDG-017",
        "layer": "BUILDING_FOOTPRINT",
        "source_type": "agent_generated_design",
        "confidence": "medium",
        "geometry_role": "design_proposal",
        "name_zh": "概念建筑基底",
        "building_type": "mixed_use",
        "renewal_action": "concept_new",
        "area_sqm_declared": 45157.35
      },
      "geometry": {
        "type": "Polygon",
        "coordinates": [
          [
            [
              116.35000000000001,
              39.97045
            ],
            [
              116.3508,
              39.97045
            ],
            [
              116.3508,
              39.9645
            ],
            [
              116.35000000000001,
              39.9645
            ],
            [
              116.35000000000001,
              39.97045
            ]
          ]
        ]
      }
    },
    {
      "type": "Feature",
      "id": "BLDG-018",
      "properties": {
        "id": "BLDG-018",
        "layer": "BUILDING_FOOTPRINT",
        "source_type": "agent_generated_design",
        "confidence": "medium",
        "geometry_role": "design_proposal",
        "name_zh": "概念建筑基底",
        "building_type": "mixed_use",
        "renewal_action": "concept_new",
        "area_sqm_declared": 45153.416
      },
      "geometry": {
        "type": "Polygon",
        "coordinates": [
          [
            [
              116.35000000000001,
              39.976499999999994
            ],
            [
              116.3508,
              39.976499999999994
            ],
            [
              116.3508,
              39.97055
            ],
            [
              116.35000000000001,
              39.97055
            ],
            [
              116.35000000000001,
              39.976499999999994
            ]
          ]
        ]
      }
    },
    {
      "type": "Feature",
      "id": "BLDG-019",
      "properties": {
        "id": "BLDG-019",
        "layer": "BUILDING_FOOTPRINT",
        "source_type": "agent_generated_design",
        "confidence": "medium",
        "geometry_role": "design_proposal",
        "name_zh": "概念建筑基底",
        "building_type": "mixed_use",
        "renewal_action": "concept_new",
        "area_sqm_declared": 45157.341
      },
      "geometry": {
        "type": "Polygon",
        "coordinates": [
          [
            [
              116.35090000000001,
              39.97045
            ],
            [
              116.3517,
              39.97045
            ],
            [
              116.3517,
              39.9645
            ],
            [
              116.35090000000001,
              39.9645
            ],
            [
              116.35090000000001,
              39.97045
            ]
          ]
        ]
      }
    },
    {
      "type": "Feature",
      "id": "BLDG-020",
      "properties": {
        "id": "BLDG-020",
        "layer": "BUILDING_FOOTPRINT",
        "source_type": "agent_generated_design",
        "confidence": "medium",
        "geometry_role": "design_proposal",
        "name_zh": "概念建筑基底",
        "building_type": "mixed_use",
        "renewal_action": "concept_new",
        "area_sqm_declared": 45153.407
      },
      "geometry": {
        "type": "Polygon",
        "coordinates": [
          [
            [
              116.35090000000001,
              39.976499999999994
            ],
            [
              116.3517,
              39.976499999999994
            ],
            [
              116.3517,
              39.97055
            ],
            [
              116.35090000000001,
              39.97055
            ],
            [
              116.35090000000001,
              39.976499999999994
            ]
          ]
        ]
      }
    },
    {
      "type": "Feature",
      "id": "BLDG-021",
      "properties": {
        "id": "BLDG-021",
        "layer": "BUILDING_FOOTPRINT",
        "source_type": "agent_generated_design",
        "confidence": "medium",
        "geometry_role": "design_proposal",
        "name_zh": "概念建筑基底",
        "building_type": "mixed_use",
        "renewal_action": "concept_new",
        "area_sqm_declared": 9672.774
      },
      "geometry": {
        "type": "Polygon",
        "coordinates": [
          [
            [
              116.3437,
              39.9957
            ],
            [
              116.34429999999999,
              39.9957
            ],
            [
              116.34429999999999,
              39.994
            ],
            [
              116.3437,
              39.994
            ],
            [
              116.3437,
              39.9957
            ]
          ]
        ]
      }
    },
    {
      "type": "Feature",
      "id": "BLDG-022",
      "properties": {
        "id": "BLDG-022",
        "layer": "BUILDING_FOOTPRINT",
        "source_type": "agent_generated_design",
        "confidence": "medium",
        "geometry_role": "design_proposal",
        "name_zh": "概念建筑基底",
        "building_type": "mixed_use",
        "renewal_action": "concept_new",
        "area_sqm_declared": 9672.523
      },
      "geometry": {
        "type": "Polygon",
        "coordinates": [
          [
            [
              116.3437,
              39.997499999999995
            ],
            [
              116.34429999999999,
              39.997499999999995
            ],
            [
              116.34429999999999,
              39.9958
            ],
            [
              116.3437,
              39.9958
            ],
            [
              116.3437,
              39.997499999999995
            ]
          ]
        ]
      }
    },
    {
      "type": "Feature",
      "id": "BLDG-023",
      "properties": {
        "id": "BLDG-023",
        "layer": "BUILDING_FOOTPRINT",
        "source_type": "agent_generated_design",
        "confidence": "medium",
        "geometry_role": "design_proposal",
        "name_zh": "概念建筑基底",
        "building_type": "mixed_use",
        "renewal_action": "concept_new",
        "area_sqm_declared": 9672.772
      },
      "geometry": {
        "type": "Polygon",
        "coordinates": [
          [
            [
              116.3444,
              39.9957
            ],
            [
              116.345,
              39.9957
            ],
            [
              116.345,
              39.994
            ],
            [
              116.3444,
              39.994
            ],
            [
              116.3444,
              39.9957
            ]
          ]
        ]
      }
    },
    {
      "type": "Feature",
      "id": "BLDG-024",
      "properties": {
        "id": "BLDG-024",
        "layer": "BUILDING_FOOTPRINT",
        "source_type": "agent_generated_design",
        "confidence": "medium",
        "geometry_role": "design_proposal",
        "name_zh": "概念建筑基底",
        "building_type": "mixed_use",
        "renewal_action": "concept_new",
        "area_sqm_declared": 9672.521
      },
      "geometry": {
        "type": "Polygon",
        "coordinates": [
          [
            [
              116.3444,
              39.997499999999995
            ],
            [
              116.345,
              39.997499999999995
            ],
            [
              116.345,
              39.9958
            ],
            [
              116.3444,
              39.9958
            ],
            [
              116.3444,
              39.997499999999995
            ]
          ]
        ]
      }
    },
    {
      "type": "Feature",
      "id": "BLDG-025",
      "properties": {
        "id": "BLDG-025",
        "layer": "BUILDING_FOOTPRINT",
        "source_type": "agent_generated_design",
        "confidence": "medium",
        "geometry_role": "design_proposal",
        "name_zh": "概念建筑基底",
        "building_type": "mixed_use",
        "renewal_action": "concept_new",
        "area_sqm_declared": 24141.999
      },
      "geometry": {
        "type": "Polygon",
        "coordinates": [
          [
            [
              116.3425,
              39.94712
            ],
            [
              116.3437,
              39.94712
            ],
            [
              116.3437,
              39.945
            ],
            [
              116.3425,
              39.945
            ],
            [
              116.3425,
              39.94712
            ]
          ]
        ]
      }
    },
    {
      "type": "Feature",
      "id": "BLDG-026",
      "properties": {
        "id": "BLDG-026",
        "layer": "BUILDING_FOOTPRINT",
        "source_type": "agent_generated_design",
        "confidence": "medium",
        "geometry_role": "design_proposal",
        "name_zh": "概念建筑基底",
        "building_type": "mixed_use",
        "renewal_action": "concept_new",
        "area_sqm_declared": 24141.228
      },
      "geometry": {
        "type": "Polygon",
        "coordinates": [
          [
            [
              116.3425,
              39.94934
            ],
            [
              116.3437,
              39.94934
            ],
            [
              116.3437,
              39.94722
            ],
            [
              116.3425,
              39.94722
            ],
            [
              116.3425,
              39.94934
            ]
          ]
        ]
      }
    },
    {
      "type": "Feature",
      "id": "BLDG-027",
      "properties": {
        "id": "BLDG-027",
        "layer": "BUILDING_FOOTPRINT",
        "source_type": "agent_generated_design",
        "confidence": "medium",
        "geometry_role": "design_proposal",
        "name_zh": "概念建筑基底",
        "building_type": "mixed_use",
        "renewal_action": "concept_new",
        "area_sqm_declared": 24141.991
      },
      "geometry": {
        "type": "Polygon",
        "coordinates": [
          [
            [
              116.3438,
              39.94712
            ],
            [
              116.345,
              39.94712
            ],
            [
              116.345,
              39.945
            ],
            [
              116.3438,
              39.945
            ],
            [
              116.3438,
              39.94712
            ]
          ]
        ]
      }
    },
    {
      "type": "Feature",
      "id": "BLDG-028",
      "properties": {
        "id": "BLDG-028",
        "layer": "BUILDING_FOOTPRINT",
        "source_type": "agent_generated_design",
        "confidence": "medium",
        "geometry_role": "design_proposal",
        "name_zh": "概念建筑基底",
        "building_type": "mixed_use",
        "renewal_action": "concept_new",
        "area_sqm_declared": 24141.22
      },
      "geometry": {
        "type": "Polygon",
        "coordinates": [
          [
            [
              116.3438,
              39.94934
            ],
            [
              116.345,
              39.94934
            ],
            [
              116.345,
              39.94722
            ],
            [
              116.3438,
              39.94722
            ],
            [
              116.3438,
              39.94934
            ]
          ]
        ]
      }
    },
    {
      "type": "Feature",
      "id": "BLDG-029",
      "properties": {
        "id": "BLDG-029",
        "layer": "BUILDING_FOOTPRINT",
        "source_type": "agent_generated_design",
        "confidence": "medium",
        "geometry_role": "design_proposal",
        "name_zh": "概念建筑基底",
        "building_type": "mixed_use",
        "renewal_action": "concept_new",
        "area_sqm_declared": 7819.025
      },
      "geometry": {
        "type": "Polygon",
        "coordinates": [
          [
            [
              116.35000000000001,
              39.95137
            ],
            [
              116.3508,
              39.95137
            ],
            [
              116.3508,
              39.950340000000004
            ],
            [
              116.35000000000001,
              39.950340000000004
            ],
            [
              116.35000000000001,
              39.95137
            ]
          ]
        ]
      }
    },
    {
      "type": "Feature",
      "id": "BLDG-030",
      "properties": {
        "id": "BLDG-030",
        "layer": "BUILDING_FOOTPRINT",
        "source_type": "agent_generated_design",
        "confidence": "medium",
        "geometry_role": "design_proposal",
        "name_zh": "概念建筑基底",
        "building_type": "mixed_use",
        "renewal_action": "concept_new",
        "area_sqm_declared": 7818.898
      },
      "geometry": {
        "type": "Polygon",
        "coordinates": [
          [
            [
              116.35000000000001,
              39.9525
            ],
            [
              116.3508,
              39.9525
            ],
            [
              116.3508,
              39.95147
            ],
            [
              116.35000000000001,
              39.95147
            ],
            [
              116.35000000000001,
              39.9525
            ]
          ]
        ]
      }
    },
    {
      "type": "Feature",
      "id": "BLDG-031",
      "properties": {
        "id": "BLDG-031",
        "layer": "BUILDING_FOOTPRINT",
        "source_type": "agent_generated_design",
        "confidence": "medium",
        "geometry_role": "design_proposal",
        "name_zh": "概念建筑基底",
        "building_type": "mixed_use",
        "renewal_action": "concept_new",
        "area_sqm_declared": 7819.024
      },
      "geometry": {
        "type": "Polygon",
        "coordinates": [
          [
            [
              116.35090000000001,
              39.95137
            ],
            [
              116.3517,
              39.95137
            ],
            [
              116.3517,
              39.950340000000004
            ],
            [
              116.35090000000001,
              39.950340000000004
            ],
            [
              116.35090000000001,
              39.95137
            ]
          ]
        ]
      }
    },
    {
      "type": "Feature",
      "id": "BLDG-032",
      "properties": {
        "id": "BLDG-032",
        "layer": "BUILDING_FOOTPRINT",
        "source_type": "agent_generated_design",
        "confidence": "medium",
        "geometry_role": "design_proposal",
        "name_zh": "概念建筑基底",
        "building_type": "mixed_use",
        "renewal_action": "concept_new",
        "area_sqm_declared": 7818.896
      },
      "geometry": {
        "type": "Polygon",
        "coordinates": [
          [
            [
              116.35090000000001,
              39.9525
            ],
            [
              116.3517,
              39.9525
            ],
            [
              116.3517,
              39.95147
            ],
            [
              116.35090000000001,
              39.95147
            ],
            [
              116.35090000000001,
              39.9525
            ]
          ]
        ]
      }
    },
    {
      "type": "Feature",
      "id": "BLDG-033",
      "properties": {
        "id": "BLDG-033",
        "layer": "BUILDING_FOOTPRINT",
        "source_type": "agent_generated_design",
        "confidence": "medium",
        "geometry_role": "design_proposal",
        "name_zh": "概念建筑基底",
        "building_type": "mixed_use",
        "renewal_action": "concept_new",
        "area_sqm_declared": 33868.064
      },
      "geometry": {
        "type": "Polygon",
        "coordinates": [
          [
            [
              116.3437,
              39.97045
            ],
            [
              116.34429999999999,
              39.97045
            ],
            [
              116.34429999999999,
              39.9645
            ],
            [
              116.3437,
              39.9645
            ],
            [
              116.3437,
              39.97045
            ]
          ]
        ]
      }
    },
    {
      "type": "Feature",
      "id": "BLDG-034",
      "properties": {
        "id": "BLDG-034",
        "layer": "BUILDING_FOOTPRINT",
        "source_type": "agent_generated_design",
        "confidence": "medium",
        "geometry_role": "design_proposal",
        "name_zh": "概念建筑基底",
        "building_type": "mixed_use",
        "renewal_action": "concept_new",
        "area_sqm_declared": 33865.113
      },
      "geometry": {
        "type": "Polygon",
        "coordinates": [
          [
            [
              116.3437,
              39.976499999999994
            ],
            [
              116.34429999999999,
              39.976499999999994
            ],
            [
              116.34429999999999,
              39.97055
            ],
            [
              116.3437,
              39.97055
            ],
            [
              116.3437,
              39.976499999999994
            ]
          ]
        ]
      }
    },
    {
      "type": "Feature",
      "id": "BLDG-035",
      "properties": {
        "id": "BLDG-035",
        "layer": "BUILDING_FOOTPRINT",
        "source_type": "agent_generated_design",
        "confidence": "medium",
        "geometry_role": "design_proposal",
        "name_zh": "概念建筑基底",
        "building_type": "mixed_use",
        "renewal_action": "concept_new",
        "area_sqm_declared": 33868.058
      },
      "geometry": {
        "type": "Polygon",
        "coordinates": [
          [
            [
              116.3444,
              39.97045
            ],
            [
              116.345,
              39.97045
            ],
            [
              116.345,
              39.9645
            ],
            [
              116.3444,
              39.9645
            ],
            [
              116.3444,
              39.97045
            ]
          ]
        ]
      }
    },
    {
      "type": "Feature",
      "id": "BLDG-036",
      "properties": {
        "id": "BLDG-036",
        "layer": "BUILDING_FOOTPRINT",
        "source_type": "agent_generated_design",
        "confidence": "medium",
        "geometry_role": "design_proposal",
        "name_zh": "概念建筑基底",
        "building_type": "mixed_use",
        "renewal_action": "concept_new",
        "area_sqm_declared": 33865.107
      },
      "geometry": {
        "type": "Polygon",
        "coordinates": [
          [
            [
              116.3444,
              39.976499999999994
            ],
            [
              116.345,
              39.976499999999994
            ],
            [
              116.345,
              39.97055
            ],
            [
              116.3444,
              39.97055
            ],
            [
              116.3444,
              39.976499999999994
            ]
          ]
        ]
      }
    },
    {
      "type": "Feature",
      "id": "BLDG-037",
      "properties": {
        "id": "BLDG-037",
        "layer": "BUILDING_FOOTPRINT",
        "source_type": "agent_generated_design",
        "confidence": "medium",
        "geometry_role": "design_proposal",
        "name_zh": "概念建筑基底",
        "building_type": "mixed_use",
        "renewal_action": "concept_new",
        "area_sqm_declared": 18538.584
      },
      "geometry": {
        "type": "Polygon",
        "coordinates": [
          [
            [
              116.3435,
              40.00995
            ],
            [
              116.3442,
              40.00995
            ],
            [
              116.3442,
              40.007000000000005
            ],
            [
              116.34365,
              40.007000000000005
            ],
            [
              116.34365,
              40.0075
            ],
            [
              116.343647833127,
              40.00754410771315
            ],
            [
              116.34364135337617,
              40.007587790644905
            ],
            [
              116.34363062315107,
              40.007630628104764
            ],
            [
              116.34361574578962,
              40.007672207544566
            ],
            [
              116.34359686456895,
              40.00771212853157
            ],
            [
              116.34357416132553,
              40.00775000660486
            ],
            [
              116.34354785470401,
              40.00778547697787
            ],
            [
              116.34351819805153,
              40.00781819805153
            ],
            [
              116.3435,
              40.007834691804014
            ],
            [
              116.3435,
              40.00995
            ]
          ]
        ]
      }
    },
    {
      "type": "Feature",
      "id": "BLDG-038",
      "properties": {
        "id": "BLDG-038",
        "layer": "BUILDING_FOOTPRINT",
        "source_type": "agent_generated_design",
        "confidence": "medium",
        "geometry_role": "design_proposal",
        "name_zh": "概念建筑基底",
        "building_type": "mixed_use",
        "renewal_action": "concept_new",
        "area_sqm_declared": 19577.919
      },
      "geometry": {
        "type": "Polygon",
        "coordinates": [
          [
            [
              116.3435,
              40.013
            ],
            [
              116.3442,
              40.013
            ],
            [
              116.3442,
              40.01005000000001
            ],
            [
              116.3435,
              40.01005000000001
            ],
            [
              116.3435,
              40.013
            ]
          ]
        ]
      }
    },
    {
      "type": "Feature",
      "id": "BLDG-039",
      "properties": {
        "id": "BLDG-039",
        "layer": "BUILDING_FOOTPRINT",
        "source_type": "agent_generated_design",
        "confidence": "medium",
        "geometry_role": "design_proposal",
        "name_zh": "概念建筑基底",
        "building_type": "mixed_use",
        "renewal_action": "concept_new",
        "area_sqm_declared": 19578.777
      },
      "geometry": {
        "type": "Polygon",
        "coordinates": [
          [
            [
              116.3443,
              40.00995
            ],
            [
              116.345,
              40.00995
            ],
            [
              116.345,
              40.007000000000005
            ],
            [
              116.3443,
              40.007000000000005
            ],
            [
              116.3443,
              40.00995
            ]
          ]
        ]
      }
    },
    {
      "type": "Feature",
      "id": "BLDG-040",
      "properties": {
        "id": "BLDG-040",
        "layer": "BUILDING_FOOTPRINT",
        "source_type": "agent_generated_design",
        "confidence": "medium",
        "geometry_role": "design_proposal",
        "name_zh": "概念建筑基底",
        "building_type": "mixed_use",
        "renewal_action": "concept_new",
        "area_sqm_declared": 19577.915
      },
      "geometry": {
        "type": "Polygon",
        "coordinates": [
          [
            [
              116.3443,
              40.013
            ],
            [
              116.345,
              40.013
            ],
            [
              116.345,
              40.01005000000001
            ],
            [
              116.3443,
              40.01005000000001
            ],
            [
              116.3443,
              40.013
            ]
          ]
        ]
      }
    },
    {
      "type": "Feature",
      "id": "BLDG-041",
      "properties": {
        "id": "BLDG-041",
        "layer": "BUILDING_FOOTPRINT",
        "source_type": "agent_generated_design",
        "confidence": "medium",
        "geometry_role": "design_proposal",
        "name_zh": "概念建筑基底",
        "building_type": "mixed_use",
        "renewal_action": "concept_new",
        "area_sqm_declared": 53488.137
      },
      "geometry": {
        "type": "Polygon",
        "coordinates": [
          [
            [
              116.35000000000001,
              39.9927
            ],
            [
              116.35119999999999,
              39.9927
            ],
            [
              116.35119999999999,
              39.988
            ],
            [
              116.35000000000001,
              39.988
            ],
            [
              116.35000000000001,
              39.9927
            ]
          ]
        ]
      }
    },
    {
      "type": "Feature",
      "id": "BLDG-042",
      "properties": {
        "id": "BLDG-042",
        "layer": "BUILDING_FOOTPRINT",
        "source_type": "agent_generated_design",
        "confidence": "medium",
        "geometry_role": "design_proposal",
        "name_zh": "概念建筑基底",
        "building_type": "mixed_use",
        "renewal_action": "concept_new",
        "area_sqm_declared": 53484.437
      },
      "geometry": {
        "type": "Polygon",
        "coordinates": [
          [
            [
              116.35000000000001,
              39.997499999999995
            ],
            [
              116.35119999999999,
              39.997499999999995
            ],
            [
              116.35119999999999,
              39.9928
            ],
            [
              116.35000000000001,
              39.9928
            ],
            [
              116.35000000000001,
              39.997499999999995
            ]
          ]
        ]
      }
    },
    {
      "type": "Feature",
      "id": "BLDG-043",
      "properties": {
        "id": "BLDG-043",
        "layer": "BUILDING_FOOTPRINT",
        "source_type": "agent_generated_design",
        "confidence": "medium",
        "geometry_role": "design_proposal",
        "name_zh": "概念建筑基底",
        "building_type": "mixed_use",
        "renewal_action": "concept_new",
        "area_sqm_declared": 53488.121
      },
      "geometry": {
        "type": "Polygon",
        "coordinates": [
          [
            [
              116.3513,
              39.9927
            ],
            [
              116.35249999999999,
              39.9927
            ],
            [
              116.35249999999999,
              39.988
            ],
            [
              116.3513,
              39.988
            ],
            [
              116.3513,
              39.9927
            ]
          ]
        ]
      }
    },
    {
      "type": "Feature",
      "id": "BLDG-044",
      "properties": {
        "id": "BLDG-044",
        "layer": "BUILDING_FOOTPRINT",
        "source_type": "agent_generated_design",
        "confidence": "medium",
        "geometry_role": "design_proposal",
        "name_zh": "概念建筑基底",
        "building_type": "mixed_use",
        "renewal_action": "concept_new",
        "area_sqm_declared": 22249.309
      },
      "geometry": {
        "type": "Polygon",
        "coordinates": [
          [
            [
              116.35249999999999,
              39.9928
            ],
            [
              116.3513,
              39.9928
            ],
            [
              116.3513,
              39.997499999999995
            ],
            [
              116.35175,
              39.997499999999995
            ],
            [
              116.35175,
              39.9935
            ],
            [
              116.351752166873,
              39.993455892286846
            ],
            [
              116.35175864662382,
              39.99341220935509
            ],
            [
              116.35176937684892,
              39.993369371895234
            ],
            [
              116.35178425421037,
              39.99332779245543
            ],
            [
              116.35180313543104,
              39.993287871468425
            ],
            [
              116.35182583867446,
              39.99324999339514
            ],
            [
              116.35185214529598,
              39.993214523022125
            ],
            [
              116.35188180194847,
              39.99318180194847
            ],
            [
              116.35191452302212,
              39.99315214529599
            ],
            [
              116.35194999339514,
              39.99312583867446
            ],
            [
              116.35198787146842,
              39.99310313543104
            ],
            [
              116.35202779245543,
              39.993084254210366
            ],
            [
              116.35206937189523,
              39.993069376848915
            ],
            [
              116.35211220935508,
              39.993058646623815
            ],
            [
              116.35215589228685,
              39.99305216687299
            ],
            [
              116.3522,
              39.99305
            ],
            [
              116.35249999999999,
              39.99305
            ],
            [
              116.35249999999999,
              39.9928
            ]
          ]
        ]
      }
    },
    {
      "type": "Feature",
      "id": "BLDG-045",
      "properties": {
        "id": "BLDG-045",
        "layer": "BUILDING_FOOTPRINT",
        "source_type": "agent_generated_design",
        "confidence": "medium",
        "geometry_role": "design_proposal",
        "name_zh": "概念建筑基底",
        "building_type": "mixed_use",
        "renewal_action": "concept_new",
        "area_sqm_declared": 31356.13
      },
      "geometry": {
        "type": "Polygon",
        "coordinates": [
          [
            [
              116.35000000000001,
              40.01645
            ],
            [
              116.35135000000001,
              40.01645
            ],
            [
              116.35135000000001,
              40.014
            ],
            [
              116.35000000000001,
              40.014
            ],
            [
              116.35000000000001,
              40.01645
            ]
          ]
        ]
      }
    },
    {
      "type": "Feature",
      "id": "BLDG-046",
      "properties": {
        "id": "BLDG-046",
        "layer": "BUILDING_FOOTPRINT",
        "source_type": "agent_generated_design",
        "confidence": "medium",
        "geometry_role": "design_proposal",
        "name_zh": "概念建筑基底",
        "building_type": "mixed_use",
        "renewal_action": "concept_new",
        "area_sqm_declared": 31354.976
      },
      "geometry": {
        "type": "Polygon",
        "coordinates": [
          [
            [
              116.35000000000001,
              40.019
            ],
            [
              116.35135000000001,
              40.019
            ],
            [
              116.35135000000001,
              40.01655
            ],
            [
              116.35000000000001,
              40.01655
            ],
            [
              116.35000000000001,
              40.019
            ]
          ]
        ]
      }
    },
    {
      "type": "Feature",
      "id": "BLDG-047",
      "properties": {
        "id": "BLDG-047",
        "layer": "BUILDING_FOOTPRINT",
        "source_type": "agent_generated_design",
        "confidence": "medium",
        "geometry_role": "design_proposal",
        "name_zh": "概念建筑基底",
        "building_type": "mixed_use",
        "renewal_action": "concept_new",
        "area_sqm_declared": 31356.119
      },
      "geometry": {
        "type": "Polygon",
        "coordinates": [
          [
            [
              116.35145000000001,
              40.01645
            ],
            [
              116.3528,
              40.01645
            ],
            [
              116.3528,
              40.014
            ],
            [
              116.35145000000001,
              40.014
            ],
            [
              116.35145000000001,
              40.01645
            ]
          ]
        ]
      }
    },
    {
      "type": "Feature",
      "id": "BLDG-048",
      "properties": {
        "id": "BLDG-048",
        "layer": "BUILDING_FOOTPRINT",
        "source_type": "agent_generated_design",
        "confidence": "medium",
        "geometry_role": "design_proposal",
        "name_zh": "概念建筑基底",
        "building_type": "mixed_use",
        "renewal_action": "concept_new",
        "area_sqm_declared": 31354.966
      },
      "geometry": {
        "type": "Polygon",
        "coordinates": [
          [
            [
              116.35145000000001,
              40.019
            ],
            [
              116.3528,
              40.019
            ],
            [
              116.3528,
              40.01655
            ],
            [
              116.35145000000001,
              40.01655
            ],
            [
              116.35145000000001,
              40.019
            ]
          ]
        ]
      }
    },
    {
      "type": "Feature",
      "id": "BLDG-049",
      "properties": {
        "id": "BLDG-049",
        "layer": "BUILDING_FOOTPRINT",
        "source_type": "agent_generated_design",
        "confidence": "medium",
        "geometry_role": "design_proposal",
        "name_zh": "概念建筑基底",
        "building_type": "mixed_use",
        "renewal_action": "concept_new",
        "area_sqm_declared": 24954.85
      },
      "geometry": {
        "type": "Polygon",
        "coordinates": [
          [
            [
              116.35000000000001,
              40.02195
            ],
            [
              116.35135000000001,
              40.02195
            ],
            [
              116.35135000000001,
              40.02
            ],
            [
              116.35000000000001,
              40.02
            ],
            [
              116.35000000000001,
              40.02195
            ]
          ]
        ]
      }
    },
    {
      "type": "Feature",
      "id": "BLDG-050",
      "properties": {
        "id": "BLDG-050",
        "layer": "BUILDING_FOOTPRINT",
        "source_type": "agent_generated_design",
        "confidence": "medium",
        "geometry_role": "design_proposal",
        "name_zh": "概念建筑基底",
        "building_type": "mixed_use",
        "renewal_action": "concept_new",
        "area_sqm_declared": 24954.111
      },
      "geometry": {
        "type": "Polygon",
        "coordinates": [
          [
            [
              116.35000000000001,
              40.023999999999994
            ],
            [
              116.35135000000001,
              40.023999999999994
            ],
            [
              116.35135000000001,
              40.02205
            ],
            [
              116.35000000000001,
              40.02205
            ],
            [
              116.35000000000001,
              40.023999999999994
            ]
          ]
        ]
      }
    },
    {
      "type": "Feature",
      "id": "BLDG-051",
      "properties": {
        "id": "BLDG-051",
        "layer": "BUILDING_FOOTPRINT",
        "source_type": "agent_generated_design",
        "confidence": "medium",
        "geometry_role": "design_proposal",
        "name_zh": "概念建筑基底",
        "building_type": "mixed_use",
        "renewal_action": "concept_new",
        "area_sqm_declared": 24954.841
      },
      "geometry": {
        "type": "Polygon",
        "coordinates": [
          [
            [
              116.35145000000001,
              40.02195
            ],
            [
              116.3528,
              40.02195
            ],
            [
              116.3528,
              40.02
            ],
            [
              116.35145000000001,
              40.02
            ],
            [
              116.35145000000001,
              40.02195
            ]
          ]
        ]
      }
    },
    {
      "type": "Feature",
      "id": "BLDG-052",
      "properties": {
        "id": "BLDG-052",
        "layer": "BUILDING_FOOTPRINT",
        "source_type": "agent_generated_design",
        "confidence": "medium",
        "geometry_role": "design_proposal",
        "name_zh": "概念建筑基底",
        "building_type": "mixed_use",
        "renewal_action": "concept_new",
        "area_sqm_declared": 24954.103
      },
      "geometry": {
        "type": "Polygon",
        "coordinates": [
          [
            [
              116.35145000000001,
              40.023999999999994
            ],
            [
              116.3528,
              40.023999999999994
            ],
            [
              116.3528,
              40.02205
            ],
            [
              116.35145000000001,
              40.02205
            ],
            [
              116.35145000000001,
              40.023999999999994
            ]
          ]
        ]
      }
    },
    {
      "type": "Feature",
      "id": "BLDG-053",
      "properties": {
        "id": "BLDG-053",
        "layer": "BUILDING_FOOTPRINT",
        "source_type": "agent_generated_design",
        "confidence": "medium",
        "geometry_role": "design_proposal",
        "name_zh": "概念建筑基底",
        "building_type": "mixed_use",
        "renewal_action": "concept_new",
        "area_sqm_declared": 16258.76
      },
      "geometry": {
        "type": "Polygon",
        "coordinates": [
          [
            [
              116.3435,
              40.01645
            ],
            [
              116.3442,
              40.01645
            ],
            [
              116.3442,
              40.014
            ],
            [
              116.3435,
              40.014
            ],
            [
              116.3435,
              40.01645
            ]
          ]
        ]
      }
    },
    {
      "type": "Feature",
      "id": "BLDG-054",
      "properties": {
        "id": "BLDG-054",
        "layer": "BUILDING_FOOTPRINT",
        "source_type": "agent_generated_design",
        "confidence": "medium",
        "geometry_role": "design_proposal",
        "name_zh": "概念建筑基底",
        "building_type": "mixed_use",
        "renewal_action": "concept_new",
        "area_sqm_declared": 16258.162
      },
      "geometry": {
        "type": "Polygon",
        "coordinates": [
          [
            [
              116.3435,
              40.019
            ],
            [
              116.3442,
              40.019
            ],
            [
              116.3442,
              40.01655
            ],
            [
              116.3435,
              40.01655
            ],
            [
              116.3435,
              40.019
            ]
          ]
        ]
      }
    },
    {
      "type": "Feature",
      "id": "BLDG-055",
      "properties": {
        "id": "BLDG-055",
        "layer": "BUILDING_FOOTPRINT",
        "source_type": "agent_generated_design",
        "confidence": "medium",
        "geometry_role": "design_proposal",
        "name_zh": "概念建筑基底",
        "building_type": "mixed_use",
        "renewal_action": "concept_new",
        "area_sqm_declared": 16258.757
      },
      "geometry": {
        "type": "Polygon",
        "coordinates": [
          [
            [
              116.3443,
              40.01645
            ],
            [
              116.345,
              40.01645
            ],
            [
              116.345,
              40.014
            ],
            [
              116.3443,
              40.014
            ],
            [
              116.3443,
              40.01645
            ]
          ]
        ]
      }
    },
    {
      "type": "Feature",
      "id": "BLDG-056",
      "properties": {
        "id": "BLDG-056",
        "layer": "BUILDING_FOOTPRINT",
        "source_type": "agent_generated_design",
        "confidence": "medium",
        "geometry_role": "design_proposal",
        "name_zh": "概念建筑基底",
        "building_type": "mixed_use",
        "renewal_action": "concept_new",
        "area_sqm_declared": 16258.159
      },
      "geometry": {
        "type": "Polygon",
        "coordinates": [
          [
            [
              116.3443,
              40.019
            ],
            [
              116.345,
              40.019
            ],
            [
              116.345,
              40.01655
            ],
            [
              116.3443,
              40.01655
            ],
            [
              116.3443,
              40.019
            ]
          ]
        ]
      }
    }
  ]
}