{
  "type": "FeatureCollection",
  "name": "commons_rail_data_gap_constraints",
  "features": [
    {
      "type": "Feature",
      "id": "CONSTRAINT-001",
      "properties": {
        "id": "CONSTRAINT-001",
        "layer": "REGULATORY_CONTROL",
        "name_zh": "总体设计范围资料缺口覆盖索引",
        "constraint_type": "data_gap_overlay",
        "source_type": "agent_inferred_from_public_data",
        "confidence": "low",
        "geometry_role": "analysis_helper",
        "is_statutory_conclusion": false,
        "data_gap_ids": [
          "official_boundary",
          "key_area_polygons",
          "planning_controls",
          "road_redlines",
          "heritage_controls",
          "municipal_capacity",
          "ownership_and_existing_buildings"
        ],
        "note_zh": "该覆盖面只用于索引影响全域复算的资料缺口，不表达行政边界、控规红线、文保控制线或工程条件。"
      },
      "geometry": {
        "type": "Polygon",
        "coordinates": [
          [
            [116.3407, 39.939],
            [116.3553, 39.939],
            [116.3553, 39.965],
            [116.3533, 39.99],
            [116.3553, 40.0265],
            [116.3427, 40.0265],
            [116.3417, 40.006],
            [116.3397, 39.975],
            [116.3407, 39.939]
          ]
        ]
      }
    }
  ],
  "data_gaps": [
    "official_boundary",
    "key_area_polygons",
    "planning_controls",
    "road_redlines",
    "heritage_controls",
    "municipal_capacity",
    "ownership_and_existing_buildings"
  ]
}
