{
 "type": "FeatureCollection",
 "name": "constraints",
 "features": [
  {
   "type": "Feature",
   "id": "CT-HERITAGE-01",
   "properties": {
    "id": "CT-HERITAGE-01",
    "layer": "REGULATORY_CONTROL",
    "constraint_type": "heritage_awareness_zone_provisional",
    "label_zh": "文保关注区(概念,非官方控制线)",
    "official_boundary": false,
    "geometry_role": "provisional_constraint",
    "confidence": "low",
    "source_type": "agent_inferred_from_public_data"
   },
   "geometry": {
    "type": "Polygon",
    "coordinates": [
     [
      [
       116.35346631187419,
       39.99303650203725
      ],
      [
       116.3533,
       39.989999999999995
      ],
      [
       116.35377757491013,
       39.984032122061876
      ],
      [
       116.34027764365467,
       39.98395606907183
      ],
      [
       116.34085886529577,
       39.992965487745295
      ],
      [
       116.35346631187419,
       39.99303650203725
      ]
     ]
    ]
   }
  }
 ]
}