{
  "type": "FeatureCollection",
  "name": "open_loop_mobility_proposal",
  "features": [
    {
      "type": "Feature",
      "id": "ROAD-001",
      "properties": {
        "id": "ROAD-001",
        "layer": "ROAD_CENTERLINE",
        "source_type": "agent_generated_design",
        "confidence": "medium",
        "geometry_role": "design_proposal",
        "road_class": "greenway",
        "name_zh": "京张开源回路主廊道",
        "design_intent": "连接三处重点区的慢行与创新服务主轴"
      },
      "geometry": {
        "type": "LineString",
        "coordinates": [
          [
            116.340948,
            39.9845
          ],
          [
            116.35374,
            39.9845
          ]
        ]
      }
    },
    {
      "type": "Feature",
      "id": "ROAD-002",
      "properties": {
        "id": "ROAD-002",
        "layer": "ROAD_CENTERLINE",
        "source_type": "agent_generated_design",
        "confidence": "medium",
        "geometry_role": "design_proposal",
        "road_class": "greenway",
        "name_zh": "众智园清河创新支线",
        "design_intent": "连接蓝绿公共空间、低碳测试和开发者散步道"
      },
      "geometry": {
        "type": "LineString",
        "coordinates": [
          [
            116.3448,
            40.01
          ],
          [
            116.347,
            40.002
          ],
          [
            116.349,
            39.992
          ]
        ]
      }
    },
    {
      "type": "Feature",
      "id": "ROAD-003",
      "properties": {
        "id": "ROAD-003",
        "layer": "ROAD_CENTERLINE",
        "source_type": "agent_generated_design",
        "confidence": "medium",
        "geometry_role": "design_proposal",
        "road_class": "transit_connection",
        "name_zh": "AI原点近校缝合支线",
        "design_intent": "连接校区、园区和成果转化街"
      },
      "geometry": {
        "type": "LineString",
        "coordinates": [
          [
            116.343,
            39.991
          ],
          [
            116.348,
            39.988
          ],
          [
            116.352,
            39.986
          ]
        ]
      }
    },
    {
      "type": "Feature",
      "id": "ROAD-004",
      "properties": {
        "id": "ROAD-004",
        "layer": "ROAD_CENTERLINE",
        "source_type": "agent_generated_design",
        "confidence": "medium",
        "geometry_role": "design_proposal",
        "road_class": "transit_connection",
        "name_zh": "大钟寺站公共体验支线",
        "design_intent": "连接轨道门户、公共空间和国际路演客厅"
      },
      "geometry": {
        "type": "LineString",
        "coordinates": [
          [
            116.343,
            39.947
          ],
          [
            116.348,
            39.9465
          ],
          [
            116.353,
            39.947
          ]
        ]
      }
    }
  ]
}
