{
 "type": "FeatureCollection",
 "name": "land_use",
 "features": [
  {
   "type": "Feature",
   "id": "LU-001",
   "properties": {
    "id": "LU-001",
    "layer": "LAND_USE",
    "source_type": "agent_generated_design",
    "confidence": "medium",
    "geometry_role": "design_proposal",
    "land_use_code": "1401",
    "name_zh": "京张遗址公园文化智轴（公园绿地）",
    "design_note_zh": "南北贯通的遗址公园主轴，承载文化叙事、慢行和AI公共场景",
    "area_sqm_declared": 2904706.6
   },
   "geometry": {
    "type": "Polygon",
    "coordinates": [
     [
      [
       116.346,
       39.9485
      ],
      [
       116.346,
       39.9525
      ],
      [
       116.346,
       39.9815
      ],
      [
       116.346,
       39.9955
      ],
      [
       116.346,
       40.0065
      ],
      [
       116.346,
       40.0095
      ],
      [
       116.346,
       40.0265
      ],
      [
       116.3495,
       40.0265
      ],
      [
       116.3495,
       40.0095
      ],
      [
       116.3495,
       40.0065
      ],
      [
       116.3495,
       39.9955
      ],
      [
       116.3495,
       39.9815
      ],
      [
       116.3495,
       39.9525
      ],
      [
       116.3495,
       39.9485
      ],
      [
       116.3495,
       39.939
      ],
      [
       116.346,
       39.939
      ],
      [
       116.346,
       39.9485
      ]
     ]
    ]
   }
  },
  {
   "type": "Feature",
   "id": "LU-002",
   "properties": {
    "id": "LU-002",
    "layer": "LAND_USE",
    "source_type": "agent_generated_design",
    "confidence": "medium",
    "geometry_role": "design_proposal",
    "land_use_code": "0702",
    "name_zh": "中部社区服务配套区",
    "design_note_zh": "人才生活配套、社区服务嵌入与低扰动更新",
    "area_sqm_declared": 1653616.2
   },
   "geometry": {
    "type": "Polygon",
    "coordinates": [
     [
      [
       116.3397,
       39.975
      ],
      [
       116.3401193548387,
       39.9815
      ],
      [
       116.3427,
       39.9815
      ],
      [
       116.346,
       39.9815
      ],
      [
       116.346,
       39.9525
      ],
      [
       116.3427,
       39.9525
      ],
      [
       116.34032499999999,
       39.9525
      ],
      [
       116.3397,
       39.975
      ]
     ]
    ]
   }
  },
  {
   "type": "Feature",
   "id": "LU-003",
   "properties": {
    "id": "LU-003",
    "layer": "LAND_USE",
    "source_type": "agent_generated_design",
    "confidence": "medium",
    "geometry_role": "design_proposal",
    "land_use_code": "0802",
    "name_zh": "成府路科研转化走廊",
    "design_note_zh": "高校成果转化的中试与孵化界面",
    "area_sqm_declared": 1492402.3
   },
   "geometry": {
    "type": "Polygon",
    "coordinates": [
     [
      [
       116.35398,
       39.9815
      ],
      [
       116.3553,
       39.965
      ],
      [
       116.3553,
       39.9525
      ],
      [
       116.3495,
       39.9525
      ],
      [
       116.3495,
       39.9815
      ],
      [
       116.35398,
       39.9815
      ]
     ]
    ]
   }
  },
  {
   "type": "Feature",
   "id": "LU-004",
   "properties": {
    "id": "LU-004",
    "layer": "LAND_USE",
    "source_type": "agent_generated_design",
    "confidence": "medium",
    "geometry_role": "design_proposal",
    "land_use_code": "0802",
    "name_zh": "众智园产业展示与测试区",
    "design_note_zh": "产业测试验证场景与公众展示（概念建议）",
    "area_sqm_declared": 859651.9
   },
   "geometry": {
    "type": "Polygon",
    "coordinates": [
     [
      [
       116.3495,
       40.0265
      ],
      [
       116.3553,
       40.0265
      ],
      [
       116.35436849315069,
       40.0095
      ],
      [
       116.3495,
       40.0095
      ],
      [
       116.3495,
       40.0265
      ]
     ]
    ]
   }
  },
  {
   "type": "Feature",
   "id": "LU-005",
   "properties": {
    "id": "LU-005",
    "layer": "LAND_USE",
    "source_type": "agent_generated_design",
    "confidence": "medium",
    "geometry_role": "design_proposal",
    "land_use_code": "0802",
    "name_zh": "众智园全栈自主创新研发区",
    "design_note_zh": "全栈自主创新、标准制定与安全治理展示（概念建议）",
    "area_sqm_declared": 598655.3
   },
   "geometry": {
    "type": "Polygon",
    "coordinates": [
     [
      [
       116.3427,
       40.0265
      ],
      [
       116.346,
       40.0265
      ],
      [
       116.346,
       40.0095
      ],
      [
       116.3427,
       40.0095
      ],
      [
       116.34187073170732,
       40.0095
      ],
      [
       116.3427,
       40.0265
      ]
     ]
    ]
   }
  },
  {
   "type": "Feature",
   "id": "LU-006",
   "properties": {
    "id": "LU-006",
    "layer": "LAND_USE",
    "source_type": "agent_generated_design",
    "confidence": "medium",
    "geometry_role": "design_proposal",
    "land_use_code": "0802",
    "name_zh": "原点社区成果转化区",
    "design_note_zh": "成果发布、知识产权与投融资服务",
    "area_sqm_declared": 539817.0
   },
   "geometry": {
    "type": "Polygon",
    "coordinates": [
     [
      [
       116.35360136986301,
       39.9955
      ],
      [
       116.3533,
       39.99
      ],
      [
       116.35398,
       39.9815
      ],
      [
       116.3495,
       39.9815
      ],
      [
       116.3495,
       39.9955
      ],
      [
       116.35360136986301,
       39.9955
      ]
     ]
    ]
   }
  },
  {
   "type": "Feature",
   "id": "LU-007",
   "properties": {
    "id": "LU-007",
    "layer": "LAND_USE",
    "source_type": "agent_generated_design",
    "confidence": "medium",
    "geometry_role": "design_proposal",
    "land_use_code": "05",
    "name_zh": "大钟寺站一体化商业服务区",
    "design_note_zh": "轨道站点一体化与四象限步行连通（概念建议）",
    "area_sqm_declared": 522903.1
   },
   "geometry": {
    "type": "Polygon",
    "coordinates": [
     [
      [
       116.3553,
       39.9485
      ],
      [
       116.3553,
       39.939
      ],
      [
       116.3495,
       39.939
      ],
      [
       116.3495,
       39.9485
      ],
      [
       116.3553,
       39.9485
      ]
     ]
    ]
   }
  },
  {
   "type": "Feature",
   "id": "LU-008",
   "properties": {
    "id": "LU-008",
    "layer": "LAND_USE",
    "source_type": "agent_generated_design",
    "confidence": "medium",
    "geometry_role": "design_proposal",
    "land_use_code": "05",
    "name_zh": "大钟寺智能商贸服务区",
    "design_note_zh": "智能体、智能终端与内容消费展示交易复合街区（概念建议）",
    "area_sqm_declared": 489721.0
   },
   "geometry": {
    "type": "Polygon",
    "coordinates": [
     [
      [
       116.3407,
       39.939
      ],
      [
       116.3404361111111,
       39.9485
      ],
      [
       116.3427,
       39.9485
      ],
      [
       116.346,
       39.9485
      ],
      [
       116.346,
       39.939
      ],
      [
       116.3427,
       39.939
      ],
      [
       116.3407,
       39.939
      ]
     ]
    ]
   }
  },
  {
   "type": "Feature",
   "id": "LU-009",
   "properties": {
    "id": "LU-009",
    "layer": "LAND_USE",
    "source_type": "agent_generated_design",
    "confidence": "medium",
    "geometry_role": "design_proposal",
    "land_use_code": "0701",
    "name_zh": "高校-园区过渡住区",
    "design_note_zh": "人才居住与15分钟生活圈",
    "area_sqm_declared": 482179.6
   },
   "geometry": {
    "type": "Polygon",
    "coordinates": [
     [
      [
       116.3417,
       40.006
      ],
      [
       116.34172439024391,
       40.0065
      ],
      [
       116.3427,
       40.0065
      ],
      [
       116.346,
       40.0065
      ],
      [
       116.346,
       39.9955
      ],
      [
       116.3427,
       39.9955
      ],
      [
       116.34102258064516,
       39.9955
      ],
      [
       116.3417,
       40.006
      ]
     ]
    ]
   }
  },
  {
   "type": "Feature",
   "id": "LU-010",
   "properties": {
    "id": "LU-010",
    "layer": "LAND_USE",
    "source_type": "agent_generated_design",
    "confidence": "medium",
    "geometry_role": "design_proposal",
    "land_use_code": "0802",
    "name_zh": "清华东路科研拓展区",
    "design_note_zh": "科研办公与AI教育体验",
    "area_sqm_declared": 459224.6
   },
   "geometry": {
    "type": "Polygon",
    "coordinates": [
     [
      [
       116.35420410958905,
       40.0065
      ],
      [
       116.35360136986301,
       39.9955
      ],
      [
       116.3495,
       39.9955
      ],
      [
       116.3495,
       40.0065
      ],
      [
       116.35420410958905,
       40.0065
      ]
     ]
    ]
   }
  },
  {
   "type": "Feature",
   "id": "LU-011",
   "properties": {
    "id": "LU-011",
    "layer": "LAND_USE",
    "source_type": "agent_generated_design",
    "confidence": "medium",
    "geometry_role": "design_proposal",
    "land_use_code": "0804",
    "name_zh": "北京AI原点社区科教融合区",
    "design_note_zh": "近校创新、开源协作与人才特区（概念建议）",
    "area_sqm_declared": 438159.8
   },
   "geometry": {
    "type": "Polygon",
    "coordinates": [
     [
      [
       116.3427,
       39.9815
      ],
      [
       116.3427,
       39.9955
      ],
      [
       116.346,
       39.9955
      ],
      [
       116.346,
       39.9815
      ],
      [
       116.3427,
       39.9815
      ]
     ]
    ]
   }
  },
  {
   "type": "Feature",
   "id": "LU-012",
   "properties": {
    "id": "LU-012",
    "layer": "LAND_USE",
    "source_type": "agent_generated_design",
    "confidence": "medium",
    "geometry_role": "design_proposal",
    "land_use_code": "16",
    "name_zh": "战略留白与远期弹性区",
    "design_note_zh": "为远期AI新业态预留的弹性留白",
    "area_sqm_declared": 282690.0
   },
   "geometry": {
    "type": "Polygon",
    "coordinates": [
     [
      [
       116.3401193548387,
       39.9815
      ],
      [
       116.34102258064516,
       39.9955
      ],
      [
       116.3427,
       39.9955
      ],
      [
       116.3427,
       39.9815
      ],
      [
       116.3401193548387,
       39.9815
      ]
     ]
    ]
   }
  },
  {
   "type": "Feature",
   "id": "LU-013",
   "properties": {
    "id": "LU-013",
    "layer": "LAND_USE",
    "source_type": "agent_generated_design",
    "confidence": "medium",
    "geometry_role": "design_proposal",
    "land_use_code": "05",
    "name_zh": "五道口创新服务与路演街区",
    "design_note_zh": "国际路演、开发者服务与夜间活力界面",
    "area_sqm_declared": 220148.3
   },
   "geometry": {
    "type": "Polygon",
    "coordinates": [
     [
      [
       116.3553,
       39.9525
      ],
      [
       116.3553,
       39.9485
      ],
      [
       116.3495,
       39.9485
      ],
      [
       116.3495,
       39.9525
      ],
      [
       116.3553,
       39.9525
      ]
     ]
    ]
   }
  },
  {
   "type": "Feature",
   "id": "LU-014",
   "properties": {
    "id": "LU-014",
    "layer": "LAND_USE",
    "source_type": "agent_generated_design",
    "confidence": "medium",
    "geometry_role": "design_proposal",
    "land_use_code": "1403",
    "name_zh": "大钟寺站前广场与步行连通区",
    "design_note_zh": "站前广场、路口四象限步行缝合",
    "area_sqm_declared": 213295.5
   },
   "geometry": {
    "type": "Polygon",
    "coordinates": [
     [
      [
       116.34032499999999,
       39.9525
      ],
      [
       116.3427,
       39.9525
      ],
      [
       116.346,
       39.9525
      ],
      [
       116.346,
       39.9485
      ],
      [
       116.3427,
       39.9485
      ],
      [
       116.3404361111111,
       39.9485
      ],
      [
       116.34032499999999,
       39.9525
      ]
     ]
    ]
   }
  },
  {
   "type": "Feature",
   "id": "LU-015",
   "properties": {
    "id": "LU-015",
    "layer": "LAND_USE",
    "source_type": "agent_generated_design",
    "confidence": "medium",
    "geometry_role": "design_proposal",
    "land_use_code": "1402",
    "name_zh": "清河生态防护绿廊",
    "design_note_zh": "生态防护与低碳展示廊道",
    "area_sqm_declared": 136141.1
   },
   "geometry": {
    "type": "Polygon",
    "coordinates": [
     [
      [
       116.35436849315069,
       40.0095
      ],
      [
       116.35420410958905,
       40.0065
      ],
      [
       116.3495,
       40.0065
      ],
      [
       116.3495,
       40.0095
      ],
      [
       116.35436849315069,
       40.0095
      ]
     ]
    ]
   }
  },
  {
   "type": "Feature",
   "id": "LU-016",
   "properties": {
    "id": "LU-016",
    "layer": "LAND_USE",
    "source_type": "agent_generated_design",
    "confidence": "medium",
    "geometry_role": "design_proposal",
    "land_use_code": "1402",
    "name_zh": "小月河-清河蓝绿生态廊道",
    "design_note_zh": "蓝绿复合廊道、雨洪调蓄与滨水慢行",
    "area_sqm_declared": 119534.0
   },
   "geometry": {
    "type": "Polygon",
    "coordinates": [
     [
      [
       116.34187073170732,
       40.0095
      ],
      [
       116.3427,
       40.0095
      ],
      [
       116.346,
       40.0095
      ],
      [
       116.346,
       40.0065
      ],
      [
       116.3427,
       40.0065
      ],
      [
       116.34172439024391,
       40.0065
      ],
      [
       116.34187073170732,
       40.0095
      ]
     ]
    ]
   }
  }
 ]
}