{
  "type": "FeatureCollection",
  "features": [
    {
      "type": "Feature",
      "properties": {
        "id": "PROV-KEY-001",
        "layer": "KEY_AREA",
        "parent_scope_id": "SITE-001",
        "area_id": "zhongzhiyuan_ai_acceleration_area",
        "name_zh": "众智园AI自主创新加速区",
        "source_type": "official_public",
        "confidence": "medium",
        "geometry_role": "provisional_constraint",
        "official_boundary": false,
        "boundary_precision": "provisional_rough",
        "official_area_sqm": 1921000,
        "source_id": "OFFICIAL-ANNOUNCEMENT-KEY-AREAS",
        "usage_note": "Provisional polygon derived from official text area and boundary description. Replace with official polygon when available; recalculate all derived layers and metrics."
      },
      "geometry": {
        "type": "Polygon",
        "coordinates": [
          [
            [
              116.343,
              40.0075
            ],
            [
              116.354,
              40.0075
            ],
            [
              116.354,
              40.026
            ],
            [
              116.343,
              40.026
            ],
            [
              116.343,
              40.0075
            ]
          ]
        ]
      },
      "id": "PROV-KEY-001"
    },
    {
      "type": "Feature",
      "properties": {
        "id": "PROV-KEY-002",
        "layer": "KEY_AREA",
        "parent_scope_id": "SITE-001",
        "area_id": "beijing_ai_origin_community",
        "name_zh": "北京AI原点社区",
        "source_type": "official_public",
        "confidence": "medium",
        "geometry_role": "provisional_constraint",
        "official_boundary": false,
        "boundary_precision": "provisional_rough",
        "official_area_sqm": 1043000,
        "source_id": "OFFICIAL-ANNOUNCEMENT-KEY-AREAS",
        "usage_note": "Provisional polygon derived from official text area and boundary description. Replace with official polygon when available; recalculate all derived layers and metrics."
      },
      "geometry": {
        "type": "Polygon",
        "coordinates": [
          [
            [
              116.342,
              39.9835
            ],
            [
              116.353,
              39.9835
            ],
            [
              116.353,
              39.9935
            ],
            [
              116.342,
              39.9935
            ],
            [
              116.342,
              39.9835
            ]
          ]
        ]
      },
      "id": "PROV-KEY-002"
    },
    {
      "type": "Feature",
      "properties": {
        "id": "PROV-KEY-003",
        "layer": "KEY_AREA",
        "parent_scope_id": "SITE-001",
        "area_id": "dazhongsi_ai_industry_cluster",
        "name_zh": "大钟寺AI产业聚集区",
        "source_type": "official_public",
        "confidence": "medium",
        "geometry_role": "provisional_constraint",
        "official_boundary": false,
        "boundary_precision": "provisional_rough",
        "official_area_sqm": 720000,
        "source_id": "OFFICIAL-ANNOUNCEMENT-KEY-AREAS",
        "usage_note": "Provisional polygon derived from official text area and boundary description. Replace with official polygon when available; recalculate all derived layers and metrics."
      },
      "geometry": {
        "type": "Polygon",
        "coordinates": [
          [
            [
              116.342,
              39.944
            ],
            [
              116.355,
              39.944
            ],
            [
              116.355,
              39.94984
            ],
            [
              116.342,
              39.94984
            ],
            [
              116.342,
              39.944
            ]
          ]
        ]
      },
      "id": "PROV-KEY-003"
    }
  ]
}
