{
  "type": "FeatureCollection",
  "name": "roads_proposed",
  "features": [
    {
      "type": "Feature",
      "id": "ROAD-001",
      "properties": {
        "id": "ROAD-001",
        "layer": "ROAD_CENTERLINE",
        "source_type": "agent_generated_design",
        "confidence": "medium",
        "geometry_role": "design_proposal",
        "road_class": "greenway",
        "name_zh": "京张遗址公园慢行与创新服务主轴",
        "name_en": "Jing-Zhang heritage greenway spine"
      },
      "geometry": {
        "type": "LineString",
        "coordinates": [
          [
            116.341,
            39.941
          ],
          [
            116.346,
            39.9525
          ],
          [
            116.351,
            39.965
          ],
          [
            116.354,
            39.98
          ],
          [
            116.3545,
            39.998
          ],
          [
            116.353,
            40.016
          ]
        ]
      }
    },
    {
      "type": "Feature",
      "id": "ROAD-002",
      "properties": {
        "id": "ROAD-002",
        "layer": "ROAD_CENTERLINE",
        "source_type": "agent_generated_design",
        "confidence": "medium",
        "geometry_role": "design_proposal",
        "road_class": "greenway",
        "name_zh": "众智园—大钟寺纵向联络廊",
        "name_en": "Zhongzhiyuan-Dazhongsi connector"
      },
      "geometry": {
        "type": "LineString",
        "coordinates": [
          [
            116.344,
            39.945
          ],
          [
            116.3445,
            39.972
          ],
          [
            116.345,
            40.02
          ]
        ]
      }
    },
    {
      "type": "Feature",
      "id": "ROAD-003",
      "properties": {
        "id": "ROAD-003",
        "layer": "ROAD_CENTERLINE",
        "source_type": "agent_generated_design",
        "confidence": "medium",
        "geometry_role": "design_proposal",
        "road_class": "greenway",
        "name_zh": "AI原点社区横向服务廊",
        "name_en": "AI Origin lateral service corridor"
      },
      "geometry": {
        "type": "LineString",
        "coordinates": [
          [
            116.342,
            39.972
          ],
          [
            116.35,
            39.9725
          ],
          [
            116.354,
            39.974
          ]
        ]
      }
    }
  ]
}
