{"type": "FeatureCollection", "features": [{"type": "Feature", "id": "GREEN-001", "properties": {"id": "GREEN-001", "layer": "GREEN_SPACE", "source_type": "agent_generated_design", "confidence": "medium", "geometry_role": "design_proposal", "land_use_code": "1401", "name_zh": "京张遗址公园AI体验绿脊", "name_en": "Jingzhang Heritage Park AI Green Spine", "area_sqm_declared": 46502.96}, "geometry": {"type": "Polygon", "coordinates": [[[116.3465, 39.939], [116.3465, 39.9439], [116.3475, 39.9439], [116.3475, 39.939], [116.3465, 39.939]]]}}, {"type": "Feature", "id": "GREEN-002", "properties": {"id": "GREEN-002", "layer": "GREEN_SPACE", "source_type": "agent_generated_design", "confidence": "medium", "geometry_role": "design_proposal", "land_use_code": "1401", "name_zh": "京张遗址公园AI体验绿脊", "name_en": "Jingzhang Heritage Park AI Green Spine", "area_sqm_declared": 53521.619}, "geometry": {"type": "Polygon", "coordinates": [[[116.3475, 39.94974], [116.3475, 39.9475], [116.3475, 39.9455], [116.3475, 39.944100000000006], [116.3465, 39.944100000000006], [116.3465, 39.94974], [116.3475, 39.94974]]]}}, {"type": "Feature", "id": "GREEN-003", "properties": {"id": "GREEN-003", "layer": "GREEN_SPACE", "source_type": "agent_generated_design", "confidence": "medium", "geometry_role": "design_proposal", "land_use_code": "1401", "name_zh": "京张遗址公园AI体验绿脊", "name_en": "Jingzhang Heritage Park AI Green Spine", "area_sqm_declared": 75530.03}, "geometry": {"type": "Polygon", "coordinates": [[[116.3475, 39.957899999999995], [116.3475, 39.949940000000005], [116.3465, 39.949940000000005], [116.3465, 39.957899999999995], [116.3475, 39.957899999999995]]]}}, {"type": "Feature", "id": "GREEN-004", "properties": {"id": "GREEN-004", "layer": "GREEN_SPACE", "source_type": "agent_generated_design", "confidence": "medium", "geometry_role": "design_proposal", "land_use_code": "1401", "name_zh": "京张遗址公园AI体验绿脊", "name_en": "Jingzhang Heritage Park AI Green Spine", "area_sqm_declared": 64516.102}, "geometry": {"type": "Polygon", "coordinates": [[[116.3475, 39.9649], [116.3475, 39.9581], [116.3465, 39.9581], [116.3465, 39.9649], [116.3475, 39.9649]]]}}, {"type": "Feature", "id": "GREEN-005", "properties": {"id": "GREEN-005", "layer": "GREEN_SPACE", "source_type": "agent_generated_design", "confidence": "medium", "geometry_role": "design_proposal", "land_use_code": "1401", "name_zh": "京张街角公园", "name_en": "Jingzhang Pocket Park", "area_sqm_declared": 286451.085}, "geometry": {"type": "Polygon", "coordinates": [[[116.3553, 39.9581], [116.35086, 39.9581], [116.35086, 39.9649], [116.3553, 39.9649], [116.3553, 39.9581]]]}}, {"type": "Feature", "id": "GREEN-006", "properties": {"id": "GREEN-006", "layer": "GREEN_SPACE", "source_type": "agent_generated_design", "confidence": "medium", "geometry_role": "design_proposal", "land_use_code": "1401", "name_zh": "京张遗址公园AI体验绿脊", "name_en": "Jingzhang Heritage Park AI Green Spine", "area_sqm_declared": 69252.703}, "geometry": {"type": "Polygon", "coordinates": [[[116.3475, 39.97239999999999], [116.3475, 39.96510000000001], [116.3465, 39.96510000000001], [116.3465, 39.97239999999999], [116.3475, 39.97239999999999]]]}}, {"type": "Feature", "id": "GREEN-007", "properties": {"id": "GREEN-007", "layer": "GREEN_SPACE", "source_type": "agent_generated_design", "confidence": "medium", "geometry_role": "design_proposal", "land_use_code": "1401", "name_zh": "京张遗址公园AI体验绿脊", "name_en": "Jingzhang Heritage Park AI Green Spine", "area_sqm_declared": 102442.405}, "geometry": {"type": "Polygon", "coordinates": [[[116.3475, 39.983399999999996], [116.3475, 39.9726], [116.3465, 39.9726], [116.3465, 39.983399999999996], [116.3475, 39.983399999999996]]]}}, {"type": "Feature", "id": "GREEN-008", "properties": {"id": "GREEN-008", "layer": "GREEN_SPACE", "source_type": "agent_generated_design", "confidence": "medium", "geometry_role": "design_proposal", "land_use_code": "1401", "name_zh": "京张遗址公园AI体验绿脊", "name_en": "Jingzhang Heritage Park AI Green Spine", "area_sqm_declared": 92942.812}, "geometry": {"type": "Polygon", "coordinates": [[[116.3475, 39.993399999999994], [116.3475, 39.9885], [116.3475, 39.9865], [116.3475, 39.9836], [116.3465, 39.9836], [116.3465, 39.993399999999994], [116.3475, 39.993399999999994]]]}}, {"type": "Feature", "id": "GREEN-009", "properties": {"id": "GREEN-009", "layer": "GREEN_SPACE", "source_type": "agent_generated_design", "confidence": "medium", "geometry_role": "design_proposal", "land_use_code": "1401", "name_zh": "京张遗址公园AI体验绿脊", "name_en": "Jingzhang Heritage Park AI Green Spine", "area_sqm_declared": 64483.116}, "geometry": {"type": "Polygon", "coordinates": [[[116.3475, 40.0004], [116.3475, 39.9936], [116.3465, 39.9936], [116.3465, 40.0004], [116.3475, 40.0004]]]}}, {"type": "Feature", "id": "GREEN-010", "properties": {"id": "GREEN-010", "layer": "GREEN_SPACE", "source_type": "agent_generated_design", "confidence": "medium", "geometry_role": "design_proposal", "land_use_code": "1402", "name_zh": "小月河蓝绿防护带", "name_en": "Xiaoyuehe Blue-Green Buffer", "area_sqm_declared": 82767.355}, "geometry": {"type": "Polygon", "coordinates": [[[116.35349726027398, 39.9936], [116.3524, 39.9936], [116.3524, 40.0004], [116.3538698630137, 40.0004], [116.35349726027398, 39.9936]]]}}, {"type": "Feature", "id": "GREEN-011", "properties": {"id": "GREEN-011", "layer": "GREEN_SPACE", "source_type": "agent_generated_design", "confidence": "medium", "geometry_role": "design_proposal", "land_use_code": "1401", "name_zh": "京张遗址公园AI体验绿脊", "name_en": "Jingzhang Heritage Park AI Green Spine", "area_sqm_declared": 64476.609}, "geometry": {"type": "Polygon", "coordinates": [[[116.3475, 40.0074], [116.3475, 40.000600000000006], [116.3465, 40.000600000000006], [116.3465, 40.0074], [116.3475, 40.0074]]]}}, {"type": "Feature", "id": "GREEN-012", "properties": {"id": "GREEN-012", "layer": "GREEN_SPACE", "source_type": "agent_generated_design", "confidence": "medium", "geometry_role": "design_proposal", "land_use_code": "1402", "name_zh": "小月河蓝绿防护带", "name_en": "Xiaoyuehe Blue-Green Buffer", "area_sqm_declared": 107489.725}, "geometry": {"type": "Polygon", "coordinates": [[[116.35388082191781, 40.000600000000006], [116.3524, 40.000600000000006], [116.3524, 40.0074], [116.35425342465753, 40.0074], [116.35388082191781, 40.000600000000006]]]}}, {"type": "Feature", "id": "GREEN-013", "properties": {"id": "GREEN-013", "layer": "GREEN_SPACE", "source_type": "agent_generated_design", "confidence": "medium", "geometry_role": "design_proposal", "land_use_code": "1401", "name_zh": "京张遗址公园AI体验绿脊", "name_en": "Jingzhang Heritage Park AI Green Spine", "area_sqm_declared": 88170.65}, "geometry": {"type": "Polygon", "coordinates": [[[116.3475, 40.0169], [116.3475, 40.012], [116.3475, 40.01], [116.3475, 40.007600000000004], [116.3465, 40.007600000000004], [116.3465, 40.0169], [116.3475, 40.0169]]]}}, {"type": "Feature", "id": "GREEN-014", "properties": {"id": "GREEN-014", "layer": "GREEN_SPACE", "source_type": "agent_generated_design", "confidence": "medium", "geometry_role": "design_proposal", "land_use_code": "1402", "name_zh": "小月河蓝绿防护带", "name_en": "Xiaoyuehe Blue-Green Buffer", "area_sqm_declared": 186847.77}, "geometry": {"type": "Polygon", "coordinates": [[[116.35426438356164, 40.007600000000004], [116.3524, 40.007600000000004], [116.3524, 40.0169], [116.35477397260274, 40.0169], [116.35426438356164, 40.007600000000004]]]}}, {"type": "Feature", "id": "GREEN-015", "properties": {"id": "GREEN-015", "layer": "GREEN_SPACE", "source_type": "agent_generated_design", "confidence": "medium", "geometry_role": "design_proposal", "land_use_code": "1401", "name_zh": "京张遗址公园AI体验绿脊", "name_en": "Jingzhang Heritage Park AI Green Spine", "area_sqm_declared": 89106.551}, "geometry": {"type": "Polygon", "coordinates": [[[116.3475, 40.0265], [116.3475, 40.017100000000006], [116.3465, 40.017100000000006], [116.3465, 40.0265], [116.3475, 40.0265]]]}}, {"type": "Feature", "id": "GREEN-016", "properties": {"id": "GREEN-016", "layer": "GREEN_SPACE", "source_type": "agent_generated_design", "confidence": "medium", "geometry_role": "design_proposal", "land_use_code": "1402", "name_zh": "小月河蓝绿防护带", "name_en": "Xiaoyuehe Blue-Green Buffer", "area_sqm_declared": 235459.138}, "geometry": {"type": "Polygon", "coordinates": [[[116.35478493150686, 40.017100000000006], [116.3524, 40.017100000000006], [116.3524, 40.0265], [116.3553, 40.0265], [116.35478493150686, 40.017100000000006]]]}}]}