{
  "type": "FeatureCollection",
  "name": "roads_learning_vein",
  "features": [
    {
      "type": "Feature",
      "id": "ROAD-001",
      "properties": {
        "id": "ROAD-001",
        "layer": "ROAD_CENTERLINE",
        "source_type": "agent_generated_design",
        "confidence": "medium",
        "geometry_role": "design_proposal",
        "road_class": "greenway",
        "name_zh": "学习主脉慢行主道（概念）"
      },
      "geometry": {
        "type": "LineString",
        "coordinates": [
          [
            116.3407,
            39.9415
          ],
          [
            116.3425,
            39.95
          ],
          [
            116.3445,
            39.96
          ],
          [
            116.3455,
            39.97
          ],
          [
            116.3465,
            39.98
          ],
          [
            116.3475,
            39.99
          ],
          [
            116.3485,
            40.0
          ],
          [
            116.3495,
            40.01
          ],
          [
            116.3505,
            40.02
          ],
          [
            116.3508,
            40.026
          ]
        ]
      }
    },
    {
      "type": "Feature",
      "id": "ROAD-002",
      "properties": {
        "id": "ROAD-002",
        "layer": "ROAD_CENTERLINE",
        "source_type": "agent_generated_design",
        "confidence": "medium",
        "geometry_role": "design_proposal",
        "road_class": "arterial",
        "name_zh": "学院路方向联络（概念）"
      },
      "geometry": {
        "type": "LineString",
        "coordinates": [
          [
            116.3407,
            39.965
          ],
          [
            116.3445,
            39.965
          ],
          [
            116.348,
            39.965
          ],
          [
            116.352,
            39.965
          ],
          [
            116.3553,
            39.965
          ]
        ]
      }
    },
    {
      "type": "Feature",
      "id": "ROAD-003",
      "properties": {
        "id": "ROAD-003",
        "layer": "ROAD_CENTERLINE",
        "source_type": "agent_generated_design",
        "confidence": "medium",
        "geometry_role": "design_proposal",
        "road_class": "arterial",
        "name_zh": "知春路方向联络（概念）"
      },
      "geometry": {
        "type": "LineString",
        "coordinates": [
          [
            116.34039888888888,
            39.94984
          ],
          [
            116.3465,
            39.94984
          ],
          [
            116.35,
            39.94984
          ],
          [
            116.3553,
            39.94984
          ]
        ]
      }
    },
    {
      "type": "Feature",
      "id": "ROAD-004",
      "properties": {
        "id": "ROAD-004",
        "layer": "ROAD_CENTERLINE",
        "source_type": "agent_generated_design",
        "confidence": "medium",
        "geometry_role": "design_proposal",
        "road_class": "secondary",
        "name_zh": "众智园东西联络（概念）"
      },
      "geometry": {
        "type": "LineString",
        "coordinates": [
          [
            116.343,
            40.015
          ],
          [
            116.348,
            40.015
          ],
          [
            116.354,
            40.015
          ]
        ]
      }
    },
    {
      "type": "Feature",
      "id": "ROAD-005",
      "properties": {
        "id": "ROAD-005",
        "layer": "ROAD_CENTERLINE",
        "source_type": "agent_generated_design",
        "confidence": "medium",
        "geometry_role": "design_proposal",
        "road_class": "secondary",
        "name_zh": "原点社区东西联络（概念）"
      },
      "geometry": {
        "type": "LineString",
        "coordinates": [
          [
            116.342,
            39.9885
          ],
          [
            116.3475,
            39.9885
          ],
          [
            116.353,
            39.9885
          ]
        ]
      }
    },
    {
      "type": "Feature",
      "id": "ROAD-006",
      "properties": {
        "id": "ROAD-006",
        "layer": "ROAD_CENTERLINE",
        "source_type": "agent_generated_design",
        "confidence": "medium",
        "geometry_role": "design_proposal",
        "road_class": "secondary",
        "name_zh": "大钟寺东西联络（概念）"
      },
      "geometry": {
        "type": "LineString",
        "coordinates": [
          [
            116.342,
            39.9468
          ],
          [
            116.348,
            39.9468
          ],
          [
            116.355,
            39.9468
          ]
        ]
      }
    },
    {
      "type": "Feature",
      "id": "ROAD-007",
      "properties": {
        "id": "ROAD-007",
        "layer": "ROAD_CENTERLINE",
        "source_type": "agent_generated_design",
        "confidence": "medium",
        "geometry_role": "design_proposal",
        "road_class": "greenway",
        "name_zh": "小月河翼蓝绿慢行环（概念）"
      },
      "geometry": {
        "type": "MultiLineString",
        "coordinates": [
          [
            [
              116.35,
              39.956
            ],
            [
              116.3535,
              39.97
            ],
            [
              116.35413636363637,
              39.97954545454547
            ]
          ],
          [
            [
              116.3536909774436,
              39.99713533834582
            ],
            [
              116.3535,
              40.0
            ],
            [
              116.3505,
              40.01
            ]
          ]
        ]
      }
    }
  ]
}
