{
  "type": "FeatureCollection",
  "name": "条件触发式分期",
  "crs": {
    "type": "name",
    "properties": {
      "name": "urn:ogc:def:crs:OGC:1.3:CRS84"
    }
  },
  "features": [
    {
      "type": "Feature",
      "id": "PHASE-00",
      "properties": {
        "id": "PHASE-00",
        "layer": "PHASE",
        "name_zh": "0号工点：许可、来源与人工接管",
        "source_type": "agent_generated_design",
        "confidence": "medium",
        "geometry_role": "design_proposal",
        "crs": "EPSG:4326",
        "official_boundary": false,
        "precision_note_zh": "基于组织方 provisional geometry 的概念设计；官方边界发布后须整体复算。",
        "build_version": "1.5",
        "trigger_zh": "边界与权属复核、公众参与完成、数据保护影响评估通过",
        "cost_tier": "S/M",
        "promise_status": "conditional_not_committed"
      },
      "geometry": {
        "type": "Polygon",
        "coordinates": [
          [
            [
              116.34070000000001,
              39.93899999999999
            ],
            [
              116.34009370807013,
              39.96083215821595
            ],
            [
              116.3553000087518,
              39.96091772435475
            ],
            [
              116.3553,
              39.939
            ],
            [
              116.34070000000001,
              39.93899999999999
            ]
          ]
        ]
      }
    },
    {
      "type": "Feature",
      "id": "PHASE-01",
      "properties": {
        "id": "PHASE-01",
        "layer": "PHASE",
        "name_zh": "1号工点：三处小尺度验证",
        "source_type": "agent_generated_design",
        "confidence": "medium",
        "geometry_role": "design_proposal",
        "crs": "EPSG:4326",
        "official_boundary": false,
        "precision_note_zh": "基于组织方 provisional geometry 的概念设计；官方边界发布后须整体复算。",
        "build_version": "1.5",
        "trigger_zh": "90天试运行无重大事件、无障碍与非数字通道验收",
        "cost_tier": "S/M",
        "promise_status": "conditional_not_committed"
      },
      "geometry": {
        "type": "Polygon",
        "coordinates": [
          [
            [
              116.35530001024352,
              39.96001710840778
            ],
            [
              116.3553000087518,
              39.96091772435475
            ],
            [
              116.34009370807013,
              39.96083215821595
            ],
            [
              116.3397,
              39.975
            ],
            [
              116.34025477282843,
              39.983601508656356
            ],
            [
              116.35380592243285,
              39.98367784970511
            ],
            [
              116.3553,
              39.965
            ],
            [
              116.35530001024352,
              39.96001710840778
            ]
          ]
        ]
      }
    },
    {
      "type": "Feature",
      "id": "PHASE-02",
      "properties": {
        "id": "PHASE-02",
        "layer": "PHASE",
        "name_zh": "2号工点：第二轨连续化",
        "source_type": "agent_generated_design",
        "confidence": "medium",
        "geometry_role": "design_proposal",
        "crs": "EPSG:4326",
        "official_boundary": false,
        "precision_note_zh": "基于组织方 provisional geometry 的概念设计；官方边界发布后须整体复算。",
        "build_version": "1.5",
        "trigger_zh": "交通、市政、生态与运营成本复核通过",
        "cost_tier": "L",
        "promise_status": "conditional_not_committed"
      },
      "geometry": {
        "type": "Polygon",
        "coordinates": [
          [
            [
              116.35380592243285,
              39.98367784970511
            ],
            [
              116.34025477282843,
              39.983601508656356
            ],
            [
              116.34019665870896,
              39.98270056586796
            ],
            [
              116.34169999999999,
              40.00600000000001
            ],
            [
              116.34171844296272,
              40.006378176929346
            ],
            [
              116.35420104948878,
              40.00644840785866
            ],
            [
              116.3533,
              39.99
            ],
            [
              116.35380592243285,
              39.98367784970511
            ]
          ]
        ]
      }
    },
    {
      "type": "Feature",
      "id": "PHASE-03",
      "properties": {
        "id": "PHASE-03",
        "layer": "PHASE",
        "name_zh": "3号工点：区域联邦",
        "source_type": "agent_generated_design",
        "confidence": "medium",
        "geometry_role": "design_proposal",
        "crs": "EPSG:4326",
        "official_boundary": false,
        "precision_note_zh": "基于组织方 provisional geometry 的概念设计；官方边界发布后须整体复算。",
        "build_version": "1.5",
        "trigger_zh": "跨区协议互认、年度公共审计与退出机制生效",
        "cost_tier": "L",
        "promise_status": "conditional_not_committed"
      },
      "geometry": {
        "type": "Polygon",
        "coordinates": [
          [
            [
              116.34270000000001,
              40.026500000000006
            ],
            [
              116.3553,
              40.02649999999999
            ],
            [
              116.35420104948878,
              40.00644840785866
            ],
            [
              116.34171844296272,
              40.006378176929346
            ],
            [
              116.34270000000001,
              40.026500000000006
            ]
          ]
        ]
      }
    }
  ]
}
