{
  "type": "FeatureCollection",
  "name": "level_access_reversible_public_nodes",
  "features": [
    {
      "type": "Feature",
      "id": "PUBLIC-001",
      "properties": {
        "id": "PUBLIC-001",
        "source_type": "agent_generated_design",
        "confidence": "low",
        "geometry_role": "design_proposal",
        "conceptual_only": true,
        "not_statutory_planning": true,
        "layer": "PUBLIC_SPACE",
        "name_zh": "众智园状态协议与故障沙盘研究节点",
        "name_en": "State-protocol and failure-sandbox study node",
        "area_sqm_declared": 16274.391,
        "reversible_component": true,
        "usage_note": "研究节点，不是真实电梯/升降平台点位或确定选址；需使用单位、持证维保、检验/检测、消防与无障碍专业确认。"
      },
      "geometry": {
        "type": "Polygon",
        "coordinates": [
          [
            [
              116.34934190072437,
              40.01671232028332
            ],
            [
              116.34933689276731,
              40.01667006395323
            ],
            [
              116.34932830111897,
              40.01662814993387
            ],
            [
              116.34931616257646,
              40.01658675770679
            ],
            [
              116.34930052912499,
              40.016546064518806
            ],
            [
              116.34928146771504,
              40.01650624462305
            ],
            [
              116.34925905997568,
              40.01646746853283
            ],
            [
              116.34923340186478,
              40.01642990229148
            ],
            [
              116.34920460325817,
              40.016393706761335
            ],
            [
              116.34917278747905,
              40.016359036934965
            ],
            [
              116.34913809076977,
              40.016326041271505
            ],
            [
              116.34910066170843,
              40.016294861061
            ],
            [
              116.34906066057262,
              40.016265629819344
            ],
            [
              116.34901825865309,
              40.01623847271668
            ],
            [
              116.3489736375202,
              40.016213506041346
            ],
            [
              116.3489269882465,
              40.016190836702066
            ],
            [
              116.34887851058858,
              40.01617056177012
            ],
            [
              116.34882841213155,
              40.01615276806369
            ],
            [
              116.34877690740048,
              40.01613753177618
            ],
            [
              116.34872421694158,
              40.01612491815
            ],
            [
              116.348670566378,
              40.01611498119712
            ],
            [
              116.3486161854438,
              40.0161077634679
            ],
            [
              116.34856130700017,
              40.01610329586886
            ],
            [
              116.3485061660385,
              40.016101597530366
            ],
            [
              116.3484509986742,
              40.01610267572469
            ],
            [
              116.34839604113564,
              40.01610652583495
            ],
            [
              116.34834152875294,
              40.016113131374745
            ],
            [
              116.34828769495003,
              40.016122464058896
            ],
            [
              116.34823477024547,
              40.01613448392447
            ],
            [
              116.3481829812653,
              40.016149139501856
            ],
            [
              116.3481325497727,
              40.01616636803526
            ],
            [
              116.3480836917186,
              40.01618609575131
            ],
            [
              116.34803661631675,
              40.01620823817495
            ],
            [
              116.34799152514822,
              40.01623270049117
            ],
            [
              116.34794861129792,
              40.01625937795095
            ],
            [
              116.34790805852812,
              40.016288156319796
            ],
            [
              116.34787004049143,
              40.016318912366856
            ],
            [
              116.34783471998712,
              40.016351514392525
            ],
            [
              116.3478022482642,
              40.016385822792465
            ],
            [
              116.34777276437356,
              40.01642169065526
            ],
            [
              116.34774639457255,
              40.016458964391546
            ],
            [
              116.34772325178427,
              40.016497484391635
            ],
            [
              116.34770343511401,
              40.01653708570891
            ],
            [
              116.34768702942472,
              40.016577598766254
            ],
            [
              116.34767410497352,
              40.01661885008197
            ],
            [
              116.34766471711085,
              40.01666066301283
            ],
            [
              116.34765890604328,
              40.016702858510314
            ],
            [
              116.34765669666118,
              40.01674525588745
            ],
            [
              116.34765809843218,
              40.016787673592404
            ],
            [
              116.34766310536034,
              40.01682992998595
            ],
            [
              116.34767169601184,
              40.01687184411937
            ],
            [
              116.34768383360658,
              40.01691323650912
            ],
            [
              116.3476994661756,
              40.01695392990562
            ],
            [
              116.3477185267835,
              40.01699375005215
            ],
            [
              116.34774093381496,
              40.01703252643115
            ],
            [
              116.3477665913242,
              40.01707009299433
            ],
            [
              116.34779538944566,
              40.017106288873826
            ],
            [
              116.34782720486452,
              40.01714095907113
            ],
            [
              116.34786190134452,
              40.0171739551207
            ],
            [
              116.34789933031149,
              40.01720513572594
            ],
            [
              116.3479393314895,
              40.01723436736418
            ],
            [
              116.34798173358705,
              40.017261524858505
            ],
            [
              116.34802635503074,
              40.01728649191384
            ],
            [
              116.34807300474264,
              40.017309161615
            ],
            [
              116.34812148295879,
              40.0173294368845
            ],
            [
              116.34817158208439,
              40.01734723089839
            ],
            [
              116.34822308758305,
              40.017362467457964
            ],
            [
              116.34827577889536,
              40.01737508131622
            ],
            [
              116.34832943038354,
              40.01738501845716
            ],
            [
              116.34838381229783,
              40.01739223632725
            ],
            [
              116.34843869176014,
              40.01739670401752
            ],
            [
              116.34849383376171,
              40.01739840239608
            ],
            [
              116.34854900216935,
              40.01739732418995
            ],
            [
              116.34860396073675,
              40.01739347401623
            ],
            [
              116.3486584741163,
              40.01738686836239
            ],
            [
              116.34871230886698,
              40.01737753551556
            ],
            [
              116.34876523445399,
              40.01736551544149
            ],
            [
              116.34881702423623,
              40.01735085961331
            ],
            [
              116.34886745643671,
              40.01733363079111
            ],
            [
              116.3489163150925,
              40.01731390275325
            ],
            [
              116.34896339097943,
              40.017291759980246
            ],
            [
              116.34900848250827,
              40.0172672972931
            ],
            [
              116.34905139658784,
              40.01724061944719
            ],
            [
              116.34909194945199,
              40.01721184068363
            ],
            [
              116.3491299674465,
              40.017181084239986
            ],
            [
              116.34916528777279,
              40.01714848182266
            ],
            [
              116.34919775918493,
              40.01711417304271
            ],
            [
              116.34922724263735,
              40.017078304818035
            ],
            [
              116.34925361188016,
              40.01704103074419
            ],
            [
              116.34927675399983,
              40.01700251043666
            ],
            [
              116.3492965699025,
              40.01696290884728
            ],
            [
              116.3493129747384,
              40.01692239555789
            ],
            [
              116.34932589826496,
              40.01688114405411
            ],
            [
              116.34933528514757,
              40.01683933098239
            ],
            [
              116.34934109519648,
              40.01679713539365
            ],
            [
              116.34934330353866,
              40.016754737976456
            ],
            [
              116.34934190072437,
              40.01671232028332
            ]
          ]
        ]
      }
    },
    {
      "type": "Feature",
      "id": "PUBLIC-002",
      "properties": {
        "id": "PUBLIC-002",
        "source_type": "agent_generated_design",
        "confidence": "low",
        "geometry_role": "design_proposal",
        "conceptual_only": true,
        "not_statutory_planning": true,
        "layer": "PUBLIC_SPACE",
        "name_zh": "AI原点无手机共测课堂研究节点",
        "name_en": "Phone-free co-testing classroom study node",
        "area_sqm_declared": 14516.355,
        "reversible_component": true,
        "usage_note": "研究节点，不是真实电梯/升降平台点位或确定选址；需使用单位、持证维保、检验/检测、消防与无障碍专业确认。"
      },
      "geometry": {
        "type": "Polygon",
        "coordinates": [
          [
            [
              116.3482948010567,
              39.98846441782768
            ],
            [
              116.34829007365563,
              39.9884245088554
            ],
            [
              116.3482819630486,
              39.988384923158776
            ],
            [
              116.34827050397215,
              39.98834583024916
            ],
            [
              116.34825574550116,
              39.988307397527485
            ],
            [
              116.3482377508388,
              39.98826978956736
            ],
            [
              116.3482165970455,
              39.988233167410414
            ],
            [
              116.3481923747091,
              39.988197687876685
            ],
            [
              116.34816518755683,
              39.988163502893165
            ],
            [
              116.348135152011,
              39.988130758843205
            ],
            [
              116.34810239669048,
              39.988099595939715
            ],
            [
              116.34806706185991,
              39.98807014762484
            ],
            [
              116.34802929882898,
              39.98804253999851
            ],
            [
              116.34798926930456,
              39.98801689127858
            ],
            [
              116.34794714469821,
              39.987993311294545
            ],
            [
              116.34790310539215,
              39.98797190101736
            ],
            [
              116.34785733996698,
              39.98795275212705
            ],
            [
              116.34781004439407,
              39.98793594662015
            ],
            [
              116.34776142119652,
              39.987921556458694
            ],
            [
              116.34771167858192,
              39.98790964326199
            ],
            [
              116.34766102955095,
              39.987900258042856
            ],
            [
              116.34760969098518,
              39.987893440989154
            ],
            [
              116.3475578827187,
              39.98788922129179
            ],
            [
              116.34750582659662,
              39.98788761701958
            ],
            [
              116.3474537455253,
              39.98788863504207
            ],
            [
              116.34740186251793,
              39.98789227099997
            ],
            [
              116.34735039973961,
              39.98789850932395
            ],
            [
              116.34729957755619,
              39.98790732330117
            ],
            [
              116.34724961359065,
              39.987918675189775
            ],
            [
              116.3472007217913,
              39.987932516380404
            ],
            [
              116.34715311151575,
              39.98794878760441
            ],
            [
              116.3471069866345,
              39.98796741918756
            ],
            [
              116.34706254465787,
              39.987988331348376
            ],
            [
              116.34701997589052,
              39.98801143453979
            ],
            [
              116.34697946261636,
              39.988036629832514
            ],
            [
              116.34694117831813,
              39.98806380933862
            ],
            [
              116.34690528693454,
              39.98809285667358
            ],
            [
              116.34687194215827,
              39.98812364745447
            ],
            [
              116.34684128677773,
              39.988156049832696
            ],
            [
              116.3468134520658,
              39.98818992505848
            ],
            [
              116.3467885572175,
              39.98822512807498
            ],
            [
              116.34676670883951,
              39.98826150813939
            ],
            [
              116.3467480004938,
              39.98829890946845
            ],
            [
              116.34673251229677,
              39.98833717190547
            ],
            [
              116.34672031057612,
              39.988376131606174
            ],
            [
              116.3467114475868,
              39.98841562174019
            ],
            [
              116.34670596128704,
              39.98845547320552
            ],
            [
              116.34670387517589,
              39.98849551535258
            ],
            [
              116.34670519819231,
              39.98853557671502
            ],
            [
              116.34670992467692,
              39.98857548574383
            ],
            [
              116.346718034396,
              39.98861507154205
            ],
            [
              116.34672949262828,
              39.9886541645966
            ],
            [
              116.34674425031324,
              39.98869259750406
            ],
            [
              116.34676224426119,
              39.98873020568763
            ],
            [
              116.3467833974239,
              39.98876682810188
            ],
            [
              116.34680761922434,
              39.988802307922356
            ],
            [
              116.34683480594448,
              39.98883649321717
            ],
            [
              116.34686484116936,
              39.98886923759764
            ],
            [
              116.34689759628561,
              39.98890040084519
            ],
            [
              116.34693293103211,
              39.98892984951182
            ],
            [
              116.34697069410056,
              39.98895745749152
            ],
            [
              116.34701072378348,
              39.988983106560454
            ],
            [
              116.34705284866664,
              39.98900668688313
            ],
            [
              116.347096888363,
              39.98902809748279
            ],
            [
              116.34714265428532,
              39.9890472466739
            ],
            [
              116.34718995045375,
              39.989064052454765
            ],
            [
              116.34723857433495,
              39.98907844285869
            ],
            [
              116.34728831770965,
              39.989090356262196
            ],
            [
              116.34733896756423,
              39.98909974164894
            ],
            [
              116.34739030700291,
              39.989106558828176
            ],
            [
              116.34744211617674,
              39.98911077860689
            ],
            [
              116.34749417322507,
              39.98911238291481
            ],
            [
              116.34754625522571,
              39.98911136488185
            ],
            [
              116.34759813914955,
              39.9891077288674
            ],
            [
              116.34764960281578,
              39.98910149044183
            ],
            [
              116.3477004258434,
              39.989092676319686
            ],
            [
              116.34775039059498,
              39.9890813242453
            ],
            [
              116.34779928310874,
              39.9890674828312
            ],
            [
              116.34784689401486,
              39.98905121134989
            ],
            [
              116.34789301943208,
              39.98903257948
            ],
            [
              116.34793746184081,
              39.989011667007894
            ],
            [
              116.34798003092914,
              39.988988563485954
            ],
            [
              116.34802054440755,
              39.98896336784918
            ],
            [
              116.34805882878987,
              39.988936187991335
            ],
            [
              116.3480947201359,
              39.988907140303
            ],
            [
              116.3481280647537,
              39.988876349173104
            ],
            [
              116.34815871985742,
              39.98884394645624
            ],
            [
              116.34818655417905,
              39.988810070907974
            ],
            [
              116.34821144853021,
              39.988774867590685
            ],
            [
              116.34823329631269,
              39.988738487252284
            ],
            [
              116.34825200397472,
              39.98870108568078
            ],
            [
              116.34826749141163,
              39.98866282303695
            ],
            [
              116.34827969230872,
              39.988623863168634
            ],
            [
              116.34828855442512,
              39.988584372909074
            ],
            [
              116.3482940398175,
              39.98854452136242
            ],
            [
              116.3482961250024,
              39.9885044791796
            ],
            [
              116.3482948010567,
              39.98846441782768
            ]
          ]
        ]
      }
    },
    {
      "type": "Feature",
      "id": "PUBLIC-003",
      "properties": {
        "id": "PUBLIC-003",
        "source_type": "agent_generated_design",
        "confidence": "low",
        "geometry_role": "design_proposal",
        "conceptual_only": true,
        "not_statutory_planning": true,
        "layer": "PUBLIC_SPACE",
        "name_zh": "大钟寺等高服务站研究节点",
        "name_en": "Dazhongsi level-access service-station study node",
        "area_sqm_declared": 14516.355,
        "reversible_component": true,
        "usage_note": "研究节点，不是真实电梯/升降平台点位或确定选址；需使用单位、持证维保、检验/检测、消防与无障碍专业确认。"
      },
      "geometry": {
        "type": "Polygon",
        "coordinates": [
          [
            [
              116.34929431892068,
              39.946884406849044
            ],
            [
              116.34928959347364,
              39.94684449765055
            ],
            [
              116.34928148687679,
              39.94680491177568
            ],
            [
              116.34927003384952,
              39.946765818736566
            ],
            [
              116.34925528344088,
              39.946727385934636
            ],
            [
              116.34923729881935,
              39.94668977794392
            ],
            [
              116.34921615700247,
              39.946653155806125
            ],
            [
              116.34919194852674,
              39.946617676341255
            ],
            [
              116.34916477706005,
              39.94658349147596
            ],
            [
              116.34913475895752,
              39.94655074759312
            ],
            [
              116.3491020227633,
              39.946519584904934
            ],
            [
              116.34906670866019,
              39.946490136852596
            ],
            [
              116.34902896786906,
              39.94646252953497
            ],
            [
              116.34898896200157,
              39.94643688116854
            ],
            [
              116.34894686236795,
              39.94641330158132
            ],
            [
              116.34890284924354,
              39.946391891742564
            ],
            [
              116.3488571110968,
              39.94637274333042
            ],
            [
              116.34880984378232,
              39.94635593833937
            ],
            [
              116.34876124970214,
              39.946341548729244
            ],
            [
              116.34871153693926,
              39.94632963611701
            ],
            [
              116.34866091836645,
              39.94632025151298
            ],
            [
              116.34860961073495,
              39.94631343510236
            ],
            [
              116.34855783374634,
              39.9463092160733
            ],
            [
              116.3485058091118,
              39.94630761249181
            ],
            [
              116.34845375960289,
              39.946308631224426
            ],
            [
              116.34840190809767,
              39.94631226790884
            ],
            [
              116.34835047662638,
              39.946318506972595
            ],
            [
              116.34829968542074,
              39.9463273216997
            ],
            [
              116.34824975197112,
              39.94633867434507
            ],
            [
              116.34820089009521,
              39.94635251629612
            ],
            [
              116.34815330902245,
              39.94636878828094
            ],
            [
              116.34810721249829,
              39.94638742062202
            ],
            [
              116.3480627979117,
              39.94640833353466
            ],
            [
              116.34802025544997,
              39.94643143746853
            ],
            [
              116.34797976728437,
              39.9464566334912
            ],
            [
              116.3479415067902,
              39.946483813711595
            ],
            [
              116.34790563780419,
              39.946512861742136
            ],
            [
              116.3478723139231,
              39.94654365319691
            ],
            [
              116.34784167784592,
              39.94657605622444
            ],
            [
              116.3478138607628,
              39.94660993207215
            ],
            [
              116.34778898179323,
              39.94664513568053
            ],
            [
              116.34776714747602,
              39.94668151630426
            ],
            [
              116.34774845131287,
              39.94671891815765
            ],
            [
              116.34773297336793,
              39.94675718108181
            ],
            [
              116.34772077992507,
              39.9467961412303
            ],
            [
              116.34771192320375,
              39.9468356317709
            ],
            [
              116.34770644113536,
              39.94687548359987
            ],
            [
              116.34770435720078,
              39.94691552606603
            ],
            [
              116.3477056803297,
              39.94695558770166
            ],
            [
              116.34771040486218,
              39.946995496956596
            ],
            [
              116.34771851057296,
              39.94703508293293
            ],
            [
              116.34772996275778,
              39.94707417611677
            ],
            [
              116.34774471238207,
              39.9471126091042
            ],
            [
              116.34776269629066,
              39.94715021731806
            ],
            [
              116.34778383747829,
              39.94718683971278
            ],
            [
              116.34780804541921,
              39.94722231946398
            ],
            [
              116.34783521645468,
              39.9472565046401
            ],
            [
              116.34786523423696,
              39.94728924885296
            ],
            [
              116.34789797022734,
              39.947320411884725
            ],
            [
              116.3479332842466,
              39.947349860288256
            ],
            [
              116.3479710250752,
              39.94737746795876
            ],
            [
              116.3480110311009,
              39.94740311667368
            ],
            [
              116.34805313101074,
              39.94742669659902
            ],
            [
              116.34809714452469,
              39.947448106759786
            ],
            [
              116.34814288316757,
              39.94746725547227
            ],
            [
              116.34819015107635,
              39.94748406073689
            ],
            [
              116.34823874583877,
              39.947498450589116
            ],
            [
              116.34828845936022,
              39.947510363407844
            ],
            [
              116.34833907875489,
              39.947519748179246
            ],
            [
              116.34839038725752,
              39.947526564715204
            ],
            [
              116.34844216515164,
              39.94753078382545
            ],
            [
              116.3484941907105,
              39.94753238744262
            ],
            [
              116.34854624114678,
              39.947531368699515
            ],
            [
              116.34859809356654,
              39.94752773195865
            ],
            [
              116.34864952592392,
              39.94752149279344
            ],
            [
              116.348700317972,
              39.947512677921615
            ],
            [
              116.34875025220599,
              39.94750132509072
            ],
            [
              116.34879911479482,
              39.94748748291654
            ],
            [
              116.34884669649682,
              39.947471210674784
            ],
            [
              116.3488927935558,
              39.94745257804738
            ],
            [
              116.34893720857363,
              39.94743166482391
            ],
            [
              116.34897975135564,
              39.94740856056001
            ],
            [
              116.34902023972504,
              39.94738336419378
            ],
            [
              116.34905850030309,
              39.94735618362216
            ],
            [
              116.3490943692516,
              39.947327135238766
            ],
            [
              116.34912769297446,
              39.94729634343551
            ],
            [
              116.34915832877543,
              39.94726394006985
            ],
            [
              116.34918614546903,
              39.94723006390014
            ],
            [
              116.34921102394243,
              39.947194859991406
            ],
            [
              116.34923285766536,
              39.947158479094114
            ],
            [
              116.34925155314627,
              39.94712107699862
            ],
            [
              116.34926703033264,
              39.947082813867986
            ],
            [
              116.34927922295361,
              39.94704385355212
            ],
            [
              116.34928807880381,
              39.94700436288617
            ],
            [
              116.34929355996672,
              39.94696451097602
            ],
            [
              116.34929564297697,
              39.94692446847419
            ],
            [
              116.34929431892068,
              39.946884406849044
            ]
          ]
        ]
      }
    },
    {
      "type": "Feature",
      "id": "PUBLIC-004",
      "properties": {
        "id": "PUBLIC-004",
        "source_type": "agent_generated_design",
        "confidence": "low",
        "geometry_role": "design_proposal",
        "conceptual_only": true,
        "not_statutory_planning": true,
        "layer": "PUBLIC_SPACE",
        "name_zh": "模拟故障与替代交接候选节点",
        "name_en": "Candidate simulated-fault and alternative-handover node",
        "area_sqm_declared": 7233.063,
        "reversible_component": true,
        "usage_note": "研究节点，不是真实电梯/升降平台点位或确定选址；需使用单位、持证维保、检验/检测、消防与无障碍专业确认。"
      },
      "geometry": {
        "type": "Polygon",
        "coordinates": [
          [
            [
              116.34906078223993,
              39.95747487672832
            ],
            [
              116.34905744627004,
              39.95744670557064
            ],
            [
              116.34905172323495,
              39.95741876263335
            ],
            [
              116.34904363764444,
              39.957391167572055
            ],
            [
              116.34903322412492,
              39.957364038552626
            ],
            [
              116.3490205272712,
              39.95733749174505
            ],
            [
              116.3490056014554,
              39.95731164082614
            ],
            [
              116.34898851059422,
              39.957286596492686
            ],
            [
              116.34896932787503,
              39.95726246598743
            ],
            [
              116.34894813544255,
              39.957239352639924
            ],
            [
              116.34892502404709,
              39.957217355424014
            ],
            [
              116.34890009265581,
              39.95719656853404
            ],
            [
              116.34887344802905,
              39.957177080981566
            ],
            [
              116.34884520426303,
              39.95715897621411
            ],
            [
              116.34881548230143,
              39.95714233175799
            ],
            [
              116.34878440941738,
              39.957127218886235
            ],
            [
              116.34875211866841,
              39.95711370231345
            ],
            [
              116.348718748327,
              39.95710183991869
            ],
            [
              116.34868444128807,
              39.957091682497726
            ],
            [
              116.3486493444575,
              39.957083273545365
            ],
            [
              116.34861360812288,
              39.957076649069414
            ],
            [
              116.34857738531001,
              39.95707183743634
            ],
            [
              116.34854083112778,
              39.95706885924991
            ],
            [
              116.34850410210395,
              39.95706772726289
            ],
            [
              116.34846735551483,
              39.957068446322516
            ],
            [
              116.34843074871203,
              39.957071013349704
            ],
            [
              116.34839443844852,
              39.95707541735225
            ],
            [
              116.34835858020763,
              39.95708163947184
            ],
            [
              116.34832332753719,
              39.957089653064855
            ],
            [
              116.34828883139197,
              39.95709942381648
            ],
            [
              116.34825523948753,
              39.957110909887554
            ],
            [
              116.34822269566752,
              39.95712406209378
            ],
            [
              116.34819133928787,
              39.95713882411632
            ],
            [
              116.34816130462006,
              39.95715513274288
            ],
            [
              116.3481327202761,
              39.95717291813853
            ],
            [
              116.34810570865788,
              39.95719210414453
            ],
            [
              116.34808038543304,
              39.95721260860461
            ],
            [
              116.34805685903964,
              39.95723434371663
            ],
            [
              116.34803523022181,
              39.95725721640863
            ],
            [
              116.34801559159834,
              39.957281128737286
            ],
            [
              116.34799802726609,
              39.957305978307396
            ],
            [
              116.34798261243982,
              39.95733165871025
            ],
            [
              116.34796941313006,
              39.95735805997928
            ],
            [
              116.3479584858605,
              39.957385069060955
            ],
            [
              116.34794987742575,
              39.957412570298935
            ],
            [
              116.34794362469114,
              39.95744044592922
            ],
            [
              116.3479397544346,
              39.95746857658448
            ],
            [
              116.34793828323204,
              39.957496841805174
            ],
            [
              116.34793921738637,
              39.95752512055545
            ],
            [
              116.34794255290032,
              39.95755329174126
            ],
            [
              116.34794827549366,
              39.957581234729126
            ],
            [
              116.34795636066418,
              39.95760882986256
            ],
            [
              116.34796677379268,
              39.957635958974464
            ],
            [
              116.347979470291,
              39.95766250589326
            ],
            [
              116.34799439579308,
              39.957688356940245
            ],
            [
              116.34801148638766,
              39.95771340141643
            ],
            [
              116.34803066889185,
              39.95773753207661
            ],
            [
              116.34805186116466,
              39.957760645588614
            ],
            [
              116.34807497245852,
              39.957782642975786
            ],
            [
              116.348099903808,
              39.95780343004082
            ],
            [
              116.34812654845346,
              39.95782291776919
            ],
            [
              116.34815479229833,
              39.95784102271035
            ],
            [
              116.34818451439763,
              39.957857667335006
            ],
            [
              116.3482155874759,
              39.95787278036726
            ],
            [
              116.34824787847218,
              39.95788629708977
            ],
            [
              116.3482812491099,
              39.957898159620875
            ],
            [
              116.34831555648896,
              39.95790831716254
            ],
            [
              116.34835065369768,
              39.9579167262178
            ],
            [
              116.34838639044206,
              39.957923350777186
            ],
            [
              116.34842261368921,
              39.95792816247274
            ],
            [
              116.34845916832282,
              39.95793114069964
            ],
            [
              116.34849589780748,
              39.95793227270445
            ],
            [
              116.34853264485892,
              39.957931553639575
            ],
            [
              116.34856925211767,
              39.95792898658424
            ],
            [
              116.34860556282291,
              39.957924582531135
            ],
            [
              116.34864142148376,
              39.9579183603394
            ],
            [
              116.34867667454526,
              39.957910346653904
            ],
            [
              116.34871117104589,
              39.957900575791065
            ],
            [
              116.34874476326402,
              39.95788908959192
            ],
            [
              116.34877730735067,
              39.957875937242974
            ],
            [
              116.34880866394528,
              39.9578611750655
            ],
            [
              116.34883869877275,
              39.95784486627443
            ],
            [
              116.34886728321833,
              39.957827080707524
            ],
            [
              116.34889429487838,
              39.95780789452646
            ],
            [
              116.34891961808451,
              39.9577873898905
            ],
            [
              116.34894314439904,
              39.95776565460478
            ],
            [
              116.34896477307917,
              39.957742781744244
            ],
            [
              116.34898441150845,
              39.957718869255075
            ],
            [
              116.34900197559332,
              39.95769401953526
            ],
            [
              116.34901739012335,
              39.957668338996044
            ],
            [
              116.34903058909298,
              39.95764193760635
            ],
            [
              116.34904151598438,
              39.957614928421734
            ],
            [
              116.34905012400937,
              39.95758742710033
            ],
            [
              116.34905637630969,
              39.95755955140756
            ],
            [
              116.34906024611485,
              39.95753142071184
            ],
            [
              116.34906171685658,
              39.95750315547335
            ],
            [
              116.34906078223993,
              39.95747487672832
            ]
          ]
        ]
      }
    }
  ]
}
