{
  "type": "FeatureCollection",
  "name": "edgecase_green_spine",
  "features": [
    {
      "type": "Feature",
      "id": "GREEN-001",
      "properties": {
        "id": "GREEN-001",
        "layer": "GREEN_SPACE",
        "source_type": "agent_generated_design",
        "confidence": "medium",
        "geometry_role": "design_proposal",
        "land_use_code": "1401",
        "name_zh": "京张边界场连续公园脊 / Edgecase Spine",
        "area_sqm_declared": 2403003.871,
        "planning_note": "Continuous public landscape/test spine; conceptual design only."
      },
      "geometry": {
        "type": "Polygon",
        "coordinates": [
          [
            [
              116.34635985955042,
              39.96814034097355
            ],
            [
              116.34608164830782,
              39.99732902502795
            ],
            [
              116.34580319747666,
              40.026500127166436
            ],
            [
              116.34870052594783,
              40.02650017087726
            ],
            [
              116.3489775890556,
              39.99734532832443
            ],
            [
              116.34925456842518,
              39.96815662751932
            ],
            [
              116.3495308369597,
              39.93900021972027
            ],
            [
              116.34663720204107,
              39.939000221817345
            ],
            [
              116.34635985955042,
              39.96814034097355
            ]
          ]
        ]
      }
    }
  ]
}
