{
 "type": "FeatureCollection",
 "name": "jingzhang_route_greens",
 "features": [
  {
   "type": "Feature",
   "id": "GRN-001",
   "properties": {
    "id": "GRN-001",
    "layer": "GREEN_SPACE",
    "green_type": "1401",
    "name_zh": "遗址公园活力带·南段",
    "source_type": "agent_generated_design",
    "confidence": "medium",
    "geometry_role": "design_proposal",
    "area_sqm_declared": 186004.1
   },
   "geometry": {
    "type": "Polygon",
    "coordinates": [
     [
      [
       116.3506656,
       39.9405073
      ],
      [
       116.3505996,
       39.940422
      ],
      [
       116.3505181,
       39.9403514
      ],
      [
       116.3504245,
       39.9402979
      ],
      [
       116.3503222,
       39.9402638
      ],
      [
       116.3502153,
       39.9402502
      ],
      [
       116.3501077,
       39.9402578
      ],
      [
       116.3500037,
       39.9402862
      ],
      [
       116.3499073,
       39.9403344
      ],
      [
       116.349822,
       39.9404004
      ],
      [
       116.3497514,
       39.9404819
      ],
      [
       116.3496979,
       39.9405755
      ],
      [
       116.3496638,
       39.9406778
      ],
      [
       116.3496502,
       39.9407847
      ],
      [
       116.3494503,
       39.9479814
      ],
      [
       116.3490736,
       39.9573999
      ],
      [
       116.3490574,
       39.9574122
      ],
      [
       116.3489531,
       39.9575293
      ],
      [
       116.3488737,
       39.9576646
      ],
      [
       116.3488222,
       39.9578127
      ],
      [
       116.3488006,
       39.957968
      ],
      [
       116.3487994,
       39.958
      ],
      [
       116.3503975,
       39.958
      ],
      [
       116.3503902,
       39.9578754
      ],
      [
       116.3503507,
       39.9577236
      ],
      [
       116.3502824,
       39.9575825
      ],
      [
       116.3501878,
       39.9574574
      ],
      [
       116.3501727,
       39.9574439
      ],
      [
       116.3505496,
       39.948022
      ],
      [
       116.3505494,
       39.9480186
      ],
      [
       116.3505498,
       39.9480153
      ],
      [
       116.3507498,
       39.9408153
      ],
      [
       116.3507422,
       39.9407077
      ],
      [
       116.3507138,
       39.9406037
      ],
      [
       116.3506656,
       39.9405073
      ]
     ]
    ]
   }
  },
  {
   "type": "Feature",
   "id": "GRN-002",
   "properties": {
    "id": "GRN-002",
    "layer": "GREEN_SPACE",
    "green_type": "1401",
    "name_zh": "遗址公园活力带·中段",
    "source_type": "agent_generated_design",
    "confidence": "medium",
    "geometry_role": "design_proposal",
    "area_sqm_declared": 577454.3
   },
   "geometry": {
    "type": "Polygon",
    "coordinates": [
     [
      [
       116.3484006,
       39.967968
      ],
      [
       116.348001,
       39.9779601
      ],
      [
       116.3474014,
       39.9879521
      ],
      [
       116.3469186,
       39.996
      ],
      [
       116.3485214,
       39.996
      ],
      [
       116.3489986,
       39.9880479
      ],
      [
       116.3495986,
       39.9780479
      ],
      [
       116.3495983,
       39.9780399
      ],
      [
       116.3495994,
       39.978032
      ],
      [
       116.3499994,
       39.968032
      ],
      [
       116.3503994,
       39.958032
      ],
      [
       116.3503975,
       39.958
      ],
      [
       116.3487994,
       39.958
      ],
      [
       116.3484006,
       39.967968
      ]
     ]
    ]
   }
  },
  {
   "type": "Feature",
   "id": "GRN-003",
   "properties": {
    "id": "GRN-003",
    "layer": "GREEN_SPACE",
    "green_type": "1401",
    "name_zh": "遗址公园活力带·北段",
    "source_type": "agent_generated_design",
    "confidence": "medium",
    "geometry_role": "design_proposal",
    "area_sqm_declared": 494915.2
   },
   "geometry": {
    "type": "Polygon",
    "coordinates": [
     [
      [
       116.3468017,
       39.9979481
      ],
      [
       116.3461374,
       40.0074376
      ],
      [
       116.3460531,
       40.0075695
      ],
      [
       116.3459854,
       40.007743
      ],
      [
       116.3459529,
       40.0079263
      ],
      [
       116.3452529,
       40.0169253
      ],
      [
       116.344653,
       40.0244242
      ],
      [
       116.3446564,
       40.0246104
      ],
      [
       116.3446961,
       40.0247924
      ],
      [
       116.3447705,
       40.0249631
      ],
      [
       116.3448768,
       40.025116
      ],
      [
       116.3450109,
       40.0252453
      ],
      [
       116.3451676,
       40.0253459
      ],
      [
       116.345341,
       40.025414
      ],
      [
       116.3455242,
       40.025447
      ],
      [
       116.3457104,
       40.0254436
      ],
      [
       116.3458924,
       40.0254039
      ],
      [
       116.3460631,
       40.0253295
      ],
      [
       116.346216,
       40.0252232
      ],
      [
       116.3463453,
       40.0250891
      ],
      [
       116.3464459,
       40.0249324
      ],
      [
       116.346514,
       40.024759
      ],
      [
       116.346547,
       40.0245758
      ],
      [
       116.347147,
       40.0170758
      ],
      [
       116.347147,
       40.0170747
      ],
      [
       116.3471471,
       40.0170737
      ],
      [
       116.3478471,
       40.0080737
      ],
      [
       116.3478433,
       40.0078875
      ],
      [
       116.3478032,
       40.0077056
      ],
      [
       116.3477337,
       40.007547
      ],
      [
       116.348398,
       39.9980559
      ],
      [
       116.3483979,
       39.9980519
      ],
      [
       116.3483986,
       39.9980479
      ],
      [
       116.3485214,
       39.996
      ],
      [
       116.3469186,
       39.996
      ],
      [
       116.3468017,
       39.9979481
      ]
     ]
    ]
   }
  },
  {
   "type": "Feature",
   "id": "GRN-004",
   "properties": {
    "id": "GRN-004",
    "layer": "GREEN_SPACE",
    "green_type": "1401",
    "name_zh": "小月河绿带",
    "source_type": "agent_generated_design",
    "confidence": "medium",
    "geometry_role": "design_proposal",
    "area_sqm_declared": 1984241.8
   },
   "geometry": {
    "type": "Polygon",
    "coordinates": [
     [
      [
       116.3495,
       39.939
      ],
      [
       116.3495,
       39.9461924
      ],
      [
       116.3496502,
       39.9407847
      ],
      [
       116.3496638,
       39.9406778
      ],
      [
       116.3496979,
       39.9405755
      ],
      [
       116.3497514,
       39.9404819
      ],
      [
       116.349822,
       39.9404004
      ],
      [
       116.3499073,
       39.9403344
      ],
      [
       116.3500037,
       39.9402862
      ],
      [
       116.3501077,
       39.9402578
      ],
      [
       116.3502153,
       39.9402502
      ],
      [
       116.3503222,
       39.9402638
      ],
      [
       116.3504245,
       39.9402979
      ],
      [
       116.3505181,
       39.9403514
      ],
      [
       116.3505996,
       39.940422
      ],
      [
       116.3506656,
       39.9405073
      ],
      [
       116.3507138,
       39.9406037
      ],
      [
       116.3507422,
       39.9407077
      ],
      [
       116.3507498,
       39.9408153
      ],
      [
       116.3505498,
       39.9480153
      ],
      [
       116.3505494,
       39.9480186
      ],
      [
       116.3505496,
       39.948022
      ],
      [
       116.3501727,
       39.9574439
      ],
      [
       116.3501878,
       39.9574574
      ],
      [
       116.3502824,
       39.9575825
      ],
      [
       116.3503507,
       39.9577236
      ],
      [
       116.3503902,
       39.9578754
      ],
      [
       116.3503994,
       39.958032
      ],
      [
       116.3499994,
       39.968032
      ],
      [
       116.3495994,
       39.978032
      ],
      [
       116.3495983,
       39.9780399
      ],
      [
       116.3495986,
       39.9780479
      ],
      [
       116.3495,
       39.9796906
      ],
      [
       116.3495,
       40.0265
      ],
      [
       116.3522,
       40.0265
      ],
      [
       116.3522,
       39.939
      ],
      [
       116.3495,
       39.939
      ]
     ]
    ]
   }
  },
  {
   "type": "Feature",
   "id": "GRN-005",
   "properties": {
    "id": "GRN-005",
    "layer": "GREEN_SPACE",
    "green_type": "1402",
    "name_zh": "西侧防护绿带",
    "source_type": "agent_generated_design",
    "confidence": "medium",
    "geometry_role": "design_proposal",
    "area_sqm_declared": 1457206.8
   },
   "geometry": {
    "type": "Polygon",
    "coordinates": [
     [
      [
       116.3407,
       39.939
      ],
      [
       116.3397,
       39.975
      ],
      [
       116.3417,
       40.006
      ],
      [
       116.3426,
       40.02445
      ],
      [
       116.3426,
       39.939
      ],
      [
       116.3407,
       39.939
      ]
     ]
    ]
   }
  },
  {
   "type": "Feature",
   "id": "GRN-006",
   "properties": {
    "id": "GRN-006",
    "layer": "GREEN_SPACE",
    "green_type": "1401",
    "name_zh": "口袋公园",
    "source_type": "agent_generated_design",
    "confidence": "medium",
    "geometry_role": "design_proposal",
    "area_sqm_declared": 5996.3
   },
   "geometry": {
    "type": "Polygon",
    "coordinates": [
     [
      [
       116.3529157,
       39.9708278
      ],
      [
       116.3528742,
       39.97075
      ],
      [
       116.3528182,
       39.9706818
      ],
      [
       116.35275,
       39.9706258
      ],
      [
       116.3526722,
       39.9705843
      ],
      [
       116.3525878,
       39.9705586
      ],
      [
       116.3525,
       39.97055
      ],
      [
       116.3524122,
       39.9705586
      ],
      [
       116.3523278,
       39.9705843
      ],
      [
       116.35225,
       39.9706258
      ],
      [
       116.3521818,
       39.9706818
      ],
      [
       116.3521258,
       39.97075
      ],
      [
       116.3520843,
       39.9708278
      ],
      [
       116.3520586,
       39.9709122
      ],
      [
       116.35205,
       39.971
      ],
      [
       116.3520586,
       39.9710878
      ],
      [
       116.3520843,
       39.9711722
      ],
      [
       116.3521258,
       39.97125
      ],
      [
       116.3521818,
       39.9713182
      ],
      [
       116.35225,
       39.9713742
      ],
      [
       116.3523278,
       39.9714157
      ],
      [
       116.3524122,
       39.9714414
      ],
      [
       116.3525,
       39.97145
      ],
      [
       116.3525878,
       39.9714414
      ],
      [
       116.3526722,
       39.9714157
      ],
      [
       116.35275,
       39.9713742
      ],
      [
       116.3528182,
       39.9713182
      ],
      [
       116.3528742,
       39.97125
      ],
      [
       116.3529157,
       39.9711722
      ],
      [
       116.3529414,
       39.9710878
      ],
      [
       116.35295,
       39.971
      ],
      [
       116.3529414,
       39.9709122
      ],
      [
       116.3529157,
       39.9708278
      ]
     ]
    ]
   }
  },
  {
   "type": "Feature",
   "id": "GRN-007",
   "properties": {
    "id": "GRN-007",
    "layer": "GREEN_SPACE",
    "green_type": "1401",
    "name_zh": "口袋公园",
    "source_type": "agent_generated_design",
    "confidence": "medium",
    "geometry_role": "design_proposal",
    "area_sqm_declared": 5993.6
   },
   "geometry": {
    "type": "Polygon",
    "coordinates": [
     [
      [
       116.3522157,
       40.0018278
      ],
      [
       116.3521742,
       40.00175
      ],
      [
       116.3521182,
       40.0016818
      ],
      [
       116.35205,
       40.0016258
      ],
      [
       116.3519722,
       40.0015843
      ],
      [
       116.3518878,
       40.0015586
      ],
      [
       116.3518,
       40.00155
      ],
      [
       116.3517122,
       40.0015586
      ],
      [
       116.3516278,
       40.0015843
      ],
      [
       116.35155,
       40.0016258
      ],
      [
       116.3514818,
       40.0016818
      ],
      [
       116.3514258,
       40.00175
      ],
      [
       116.3513843,
       40.0018278
      ],
      [
       116.3513586,
       40.0019122
      ],
      [
       116.35135,
       40.002
      ],
      [
       116.3513586,
       40.0020878
      ],
      [
       116.3513843,
       40.0021722
      ],
      [
       116.3514258,
       40.00225
      ],
      [
       116.3514818,
       40.0023182
      ],
      [
       116.35155,
       40.0023742
      ],
      [
       116.3516278,
       40.0024157
      ],
      [
       116.3517122,
       40.0024414
      ],
      [
       116.3518,
       40.00245
      ],
      [
       116.3518878,
       40.0024414
      ],
      [
       116.3519722,
       40.0024157
      ],
      [
       116.35205,
       40.0023742
      ],
      [
       116.3521182,
       40.0023182
      ],
      [
       116.3521742,
       40.00225
      ],
      [
       116.3522157,
       40.0021722
      ],
      [
       116.3522414,
       40.0020878
      ],
      [
       116.35225,
       40.002
      ],
      [
       116.3522414,
       40.0019122
      ],
      [
       116.3522157,
       40.0018278
      ]
     ]
    ]
   }
  },
  {
   "type": "Feature",
   "id": "GRN-008",
   "properties": {
    "id": "GRN-008",
    "layer": "GREEN_SPACE",
    "green_type": "1401",
    "name_zh": "口袋公园",
    "source_type": "agent_generated_design",
    "confidence": "medium",
    "geometry_role": "design_proposal",
    "area_sqm_declared": 5992.2
   },
   "geometry": {
    "type": "Polygon",
    "coordinates": [
     [
      [
       116.3526157,
       40.0173278
      ],
      [
       116.3525742,
       40.01725
      ],
      [
       116.3525182,
       40.0171818
      ],
      [
       116.35245,
       40.0171258
      ],
      [
       116.3523722,
       40.0170843
      ],
      [
       116.3522878,
       40.0170586
      ],
      [
       116.3522,
       40.01705
      ],
      [
       116.3521122,
       40.0170586
      ],
      [
       116.3520278,
       40.0170843
      ],
      [
       116.35195,
       40.0171258
      ],
      [
       116.3518818,
       40.0171818
      ],
      [
       116.3518258,
       40.01725
      ],
      [
       116.3517843,
       40.0173278
      ],
      [
       116.3517586,
       40.0174122
      ],
      [
       116.35175,
       40.0175
      ],
      [
       116.3517586,
       40.0175878
      ],
      [
       116.3517843,
       40.0176722
      ],
      [
       116.3518258,
       40.01775
      ],
      [
       116.3518818,
       40.0178182
      ],
      [
       116.35195,
       40.0178742
      ],
      [
       116.3520278,
       40.0179157
      ],
      [
       116.3521122,
       40.0179414
      ],
      [
       116.3522,
       40.01795
      ],
      [
       116.3522878,
       40.0179414
      ],
      [
       116.3523722,
       40.0179157
      ],
      [
       116.35245,
       40.0178742
      ],
      [
       116.3525182,
       40.0178182
      ],
      [
       116.3525742,
       40.01775
      ],
      [
       116.3526157,
       40.0176722
      ],
      [
       116.3526414,
       40.0175878
      ],
      [
       116.35265,
       40.0175
      ],
      [
       116.3526414,
       40.0174122
      ],
      [
       116.3526157,
       40.0173278
      ]
     ]
    ]
   }
  }
 ]
}