{
  "type": "FeatureCollection",
  "name": "jingzhang_commons_land_use",
  "features": [
    {
      "type": "Feature",
      "id": "LU-001",
      "properties": {
        "id": "LU-001",
        "layer": "LAND_USE",
        "source_type": "agent_generated_design",
        "confidence": "medium",
        "geometry_role": "design_proposal",
        "name_zh": "全栈研发与开源协作带",
        "land_use_code": "0802",
        "design_intent": "以研发、绿廊、转化、人才和城市展示五类空间组织共创环。",
        "design_iteration": "2026-08-08-v2",
        "area_sqm_declared": 1788211.476
      },
      "geometry": {
        "type": "Polygon",
        "coordinates": [
          [
            [
              116.3407,
              39.939
            ],
            [
              116.3397,
              39.975
            ],
            [
              116.3417,
              40.006
            ],
            [
              116.3427,
              40.0265
            ],
            [
              116.343,
              40.0265
            ],
            [
              116.343,
              39.939
            ],
            [
              116.3407,
              39.939
            ]
          ]
        ]
      }
    },
    {
      "type": "Feature",
      "id": "LU-002",
      "properties": {
        "id": "LU-002",
        "layer": "LAND_USE",
        "source_type": "agent_generated_design",
        "confidence": "medium",
        "geometry_role": "design_proposal",
        "name_zh": "京张文化绿廊与公园界面",
        "land_use_code": "1401",
        "design_intent": "以研发、绿廊、转化、人才和城市展示五类空间组织共创环。",
        "design_iteration": "2026-08-08-v2",
        "area_sqm_declared": 2323766.655
      },
      "geometry": {
        "type": "Polygon",
        "coordinates": [
          [
            [
              116.343,
              39.939
            ],
            [
              116.343,
              40.0265
            ],
            [
              116.3458,
              40.0265
            ],
            [
              116.3458,
              39.939
            ],
            [
              116.343,
              39.939
            ]
          ]
        ]
      }
    },
    {
      "type": "Feature",
      "id": "LU-003",
      "properties": {
        "id": "LU-003",
        "layer": "LAND_USE",
        "source_type": "agent_generated_design",
        "confidence": "medium",
        "geometry_role": "design_proposal",
        "name_zh": "企业服务与成果转化带",
        "land_use_code": "05",
        "design_intent": "以研发、绿廊、转化、人才和城市展示五类空间组织共创环。",
        "design_iteration": "2026-08-08-v2",
        "area_sqm_declared": 2821714.598
      },
      "geometry": {
        "type": "Polygon",
        "coordinates": [
          [
            [
              116.3458,
              39.939
            ],
            [
              116.3458,
              40.0265
            ],
            [
              116.3492,
              40.0265
            ],
            [
              116.3492,
              39.939
            ],
            [
              116.3458,
              39.939
            ]
          ]
        ]
      }
    },
    {
      "type": "Feature",
      "id": "LU-004",
      "properties": {
        "id": "LU-004",
        "layer": "LAND_USE",
        "source_type": "agent_generated_design",
        "confidence": "medium",
        "geometry_role": "design_proposal",
        "name_zh": "人才社区与公共服务带",
        "land_use_code": "0702",
        "design_intent": "以研发、绿廊、转化、人才和城市展示五类空间组织共创环。",
        "design_iteration": "2026-08-08-v2",
        "area_sqm_declared": 2489746.313
      },
      "geometry": {
        "type": "Polygon",
        "coordinates": [
          [
            [
              116.3492,
              39.939
            ],
            [
              116.3492,
              40.0265
            ],
            [
              116.3522,
              40.0265
            ],
            [
              116.3522,
              39.939
            ],
            [
              116.3492,
              39.939
            ]
          ]
        ]
      }
    },
    {
      "type": "Feature",
      "id": "LU-005",
      "properties": {
        "id": "LU-005",
        "layer": "LAND_USE",
        "source_type": "agent_generated_design",
        "confidence": "medium",
        "geometry_role": "design_proposal",
        "name_zh": "AI消费、展示与文化服务带",
        "land_use_code": "0803",
        "design_intent": "以研发、绿廊、转化、人才和城市展示五类空间组织共创环。",
        "design_iteration": "2026-08-08-v2",
        "area_sqm_declared": 1989393.854
      },
      "geometry": {
        "type": "Polygon",
        "coordinates": [
          [
            [
              116.3553,
              40.0265
            ],
            [
              116.3533,
              39.99
            ],
            [
              116.3553,
              39.965
            ],
            [
              116.3553,
              39.939
            ],
            [
              116.3522,
              39.939
            ],
            [
              116.3522,
              40.0265
            ],
            [
              116.3553,
              40.0265
            ]
          ]
        ]
      }
    }
  ]
}
