{
  "type": "FeatureCollection",
  "features": [
    {
      "type": "Feature",
      "id": "LU-001",
      "properties": {
        "id": "LU-001",
        "layer": "LAND_USE",
        "source_type": "agent_generated_design",
        "confidence": "low",
        "geometry_role": "design_proposal",
        "land_use_code": "0802",
        "name_zh": "研究原型与安全评测",
        "name_en": "Research prototypes and safety evaluation",
        "design_status": "conceptual_partition_pending_official_base",
        "display_color": "#3d6073",
        "area_sqm_declared": 1924421.166
      },
      "geometry": {
        "type": "Polygon",
        "coordinates": [
          [
            [
              116.34070000000001,
              39.93899999999999
            ],
            [
              116.3397,
              39.975
            ],
            [
              116.34169999999999,
              40.00600000000001
            ],
            [
              116.34270000000001,
              40.0265
            ],
            [
              116.34274490738854,
              40.026500002432904
            ],
            [
              116.34358281069728,
              39.93900014567839
            ],
            [
              116.34070000000001,
              39.93899999999999
            ]
          ]
        ]
      }
    },
    {
      "type": "Feature",
      "id": "LU-002",
      "properties": {
        "id": "LU-002",
        "layer": "LAND_USE",
        "source_type": "agent_generated_design",
        "confidence": "low",
        "geometry_role": "design_proposal",
        "land_use_code": "0803",
        "name_zh": "铁路文化与公共学习",
        "name_en": "Rail culture and public learning",
        "design_status": "conceptual_partition_pending_official_base",
        "display_color": "#bd914d",
        "area_sqm_declared": 2136003.567
      },
      "geometry": {
        "type": "Polygon",
        "coordinates": [
          [
            [
              116.34358281069728,
              39.93900014567839
            ],
            [
              116.34274490738854,
              40.026500002432904
            ],
            [
              116.34532030949424,
              40.02650011283799
            ],
            [
              116.34615492965025,
              39.93900021514523
            ],
            [
              116.34358281069728,
              39.93900014567839
            ]
          ]
        ]
      }
    },
    {
      "type": "Feature",
      "id": "LU-003",
      "properties": {
        "id": "LU-003",
        "layer": "LAND_USE",
        "source_type": "agent_generated_design",
        "confidence": "low",
        "geometry_role": "design_proposal",
        "land_use_code": "05",
        "name_zh": "产业转译与专业服务",
        "name_en": "Industry translation and professional service",
        "design_status": "conceptual_partition_pending_official_base",
        "display_color": "#66aebb",
        "area_sqm_declared": 2403003.892
      },
      "geometry": {
        "type": "Polygon",
        "coordinates": [
          [
            [
              116.34615492965025,
              39.93900021514523
            ],
            [
              116.34532030949424,
              40.02650011283799
            ],
            [
              116.34821763780089,
              40.02650016862305
            ],
            [
              116.3490485644052,
              39.93900022508523
            ],
            [
              116.34615492965025,
              39.93900021514523
            ]
          ]
        ]
      }
    },
    {
      "type": "Feature",
      "id": "LU-004",
      "properties": {
        "id": "LU-004",
        "layer": "LAND_USE",
        "source_type": "agent_generated_design",
        "confidence": "low",
        "geometry_role": "design_proposal",
        "land_use_code": "0702",
        "name_zh": "社区与人才日常服务",
        "name_en": "Community and talent services",
        "design_status": "conceptual_partition_pending_official_base",
        "display_color": "#8a6f5c",
        "area_sqm_declared": 2136003.352
      },
      "geometry": {
        "type": "Polygon",
        "coordinates": [
          [
            [
              116.3490485644052,
              39.93900022508523
            ],
            [
              116.34821763780089,
              40.02650016862305
            ],
            [
              116.35079304156552,
              40.02650015739138
            ],
            [
              116.35162068500848,
              39.93900017328951
            ],
            [
              116.3490485644052,
              39.93900022508523
            ]
          ]
        ]
      }
    },
    {
      "type": "Feature",
      "id": "LU-005",
      "properties": {
        "id": "LU-005",
        "layer": "LAND_USE",
        "source_type": "agent_generated_design",
        "confidence": "low",
        "geometry_role": "design_proposal",
        "land_use_code": "1401",
        "name_zh": "公园绿地与开放孔径",
        "name_en": "Park green and open apertures",
        "design_status": "conceptual_partition_pending_official_base",
        "display_color": "#4b9b80",
        "area_sqm_declared": 2111976.238
      },
      "geometry": {
        "type": "Polygon",
        "coordinates": [
          [
            [
              116.35162068500848,
              39.93900017328951
            ],
            [
              116.35079304156552,
              40.02650015739138
            ],
            [
              116.35336844609932,
              40.026500088918795
            ],
            [
              116.3536521580465,
              39.9964293777275
            ],
            [
              116.3533,
              39.989999999999995
            ],
            [
              116.35376785499719,
              39.9841535954764
            ],
            [
              116.35419280637697,
              39.93900006442897
            ],
            [
              116.35162068500848,
              39.93900017328951
            ]
          ]
        ]
      }
    },
    {
      "type": "Feature",
      "id": "LU-006",
      "properties": {
        "id": "LU-006",
        "layer": "LAND_USE",
        "source_type": "agent_generated_design",
        "confidence": "low",
        "geometry_role": "design_proposal",
        "land_use_code": "16",
        "name_zh": "道路接口与待校准留白",
        "name_en": "Mobility interface and calibration reserve",
        "design_status": "conceptual_partition_pending_official_base",
        "display_color": "#77818a",
        "area_sqm_declared": 701417.17
      },
      "geometry": {
        "type": "MultiPolygon",
        "coordinates": [
          [
            [
              [
                116.3553,
                39.965
              ],
              [
                116.3553,
                39.939
              ],
              [
                116.35419280637697,
                39.93900006442897
              ],
              [
                116.35376785499719,
                39.9841535954764
              ],
              [
                116.3553,
                39.965
              ]
            ]
          ],
          [
            [
              [
                116.3536521580465,
                39.9964293777275
              ],
              [
                116.35336844609932,
                40.026500088918795
              ],
              [
                116.3553,
                40.0265
              ],
              [
                116.3536521580465,
                39.9964293777275
              ]
            ]
          ]
        ]
      }
    }
  ]
}
