{
  "type": "FeatureCollection",
  "name": "staying_line_green_space",
  "features": [
    {
      "type": "Feature",
      "id": "GREEN-001",
      "properties": {
        "id": "GREEN-001",
        "layer": "GREEN_SPACE",
        "source_type": "agent_generated_design",
        "confidence": "low",
        "geometry_role": "design_proposal",
        "conceptual_only": true,
        "name_zh": "留城日常绿脊与三座落脚花园",
        "name_en": "Staying Line daily green spine and three landing gardens",
        "program_zh": "步行、骑行、停留、邻里活动与低干扰创新交流",
        "program_en": "Walking, cycling, lingering, neighbourhood life, and low-impact exchange",
        "official_green_line": false,
        "usage_note": "概念性公共绿网；待官方绿线、水系、文保与树木资料校核。",
        "area_sqm_declared": 1433625.655
      },
      "geometry": {
        "type": "Polygon",
        "coordinates": [
          [
            [
              116.3500149,
              39.9465757
            ],
            [
              116.3499637,
              39.9464631
            ],
            [
              116.3498985,
              39.9463549
            ],
            [
              116.3498198,
              39.9462521
            ],
            [
              116.3497283,
              39.9461557
            ],
            [
              116.3496251,
              39.9460667
            ],
            [
              116.349511,
              39.945986
            ],
            [
              116.3493871,
              39.9459142
            ],
            [
              116.3492548,
              39.9458521
            ],
            [
              116.3491561,
              39.9458155
            ],
            [
              116.3487434,
              39.9411043
            ],
            [
              116.3487338,
              39.9410411
            ],
            [
              116.3487162,
              39.9409789
            ],
            [
              116.3486907,
              39.9409184
            ],
            [
              116.3486577,
              39.94086
            ],
            [
              116.3486174,
              39.9408045
            ],
            [
              116.3485702,
              39.9407522
            ],
            [
              116.3485166,
              39.9407038
            ],
            [
              116.3484571,
              39.9406596
            ],
            [
              116.3483923,
              39.9406201
            ],
            [
              116.3483227,
              39.9405858
            ],
            [
              116.3482491,
              39.9405568
            ],
            [
              116.3481722,
              39.9405335
            ],
            [
              116.3480926,
              39.9405162
            ],
            [
              116.3480113,
              39.9405049
            ],
            [
              116.3479289,
              39.9404998
            ],
            [
              116.3478462,
              39.940501
            ],
            [
              116.3477641,
              39.9405083
            ],
            [
              116.3476833,
              39.9405219
            ],
            [
              116.3476047,
              39.9405415
            ],
            [
              116.3475289,
              39.9405669
            ],
            [
              116.3474567,
              39.9405979
            ],
            [
              116.3473888,
              39.9406342
            ],
            [
              116.3473259,
              39.9406755
            ],
            [
              116.3472685,
              39.9407213
            ],
            [
              116.3472172,
              39.9407712
            ],
            [
              116.3471726,
              39.9408247
            ],
            [
              116.3471349,
              39.9408814
            ],
            [
              116.3471047,
              39.9409406
            ],
            [
              116.3470821,
              39.9410018
            ],
            [
              116.3470675,
              39.9410645
            ],
            [
              116.3470609,
              39.9411279
            ],
            [
              116.3470624,
              39.9411915
            ],
            [
              116.3474827,
              39.9459913
            ],
            [
              116.3473912,
              39.9460542
            ],
            [
              116.3472863,
              39.946142
            ],
            [
              116.347193,
              39.9462373
            ],
            [
              116.3471124,
              39.9463392
            ],
            [
              116.3470451,
              39.9464467
            ],
            [
              116.3469918,
              39.9465587
            ],
            [
              116.346953,
              39.9466742
            ],
            [
              116.3469292,
              39.9467921
            ],
            [
              116.3469204,
              39.9469113
            ],
            [
              116.3469269,
              39.9470305
            ],
            [
              116.3469485,
              39.9471486
            ],
            [
              116.3469851,
              39.9472646
            ],
            [
              116.3470362,
              39.9473772
            ],
            [
              116.3471015,
              39.9474854
            ],
            [
              116.3471802,
              39.9475882
            ],
            [
              116.3472716,
              39.9476845
            ],
            [
              116.3473749,
              39.9477735
            ],
            [
              116.347489,
              39.9478543
            ],
            [
              116.3476128,
              39.9479261
            ],
            [
              116.3476539,
              39.9479453
            ],
            [
              116.347972,
              39.9515774
            ],
            [
              116.3481133,
              39.961936
            ],
            [
              116.3473047,
              39.9722979
            ],
            [
              116.3460839,
              39.9826802
            ],
            [
              116.3460819,
              39.9827014
            ],
            [
              116.3453048,
              39.9930961
            ],
            [
              116.3453034,
              39.9931421
            ],
            [
              116.3454878,
              40.0035422
            ],
            [
              116.3454897,
              40.0035778
            ],
            [
              116.3464198,
              40.0139811
            ],
            [
              116.3473116,
              40.0243842
            ],
            [
              116.3473211,
              40.0244474
            ],
            [
              116.3473386,
              40.0245096
            ],
            [
              116.347364,
              40.0245702
            ],
            [
              116.3473969,
              40.0246286
            ],
            [
              116.3474371,
              40.0246842
            ],
            [
              116.3474843,
              40.0247365
            ],
            [
              116.3475379,
              40.024785
            ],
            [
              116.3475973,
              40.0248292
            ],
            [
              116.3476622,
              40.0248688
            ],
            [
              116.3477318,
              40.0249032
            ],
            [
              116.3478054,
              40.0249323
            ],
            [
              116.3478824,
              40.0249556
            ],
            [
              116.347962,
              40.0249731
            ],
            [
              116.3480434,
              40.0249845
            ],
            [
              116.3481259,
              40.0249896
            ],
            [
              116.3482087,
              40.0249886
            ],
            [
              116.3482909,
              40.0249813
            ],
            [
              116.3483718,
              40.0249678
            ],
            [
              116.3484506,
              40.0249483
            ],
            [
              116.3485265,
              40.024923
            ],
            [
              116.3485989,
              40.0248921
            ],
            [
              116.3486669,
              40.0248558
            ],
            [
              116.34873,
              40.0248146
            ],
            [
              116.3487875,
              40.0247689
            ],
            [
              116.348839,
              40.024719
            ],
            [
              116.3488838,
              40.0246655
            ],
            [
              116.3489216,
              40.0246089
            ],
            [
              116.348952,
              40.0245497
            ],
            [
              116.3489747,
              40.0244885
            ],
            [
              116.3489895,
              40.0244259
            ],
            [
              116.3489962,
              40.0243625
            ],
            [
              116.3489948,
              40.0242989
            ],
            [
              116.3484515,
              40.0179639
            ],
            [
              116.3484884,
              40.0179655
            ],
            [
              116.3486435,
              40.0179605
            ],
            [
              116.3487971,
              40.0179438
            ],
            [
              116.3489479,
              40.0179157
            ],
            [
              116.3490944,
              40.0178763
            ],
            [
              116.3492352,
              40.0178261
            ],
            [
              116.3493689,
              40.0177655
            ],
            [
              116.3494942,
              40.0176951
            ],
            [
              116.3496099,
              40.0176157
            ],
            [
              116.349715,
              40.0175279
            ],
            [
              116.3498083,
              40.0174325
            ],
            [
              116.3498891,
              40.0173307
            ],
            [
              116.3499564,
              40.0172232
            ],
            [
              116.3500098,
              40.0171111
            ],
            [
              116.3500486,
              40.0169956
            ],
            [
              116.3500725,
              40.0168777
            ],
            [
              116.3500812,
              40.0167586
            ],
            [
              116.3500747,
              40.0166394
            ],
            [
              116.3500531,
              40.0165212
            ],
            [
              116.3500165,
              40.0164053
            ],
            [
              116.3499653,
              40.0162927
            ],
            [
              116.3498999,
              40.0161845
            ],
            [
              116.3498211,
              40.0160817
            ],
            [
              116.3497296,
              40.0159853
            ],
            [
              116.3496262,
              40.0158963
            ],
            [
              116.349512,
              40.0158156
            ],
            [
              116.3493881,
              40.0157438
            ],
            [
              116.3492556,
              40.0156817
            ],
            [
              116.3491158,
              40.0156299
            ],
            [
              116.3489701,
              40.0155889
            ],
            [
              116.3488198,
              40.0155591
            ],
            [
              116.3486665,
              40.0155407
            ],
            [
              116.3485116,
              40.015534
            ],
            [
              116.3483565,
              40.0155389
            ],
            [
              116.3482446,
              40.0155511
            ],
            [
              116.3481026,
              40.0138949
            ],
            [
              116.3481025,
              40.0138931
            ],
            [
              116.3471736,
              40.0035067
            ],
            [
              116.3469898,
              39.9931475
            ],
            [
              116.3472476,
              39.9896987
            ],
            [
              116.3473336,
              39.989709
            ],
            [
              116.3474884,
              39.9897158
            ],
            [
              116.3476434,
              39.9897108
            ],
            [
              116.347797,
              39.9896941
            ],
            [
              116.3479477,
              39.989666
            ],
            [
              116.3480942,
              39.9896266
            ],
            [
              116.3482349,
              39.9895764
            ],
            [
              116.3483685,
              39.9895158
            ],
            [
              116.3484938,
              39.9894454
            ],
            [
              116.3486094,
              39.989366
            ],
            [
              116.3487145,
              39.9892782
            ],
            [
              116.3488078,
              39.9891828
            ],
            [
              116.3488885,
              39.989081
            ],
            [
              116.3489558,
              39.9889735
            ],
            [
              116.3490091,
              39.9888614
            ],
            [
              116.3490479,
              39.9887459
            ],
            [
              116.3490718,
              39.988628
            ],
            [
              116.3490805,
              39.9885089
            ],
            [
              116.3490741,
              39.9883897
            ],
            [
              116.3490524,
              39.9882715
            ],
            [
              116.3490158,
              39.9881556
            ],
            [
              116.3489646,
              39.988043
            ],
            [
              116.3488994,
              39.9879347
            ],
            [
              116.3488206,
              39.987832
            ],
            [
              116.3487291,
              39.9877356
            ],
            [
              116.3486258,
              39.9876466
            ],
            [
              116.3485116,
              39.9875659
            ],
            [
              116.3483877,
              39.9874941
            ],
            [
              116.3482553,
              39.987432
            ],
            [
              116.3481155,
              39.9873802
            ],
            [
              116.3479699,
              39.9873392
            ],
            [
              116.3478197,
              39.9873093
            ],
            [
              116.3476664,
              39.987291
            ],
            [
              116.3475116,
              39.9872843
            ],
            [
              116.3474278,
              39.9872869
            ],
            [
              116.3477641,
              39.9827865
            ],
            [
              116.3489845,
              39.9724049
            ],
            [
              116.3489864,
              39.9723854
            ],
            [
              116.3497974,
              39.9619909
            ],
            [
              116.3497988,
              39.9619452
            ],
            [
              116.3496567,
              39.9515453
            ],
            [
              116.3496548,
              39.9515085
            ],
            [
              116.3493428,
              39.9479474
            ],
            [
              116.349368,
              39.9479359
            ],
            [
              116.3494932,
              39.9478656
            ],
            [
              116.3496088,
              39.9477861
            ],
            [
              116.3497137,
              39.9476983
            ],
            [
              116.349807,
              39.947603
            ],
            [
              116.3498876,
              39.9475011
            ],
            [
              116.3499549,
              39.9473936
            ],
            [
              116.3500082,
              39.9472815
            ],
            [
              116.350047,
              39.947166
            ],
            [
              116.3500708,
              39.9470481
            ],
            [
              116.3500796,
              39.946929
            ],
            [
              116.3500731,
              39.9468098
            ],
            [
              116.3500515,
              39.9466917
            ],
            [
              116.3500149,
              39.9465757
            ]
          ]
        ]
      }
    }
  ]
}
