{
  "type": "FeatureCollection",
  "name": "proof_commons_land_use_partition",
  "features": [
    {
      "type": "Feature",
      "id": "LU-001",
      "properties": {
        "id": "LU-001",
        "layer": "LAND_USE",
        "source_type": "agent_generated_design",
        "confidence": "medium",
        "geometry_role": "design_proposal",
        "land_use_code": "05",
        "name_zh": "应用验证与国际交往服务带",
        "design_intent": "????????????????????",
        "area_sqm_declared": 2214839.749
      },
      "geometry": {
        "type": "Polygon",
        "coordinates": [
          [
            [
              116.3407,
              39.939
            ],
            [
              116.3402625,
              39.95475
            ],
            [
              116.3553,
              39.95475
            ],
            [
              116.3553,
              39.939
            ],
            [
              116.3407,
              39.939
            ]
          ]
        ]
      }
    },
    {
      "type": "Feature",
      "id": "LU-002",
      "properties": {
        "id": "LU-002",
        "layer": "LAND_USE",
        "source_type": "agent_generated_design",
        "confidence": "medium",
        "geometry_role": "design_proposal",
        "land_use_code": "0702",
        "name_zh": "社区服务与人才生活带",
        "design_intent": "????????????????????",
        "area_sqm_declared": 2517068.751
      },
      "geometry": {
        "type": "Polygon",
        "coordinates": [
          [
            [
              116.3553,
              39.95475
            ],
            [
              116.3402625,
              39.95475
            ],
            [
              116.33977638888888,
              39.97225
            ],
            [
              116.35472,
              39.97225
            ],
            [
              116.3553,
              39.965
            ],
            [
              116.3553,
              39.95475
            ]
          ]
        ]
      }
    },
    {
      "type": "Feature",
      "id": "LU-003",
      "properties": {
        "id": "LU-003",
        "layer": "LAND_USE",
        "source_type": "agent_generated_design",
        "confidence": "medium",
        "geometry_role": "design_proposal",
        "land_use_code": "1401",
        "name_zh": "京张蓝绿公共公地",
        "design_intent": "????????????????????",
        "area_sqm_declared": 2518983.427
      },
      "geometry": {
        "type": "Polygon",
        "coordinates": [
          [
            [
              116.3533,
              39.99
            ],
            [
              116.35472,
              39.97225
            ],
            [
              116.33977638888888,
              39.97225
            ],
            [
              116.3397,
              39.975
            ],
            [
              116.34076451612903,
              39.9915
            ],
            [
              116.35338219178082,
              39.9915
            ],
            [
              116.3533,
              39.99
            ]
          ]
        ]
      }
    },
    {
      "type": "Feature",
      "id": "LU-004",
      "properties": {
        "id": "LU-004",
        "layer": "LAND_USE",
        "source_type": "agent_generated_design",
        "confidence": "medium",
        "geometry_role": "design_proposal",
        "land_use_code": "0803",
        "name_zh": "铁路文化与公共知识带",
        "design_intent": "????????????????????",
        "area_sqm_declared": 2287745.133
      },
      "geometry": {
        "type": "Polygon",
        "coordinates": [
          [
            [
              116.35338219178082,
              39.9915
            ],
            [
              116.34076451612903,
              39.9915
            ],
            [
              116.3417,
              40.006
            ],
            [
              116.34193170731707,
              40.01075
            ],
            [
              116.35443698630137,
              40.01075
            ],
            [
              116.35338219178082,
              39.9915
            ]
          ]
        ]
      }
    },
    {
      "type": "Feature",
      "id": "LU-005",
      "properties": {
        "id": "LU-005",
        "layer": "LAND_USE",
        "source_type": "agent_generated_design",
        "confidence": "medium",
        "geometry_role": "design_proposal",
        "land_use_code": "0802",
        "name_zh": "研发与安全治理创新带",
        "design_intent": "????????????????????",
        "area_sqm_declared": 1874204.62
      },
      "geometry": {
        "type": "Polygon",
        "coordinates": [
          [
            [
              116.35443698630137,
              40.01075
            ],
            [
              116.34193170731707,
              40.01075
            ],
            [
              116.3427,
              40.0265
            ],
            [
              116.3553,
              40.0265
            ],
            [
              116.35443698630137,
              40.01075
            ]
          ]
        ]
      }
    }
  ]
}
