{
  "type": "FeatureCollection",
  "name": "proof_commons_mobility_network",
  "features": [
    {
      "type": "Feature",
      "id": "ROAD-001",
      "properties": {
        "id": "ROAD-001",
        "layer": "ROAD_CENTERLINE",
        "source_type": "agent_generated_design",
        "confidence": "medium",
        "geometry_role": "design_proposal",
        "road_class": "greenway",
        "name_zh": "京张智证主慢行环",
        "traffic_claim": "?????/????????????"
      },
      "geometry": {
        "type": "LineString",
        "coordinates": [
          [
            116.34063599999999,
            39.94775
          ],
          [
            116.343132,
            39.967
          ],
          [
            116.34734399999999,
            39.9845
          ],
          [
            116.351556,
            40.002
          ],
          [
            116.354364,
            40.0195
          ]
        ]
      }
    },
    {
      "type": "Feature",
      "id": "ROAD-002",
      "properties": {
        "id": "ROAD-002",
        "layer": "ROAD_CENTERLINE",
        "source_type": "agent_generated_design",
        "confidence": "medium",
        "geometry_role": "design_proposal",
        "road_class": "pedestrian",
        "name_zh": "铁路记忆步行线",
        "traffic_claim": "?????/????????????"
      },
      "geometry": {
        "type": "LineString",
        "coordinates": [
          [
            116.34594,
            39.941
          ],
          [
            116.34594,
            40.024499999999996
          ]
        ]
      }
    },
    {
      "type": "Feature",
      "id": "ROAD-003",
      "properties": {
        "id": "ROAD-003",
        "layer": "ROAD_CENTERLINE",
        "source_type": "agent_generated_design",
        "confidence": "medium",
        "geometry_role": "design_proposal",
        "road_class": "cycleway",
        "name_zh": "小月河场景赋能骑行线",
        "traffic_claim": "?????/????????????"
      },
      "geometry": {
        "type": "LineString",
        "coordinates": [
          [
            116.34828,
            39.941
          ],
          [
            116.34828,
            40.024499999999996
          ]
        ]
      }
    },
    {
      "type": "Feature",
      "id": "ROAD-004",
      "properties": {
        "id": "ROAD-004",
        "layer": "ROAD_CENTERLINE",
        "source_type": "agent_generated_design",
        "confidence": "medium",
        "geometry_role": "design_proposal",
        "road_class": "transit_connection",
        "name_zh": "三核轨道接驳概念线",
        "traffic_claim": "?????/????????????"
      },
      "geometry": {
        "type": "LineString",
        "coordinates": [
          [
            116.34176097560976,
            40.00725
          ],
          [
            116.35424520547946,
            40.00725
          ]
        ]
      }
    },
    {
      "type": "Feature",
      "id": "ROAD-005",
      "properties": {
        "id": "ROAD-005",
        "layer": "ROAD_CENTERLINE",
        "source_type": "agent_generated_design",
        "confidence": "medium",
        "geometry_role": "design_proposal",
        "road_class": "branch",
        "name_zh": "社区缝合支路",
        "traffic_claim": "?????/????????????"
      },
      "geometry": {
        "type": "LineString",
        "coordinates": [
          [
            116.350932,
            39.941
          ],
          [
            116.350932,
            40.024499999999996
          ]
        ]
      }
    },
    {
      "type": "Feature",
      "id": "ROAD-006",
      "properties": {
        "id": "ROAD-006",
        "layer": "ROAD_CENTERLINE",
        "source_type": "agent_generated_design",
        "confidence": "medium",
        "geometry_role": "design_proposal",
        "road_class": "local_access",
        "name_zh": "验证场地低速出入线",
        "traffic_claim": "?????/????????????"
      },
      "geometry": {
        "type": "LineString",
        "coordinates": [
          [
            116.3407,
            39.963499999999996
          ],
          [
            116.3543,
            39.963499999999996
          ]
        ]
      }
    }
  ]
}
