{
  "type": "FeatureCollection",
  "name": "slow_line_green_space",
  "features": [
    {
      "type": "Feature",
      "id": "GREEN-SLOW-001",
      "properties": {
        "id": "GREEN-SLOW-001",
        "layer": "GREEN_SPACE",
        "source_type": "agent_generated_design",
        "confidence": "low",
        "geometry_role": "design_proposal",
        "design_status": "conceptual_reference",
        "usage_note": "Conceptual recommendation generated inside a provisional constraint; not a parcel, road redline, ownership, approval, or engineering conclusion.",
        "name_zh": "京张慢线连续绿荫概念带",
        "land_use_code": "1401",
        "performance_intent": "continuous_shade_rest_accessibility",
        "area_sqm_declared": 1331158.611
      },
      "geometry": {
        "type": "Polygon",
        "coordinates": [
          [
            [
              116.34769356,
              39.95559584
            ],
            [
              116.34705442,
              39.96230497
            ],
            [
              116.34608675,
              39.96909374
            ],
            [
              116.34555527,
              39.97595645
            ],
            [
              116.34589001,
              39.98282902
            ],
            [
              116.34681929,
              39.98963896
            ],
            [
              116.3476037,
              39.99636444
            ],
            [
              116.34763617,
              40.00304846
            ],
            [
              116.34689193,
              40.00976868
            ],
            [
              116.34594593,
              40.01657231
            ],
            [
              116.3455525,
              40.02338806
            ],
            [
              116.34726565,
              40.02348694
            ],
            [
              116.3476551,
              40.01674019
            ],
            [
              116.34859487,
              40.00998132
            ],
            [
              116.34935263,
              40.00313904
            ],
            [
              116.34931921,
              39.99626056
            ],
            [
              116.34852179,
              39.98942354
            ],
            [
              116.34760035,
              39.98267098
            ],
            [
              116.34727451,
              39.97598105
            ],
            [
              116.34779336,
              39.96928126
            ],
            [
              116.3487589,
              39.96250753
            ],
            [
              116.34941178,
              39.95565416
            ],
            [
              116.34922531,
              39.94877744
            ],
            [
              116.34835104,
              39.94195347
            ],
            [
              116.34664896,
              39.94217153
            ],
            [
              116.34751228,
              39.94891006
            ],
            [
              116.34769356,
              39.95559584
            ]
          ]
        ]
      }
    },
    {
      "type": "Feature",
      "id": "GREEN-YARD-01",
      "properties": {
        "id": "GREEN-YARD-01",
        "layer": "GREEN_SPACE",
        "source_type": "agent_generated_design",
        "confidence": "low",
        "geometry_role": "design_proposal",
        "design_status": "conceptual_reference",
        "usage_note": "Conceptual recommendation generated inside a provisional constraint; not a parcel, road redline, ownership, approval, or engineering conclusion.",
        "name_zh": "安全慢速花园",
        "land_use_code": "1401",
        "area_id": "zhongzhiyuan_ai_acceleration_area",
        "area_sqm_declared": 159976.498
      },
      "geometry": {
        "type": "Polygon",
        "coordinates": [
          [
            [
              116.34388,
              40.01527
            ],
            [
              116.34612701,
              40.01527
            ],
            [
              116.34689193,
              40.00976868
            ],
            [
              116.34696,
              40.00915399
            ],
            [
              116.34696,
              40.00898
            ],
            [
              116.34388,
              40.00898
            ],
            [
              116.34388,
              40.01527
            ]
          ]
        ]
      }
    },
    {
      "type": "Feature",
      "id": "GREEN-YARD-02",
      "properties": {
        "id": "GREEN-YARD-02",
        "layer": "GREEN_SPACE",
        "source_type": "agent_generated_design",
        "confidence": "low",
        "geometry_role": "design_proposal",
        "design_status": "conceptual_reference",
        "usage_note": "Conceptual recommendation generated inside a provisional constraint; not a parcel, road redline, ownership, approval, or engineering conclusion.",
        "name_zh": "免登录共学花园",
        "land_use_code": "1401",
        "area_id": "beijing_ai_origin_community",
        "area_sqm_declared": 99319.804
      },
      "geometry": {
        "type": "Polygon",
        "coordinates": [
          [
            [
              116.34288,
              39.9877
            ],
            [
              116.34596,
              39.9877
            ],
            [
              116.34596,
              39.9843
            ],
            [
              116.34288,
              39.9843
            ],
            [
              116.34288,
              39.9877
            ]
          ]
        ]
      }
    },
    {
      "type": "Feature",
      "id": "GREEN-YARD-03",
      "properties": {
        "id": "GREEN-YARD-03",
        "layer": "GREEN_SPACE",
        "source_type": "agent_generated_design",
        "confidence": "low",
        "geometry_role": "design_proposal",
        "design_status": "conceptual_reference",
        "usage_note": "Conceptual recommendation generated inside a provisional constraint; not a parcel, road redline, ownership, approval, or engineering conclusion.",
        "name_zh": "全停市集雨庭",
        "land_use_code": "1401",
        "area_id": "dazhongsi_ai_industry_cluster",
        "area_sqm_declared": 68588.741
      },
      "geometry": {
        "type": "Polygon",
        "coordinates": [
          [
            [
              116.34304,
              39.9464528
            ],
            [
              116.34668,
              39.9464528
            ],
            [
              116.34668,
              39.9444672
            ],
            [
              116.34304,
              39.9444672
            ],
            [
              116.34304,
              39.9464528
            ]
          ]
        ]
      }
    }
  ]
}
