{"type": "FeatureCollection", "features": [{"type": "Feature", "id": "ROAD-001", "properties": {"id": "ROAD-001", "layer": "ROAD_CENTERLINE", "name_zh": "京张遗址公园南北慢行主脊", "source_type": "agent_generated_design", "confidence": "medium", "geometry_role": "design_proposal", "official_boundary": false}, "geometry": {"type": "LineString", "coordinates": [[116.3462, 39.9395], [116.3462, 39.965], [116.3462, 39.993], [116.346, 40.026]]}}, {"type": "Feature", "id": "ROAD-002", "properties": {"id": "ROAD-002", "layer": "ROAD_CENTERLINE", "name_zh": "五道口-清华东路西口东西联络线", "source_type": "agent_generated_design", "confidence": "medium", "geometry_role": "design_proposal", "official_boundary": false}, "geometry": {"type": "LineString", "coordinates": [[116.3407, 39.9905], [116.3462, 39.9905], [116.3537, 39.9905]]}}, {"type": "Feature", "id": "ROAD-003", "properties": {"id": "ROAD-003", "layer": "ROAD_CENTERLINE", "name_zh": "大钟寺站四象限步行联络线", "source_type": "agent_generated_design", "confidence": "medium", "geometry_role": "design_proposal", "official_boundary": false}, "geometry": {"type": "LineString", "coordinates": [[116.3407, 39.949], [116.3462, 39.949], [116.3537, 39.949]]}}, {"type": "Feature", "id": "ROAD-004", "properties": {"id": "ROAD-004", "layer": "ROAD_CENTERLINE", "name_zh": "众智园清河滨水联络线", "source_type": "agent_generated_design", "confidence": "medium", "geometry_role": "design_proposal", "official_boundary": false}, "geometry": {"type": "LineString", "coordinates": [[116.3407, 40.0145], [116.3462, 40.0145], [116.3537, 40.0145]]}}, {"type": "Feature", "id": "ROAD-005", "properties": {"id": "ROAD-005", "layer": "ROAD_CENTERLINE", "name_zh": "众智园街区微循环环路", "source_type": "agent_generated_design", "confidence": "medium", "geometry_role": "design_proposal", "official_boundary": false}, "geometry": {"type": "LineString", "coordinates": [[116.353, 40.0155], [116.3526574578963, 40.017222075445645], [116.35168198051534, 40.01868198051534], [116.35022207544564, 40.0196574578963], [116.3485, 40.02], [116.34677792455436, 40.0196574578963], [116.34531801948467, 40.01868198051534], [116.3443425421037, 40.017222075445645], [116.34400000000001, 40.0155], [116.3443425421037, 40.01377792455436], [116.34531801948467, 40.01231801948467], [116.34677792455436, 40.011342542103705], [116.3485, 40.011], [116.35022207544564, 40.011342542103705], [116.35168198051534, 40.01231801948467], [116.3526574578963, 40.01377792455436], [116.353, 40.0155]]}}, {"type": "Feature", "id": "ROAD-006", "properties": {"id": "ROAD-006", "layer": "ROAD_CENTERLINE", "name_zh": "AI原点社区微循环环路", "source_type": "agent_generated_design", "confidence": "medium", "geometry_role": "design_proposal", "official_boundary": false}, "geometry": {"type": "LineString", "coordinates": [[116.353, 39.9885], [116.3526574578963, 39.990222075445644], [116.35168198051534, 39.99168198051534], [116.35022207544564, 39.9926574578963], [116.3485, 39.993], [116.34677792455436, 39.9926574578963], [116.34531801948467, 39.99168198051534], [116.3443425421037, 39.990222075445644], [116.34400000000001, 39.9885], [116.3443425421037, 39.98677792455436], [116.34531801948467, 39.985318019484666], [116.34677792455436, 39.984342542103704], [116.3485, 39.984], [116.35022207544564, 39.984342542103704], [116.35168198051534, 39.985318019484666], [116.3526574578963, 39.98677792455436], [116.353, 39.9885]]}}, {"type": "Feature", "id": "ROAD-007", "properties": {"id": "ROAD-007", "layer": "ROAD_CENTERLINE", "name_zh": "大钟寺智能街区微循环环路", "source_type": "agent_generated_design", "confidence": "medium", "geometry_role": "design_proposal", "official_boundary": false}, "geometry": {"type": "LineString", "coordinates": [[116.353, 39.9625], [116.3526574578963, 39.96422207544564], [116.35168198051534, 39.965681980515335], [116.35022207544564, 39.9666574578963], [116.3485, 39.967], [116.34677792455436, 39.9666574578963], [116.34531801948467, 39.965681980515335], [116.3443425421037, 39.96422207544564], [116.34400000000001, 39.9625], [116.3443425421037, 39.96077792455436], [116.34531801948467, 39.95931801948466], [116.34677792455436, 39.9583425421037], [116.3485, 39.958], [116.35022207544564, 39.9583425421037], [116.35168198051534, 39.95931801948466], [116.3526574578963, 39.96077792455436], [116.353, 39.9625]]}}]}