{
  "type": "FeatureCollection",
  "name": "green_space",
  "features": [
    {
      "type": "Feature",
      "id": "GREEN-001",
      "properties": {
        "id": "GREEN-001",
        "layer": "GREEN_SPACE",
        "source_type": "agent_generated_design",
        "confidence": "medium",
        "geometry_role": "design_proposal",
        "land_use_code": "1401",
        "name_zh": "京张遗址公园AI活力带与防护绿地",
        "area_sqm_declared": 2631954.846
      },
      "geometry": {
        "type": "MultiPolygon",
        "coordinates": [
          [
            [
              [
                116.343,
                39.94984
              ],
              [
                116.343,
                39.939
              ],
              [
                116.3407,
                39.939
              ],
              [
                116.34039888888888,
                39.94984
              ],
              [
                116.343,
                39.94984
              ]
            ]
          ],
          [
            [
              [
                116.3553,
                39.94984
              ],
              [
                116.3553,
                39.939
              ],
              [
                116.3533,
                39.939
              ],
              [
                116.3533,
                39.94984
              ],
              [
                116.3553,
                39.94984
              ]
            ]
          ],
          [
            [
              [
                116.343,
                39.9565
              ],
              [
                116.343,
                39.963
              ],
              [
                116.343,
                39.9705
              ],
              [
                116.3465,
                39.9705
              ],
              [
                116.3465,
                39.963
              ],
              [
                116.3465,
                39.9565
              ],
              [
                116.343,
                39.9565
              ]
            ]
          ],
          [
            [
              [
                116.343,
                39.972
              ],
              [
                116.343,
                39.9835
              ],
              [
                116.343,
                39.9935
              ],
              [
                116.343,
                40.0035
              ],
              [
                116.3465,
                40.0035
              ],
              [
                116.3465,
                39.9935
              ],
              [
                116.3465,
                39.9835
              ],
              [
                116.3465,
                39.972
              ],
              [
                116.343,
                39.972
              ]
            ]
          ],
          [
            [
              [
                116.3465,
                40.016
              ],
              [
                116.3465,
                40.005
              ],
              [
                116.343,
                40.005
              ],
              [
                116.343,
                40.016
              ],
              [
                116.3465,
                40.016
              ]
            ]
          ],
          [
            [
              [
                116.343,
                40.0175
              ],
              [
                116.343,
                40.021
              ],
              [
                116.343,
                40.0265
              ],
              [
                116.3465,
                40.0265
              ],
              [
                116.3465,
                40.021
              ],
              [
                116.3465,
                40.0175
              ],
              [
                116.343,
                40.0175
              ]
            ]
          ]
        ]
      }
    }
  ]
}
