{
  "type": "FeatureCollection",
  "name": "key_areas_jingzhang_ai_pulse_belt",
  "features": [
    {
      "type": "Feature",
      "id": "PROV-KEY-001",
      "properties": {
        "id": "PROV-KEY-001",
        "layer": "KEY_AREA",
        "source_type": "agent_inferred_from_public_data",
        "confidence": "medium",
        "geometry_role": "provisional_constraint",
        "area_id": "zhongzhiyuan_ai_acceleration_area",
        "scope_id": "zhongzhiyuan_ai_acceleration_area",
        "name_zh": "众智园AI自主创新加速区（临时粗略范围）",
        "role_zh": "AI全栈自主创新体系与AI治理全球话语权",
        "official_boundary": false,
        "boundary_precision": "provisional_rough",
        "source_id": "DATA-SRC-PROVISIONAL-BOUNDARIES-20260605",
        "area_sqm_declared": 1921000,
        "area_sqm_calculated": 1929201.877,
        "usage_note": "临时粗略范围，仅用于设计生成与讨论，不作为法定重点片区边界。"
      },
      "geometry": {
        "type": "Polygon",
        "coordinates": [
          [
            [
              116.343,
              40.0075
            ],
            [
              116.354,
              40.0075
            ],
            [
              116.354,
              40.026
            ],
            [
              116.343,
              40.026
            ],
            [
              116.343,
              40.0075
            ]
          ]
        ]
      }
    },
    {
      "type": "Feature",
      "id": "PROV-KEY-002",
      "properties": {
        "id": "PROV-KEY-002",
        "layer": "KEY_AREA",
        "source_type": "agent_inferred_from_public_data",
        "confidence": "medium",
        "geometry_role": "provisional_constraint",
        "area_id": "beijing_ai_origin_community",
        "scope_id": "beijing_ai_origin_community",
        "name_zh": "北京AI原点社区（临时粗略范围）",
        "role_zh": "世界级AI创新生态",
        "official_boundary": false,
        "boundary_precision": "provisional_rough",
        "source_id": "DATA-SRC-PROVISIONAL-BOUNDARIES-20260605",
        "area_sqm_declared": 1043000,
        "area_sqm_calculated": 1043236.909,
        "usage_note": "临时粗略范围，仅用于设计生成与讨论，不作为法定重点片区边界。"
      },
      "geometry": {
        "type": "Polygon",
        "coordinates": [
          [
            [
              116.342,
              39.9835
            ],
            [
              116.353,
              39.9835
            ],
            [
              116.353,
              39.9935
            ],
            [
              116.342,
              39.9935
            ],
            [
              116.342,
              39.9835
            ]
          ]
        ]
      }
    },
    {
      "type": "Feature",
      "id": "PROV-KEY-003",
      "properties": {
        "id": "PROV-KEY-003",
        "layer": "KEY_AREA",
        "source_type": "agent_inferred_from_public_data",
        "confidence": "medium",
        "geometry_role": "provisional_constraint",
        "area_id": "dazhongsi_ai_industry_cluster",
        "scope_id": "dazhongsi_ai_industry_cluster",
        "name_zh": "大钟寺AI产业集聚区（临时粗略范围）",
        "role_zh": "智能原生新业态",
        "official_boundary": false,
        "boundary_precision": "provisional_rough",
        "source_id": "DATA-SRC-PROVISIONAL-BOUNDARIES-20260605",
        "area_sqm_declared": 720000,
        "area_sqm_calculated": 720454.219,
        "usage_note": "临时粗略范围，仅用于设计生成与讨论，不作为法定重点片区边界。"
      },
      "geometry": {
        "type": "Polygon",
        "coordinates": [
          [
            [
              116.342,
              39.944
            ],
            [
              116.355,
              39.944
            ],
            [
              116.355,
              39.94984
            ],
            [
              116.342,
              39.94984
            ],
            [
              116.342,
              39.944
            ]
          ]
        ]
      }
    }
  ]
}
