{
 "type": "FeatureCollection",
 "name": "jingzhang_switchyard_constraints",
 "features": [
  {
   "type": "Feature",
   "id": "CON-RAIL-001",
   "properties": {
    "id": "CON-RAIL-001",
    "layer": "EXISTING_RAIL",
    "source_type": "agent_inferred_from_public_data",
    "confidence": "medium",
    "geometry_role": "provisional_constraint",
    "official_boundary": false,
    "name_zh": "京张铁路遗址线（概念定位，非官方线位）",
    "source_id": "DATA-SRC-PROVISIONAL-BOUNDARIES-20260605"
   },
   "geometry": {
    "type": "LineString",
    "coordinates": [
     [
      116.3485,
      39.939
     ],
     [
      116.3485,
      40.0265
     ]
    ]
   }
  },
  {
   "type": "Feature",
   "id": "CON-WATER-001",
   "properties": {
    "id": "CON-WATER-001",
    "layer": "EXISTING_WATER",
    "source_type": "agent_inferred_from_public_data",
    "confidence": "medium",
    "geometry_role": "provisional_constraint",
    "official_boundary": false,
    "name_zh": "清河（概念定位）"
   },
   "geometry": {
    "type": "LineString",
    "coordinates": [
     [
      116.3397,
      40.0205
     ],
     [
      116.3553,
      40.0225
     ]
    ]
   }
  },
  {
   "type": "Feature",
   "id": "CON-WATER-002",
   "properties": {
    "id": "CON-WATER-002",
    "layer": "EXISTING_WATER",
    "source_type": "agent_inferred_from_public_data",
    "confidence": "medium",
    "geometry_role": "provisional_constraint",
    "official_boundary": false,
    "name_zh": "小月河（概念定位）"
   },
   "geometry": {
    "type": "LineString",
    "coordinates": [
     [
      116.3397,
      39.94
     ],
     [
      116.3407,
      40.006
     ]
    ]
   }
  },
  {
   "type": "Feature",
   "id": "CON-HERITAGE-001",
   "properties": {
    "id": "CON-HERITAGE-001",
    "layer": "HERITAGE_PROTECTION",
    "source_type": "agent_inferred_from_public_data",
    "confidence": "medium",
    "geometry_role": "provisional_constraint",
    "official_boundary": false,
    "name_zh": "清华园车站旧址文保概念范围（待官方核实）",
    "area_sqm_declared": 85360.032
   },
   "geometry": {
    "type": "Polygon",
    "coordinates": [
     [
      [
       116.347,
       39.9835
      ],
      [
       116.35,
       39.9835
      ],
      [
       116.35,
       39.9865
      ],
      [
       116.347,
       39.9865
      ],
      [
       116.347,
       39.9835
      ]
     ]
    ]
   }
  },
  {
   "type": "Feature",
   "id": "CON-ROAD-001",
   "properties": {
    "id": "CON-ROAD-001",
    "layer": "EXISTING_PRIMARY_ROAD",
    "source_type": "agent_inferred_from_public_data",
    "confidence": "medium",
    "geometry_role": "provisional_constraint",
    "official_boundary": false,
    "name_zh": "北五环路（概念定位）"
   },
   "geometry": {
    "type": "LineString",
    "coordinates": [
     [
      116.3397,
      40.0255
     ],
     [
      116.3553,
      40.0255
     ]
    ]
   }
  },
  {
   "type": "Feature",
   "id": "CON-ROAD-002",
   "properties": {
    "id": "CON-ROAD-002",
    "layer": "EXISTING_PRIMARY_ROAD",
    "source_type": "agent_inferred_from_public_data",
    "confidence": "medium",
    "geometry_role": "provisional_constraint",
    "official_boundary": false,
    "name_zh": "京藏高速（概念定位）"
   },
   "geometry": {
    "type": "LineString",
    "coordinates": [
     [
      116.3548,
      39.939
     ],
     [
      116.3548,
      40.0265
     ]
    ]
   }
  },
  {
   "type": "Feature",
   "id": "CON-CTRL-011",
   "properties": {
    "id": "CON-CTRL-011",
    "layer": "REGULATORY_CONTROL",
    "source_type": "agent_generated_design",
    "confidence": "medium",
    "geometry_role": "provisional_constraint",
    "official_boundary": false,
    "name_zh": "留白用地（概念预留）",
    "area_sqm_declared": 477778.519
   },
   "geometry": {
    "type": "Polygon",
    "coordinates": [
     [
      [
       116.3417,
       40.006
      ],
      [
       116.34218780487805,
       40.016
      ],
      [
       116.3465,
       40.016
      ],
      [
       116.3465,
       40.005
      ],
      [
       116.34163548387097,
       40.005
      ],
      [
       116.3417,
       40.006
      ]
     ]
    ]
   }
  }
 ]
}