{
  "type": "FeatureCollection",
  "name": "phasing",
  "features": [
    {
      "type": "Feature",
      "id": "PHASE-001",
      "properties": {
        "id": "PHASE-001",
        "layer": "PHASE",
        "source_type": "agent_generated_design",
        "confidence": "medium",
        "geometry_role": "design_proposal",
        "phase_name_zh": "一期：AI原点社区先行",
        "phase_period": "2026-2030",
        "phase_description": "以AI原点社区为起步区，靠近高校，快速见效"
      },
      "geometry": {
        "type": "Polygon",
        "coordinates": [
          [
            [116.342, 39.9835],
            [116.353, 39.9835],
            [116.353, 39.9935],
            [116.342, 39.9935],
            [116.342, 39.9835]
          ]
        ]
      }
    },
    {
      "type": "Feature",
      "id": "PHASE-002",
      "properties": {
        "id": "PHASE-002",
        "layer": "PHASE",
        "source_type": "agent_generated_design",
        "confidence": "medium",
        "geometry_role": "design_proposal",
        "phase_name_zh": "二期：众智园扩展",
        "phase_period": "2030-2035",
        "phase_description": "向北扩展至众智园AI自主创新加速区"
      },
      "geometry": {
        "type": "Polygon",
        "coordinates": [
          [
            [116.343, 40.0075],
            [116.354, 40.0075],
            [116.354, 40.026],
            [116.343, 40.026],
            [116.343, 40.0075]
          ]
        ]
      }
    },
    {
      "type": "Feature",
      "id": "PHASE-003",
      "properties": {
        "id": "PHASE-003",
        "layer": "PHASE",
        "source_type": "agent_generated_design",
        "confidence": "medium",
        "geometry_role": "design_proposal",
        "phase_name_zh": "三期：大钟寺完成与全面整合",
        "phase_period": "2035-2040",
        "phase_description": "向南完成大钟寺AI产业聚集区，实现三片区全面整合"
      },
      "geometry": {
        "type": "Polygon",
        "coordinates": [
          [
            [116.342, 39.944],
            [116.355, 39.944],
            [116.355, 39.94984],
            [116.342, 39.94984],
            [116.342, 39.944]
          ]
        ]
      }
    }
  ]
}
