{
  "type": "FeatureCollection",
  "name": "civic_etiquette_bluegreen_concept",
  "crs": {
    "type": "name",
    "properties": {
      "name": "urn:ogc:def:crs:OGC:1.3:CRS84"
    }
  },
  "design_status": "conceptual",
  "precision_note": "Generated inside organizer-provided provisional geometry. Conceptual only; replace and regenerate after official polygons, control plan, roads, parcels, buildings, heritage and utilities are supplied.",
  "features": [
    {
      "type": "Feature",
      "id": "GREEN-001",
      "properties": {
        "id": "GREEN-001",
        "layer": "GREEN_SPACE",
        "source_type": "agent_generated_design",
        "confidence": "medium",
        "geometry_role": "design_proposal",
        "status": "conceptual_pending_official_geometry_and_professional_confirmation",
        "land_use_code": "1401",
        "name_zh": "有礼公共脊蓝绿建议空间",
        "name_en": "Civic-spine blue-green proposal",
        "implementation": "existing_inventory_first_then_reversible_additions"
      },
      "geometry": {
        "type": "Polygon",
        "coordinates": [
          [
            [
              116.3487124778769,
              39.97177495005832
            ],
            [
              116.34864720101419,
              39.971666723072325
            ],
            [
              116.34856845111896,
              39.97156393996255
            ],
            [
              116.34854188912983,
              39.97153595939091
            ],
            [
              116.34870042602233,
              39.96889877592893
            ],
            [
              116.34891632819239,
              39.96195280229997
            ],
            [
              116.34886528519864,
              39.95500406223379
            ],
            [
              116.34871144496958,
              39.95135820961074
            ],
            [
              116.34883633785475,
              39.95128800313953
            ],
            [
              116.34895196198427,
              39.951208524654845
            ],
            [
              116.34905690696986,
              39.951120706479486
            ],
            [
              116.34915016213975,
              39.95102539438046
            ],
            [
              116.34923082941668,
              39.95092350629441
            ],
            [
              116.34929813196611,
              39.950816023486276
            ],
            [
              116.3493514216763,
              39.950703981098144
            ],
            [
              116.34939018539794,
              39.95058845817931
            ],
            [
              116.3494140498839,
              39.95047056729376
            ],
            [
              116.34942278538111,
              39.9503514438049
            ],
            [
              116.34941630784026,
              39.95023223494101
            ],
            [
              116.34939467972238,
              39.95011408874678
            ],
            [
              116.3493581093942,
              39.949998143026946
            ],
            [
              116.3493069491185,
              39.94988551438899
            ],
            [
              116.34924169165893,
              39.94977728749003
            ],
            [
              116.34916296553214,
              39.94967450459177
            ],
            [
              116.3490715289527,
              39.949578155523724
            ],
            [
              116.34896826252965,
              39.94948916815169
            ],
            [
              116.34885416078481,
              39.949408399442966
            ],
            [
              116.34873032257455,
              39.94933662721438
            ],
            [
              116.34862404539966,
              39.949286785341684
            ],
            [
              116.3485722041398,
              39.94805806525669
            ],
            [
              116.3481451986176,
              39.94111878922517
            ],
            [
              116.34669602776279,
              39.941171611270214
            ],
            [
              116.34712237686449,
              39.94810259835241
            ],
            [
              116.34717051313397,
              39.949244076797754
            ],
            [
              116.34710866716756,
              39.949266165076445
            ],
            [
              116.34697512019244,
              39.94932675371268
            ],
            [
              116.34684993217503,
              39.94939712508291
            ],
            [
              116.34673430871962,
              39.94947660150078
            ],
            [
              116.34662936333356,
              39.94956441759468
            ],
            [
              116.34653610670402,
              39.94965972767765
            ],
            [
              116.34645543696439,
              39.94976161389045
            ],
            [
              116.34638813104377,
              39.94986909504018
            ],
            [
              116.34633483718353,
              39.94998113604846
            ],
            [
              116.34629606869242,
              39.95009665791902
            ],
            [
              116.34627219900088,
              39.95021454812818
            ],
            [
              116.34626345806205,
              39.95033367133854
            ],
            [
              116.34626993013428,
              39.95045288033244
            ],
            [
              116.34629155296673,
              39.95057102706029
            ],
            [
              116.34632811839586,
              39.95068697369679
            ],
            [
              116.34637927434709,
              39.950799603599265
            ],
            [
              116.34644452822293,
              39.950907832061986
            ],
            [
              116.3465232516445,
              39.95101061676315
            ],
            [
              116.34661468650118,
              39.95110696780395
            ],
            [
              116.34671795225015,
              39.9511959572428
            ],
            [
              116.34683205439545,
              39.95127672803299
            ],
            [
              116.34695589406533,
              39.951348502277646
            ],
            [
              116.34708827859507,
              39.95141058872259
            ],
            [
              116.34722793301377,
              39.951462389414374
            ],
            [
              116.34726449794906,
              39.95147269137431
            ],
            [
              116.34741433026059,
              39.955025336727225
            ],
            [
              116.34746499578652,
              39.961942597263175
            ],
            [
              116.34724984755032,
              39.96885961172959
            ],
            [
              116.3471198854466,
              39.97102072434306
            ],
            [
              116.34710480612272,
              39.97102120920921
            ],
            [
              116.34695125036812,
              39.971037851472936
            ],
            [
              116.34680055403838,
              39.97106599375683
            ],
            [
              116.34665416835097,
              39.97110536504853
            ],
            [
              116.34651350301775,
              39.9711555861992
            ],
            [
              116.34637991267105,
              39.97121617357424
            ],
            [
              116.34625468381998,
              39.97128654371008
            ],
            [
              116.34613902246198,
              39.97136601893229
            ],
            [
              116.34603404246947,
              39.97145383388077
            ],
            [
              116.34594075486292,
              39.97154914287959
            ],
            [
              116.34586005807395,
              39.971651028080046
            ],
            [
              116.34579272929236,
              39.97175850829895
            ],
            [
              116.34573941697958,
              39.97187054846691
            ],
            [
              116.34570063462225,
              39.9719860695958
            ],
            [
              116.34567675578434,
              39.97210395916906
            ],
            [
              116.34566801050718,
              39.97222308185544
            ],
            [
              116.34567448309105,
              39.97234229044235
            ],
            [
              116.34569611128022,
              39.972460436884056
            ],
            [
              116.34573268685959,
              39.97257638335806
            ],
            [
              116.34578385765698,
              39.97268901322322
            ],
            [
              116.345849130932,
              39.97279724177417
            ],
            [
              116.34592787811896,
              39.97290002668823
            ],
            [
              116.34601934087841,
              39.97299637806452
            ],
            [
              116.34612263839885,
              39.9730853679582
            ],
            [
              116.34623677587837,
              39.97316613931816
            ],
            [
              116.34636065410494,
              39.97323791424204
            ],
            [
              116.3464930800424,
              39.97330000146903
            ],
            [
              116.34663277832118,
              39.97335180303822
            ],
            [
              116.34677840352182,
              39.97339282004825
            ],
            [
              116.34692855313423,
              39.97342265746302
            ],
            [
              116.34697509484576,
              39.97342823735817
            ],
            [
              116.34683354788007,
              39.975781633727024
            ],
            [
              116.34634840464773,
              39.982712206449406
            ],
            [
              116.34595087590267,
              39.989652059633265
            ],
            [
              116.34584961896053,
              39.99353277286043
            ],
            [
              116.34584103197496,
              39.99354361091068
            ],
            [
              116.34577368120293,
              39.993651090540574
            ],
            [
              116.34572035135301,
              39.99376313014069
            ],
            [
              116.34568155608073,
              39.993878650728355
            ],
            [
              116.3456576690746,
              39.993996539792285
            ],
            [
              116.34564892045466,
              39.994115662006074
            ],
            [
              116.34565539455342,
              39.99423487016174
            ],
            [
              116.34567702910067,
              39.994353016217694
            ],
            [
              116.3457136158202,
              39.99446896235513
            ],
            [
              116.34576480243261,
              39.99458159193615
            ],
            [
              116.34581986845076,
              39.99467286739361
            ],
            [
              116.34576960735099,
              39.99659885652226
            ],
            [
              116.3458619061364,
              40.003547887532314
            ],
            [
              116.34619347134067,
              40.01049362011843
            ],
            [
              116.34664853806099,
              40.01743153856057
            ],
            [
              116.3470673049442,
              40.024365425146875
            ],
            [
              116.34851829646719,
              40.02431361675136
            ],
            [
              116.34809924826378,
              40.017377505759264
            ],
            [
              116.34803028297343,
              40.01632648640541
            ],
            [
              116.34809225979456,
              40.01633879415294
            ],
            [
              116.34824558384959,
              40.016357163704875
            ],
            [
              116.34840051138596,
              40.016363889444506
            ],
            [
              116.34855555028822,
              40.01635890659533
            ],
            [
              116.34870920736796,
              40.01634226314674
            ],
            [
              116.34886000274714,
              40.01631411939199
            ],
            [
              116.34900648411308,
              40.01627474638403
            ],
            [
              116.34914724070764,
              40.016224523324716
            ],
            [
              116.3492809169161,
              40.016163933912125
            ],
            [
              116.34940622532444,
              40.01609356168146
            ],
            [
              116.34952195911931,
              40.01601408438424
            ],
            [
              116.34962700371126,
              40.01592626746013
            ],
            [
              116.34972034746924,
              40.01583095666413
            ],
            [
              116.34980109146292,
              40.01572906992043
            ],
            [
              116.34986845811908,
              40.015621588481096
            ],
            [
              116.34992179870873,
              40.01550954747507
            ],
            [
              116.34996059959276,
              40.0153940259384
            ],
            [
              116.34998448716638,
              40.015276136421754
            ],
            [
              116.34999323145439,
              40.01515701427541
            ],
            [
              116.34998674832316,
              40.01503780671476
            ],
            [
              116.34996510028773,
              40.01491966177186
            ],
            [
              116.34992849590688,
              40.014803717239445
            ],
            [
              116.3498772877716,
              40.01469108971348
            ],
            [
              116.3498119691067,
              40.01458286384033
            ],
            [
              116.34973316901834,
              40.014480081871795
            ],
            [
              116.34964164643355,
              40.01438373362835
            ],
            [
              116.34953828278978,
              40.01429474696782
            ],
            [
              116.34942407354507,
              40.01421397885054
            ],
            [
              116.34930011859112,
              40.01414220708759
            ],
            [
              116.34916761166082,
              40.01408012285119
            ],
            [
              116.34902782883273,
              40.014028324019435
            ],
            [
              116.34888211624325,
              40.013987309419484
            ],
            [
              116.34873187712427,
              40.01395747402443
            ],
            [
              116.34857855829179,
              40.01393910515031
            ],
            [
              116.34842363621472,
              40.01393237968966
            ],
            [
              116.34826860279878,
              40.01393736240834
            ],
            [
              116.34811495102153,
              40.013954005321914
            ],
            [
              116.3479641605572,
              40.01398214815773
            ],
            [
              116.34787798007356,
              40.01400531274397
            ],
            [
              116.34764438974699,
              40.010445001202
            ],
            [
              116.34731374807298,
              40.00352168799808
            ],
            [
              116.3472217237062,
              39.99660435031112
            ],
            [
              116.34725471416665,
              39.9953391548087
            ],
            [
              116.34737300802882,
              39.99533535263993
            ],
            [
              116.34752661817579,
              39.995318710323374
            ],
            [
              116.34767736765102,
              39.995290567638655
            ],
            [
              116.34782380458398,
              39.9952511956284
            ],
            [
              116.3479645186445,
              39.99520097348486
            ],
            [
              116.34809815462758,
              39.99514038489727
            ],
            [
              116.34822342550655,
              39.995070013392855
            ],
            [
              116.34833912482958,
              39.994990536716124
            ],
            [
              116.34844413833916,
              39.99490272030076
            ],
            [
              116.34853745470357,
              39.994807409896794
            ],
            [
              116.34861817525635,
              39.99470552342467
            ],
            [
              116.3486855226499,
              39.994598042133795
            ],
            [
              116.34873884834072,
              39.99448600115168
            ],
            [
              116.3487776388331,
              39.99437047951412
            ],
            [
              116.34880152062227,
              39.994252589772735
            ],
            [
              116.34881026378868,
              39.99413346727999
            ],
            [
              116.34880378420934,
              39.99401425925456
            ],
            [
              116.34878214436507,
              39.99389611373305
            ],
            [
              116.3487455527357,
              39.993780168513716
            ],
            [
              116.34869436178931,
              39.99366754019919
            ],
            [
              116.3486290645851,
              39.99355931344344
            ],
            [
              116.3485502900225,
              39.99345653050676
            ],
            [
              116.34845879678271,
              39.99336018121902
            ],
            [
              116.3483554660205,
              39.99327119344806
            ],
            [
              116.34824129287726,
              39.993190424164965
            ],
            [
              116.34811737689702,
              39.99311865119206
            ],
            [
              116.3479849114374,
              39.993056565713246
            ],
            [
              116.34784517217756,
              39.993004765618615
            ],
            [
              116.34769950483438,
              39.99296374974747
            ],
            [
              116.34754931220408,
              39.992933913085174
            ],
            [
              116.347396040655,
              39.99291554295998
            ],
            [
              116.34731799485236,
              39.9929121532119
            ],
            [
              116.34740205555329,
              39.98968783993916
            ],
            [
              116.34779836006605,
              39.98276680394222
            ],
            [
              116.34828327088027,
              39.97583745992845
            ],
            [
              116.34845278087694,
              39.973018131818385
            ],
            [
              116.34846233995322,
              39.97301013549172
            ],
            [
              116.34855562609866,
              39.972914824475225
            ],
            [
              116.34863632042224,
              39.972812937400064
            ],
            [
              116.3487036458291,
              39.97270545552144
            ],
            [
              116.34875695398733,
              39.97259341397252
            ],
            [
              116.34879573157005,
              39.97247789179453
            ],
            [
              116.34881960519671,
              39.97236000154431
            ],
            [
              116.34882834502625,
              39.97224087857917
            ],
            [
              116.3488218669678,
              39.97212167012236
            ],
            [
              116.34880023348742,
              39.97200352421466
            ],
            [
              116.34876365300359,
              39.971887578658006
            ],
            [
              116.3487124778769,
              39.97177495005832
            ]
          ]
        ]
      }
    }
  ]
}
