{
  "type": "FeatureCollection",
  "name": "building_footprints_epoch_rail_v2",
  "features": [
    {
      "type": "Feature",
      "id": "BLDG-001",
      "properties": {
        "id": "BLDG-001",
        "layer": "BUILDING_FOOTPRINT",
        "source_type": "agent_generated_design",
        "confidence": "medium",
        "geometry_role": "design_proposal",
        "building_type": "ai_r_and_d",
        "name_zh": "科研用地（众智园加速区）建筑",
        "area_sqm_declared": 121700.27
      },
      "geometry": {
        "type": "Polygon",
        "coordinates": [
          [
            [
              116.34233909216012,
              40.01542263692533
            ],
            [
              116.34326618765503,
              40.01542263692533
            ],
            [
              116.34326618765503,
              40.00157736307467
            ],
            [
              116.34233909216012,
              40.00157736307467
            ],
            [
              116.34233909216012,
              40.01542263692533
            ]
          ]
        ]
      }
    },
    {
      "type": "Feature",
      "id": "BLDG-002",
      "properties": {
        "id": "BLDG-002",
        "layer": "BUILDING_FOOTPRINT",
        "source_type": "agent_generated_design",
        "confidence": "medium",
        "geometry_role": "design_proposal",
        "building_type": "lab",
        "name_zh": "科研用地（众智园加速区）建筑",
        "area_sqm_declared": 115515.038
      },
      "geometry": {
        "type": "Polygon",
        "coordinates": [
          [
            [
              116.3440830396472,
              40.01542263692533
            ],
            [
              116.34501013514212,
              40.01542263692533
            ],
            [
              116.34501013514212,
              40.0075
            ],
            [
              116.3449,
              40.0075
            ],
            [
              116.3449,
              40.00157736307467
            ],
            [
              116.3440830396472,
              40.00157736307467
            ],
            [
              116.3440830396472,
              40.01542263692533
            ]
          ]
        ]
      }
    },
    {
      "type": "Feature",
      "id": "BLDG-003",
      "properties": {
        "id": "BLDG-003",
        "layer": "BUILDING_FOOTPRINT",
        "source_type": "agent_generated_design",
        "confidence": "medium",
        "geometry_role": "design_proposal",
        "building_type": "incubator",
        "name_zh": "科研用地（众智园加速区）建筑",
        "area_sqm_declared": 55430.707
      },
      "geometry": {
        "type": "Polygon",
        "coordinates": [
          [
            [
              116.34675408262918,
              40.01542263692533
            ],
            [
              116.34675408262918,
              40.01338672501821
            ],
            [
              116.34672063614111,
              40.013
            ],
            [
              116.34625502079201,
              40.0076163225261
            ],
            [
              116.34625140840517,
              40.007561649901476
            ],
            [
              116.34624859012395,
              40.0075
            ],
            [
              116.34582698713426,
              40.0075
            ],
            [
              116.34582698713426,
              40.01542263692533
            ],
            [
              116.34675408262918,
              40.01542263692533
            ]
          ]
        ]
      }
    },
    {
      "type": "Feature",
      "id": "BLDG-004",
      "properties": {
        "id": "BLDG-004",
        "layer": "BUILDING_FOOTPRINT",
        "source_type": "agent_generated_design",
        "confidence": "medium",
        "geometry_role": "design_proposal",
        "building_type": "cultural",
        "name_zh": "文化用地（AI展示与标准治理）建筑",
        "area_sqm_declared": 51263.341
      },
      "geometry": {
        "type": "Polygon",
        "coordinates": [
          [
            [
              116.35123473713699,
              40.01006368042623
            ],
            [
              116.35040486094428,
              40.01006368042623
            ],
            [
              116.35040486094428,
              40.016000000000005
            ],
            [
              116.35090000000001,
              40.016000000000005
            ],
            [
              116.35090000000001,
              40.017436319573775
            ],
            [
              116.35123473713699,
              40.017436319573775
            ],
            [
              116.35123473713699,
              40.01006368042623
            ]
          ]
        ]
      }
    },
    {
      "type": "Feature",
      "id": "BLDG-005",
      "properties": {
        "id": "BLDG-005",
        "layer": "BUILDING_FOOTPRINT",
        "source_type": "agent_generated_design",
        "confidence": "medium",
        "geometry_role": "design_proposal",
        "building_type": "cultural",
        "name_zh": "文化用地（AI展示与标准治理）建筑",
        "area_sqm_declared": 58005.336
      },
      "geometry": {
        "type": "Polygon",
        "coordinates": [
          [
            [
              116.35199109789771,
              40.017436319573775
            ],
            [
              116.35282097409039,
              40.017436319573775
            ],
            [
              116.35282097409039,
              40.01006368042623
            ],
            [
              116.35199109789771,
              40.01006368042623
            ],
            [
              116.35199109789771,
              40.017436319573775
            ]
          ]
        ]
      }
    },
    {
      "type": "Feature",
      "id": "BLDG-006",
      "properties": {
        "id": "BLDG-006",
        "layer": "BUILDING_FOOTPRINT",
        "source_type": "agent_generated_design",
        "confidence": "medium",
        "geometry_role": "design_proposal",
        "building_type": "cultural",
        "name_zh": "文化用地（AI展示与标准治理）建筑",
        "area_sqm_declared": 58000.006
      },
      "geometry": {
        "type": "Polygon",
        "coordinates": [
          [
            [
              116.3535773348511,
              40.017436319573775
            ],
            [
              116.3544072110438,
              40.017436319573775
            ],
            [
              116.3544072110438,
              40.01020660154945
            ],
            [
              116.35439937974938,
              40.01006368042623
            ],
            [
              116.3535773348511,
              40.01006368042623
            ],
            [
              116.3535773348511,
              40.017436319573775
            ]
          ]
        ]
      }
    },
    {
      "type": "Feature",
      "id": "BLDG-007",
      "properties": {
        "id": "BLDG-007",
        "layer": "BUILDING_FOOTPRINT",
        "source_type": "agent_generated_design",
        "confidence": "medium",
        "geometry_role": "design_proposal",
        "building_type": "cultural",
        "name_zh": "文化用地（AI展示与标准治理）建筑",
        "area_sqm_declared": 105550.622
      },
      "geometry": {
        "type": "Polygon",
        "coordinates": [
          [
            [
              116.34999777185506,
              40.00006289534804
            ],
            [
              116.34901263528859,
              40.00006289534804
            ],
            [
              116.34901263528859,
              40.0081659509058
            ],
            [
              116.34934530275213,
              40.01201241845291
            ],
            [
              116.34999777185506,
              40.01201241845291
            ],
            [
              116.34999777185506,
              40.00006289534804
            ]
          ]
        ]
      }
    },
    {
      "type": "Feature",
      "id": "BLDG-008",
      "properties": {
        "id": "BLDG-008",
        "layer": "BUILDING_FOOTPRINT",
        "source_type": "agent_generated_design",
        "confidence": "medium",
        "geometry_role": "design_proposal",
        "building_type": "cultural",
        "name_zh": "文化用地（AI展示与标准治理）建筑",
        "area_sqm_declared": 55650.255
      },
      "geometry": {
        "type": "Polygon",
        "coordinates": [
          [
            [
              116.35182713752194,
              40.00179953958933
            ],
            [
              116.35174863826323,
              40.00179834952996
            ],
            [
              116.35167063364612,
              40.0017894709282
            ],
            [
              116.35159387489772,
              40.00177298928984
            ],
            [
              116.35151910124672,
              40.001749063342054
            ],
            [
              116.35144703280429,
              40.001717923504806
            ],
            [
              116.3513783636289,
              40.00167986967175
            ],
            [
              116.35131375504224,
              40.0016352683221
            ],
            [
              116.35125382926034,
              40.001584548991225
            ],
            [
              116.35119916340123,
              40.00152820013403
            ],
            [
              116.35115028392703,
              40.0014667644208
            ],
            [
              116.35110766157376,
              40.001400833511035
            ],
            [
              116.35107170681803,
              40.00133104235544
            ],
            [
              116.35085073782678,
              40.00084491057467
            ],
            [
              116.35085073782678,
              40.0075
            ],
            [
              116.35183587439325,
              40.0075
            ],
            [
              116.35183587439325,
              40.00179881262023
            ],
            [
              116.35182713752194,
              40.00179953958933
            ]
          ]
        ]
      }
    },
    {
      "type": "Feature",
      "id": "BLDG-009",
      "properties": {
        "id": "BLDG-009",
        "layer": "BUILDING_FOOTPRINT",
        "source_type": "agent_generated_design",
        "confidence": "medium",
        "geometry_role": "design_proposal",
        "building_type": "cultural",
        "name_zh": "文化用地（AI展示与标准治理）建筑",
        "area_sqm_declared": 69469.528
      },
      "geometry": {
        "type": "Polygon",
        "coordinates": [
          [
            [
              116.35268884036496,
              40.00006289534804
            ],
            [
              116.35268884036496,
              40.0075
            ],
            [
              116.3527,
              40.0075
            ],
            [
              116.35367397693143,
              40.0075
            ],
            [
              116.35367397693143,
              40.00006289534804
            ],
            [
              116.35268884036496,
              40.00006289534804
            ]
          ]
        ]
      }
    },
    {
      "type": "Feature",
      "id": "BLDG-010",
      "properties": {
        "id": "BLDG-010",
        "layer": "BUILDING_FOOTPRINT",
        "source_type": "agent_generated_design",
        "confidence": "medium",
        "geometry_role": "design_proposal",
        "building_type": "education",
        "name_zh": "教育用地（高校创新策源）建筑",
        "area_sqm_declared": 53957.213
      },
      "geometry": {
        "type": "Polygon",
        "coordinates": [
          [
            [
              116.34150406676295,
              39.98625545972608
            ],
            [
              116.34075989384834,
              39.98625545972608
            ],
            [
              116.34075989384834,
              39.991428354649315
            ],
            [
              116.3408935483871,
              39.9935
            ],
            [
              116.34093375966057,
              39.99412327473884
            ],
            [
              116.34094158324348,
              39.994244540273925
            ],
            [
              116.34150406676295,
              39.994244540273925
            ],
            [
              116.34150406676295,
              39.98625545972608
            ]
          ]
        ]
      }
    },
    {
      "type": "Feature",
      "id": "BLDG-011",
      "properties": {
        "id": "BLDG-011",
        "layer": "BUILDING_FOOTPRINT",
        "source_type": "agent_generated_design",
        "confidence": "medium",
        "geometry_role": "design_proposal",
        "building_type": "education",
        "name_zh": "教育用地（高校创新策源）建筑",
        "area_sqm_declared": 56383.297
      },
      "geometry": {
        "type": "Polygon",
        "coordinates": [
          [
            [
              116.34220710172607,
              39.994244540273925
            ],
            [
              116.34295127464068,
              39.994244540273925
            ],
            [
              116.34295127464068,
              39.98625545972608
            ],
            [
              116.34220710172607,
              39.98625545972608
            ],
            [
              116.34220710172607,
              39.994244540273925
            ]
          ]
        ]
      }
    },
    {
      "type": "Feature",
      "id": "BLDG-012",
      "properties": {
        "id": "BLDG-012",
        "layer": "BUILDING_FOOTPRINT",
        "source_type": "agent_generated_design",
        "confidence": "medium",
        "geometry_role": "design_proposal",
        "building_type": "education",
        "name_zh": "教育用地（高校创新策源）建筑",
        "area_sqm_declared": 56383.278
      },
      "geometry": {
        "type": "Polygon",
        "coordinates": [
          [
            [
              116.3436543096038,
              39.994244540273925
            ],
            [
              116.34439848251841,
              39.994244540273925
            ],
            [
              116.34439848251841,
              39.98625545972608
            ],
            [
              116.3436543096038,
              39.98625545972608
            ],
            [
              116.3436543096038,
              39.994244540273925
            ]
          ]
        ]
      }
    },
    {
      "type": "Feature",
      "id": "BLDG-013",
      "properties": {
        "id": "BLDG-013",
        "layer": "BUILDING_FOOTPRINT",
        "source_type": "agent_generated_design",
        "confidence": "medium",
        "geometry_role": "design_proposal",
        "building_type": "mixed_use",
        "name_zh": "商业服务业用地（科技服务）建筑",
        "area_sqm_declared": 53362.692
      },
      "geometry": {
        "type": "Polygon",
        "coordinates": [
          [
            [
              116.34051849894152,
              39.97922553127213
            ],
            [
              116.34051849894152,
              39.9835
            ],
            [
              116.34183469328755,
              39.9835
            ],
            [
              116.34183469328755,
              39.97922553127213
            ],
            [
              116.34051849894152,
              39.97922553127213
            ]
          ]
        ]
      }
    },
    {
      "type": "Feature",
      "id": "BLDG-014",
      "properties": {
        "id": "BLDG-014",
        "layer": "BUILDING_FOOTPRINT",
        "source_type": "agent_generated_design",
        "confidence": "medium",
        "geometry_role": "design_proposal",
        "building_type": "retail",
        "name_zh": "商业服务业用地（科技服务）建筑",
        "area_sqm_declared": 54974.627
      },
      "geometry": {
        "type": "Polygon",
        "coordinates": [
          [
            [
              116.34289364811447,
              39.97922553127213
            ],
            [
              116.34289364811447,
              39.9835
            ],
            [
              116.3438800380961,
              39.9835
            ],
            [
              116.3442098424605,
              39.984530638638745
            ],
            [
              116.3442098424605,
              39.97922553127213
            ],
            [
              116.34289364811447,
              39.97922553127213
            ]
          ]
        ]
      }
    },
    {
      "type": "Feature",
      "id": "BLDG-015",
      "properties": {
        "id": "BLDG-015",
        "layer": "BUILDING_FOOTPRINT",
        "source_type": "agent_generated_design",
        "confidence": "medium",
        "geometry_role": "design_proposal",
        "building_type": "office",
        "name_zh": "商业服务业用地（科技服务）建筑",
        "area_sqm_declared": 34585.916
      },
      "geometry": {
        "type": "Polygon",
        "coordinates": [
          [
            [
              116.34526879728742,
              39.986474724482115
            ],
            [
              116.34651187373817,
              39.986474724482115
            ],
            [
              116.34555411933928,
              39.983481741985614
            ],
            [
              116.3456222187107,
              39.97922553127213
            ],
            [
              116.34526879728742,
              39.97922553127213
            ],
            [
              116.34526879728742,
              39.986474724482115
            ]
          ]
        ]
      }
    },
    {
      "type": "Feature",
      "id": "BLDG-016",
      "properties": {
        "id": "BLDG-016",
        "layer": "BUILDING_FOOTPRINT",
        "source_type": "agent_generated_design",
        "confidence": "medium",
        "geometry_role": "design_proposal",
        "building_type": "residential",
        "name_zh": "居住用地（人才社区）建筑",
        "area_sqm_declared": 22896.748
      },
      "geometry": {
        "type": "Polygon",
        "coordinates": [
          [
            [
              116.3505333395453,
              39.9952993264231
            ],
            [
              116.35105836627189,
              39.9952993264231
            ],
            [
              116.35105836627189,
              39.99070067357689
            ],
            [
              116.3505333395453,
              39.99070067357689
            ],
            [
              116.3505333395453,
              39.9952993264231
            ]
          ]
        ]
      }
    },
    {
      "type": "Feature",
      "id": "BLDG-017",
      "properties": {
        "id": "BLDG-017",
        "layer": "BUILDING_FOOTPRINT",
        "source_type": "agent_generated_design",
        "confidence": "medium",
        "geometry_role": "design_proposal",
        "building_type": "talent_apartment",
        "name_zh": "居住用地（人才社区）建筑",
        "area_sqm_declared": 22896.742
      },
      "geometry": {
        "type": "Polygon",
        "coordinates": [
          [
            [
              116.35162504536248,
              39.9952993264231
            ],
            [
              116.35215007208907,
              39.9952993264231
            ],
            [
              116.35215007208907,
              39.99070067357689
            ],
            [
              116.35162504536248,
              39.99070067357689
            ],
            [
              116.35162504536248,
              39.9952993264231
            ]
          ]
        ]
      }
    },
    {
      "type": "Feature",
      "id": "BLDG-018",
      "properties": {
        "id": "BLDG-018",
        "layer": "BUILDING_FOOTPRINT",
        "source_type": "agent_generated_design",
        "confidence": "medium",
        "geometry_role": "design_proposal",
        "building_type": "residential",
        "name_zh": "居住用地（人才社区）建筑",
        "area_sqm_declared": 22896.736
      },
      "geometry": {
        "type": "Polygon",
        "coordinates": [
          [
            [
              116.35271675117967,
              39.9952993264231
            ],
            [
              116.35324177790626,
              39.9952993264231
            ],
            [
              116.35324177790626,
              39.99070067357689
            ],
            [
              116.35271675117967,
              39.99070067357689
            ],
            [
              116.35271675117967,
              39.9952993264231
            ]
          ]
        ]
      }
    },
    {
      "type": "Feature",
      "id": "BLDG-019",
      "properties": {
        "id": "BLDG-019",
        "layer": "BUILDING_FOOTPRINT",
        "source_type": "agent_generated_design",
        "confidence": "medium",
        "geometry_role": "design_proposal",
        "building_type": "residential",
        "name_zh": "居住用地（人才社区）建筑",
        "area_sqm_declared": 16014.001
      },
      "geometry": {
        "type": "Polygon",
        "coordinates": [
          [
            [
              116.35054180361692,
              39.987778774672734
            ],
            [
              116.35109403663827,
              39.987778774672734
            ],
            [
              116.35109403663827,
              39.98472122532726
            ],
            [
              116.35054180361692,
              39.98472122532726
            ],
            [
              116.35054180361692,
              39.987778774672734
            ]
          ]
        ]
      }
    },
    {
      "type": "Feature",
      "id": "BLDG-020",
      "properties": {
        "id": "BLDG-020",
        "layer": "BUILDING_FOOTPRINT",
        "source_type": "agent_generated_design",
        "confidence": "medium",
        "geometry_role": "design_proposal",
        "building_type": "talent_apartment",
        "name_zh": "居住用地（人才社区）建筑",
        "area_sqm_declared": 16013.997
      },
      "geometry": {
        "type": "Polygon",
        "coordinates": [
          [
            [
              116.3516776438721,
              39.987778774672734
            ],
            [
              116.35222987689345,
              39.987778774672734
            ],
            [
              116.35222987689345,
              39.98472122532726
            ],
            [
              116.3516776438721,
              39.98472122532726
            ],
            [
              116.3516776438721,
              39.987778774672734
            ]
          ]
        ]
      }
    },
    {
      "type": "Feature",
      "id": "BLDG-021",
      "properties": {
        "id": "BLDG-021",
        "layer": "BUILDING_FOOTPRINT",
        "source_type": "agent_generated_design",
        "confidence": "medium",
        "geometry_role": "design_proposal",
        "building_type": "residential",
        "name_zh": "居住用地（人才社区）建筑",
        "area_sqm_declared": 16013.993
      },
      "geometry": {
        "type": "Polygon",
        "coordinates": [
          [
            [
              116.35281348412728,
              39.987778774672734
            ],
            [
              116.35336571714863,
              39.987778774672734
            ],
            [
              116.35336571714863,
              39.98472122532726
            ],
            [
              116.35281348412728,
              39.98472122532726
            ],
            [
              116.35281348412728,
              39.987778774672734
            ]
          ]
        ]
      }
    },
    {
      "type": "Feature",
      "id": "BLDG-022",
      "properties": {
        "id": "BLDG-022",
        "layer": "BUILDING_FOOTPRINT",
        "source_type": "agent_generated_design",
        "confidence": "medium",
        "geometry_role": "design_proposal",
        "building_type": "mixed_use",
        "name_zh": "商业服务业用地（小月河场景服务）建筑",
        "area_sqm_declared": 81340.76
      },
      "geometry": {
        "type": "Polygon",
        "coordinates": [
          [
            [
              116.34900820087614,
              39.9745322092237
            ],
            [
              116.35022195935858,
              39.9745322092237
            ],
            [
              116.35022195935858,
              39.967467790776304
            ],
            [
              116.34900820087614,
              39.967467790776304
            ],
            [
              116.34900820087614,
              39.9745322092237
            ]
          ]
        ]
      }
    },
    {
      "type": "Feature",
      "id": "BLDG-023",
      "properties": {
        "id": "BLDG-023",
        "layer": "BUILDING_FOOTPRINT",
        "source_type": "agent_generated_design",
        "confidence": "medium",
        "geometry_role": "design_proposal",
        "building_type": "retail",
        "name_zh": "商业服务业用地（小月河场景服务）建筑",
        "area_sqm_declared": 81340.718
      },
      "geometry": {
        "type": "Polygon",
        "coordinates": [
          [
            [
              116.35121717713544,
              39.9745322092237
            ],
            [
              116.35243093561785,
              39.9745322092237
            ],
            [
              116.35243093561785,
              39.967467790776304
            ],
            [
              116.35121717713544,
              39.967467790776304
            ],
            [
              116.35121717713544,
              39.9745322092237
            ]
          ]
        ]
      }
    },
    {
      "type": "Feature",
      "id": "BLDG-024",
      "properties": {
        "id": "BLDG-024",
        "layer": "BUILDING_FOOTPRINT",
        "source_type": "agent_generated_design",
        "confidence": "medium",
        "geometry_role": "design_proposal",
        "building_type": "office",
        "name_zh": "商业服务业用地（小月河场景服务）建筑",
        "area_sqm_declared": 80717.907
      },
      "geometry": {
        "type": "Polygon",
        "coordinates": [
          [
            [
              116.3534261533947,
              39.967467790776304
            ],
            [
              116.3534261533947,
              39.9745322092237
            ],
            [
              116.3545374232621,
              39.9745322092237
            ],
            [
              116.35463991187713,
              39.97325110153591
            ],
            [
              116.35463991187713,
              39.967467790776304
            ],
            [
              116.3534261533947,
              39.967467790776304
            ]
          ]
        ]
      }
    },
    {
      "type": "Feature",
      "id": "BLDG-025",
      "properties": {
        "id": "BLDG-025",
        "layer": "BUILDING_FOOTPRINT",
        "source_type": "agent_generated_design",
        "confidence": "medium",
        "geometry_role": "design_proposal",
        "building_type": "residential",
        "name_zh": "居住用地建筑",
        "area_sqm_declared": 65079.523
      },
      "geometry": {
        "type": "Polygon",
        "coordinates": [
          [
            [
              116.34919163166039,
              39.962915767823404
            ],
            [
              116.35036786402789,
              39.962915767823404
            ],
            [
              116.35036786402789,
              39.9570842321766
            ],
            [
              116.34919163166039,
              39.9570842321766
            ],
            [
              116.34919163166039,
              39.962915767823404
            ]
          ]
        ]
      }
    },
    {
      "type": "Feature",
      "id": "BLDG-026",
      "properties": {
        "id": "BLDG-026",
        "layer": "BUILDING_FOOTPRINT",
        "source_type": "agent_generated_design",
        "confidence": "medium",
        "geometry_role": "design_proposal",
        "building_type": "talent_apartment",
        "name_zh": "居住用地建筑",
        "area_sqm_declared": 65079.491
      },
      "geometry": {
        "type": "Polygon",
        "coordinates": [
          [
            [
              116.35133973252273,
              39.962915767823404
            ],
            [
              116.35251596489023,
              39.962915767823404
            ],
            [
              116.35251596489023,
              39.9570842321766
            ],
            [
              116.35133973252273,
              39.9570842321766
            ],
            [
              116.35133973252273,
              39.962915767823404
            ]
          ]
        ]
      }
    },
    {
      "type": "Feature",
      "id": "BLDG-027",
      "properties": {
        "id": "BLDG-027",
        "layer": "BUILDING_FOOTPRINT",
        "source_type": "agent_generated_design",
        "confidence": "medium",
        "geometry_role": "design_proposal",
        "building_type": "residential",
        "name_zh": "居住用地建筑",
        "area_sqm_declared": 65079.458
      },
      "geometry": {
        "type": "Polygon",
        "coordinates": [
          [
            [
              116.35348783338507,
              39.962915767823404
            ],
            [
              116.35466406575257,
              39.962915767823404
            ],
            [
              116.35466406575257,
              39.9570842321766
            ],
            [
              116.35348783338507,
              39.9570842321766
            ],
            [
              116.35348783338507,
              39.962915767823404
            ]
          ]
        ]
      }
    },
    {
      "type": "Feature",
      "id": "BLDG-028",
      "properties": {
        "id": "BLDG-028",
        "layer": "BUILDING_FOOTPRINT",
        "source_type": "agent_generated_design",
        "confidence": "medium",
        "geometry_role": "design_proposal",
        "building_type": "mixed_use",
        "name_zh": "商业服务业用地（大钟寺产业区）建筑",
        "area_sqm_declared": 49935.667
      },
      "geometry": {
        "type": "Polygon",
        "coordinates": [
          [
            [
              116.35060642504011,
              39.952244540273924
            ],
            [
              116.35060642504011,
              39.9475
            ],
            [
              116.3501,
              39.9475
            ],
            [
              116.34949728833523,
              39.9475
            ],
            [
              116.34949728833523,
              39.952244540273924
            ],
            [
              116.35060642504011,
              39.952244540273924
            ]
          ]
        ]
      }
    },
    {
      "type": "Feature",
      "id": "BLDG-029",
      "properties": {
        "id": "BLDG-029",
        "layer": "BUILDING_FOOTPRINT",
        "source_type": "agent_generated_design",
        "confidence": "medium",
        "geometry_role": "design_proposal",
        "building_type": "retail",
        "name_zh": "商业服务业用地（大钟寺产业区）建筑",
        "area_sqm_declared": 84085.941
      },
      "geometry": {
        "type": "Polygon",
        "coordinates": [
          [
            [
              116.35153654566017,
              39.952244540273924
            ],
            [
              116.35264568236505,
              39.952244540273924
            ],
            [
              116.35264568236505,
              39.94425545972608
            ],
            [
              116.35153654566017,
              39.94425545972608
            ],
            [
              116.35153654566017,
              39.952244540273924
            ]
          ]
        ]
      }
    },
    {
      "type": "Feature",
      "id": "BLDG-030",
      "properties": {
        "id": "BLDG-030",
        "layer": "BUILDING_FOOTPRINT",
        "source_type": "agent_generated_design",
        "confidence": "medium",
        "geometry_role": "design_proposal",
        "building_type": "office",
        "name_zh": "商业服务业用地（大钟寺产业区）建筑",
        "area_sqm_declared": 84085.901
      },
      "geometry": {
        "type": "Polygon",
        "coordinates": [
          [
            [
              116.35357580298509,
              39.952244540273924
            ],
            [
              116.35468493968997,
              39.952244540273924
            ],
            [
              116.35468493968997,
              39.94425545972608
            ],
            [
              116.35357580298509,
              39.94425545972608
            ],
            [
              116.35357580298509,
              39.952244540273924
            ]
          ]
        ]
      }
    },
    {
      "type": "Feature",
      "id": "BLDG-031",
      "properties": {
        "id": "BLDG-031",
        "layer": "BUILDING_FOOTPRINT",
        "source_type": "agent_generated_design",
        "confidence": "medium",
        "geometry_role": "design_proposal",
        "building_type": "mixed_use",
        "name_zh": "商业服务业用地（大钟寺产业区）建筑",
        "area_sqm_declared": 83059.527
      },
      "geometry": {
        "type": "Polygon",
        "coordinates": [
          [
            [
              116.34087062747774,
              39.952244540273924
            ],
            [
              116.34196622249992,
              39.952244540273924
            ],
            [
              116.34196622249992,
              39.94425545972608
            ],
            [
              116.34087062747774,
              39.94425545972608
            ],
            [
              116.34087062747774,
              39.952244540273924
            ]
          ]
        ]
      }
    },
    {
      "type": "Feature",
      "id": "BLDG-032",
      "properties": {
        "id": "BLDG-032",
        "layer": "BUILDING_FOOTPRINT",
        "source_type": "agent_generated_design",
        "confidence": "medium",
        "geometry_role": "design_proposal",
        "building_type": "retail",
        "name_zh": "商业服务业用地（大钟寺产业区）建筑",
        "area_sqm_declared": 83059.487
      },
      "geometry": {
        "type": "Polygon",
        "coordinates": [
          [
            [
              116.34288791729253,
              39.952244540273924
            ],
            [
              116.34398351231471,
              39.952244540273924
            ],
            [
              116.34398351231471,
              39.94425545972608
            ],
            [
              116.34288791729253,
              39.94425545972608
            ],
            [
              116.34288791729253,
              39.952244540273924
            ]
          ]
        ]
      }
    },
    {
      "type": "Feature",
      "id": "BLDG-033",
      "properties": {
        "id": "BLDG-033",
        "layer": "BUILDING_FOOTPRINT",
        "source_type": "agent_generated_design",
        "confidence": "medium",
        "geometry_role": "design_proposal",
        "building_type": "office",
        "name_zh": "商业服务业用地（大钟寺产业区）建筑",
        "area_sqm_declared": 83059.447
      },
      "geometry": {
        "type": "Polygon",
        "coordinates": [
          [
            [
              116.34490520710732,
              39.952244540273924
            ],
            [
              116.3460008021295,
              39.952244540273924
            ],
            [
              116.3460008021295,
              39.94425545972608
            ],
            [
              116.34490520710732,
              39.94425545972608
            ],
            [
              116.34490520710732,
              39.952244540273924
            ]
          ]
        ]
      }
    },
    {
      "type": "Feature",
      "id": "BLDG-034",
      "properties": {
        "id": "BLDG-034",
        "layer": "BUILDING_FOOTPRINT",
        "source_type": "agent_generated_design",
        "confidence": "medium",
        "geometry_role": "design_proposal",
        "building_type": "community_service",
        "name_zh": "医疗卫生用地建筑",
        "area_sqm_declared": 32411.138
      },
      "geometry": {
        "type": "Polygon",
        "coordinates": [
          [
            [
              116.34275224359831,
              39.962915767823404
            ],
            [
              116.34333803413477,
              39.962915767823404
            ],
            [
              116.34333803413477,
              39.9570842321766
            ],
            [
              116.34275224359831,
              39.9570842321766
            ],
            [
              116.34275224359831,
              39.962915767823404
            ]
          ]
        ]
      }
    },
    {
      "type": "Feature",
      "id": "BLDG-035",
      "properties": {
        "id": "BLDG-035",
        "layer": "BUILDING_FOOTPRINT",
        "source_type": "agent_generated_design",
        "confidence": "medium",
        "geometry_role": "design_proposal",
        "building_type": "community_service",
        "name_zh": "医疗卫生用地建筑",
        "area_sqm_declared": 32411.128
      },
      "geometry": {
        "type": "Polygon",
        "coordinates": [
          [
            [
              116.34394252133141,
              39.962915767823404
            ],
            [
              116.34452831186788,
              39.962915767823404
            ],
            [
              116.34452831186788,
              39.9570842321766
            ],
            [
              116.34394252133141,
              39.9570842321766
            ],
            [
              116.34394252133141,
              39.962915767823404
            ]
          ]
        ]
      }
    },
    {
      "type": "Feature",
      "id": "BLDG-036",
      "properties": {
        "id": "BLDG-036",
        "layer": "BUILDING_FOOTPRINT",
        "source_type": "agent_generated_design",
        "confidence": "medium",
        "geometry_role": "design_proposal",
        "building_type": "community_service",
        "name_zh": "医疗卫生用地建筑",
        "area_sqm_declared": 32411.119
      },
      "geometry": {
        "type": "Polygon",
        "coordinates": [
          [
            [
              116.3451327990645,
              39.962915767823404
            ],
            [
              116.34571858960096,
              39.962915767823404
            ],
            [
              116.34571858960096,
              39.9570842321766
            ],
            [
              116.3451327990645,
              39.9570842321766
            ],
            [
              116.3451327990645,
              39.962915767823404
            ]
          ]
        ]
      }
    },
    {
      "type": "Feature",
      "id": "BLDG-037",
      "properties": {
        "id": "BLDG-037",
        "layer": "BUILDING_FOOTPRINT",
        "source_type": "agent_generated_design",
        "confidence": "medium",
        "geometry_role": "design_proposal",
        "building_type": "education",
        "name_zh": "教育用地建筑",
        "area_sqm_declared": 70604.745
      },
      "geometry": {
        "type": "Polygon",
        "coordinates": [
          [
            [
              116.3402979026239,
              39.9745322092237
            ],
            [
              116.34135145721889,
              39.9745322092237
            ],
            [
              116.34135145721889,
              39.967467790776304
            ],
            [
              116.3402979026239,
              39.967467790776304
            ],
            [
              116.3402979026239,
              39.9745322092237
            ]
          ]
        ]
      }
    },
    {
      "type": "Feature",
      "id": "BLDG-038",
      "properties": {
        "id": "BLDG-038",
        "layer": "BUILDING_FOOTPRINT",
        "source_type": "agent_generated_design",
        "confidence": "medium",
        "geometry_role": "design_proposal",
        "building_type": "education",
        "name_zh": "教育用地建筑",
        "area_sqm_declared": 70604.713
      },
      "geometry": {
        "type": "Polygon",
        "coordinates": [
          [
            [
              116.34224699386026,
              39.9745322092237
            ],
            [
              116.34330054845525,
              39.9745322092237
            ],
            [
              116.34330054845525,
              39.967467790776304
            ],
            [
              116.34224699386026,
              39.967467790776304
            ],
            [
              116.34224699386026,
              39.9745322092237
            ]
          ]
        ]
      }
    },
    {
      "type": "Feature",
      "id": "BLDG-039",
      "properties": {
        "id": "BLDG-039",
        "layer": "BUILDING_FOOTPRINT",
        "source_type": "agent_generated_design",
        "confidence": "medium",
        "geometry_role": "design_proposal",
        "building_type": "education",
        "name_zh": "教育用地建筑",
        "area_sqm_declared": 70604.68
      },
      "geometry": {
        "type": "Polygon",
        "coordinates": [
          [
            [
              116.34419608509661,
              39.9745322092237
            ],
            [
              116.3452496396916,
              39.9745322092237
            ],
            [
              116.3452496396916,
              39.967467790776304
            ],
            [
              116.34419608509661,
              39.967467790776304
            ],
            [
              116.34419608509661,
              39.9745322092237
            ]
          ]
        ]
      }
    },
    {
      "type": "Feature",
      "id": "BLDG-040",
      "properties": {
        "id": "BLDG-040",
        "layer": "BUILDING_FOOTPRINT",
        "source_type": "agent_generated_design",
        "confidence": "medium",
        "geometry_role": "design_proposal",
        "building_type": "community_service",
        "name_zh": "医疗卫生用地建筑",
        "area_sqm_declared": 14756.952
      },
      "geometry": {
        "type": "Polygon",
        "coordinates": [
          [
            [
              116.34033497866677,
              39.962915767823404
            ],
            [
              116.3406016918393,
              39.962915767823404
            ],
            [
              116.3406016918393,
              39.9570842321766
            ],
            [
              116.34033497866677,
              39.9570842321766
            ],
            [
              116.34033497866677,
              39.962915767823404
            ]
          ]
        ]
      }
    },
    {
      "type": "Feature",
      "id": "BLDG-041",
      "properties": {
        "id": "BLDG-041",
        "layer": "BUILDING_FOOTPRINT",
        "source_type": "agent_generated_design",
        "confidence": "medium",
        "geometry_role": "design_proposal",
        "building_type": "community_service",
        "name_zh": "医疗卫生用地建筑",
        "area_sqm_declared": 14756.949
      },
      "geometry": {
        "type": "Polygon",
        "coordinates": [
          [
            [
              116.34100764456555,
              39.962915767823404
            ],
            [
              116.34127435773807,
              39.962915767823404
            ],
            [
              116.34127435773807,
              39.9570842321766
            ],
            [
              116.34100764456555,
              39.9570842321766
            ],
            [
              116.34100764456555,
              39.962915767823404
            ]
          ]
        ]
      }
    },
    {
      "type": "Feature",
      "id": "BLDG-042",
      "properties": {
        "id": "BLDG-042",
        "layer": "BUILDING_FOOTPRINT",
        "source_type": "agent_generated_design",
        "confidence": "medium",
        "geometry_role": "design_proposal",
        "building_type": "community_service",
        "name_zh": "医疗卫生用地建筑",
        "area_sqm_declared": 14756.947
      },
      "geometry": {
        "type": "Polygon",
        "coordinates": [
          [
            [
              116.34168031046434,
              39.962915767823404
            ],
            [
              116.34194702363686,
              39.962915767823404
            ],
            [
              116.34194702363686,
              39.9570842321766
            ],
            [
              116.34168031046434,
              39.9570842321766
            ],
            [
              116.34168031046434,
              39.962915767823404
            ]
          ]
        ]
      }
    }
  ]
}