{
  "type": "FeatureCollection",
  "name": "key_areas_provisional_epoch_rail_v2",
  "features": [
    {
      "type": "Feature",
      "id": "PROV-KEY-001",
      "properties": {
        "id": "PROV-KEY-001",
        "layer": "KEY_AREA",
        "source_type": "agent_inferred_from_public_data",
        "confidence": "medium",
        "geometry_role": "provisional_constraint",
        "area_id": "zhongzhiyuan_ai_acceleration_area",
        "name_zh": "众智园AI自主创新加速区",
        "official_boundary": false,
        "boundary_precision": "provisional_rough",
        "source_id": "DATA-SRC-PROVISIONAL-BOUNDARIES-20260605",
        "announced_area_sqm": 1921000.0,
        "area_sqm_declared": 1929201.877,
        "usage_note": "临时粗略重点区，仅用于展示与设计讨论；不得作为official polygon或精确面积依据。"
      },
      "geometry": {
        "type": "Polygon",
        "coordinates": [
          [
            [
              116.343,
              40.0075
            ],
            [
              116.354,
              40.0075
            ],
            [
              116.354,
              40.026
            ],
            [
              116.343,
              40.026
            ],
            [
              116.343,
              40.0075
            ]
          ]
        ]
      }
    },
    {
      "type": "Feature",
      "id": "PROV-KEY-002",
      "properties": {
        "id": "PROV-KEY-002",
        "layer": "KEY_AREA",
        "source_type": "agent_inferred_from_public_data",
        "confidence": "medium",
        "geometry_role": "provisional_constraint",
        "area_id": "beijing_ai_origin_community",
        "name_zh": "北京AI原点社区",
        "official_boundary": false,
        "boundary_precision": "provisional_rough",
        "source_id": "DATA-SRC-PROVISIONAL-BOUNDARIES-20260605",
        "announced_area_sqm": 1043000.0,
        "area_sqm_declared": 1043236.909,
        "usage_note": "临时粗略重点区，仅用于展示与设计讨论；不得作为official polygon或精确面积依据。"
      },
      "geometry": {
        "type": "Polygon",
        "coordinates": [
          [
            [
              116.342,
              39.9835
            ],
            [
              116.353,
              39.9835
            ],
            [
              116.353,
              39.9935
            ],
            [
              116.342,
              39.9935
            ],
            [
              116.342,
              39.9835
            ]
          ]
        ]
      }
    },
    {
      "type": "Feature",
      "id": "PROV-KEY-003",
      "properties": {
        "id": "PROV-KEY-003",
        "layer": "KEY_AREA",
        "source_type": "agent_inferred_from_public_data",
        "confidence": "medium",
        "geometry_role": "provisional_constraint",
        "area_id": "dazhongsi_ai_industry_cluster",
        "name_zh": "大钟寺AI产业聚集区",
        "official_boundary": false,
        "boundary_precision": "provisional_rough",
        "source_id": "DATA-SRC-PROVISIONAL-BOUNDARIES-20260605",
        "announced_area_sqm": 720000.0,
        "area_sqm_declared": 720454.219,
        "usage_note": "临时粗略重点区，仅用于展示与设计讨论；不得作为official polygon或精确面积依据。"
      },
      "geometry": {
        "type": "Polygon",
        "coordinates": [
          [
            [
              116.342,
              39.944
            ],
            [
              116.355,
              39.944
            ],
            [
              116.355,
              39.94984
            ],
            [
              116.342,
              39.94984
            ],
            [
              116.342,
              39.944
            ]
          ]
        ]
      }
    }
  ]
}