{
 "type": "FeatureCollection",
 "features": [
  {
   "type": "Feature",
   "id": "BLDG-001",
   "properties": {
    "id": "BLDG-001",
    "layer": "BUILDING_FOOTPRINT",
    "source_type": "agent_generated_design",
    "confidence": "medium",
    "geometry_role": "design_proposal",
    "building_type": "ai_r_and_d",
    "label_zh": "复验工坊A（安全评测）",
    "label_en": "Re-cert workshop A (safety eval)",
    "floors_indicative": 5,
    "floors_note": "层数为概念示意，非控规结论；正式深化需依据官方控制条件复核。",
    "area_sqm_declared": 1820.1
   },
   "geometry": {
    "type": "Polygon",
    "coordinates": [
     [
      [
       116.3459,
       40.01834
      ],
      [
       116.3459,
       40.018660000000004
      ],
      [
       116.34649999999999,
       40.018660000000004
      ],
      [
       116.34649999999999,
       40.01834
      ],
      [
       116.3459,
       40.01834
      ]
     ]
    ]
   }
  },
  {
   "type": "Feature",
   "id": "BLDG-002",
   "properties": {
    "id": "BLDG-002",
    "layer": "BUILDING_FOOTPRINT",
    "source_type": "agent_generated_design",
    "confidence": "medium",
    "geometry_role": "design_proposal",
    "building_type": "lab",
    "label_zh": "复验工坊B（标准符合性实验室）",
    "label_en": "Re-cert workshop B (standards lab)",
    "floors_indicative": 5,
    "floors_note": "层数为概念示意，非控规结论；正式深化需依据官方控制条件复核。",
    "area_sqm_declared": 1820.2
   },
   "geometry": {
    "type": "Polygon",
    "coordinates": [
     [
      [
       116.3469,
       40.01684
      ],
      [
       116.3469,
       40.017160000000004
      ],
      [
       116.3475,
       40.017160000000004
      ],
      [
       116.3475,
       40.01684
      ],
      [
       116.3469,
       40.01684
      ]
     ]
    ]
   }
  },
  {
   "type": "Feature",
   "id": "BLDG-003",
   "properties": {
    "id": "BLDG-003",
    "layer": "BUILDING_FOOTPRINT",
    "source_type": "agent_generated_design",
    "confidence": "medium",
    "geometry_role": "design_proposal",
    "building_type": "office",
    "label_zh": "标准与治理协作署",
    "label_en": "Standards & governance office",
    "floors_indicative": 8,
    "floors_note": "层数为概念示意，非控规结论；正式深化需依据官方控制条件复核。",
    "area_sqm_declared": 1820.2
   },
   "geometry": {
    "type": "Polygon",
    "coordinates": [
     [
      [
       116.3437,
       40.01484
      ],
      [
       116.3437,
       40.01516
      ],
      [
       116.34429999999999,
       40.01516
      ],
      [
       116.34429999999999,
       40.01484
      ],
      [
       116.3437,
       40.01484
      ]
     ]
    ]
   }
  },
  {
   "type": "Feature",
   "id": "BLDG-004",
   "properties": {
    "id": "BLDG-004",
    "layer": "BUILDING_FOOTPRINT",
    "source_type": "agent_generated_design",
    "confidence": "medium",
    "geometry_role": "design_proposal",
    "building_type": "cultural",
    "label_zh": "复验公开观察廊",
    "label_en": "Public observation gallery",
    "floors_indicative": 2,
    "floors_note": "层数为概念示意，非控规结论；正式深化需依据官方控制条件复核。",
    "area_sqm_declared": 1820.3
   },
   "geometry": {
    "type": "Polygon",
    "coordinates": [
     [
      [
       116.3477,
       40.01284
      ],
      [
       116.3477,
       40.01316
      ],
      [
       116.3483,
       40.01316
      ],
      [
       116.3483,
       40.01284
      ],
      [
       116.3477,
       40.01284
      ]
     ]
    ]
   }
  },
  {
   "type": "Feature",
   "id": "BLDG-005",
   "properties": {
    "id": "BLDG-005",
    "layer": "BUILDING_FOOTPRINT",
    "source_type": "agent_generated_design",
    "confidence": "medium",
    "geometry_role": "design_proposal",
    "building_type": "cultural",
    "label_zh": "契约大厅（出生与退役登记）",
    "label_en": "Covenant Hall (install & retire registry)",
    "floors_indicative": 3,
    "floors_note": "层数为概念示意，非控规结论；正式深化需依据官方控制条件复核。",
    "area_sqm_declared": 1820.9
   },
   "geometry": {
    "type": "Polygon",
    "coordinates": [
     [
      [
       116.34450000000001,
       39.990339999999996
      ],
      [
       116.34450000000001,
       39.99066
      ],
      [
       116.3451,
       39.99066
      ],
      [
       116.3451,
       39.990339999999996
      ],
      [
       116.34450000000001,
       39.990339999999996
      ]
     ]
    ]
   }
  },
  {
   "type": "Feature",
   "id": "BLDG-006",
   "properties": {
    "id": "BLDG-006",
    "layer": "BUILDING_FOOTPRINT",
    "source_type": "agent_generated_design",
    "confidence": "medium",
    "geometry_role": "design_proposal",
    "building_type": "incubator",
    "label_zh": "近校孵化工坊",
    "label_en": "Near-campus incubation workshop",
    "floors_indicative": 6,
    "floors_note": "层数为概念示意，非控规结论；正式深化需依据官方控制条件复核。",
    "area_sqm_declared": 1820.9
   },
   "geometry": {
    "type": "Polygon",
    "coordinates": [
     [
      [
       116.3465,
       39.988839999999996
      ],
      [
       116.3465,
       39.98916
      ],
      [
       116.3471,
       39.98916
      ],
      [
       116.3471,
       39.988839999999996
      ],
      [
       116.3465,
       39.988839999999996
      ]
     ]
    ]
   }
  },
  {
   "type": "Feature",
   "id": "BLDG-007",
   "properties": {
    "id": "BLDG-007",
    "layer": "BUILDING_FOOTPRINT",
    "source_type": "agent_generated_design",
    "confidence": "medium",
    "geometry_role": "design_proposal",
    "building_type": "talent_apartment",
    "label_zh": "人才公寓组团",
    "label_en": "Talent apartment cluster",
    "floors_indicative": 12,
    "floors_note": "层数为概念示意，非控规结论；正式深化需依据官方控制条件复核。",
    "area_sqm_declared": 1821.0
   },
   "geometry": {
    "type": "Polygon",
    "coordinates": [
     [
      [
       116.3435,
       39.98664
      ],
      [
       116.3435,
       39.98696
      ],
      [
       116.3441,
       39.98696
      ],
      [
       116.3441,
       39.98664
      ],
      [
       116.3435,
       39.98664
      ]
     ]
    ]
   }
  },
  {
   "type": "Feature",
   "id": "BLDG-008",
   "properties": {
    "id": "BLDG-008",
    "layer": "BUILDING_FOOTPRINT",
    "source_type": "agent_generated_design",
    "confidence": "medium",
    "geometry_role": "design_proposal",
    "building_type": "community_service",
    "label_zh": "社区互助与数字导助中心",
    "label_en": "Community digital-aid center",
    "floors_indicative": 3,
    "floors_note": "层数为概念示意，非控规结论；正式深化需依据官方控制条件复核。",
    "area_sqm_declared": 1821.0
   },
   "geometry": {
    "type": "Polygon",
    "coordinates": [
     [
      [
       116.3472,
       39.98534
      ],
      [
       116.3472,
       39.98566
      ],
      [
       116.34779999999999,
       39.98566
      ],
      [
       116.34779999999999,
       39.98534
      ],
      [
       116.3472,
       39.98534
      ]
     ]
    ]
   }
  },
  {
   "type": "Feature",
   "id": "BLDG-009",
   "properties": {
    "id": "BLDG-009",
    "layer": "BUILDING_FOOTPRINT",
    "source_type": "agent_generated_design",
    "confidence": "medium",
    "geometry_role": "design_proposal",
    "building_type": "cultural",
    "label_zh": "退役场公共大厅（城市AI档案馆）",
    "label_en": "Decommissioning Hall (urban AI archive)",
    "floors_indicative": 3,
    "floors_note": "层数为概念示意，非控规结论；正式深化需依据官方控制条件复核。",
    "area_sqm_declared": 1822.0
   },
   "geometry": {
    "type": "Polygon",
    "coordinates": [
     [
      [
       116.3485,
       39.94764
      ],
      [
       116.3485,
       39.94796
      ],
      [
       116.34909999999999,
       39.94796
      ],
      [
       116.34909999999999,
       39.94764
      ],
      [
       116.3485,
       39.94764
      ]
     ]
    ]
   }
  },
  {
   "type": "Feature",
   "id": "BLDG-010",
   "properties": {
    "id": "BLDG-010",
    "layer": "BUILDING_FOOTPRINT",
    "source_type": "agent_generated_design",
    "confidence": "medium",
    "geometry_role": "design_proposal",
    "building_type": "mixed_use",
    "label_zh": "材料银行与再制造工坊",
    "label_en": "Materials bank & remanufacture workshop",
    "floors_indicative": 4,
    "floors_note": "层数为概念示意，非控规结论；正式深化需依据官方控制条件复核。",
    "area_sqm_declared": 1822.0
   },
   "geometry": {
    "type": "Polygon",
    "coordinates": [
     [
      [
       116.3497,
       39.946039999999996
      ],
      [
       116.3497,
       39.94636
      ],
      [
       116.35029999999999,
       39.94636
      ],
      [
       116.35029999999999,
       39.946039999999996
      ],
      [
       116.3497,
       39.946039999999996
      ]
     ]
    ]
   }
  },
  {
   "type": "Feature",
   "id": "BLDG-011",
   "properties": {
    "id": "BLDG-011",
    "layer": "BUILDING_FOOTPRINT",
    "source_type": "agent_generated_design",
    "confidence": "medium",
    "geometry_role": "design_proposal",
    "building_type": "retail",
    "label_zh": "转生市场（二手智能设备交易）",
    "label_en": "Second-life market",
    "floors_indicative": 3,
    "floors_note": "层数为概念示意，非控规结论；正式深化需依据官方控制条件复核。",
    "area_sqm_declared": 1822.1
   },
   "geometry": {
    "type": "Polygon",
    "coordinates": [
     [
      [
       116.3472,
       39.94484
      ],
      [
       116.3472,
       39.94516
      ],
      [
       116.34779999999999,
       39.94516
      ],
      [
       116.34779999999999,
       39.94484
      ],
      [
       116.3472,
       39.94484
      ]
     ]
    ]
   }
  },
  {
   "type": "Feature",
   "id": "BLDG-012",
   "properties": {
    "id": "BLDG-012",
    "layer": "BUILDING_FOOTPRINT",
    "source_type": "agent_generated_design",
    "confidence": "medium",
    "geometry_role": "design_proposal",
    "building_type": "office",
    "label_zh": "托管与保险服务楼",
    "label_en": "Escrow & insurance services",
    "floors_indicative": 10,
    "floors_note": "层数为概念示意，非控规结论；正式深化需依据官方控制条件复核。",
    "area_sqm_declared": 1822.0
   },
   "geometry": {
    "type": "Polygon",
    "coordinates": [
     [
      [
       116.35090000000001,
       39.94734
      ],
      [
       116.35090000000001,
       39.94766
      ],
      [
       116.3515,
       39.94766
      ],
      [
       116.3515,
       39.94734
      ],
      [
       116.35090000000001,
       39.94734
      ]
     ]
    ]
   }
  }
 ]
}