{
  "type": "FeatureCollection",
  "name": "roads_scaffold",
  "features": [
    {
      "type": "Feature",
      "id": "ROAD-001",
      "properties": {
        "id": "ROAD-001",
        "layer": "ROAD_CENTERLINE",
        "source_type": "agent_generated_design",
        "confidence": "medium",
        "geometry_role": "design_proposal",
        "road_class": "greenway",
        "name_zh": "慢变量主线",
        "name_en": "Slow-variable spine",
        "design_intent": "conceptual shaded accessible route"
      },
      "geometry": {
        "type": "LineString",
        "coordinates": [
          [
            116.340948,
            39.9845
          ],
          [
            116.35374,
            39.9845
          ]
        ]
      }
    },
    {
      "type": "Feature",
      "id": "ROAD-002",
      "properties": {
        "id": "ROAD-002",
        "layer": "ROAD_CENTERLINE",
        "source_type": "agent_generated_design",
        "confidence": "medium",
        "geometry_role": "design_proposal",
        "road_class": "greenway",
        "name_zh": "概念缝合支线1",
        "name_en": "Conceptual stitch 1",
        "design_intent": "conceptual shaded accessible route"
      },
      "geometry": {
        "type": "LineString",
        "coordinates": [
          [
            116.341948,
            39.9845
          ],
          [
            116.35474,
            39.9845
          ]
        ]
      }
    },
    {
      "type": "Feature",
      "id": "ROAD-003",
      "properties": {
        "id": "ROAD-003",
        "layer": "ROAD_CENTERLINE",
        "source_type": "agent_generated_design",
        "confidence": "medium",
        "geometry_role": "design_proposal",
        "road_class": "greenway",
        "name_zh": "概念缝合支线2",
        "name_en": "Conceptual stitch 2",
        "design_intent": "conceptual shaded accessible route"
      },
      "geometry": {
        "type": "LineString",
        "coordinates": [
          [
            116.34294799999999,
            39.9845
          ],
          [
            116.35574,
            39.9845
          ]
        ]
      }
    },
    {
      "type": "Feature",
      "id": "ROAD-004",
      "properties": {
        "id": "ROAD-004",
        "layer": "ROAD_CENTERLINE",
        "source_type": "agent_generated_design",
        "confidence": "medium",
        "geometry_role": "design_proposal",
        "road_class": "greenway",
        "name_zh": "概念缝合支线3",
        "name_en": "Conceptual stitch 3",
        "design_intent": "conceptual shaded accessible route"
      },
      "geometry": {
        "type": "LineString",
        "coordinates": [
          [
            116.343948,
            39.9845
          ],
          [
            116.35674,
            39.9845
          ]
        ]
      }
    }
  ]
}
