{
  "type": "FeatureCollection",
  "features": [
    {
      "type": "Feature",
      "id": "GRN-001",
      "properties": {
        "id": "GRN-001",
        "layer": "GREEN_SPACE",
        "name_zh": "京张铁路遗址公园(线性绿廊)",
        "green_type": "linear_park",
        "source_type": "agent_generated_design",
        "area_sqm_approx": 350000,
        "confidence": "low",
        "geometry_role": "design_proposal"
      },
      "geometry": {
        "type": "Polygon",
        "coordinates": [
          [
            [
              116.3455,
              39.975
            ],
            [
              116.3445,
              39.995
            ],
            [
              116.3455,
              40.025
            ],
            [
              116.3475,
              40.025
            ],
            [
              116.3465,
              39.995
            ],
            [
              116.3475,
              39.975
            ],
            [
              116.3475,
              39.94
            ],
            [
              116.3455,
              39.94
            ],
            [
              116.3455,
              39.975
            ]
          ]
        ]
      }
    },
    {
      "type": "Feature",
      "id": "GRN-002",
      "properties": {
        "id": "GRN-002",
        "layer": "GREEN_SPACE",
        "name_zh": "清河滨水绿廊",
        "green_type": "waterfront",
        "source_type": "agent_generated_design",
        "area_sqm_approx": 180000,
        "confidence": "low",
        "geometry_role": "design_proposal"
      },
      "geometry": {
        "type": "Polygon",
        "coordinates": [
          [
            [
              116.355,
              40.0265
            ],
            [
              116.355,
              40.022
            ],
            [
              116.34248,
              40.022
            ],
            [
              116.3427,
              40.0265
            ],
            [
              116.355,
              40.0265
            ]
          ]
        ]
      }
    },
    {
      "type": "Feature",
      "id": "GRN-003",
      "properties": {
        "id": "GRN-003",
        "layer": "GREEN_SPACE",
        "name_zh": "小月河生态廊道",
        "green_type": "waterfront",
        "source_type": "agent_generated_design",
        "area_sqm_approx": 120000,
        "confidence": "low",
        "geometry_role": "design_proposal"
      },
      "geometry": {
        "type": "Polygon",
        "coordinates": [
          [
            [
              116.3407,
              39.987
            ],
            [
              116.342,
              39.9935
            ],
            [
              116.353492,
              39.9935
            ],
            [
              116.3533,
              39.99
            ],
            [
              116.35354,
              39.987
            ],
            [
              116.3407,
              39.987
            ]
          ]
        ]
      }
    },
    {
      "type": "Feature",
      "id": "GRN-004",
      "properties": {
        "id": "GRN-004",
        "layer": "GREEN_SPACE",
        "name_zh": "都市农业示范园",
        "green_type": "urban_farm",
        "source_type": "agent_generated_design",
        "area_sqm_approx": 80000,
        "confidence": "low",
        "geometry_role": "design_proposal"
      },
      "geometry": {
        "type": "Polygon",
        "coordinates": [
          [
            [
              116.3485,
              40.0135
            ],
            [
              116.3535,
              40.0135
            ],
            [
              116.3535,
              40.008
            ],
            [
              116.3485,
              40.008
            ],
            [
              116.3485,
              40.0135
            ]
          ]
        ]
      }
    }
  ]
}