{
  "type": "FeatureCollection",
  "name": "jingzhang_ai_symbiosis_belt_land_use",
  "metadata": {
    "schema_version": "0.1.0",
    "coordinate_reference_system": "EPSG:4326",
    "partition_method": "horizontal_strips_exact_boundary_edges",
    "boundary_status": "derived_from_provisional_site_boundary"
  },
  "features": [
    {
      "type": "Feature",
      "id": "LU-001",
      "properties": {
        "id": "LU-001",
        "layer": "LAND_USE",
        "name_zh": "大钟寺AI商业创新区",
        "land_use_code": "05",
        "source_type": "agent_generated_design",
        "confidence": "medium",
        "geometry_role": "design_proposal",
        "source_id": "DATA-SRC-PROVISIONAL-BOUNDARIES-20260605",
        "description_zh": "AI商业体验、智能零售、产业展示",
        "usage_note": "概念设计方案，基于临时边界。"
      },
      "geometry": {
        "type": "Polygon",
        "coordinates": [
          [
            [
              116.3553,
              39.954
            ],
            [
              116.34028333333333,
              39.954
            ],
            [
              116.3407,
              39.939
            ],
            [
              116.3407,
              39.939
            ],
            [
              116.3553,
              39.939
            ],
            [
              116.3553,
              39.954
            ]
          ]
        ]
      }
    },
    {
      "type": "Feature",
      "id": "LU-002",
      "properties": {
        "id": "LU-002",
        "layer": "LAND_USE",
        "name_zh": "南部城市更新混合区",
        "land_use_code": "0701",
        "source_type": "agent_generated_design",
        "confidence": "medium",
        "geometry_role": "design_proposal",
        "source_id": "DATA-SRC-PROVISIONAL-BOUNDARIES-20260605",
        "description_zh": "城市更新导向的居住与社区服务",
        "usage_note": "概念设计方案，基于临时边界。"
      },
      "geometry": {
        "type": "Polygon",
        "coordinates": [
          [
            [
              116.3553,
              39.965
            ],
            [
              116.33997777777778,
              39.965
            ],
            [
              116.34028333333333,
              39.954
            ],
            [
              116.34028333333333,
              39.954
            ],
            [
              116.3553,
              39.954
            ],
            [
              116.3553,
              39.965
            ]
          ]
        ]
      }
    },
    {
      "type": "Feature",
      "id": "LU-003",
      "properties": {
        "id": "LU-003",
        "layer": "LAND_USE",
        "name_zh": "AI原点社区科研创新区",
        "land_use_code": "0802",
        "source_type": "agent_generated_design",
        "confidence": "medium",
        "geometry_role": "design_proposal",
        "source_id": "DATA-SRC-PROVISIONAL-BOUNDARIES-20260605",
        "description_zh": "AI基础研究与产学研协同创新",
        "usage_note": "概念设计方案，基于临时边界。"
      },
      "geometry": {
        "type": "Polygon",
        "coordinates": [
          [
            [
              116.35382,
              39.9835
            ],
            [
              116.34024838709676,
              39.9835
            ],
            [
              116.3397,
              39.975
            ],
            [
              116.33997777777778,
              39.965
            ],
            [
              116.33997777777778,
              39.965
            ],
            [
              116.3553,
              39.965
            ],
            [
              116.35382,
              39.9835
            ]
          ]
        ]
      }
    },
    {
      "type": "Feature",
      "id": "LU-004",
      "properties": {
        "id": "LU-004",
        "layer": "LAND_USE",
        "name_zh": "AI原点核心公共文化区",
        "land_use_code": "0803",
        "source_type": "agent_generated_design",
        "confidence": "medium",
        "geometry_role": "design_proposal",
        "source_id": "DATA-SRC-PROVISIONAL-BOUNDARIES-20260605",
        "description_zh": "开源广场、AI公共体验馆、创客工坊",
        "usage_note": "概念设计方案，基于临时边界。"
      },
      "geometry": {
        "type": "Polygon",
        "coordinates": [
          [
            [
              116.35349178082193,
              39.9935
            ],
            [
              116.3408935483871,
              39.9935
            ],
            [
              116.34024838709676,
              39.9835
            ],
            [
              116.34024838709676,
              39.9835
            ],
            [
              116.35382,
              39.9835
            ],
            [
              116.3533,
              39.99
            ],
            [
              116.35349178082193,
              39.9935
            ]
          ]
        ]
      }
    },
    {
      "type": "Feature",
      "id": "LU-005",
      "properties": {
        "id": "LU-005",
        "layer": "LAND_USE",
        "name_zh": "北部研发与生态过渡区",
        "land_use_code": "0802",
        "source_type": "agent_generated_design",
        "confidence": "medium",
        "geometry_role": "design_proposal",
        "source_id": "DATA-SRC-PROVISIONAL-BOUNDARIES-20260605",
        "description_zh": "研发设计、产业服务与生态缓冲",
        "usage_note": "概念设计方案，基于临时边界。"
      },
      "geometry": {
        "type": "Polygon",
        "coordinates": [
          [
            [
              116.35425890410959,
              40.0075
            ],
            [
              116.34177317073171,
              40.0075
            ],
            [
              116.3417,
              40.006
            ],
            [
              116.3408935483871,
              39.9935
            ],
            [
              116.3408935483871,
              39.9935
            ],
            [
              116.35349178082193,
              39.9935
            ],
            [
              116.35425890410959,
              40.0075
            ]
          ]
        ]
      }
    },
    {
      "type": "Feature",
      "id": "LU-006",
      "properties": {
        "id": "LU-006",
        "layer": "LAND_USE",
        "name_zh": "众智园AI自主创新加速区",
        "land_use_code": "0802",
        "source_type": "agent_generated_design",
        "confidence": "medium",
        "geometry_role": "design_proposal",
        "source_id": "DATA-SRC-PROVISIONAL-BOUNDARIES-20260605",
        "description_zh": "AI基础研究与算力基础设施",
        "usage_note": "概念设计方案，基于临时边界。"
      },
      "geometry": {
        "type": "Polygon",
        "coordinates": [
          [
            [
              116.3553,
              40.0265
            ],
            [
              116.3427,
              40.0265
            ],
            [
              116.34177317073171,
              40.0075
            ],
            [
              116.34177317073171,
              40.0075
            ],
            [
              116.35425890410959,
              40.0075
            ],
            [
              116.3553,
              40.0265
            ]
          ]
        ]
      }
    }
  ]
}
