{
  "type": "FeatureCollection",
  "name": "jingzhang_ai_symbiosis_belt_roads",
  "metadata": {
    "schema_version": "0.1.0",
    "coordinate_reference_system": "EPSG:4326",
    "usage_note": "概念道路系统方案。道路线形、红线宽度均为概念建议，不构成工程方案或道路红线。"
  },
  "features": [
    {
      "type": "Feature",
      "id": "RD-001",
      "properties": {
        "id": "RD-001",
        "layer": "ROAD_CENTERLINE",
        "name_zh": "南北向主路（学院路-西土城路方向）",
        "road_class": "arterial",
        "source_type": "agent_inferred_from_public_data",
        "confidence": "high",
        "geometry_role": "existing_condition"
      },
      "geometry": {
        "type": "LineString",
        "coordinates": [
          [
            116.352,
            39.94
          ],
          [
            116.353,
            39.965
          ],
          [
            116.353,
            39.99
          ],
          [
            116.354,
            40.026
          ]
        ]
      }
    },
    {
      "type": "Feature",
      "id": "RD-002",
      "properties": {
        "id": "RD-002",
        "layer": "ROAD_CENTERLINE",
        "name_zh": "西侧南北向次干路（中关村东街方向）",
        "road_class": "secondary",
        "source_type": "agent_generated_design",
        "confidence": "medium",
        "geometry_role": "design_proposal"
      },
      "geometry": {
        "type": "LineString",
        "coordinates": [
          [
            116.342,
            39.94
          ],
          [
            116.341,
            39.975
          ],
          [
            116.342,
            40.006
          ],
          [
            116.343,
            40.026
          ]
        ]
      }
    },
    {
      "type": "Feature",
      "id": "RD-003",
      "properties": {
        "id": "RD-003",
        "layer": "ROAD_CENTERLINE",
        "name_zh": "京张AI慢行主脉（遗址公园内步骑行道）",
        "road_class": "greenway",
        "source_type": "agent_generated_design",
        "confidence": "medium",
        "geometry_role": "design_proposal",
        "description_zh": "沿铁路遗址公园的连续慢行系统，串联三区。全线无障碍设计。"
      },
      "geometry": {
        "type": "LineString",
        "coordinates": [
          [
            116.348,
            39.94
          ],
          [
            116.348,
            39.955
          ],
          [
            116.348,
            39.97
          ],
          [
            116.348,
            39.985
          ],
          [
            116.348,
            40.0
          ],
          [
            116.348,
            40.015
          ],
          [
            116.348,
            40.026
          ]
        ]
      }
    },
    {
      "type": "Feature",
      "id": "RD-004",
      "properties": {
        "id": "RD-004",
        "layer": "ROAD_CENTERLINE",
        "name_zh": "东西向连接路1（北四环方向）",
        "road_class": "arterial",
        "source_type": "agent_inferred_from_public_data",
        "confidence": "high",
        "geometry_role": "existing_condition"
      },
      "geometry": {
        "type": "LineString",
        "coordinates": [
          [
            116.339,
            39.985
          ],
          [
            116.355,
            39.985
          ]
        ]
      }
    },
    {
      "type": "Feature",
      "id": "RD-005",
      "properties": {
        "id": "RD-005",
        "layer": "ROAD_CENTERLINE",
        "name_zh": "东西向连接路2（知春路方向）",
        "road_class": "secondary",
        "source_type": "agent_generated_design",
        "confidence": "high",
        "geometry_role": "design_proposal"
      },
      "geometry": {
        "type": "LineString",
        "coordinates": [
          [
            116.339,
            39.975
          ],
          [
            116.355,
            39.975
          ]
        ]
      }
    },
    {
      "type": "Feature",
      "id": "RD-006",
      "properties": {
        "id": "RD-006",
        "layer": "ROAD_CENTERLINE",
        "name_zh": "东西向连接路3（成府路方向）",
        "road_class": "secondary",
        "source_type": "agent_generated_design",
        "confidence": "high",
        "geometry_role": "design_proposal"
      },
      "geometry": {
        "type": "LineString",
        "coordinates": [
          [
            116.339,
            39.993
          ],
          [
            116.355,
            39.993
          ]
        ]
      }
    },
    {
      "type": "Feature",
      "id": "RD-007",
      "properties": {
        "id": "RD-007",
        "layer": "ROAD_CENTERLINE",
        "name_zh": "东西向连接路4（五环路方向）",
        "road_class": "expressway",
        "source_type": "agent_inferred_from_public_data",
        "confidence": "high",
        "geometry_role": "existing_condition"
      },
      "geometry": {
        "type": "LineString",
        "coordinates": [
          [
            116.339,
            40.026
          ],
          [
            116.356,
            40.026
          ]
        ]
      }
    },
    {
      "type": "Feature",
      "id": "RD-008",
      "properties": {
        "id": "RD-008",
        "layer": "ROAD_CENTERLINE",
        "name_zh": "自动驾驶低速接驳环线",
        "road_class": "transit_connection",
        "source_type": "agent_generated_design",
        "confidence": "medium",
        "geometry_role": "design_proposal",
        "description_zh": "串联三大重点区的低速（≤25km/h）自动驾驶接驳专用道，含停靠站点。"
      },
      "geometry": {
        "type": "LineString",
        "coordinates": [
          [
            116.346,
            39.946
          ],
          [
            116.349,
            39.946
          ],
          [
            116.349,
            39.96
          ],
          [
            116.346,
            39.96
          ],
          [
            116.346,
            39.985
          ],
          [
            116.349,
            39.985
          ],
          [
            116.349,
            39.992
          ],
          [
            116.346,
            39.992
          ],
          [
            116.346,
            40.014
          ],
          [
            116.349,
            40.014
          ],
          [
            116.349,
            40.024
          ],
          [
            116.346,
            40.024
          ]
        ]
      }
    },
    {
      "type": "Feature",
      "id": "RD-009",
      "properties": {
        "id": "RD-009",
        "layer": "ROAD_CENTERLINE",
        "name_zh": "轨道站点（京张高铁清河站/五道口站方向）",
        "road_class": "transit_connection",
        "source_type": "agent_generated_design",
        "confidence": "high",
        "geometry_role": "design_proposal"
      },
      "geometry": {
        "type": "Point",
        "coordinates": [
          116.348,
          39.985
        ]
      }
    }
  ]
}
