{
 "type": "FeatureCollection",
 "features": [
  {
   "type": "Feature",
   "properties": {
    "id": "LU-001",
    "type": "residential",
    "area_sqm": 2054340,
    "ratio": 0.18
   },
   "geometry": {
    "type": "Polygon",
    "coordinates": [
     [
      [
       116.34,
       39.96
      ],
      [
       116.35,
       39.96
      ],
      [
       116.35,
       39.97
      ],
      [
       116.34,
       39.97
      ],
      [
       116.34,
       39.96
      ]
     ]
    ]
   }
  },
  {
   "type": "Feature",
   "properties": {
    "id": "LU-002",
    "type": "industrial",
    "area_sqm": 2510860,
    "ratio": 0.22
   },
   "geometry": {
    "type": "Polygon",
    "coordinates": [
     [
      [
       116.35,
       39.96
      ],
      [
       116.36,
       39.96
      ],
      [
       116.36,
       39.97
      ],
      [
       116.35,
       39.97
      ],
      [
       116.35,
       39.96
      ]
     ]
    ]
   }
  },
  {
   "type": "Feature",
   "properties": {
    "id": "LU-003",
    "type": "commercial",
    "area_sqm": 1369560,
    "ratio": 0.12
   },
   "geometry": {
    "type": "Polygon",
    "coordinates": [
     [
      [
       116.34,
       39.95
      ],
      [
       116.35,
       39.95
      ],
      [
       116.35,
       39.96
      ],
      [
       116.34,
       39.96
      ],
      [
       116.34,
       39.95
      ]
     ]
    ]
   }
  },
  {
   "type": "Feature",
   "properties": {
    "id": "LU-004",
    "type": "research_education",
    "area_sqm": 3195640,
    "ratio": 0.28
   },
   "geometry": {
    "type": "Polygon",
    "coordinates": [
     [
      [
       116.35,
       39.95
      ],
      [
       116.36,
       39.95
      ],
      [
       116.36,
       39.96
      ],
      [
       116.35,
       39.96
      ],
      [
       116.35,
       39.95
      ]
     ]
    ]
   }
  },
  {
   "type": "Feature",
   "properties": {
    "id": "LU-005",
    "type": "green_space",
    "area_sqm": 2168470,
    "ratio": 0.19
   },
   "geometry": {
    "type": "Polygon",
    "coordinates": [
     [
      [
       116.33,
       39.97
      ],
      [
       116.34,
       39.97
      ],
      [
       116.34,
       39.98
      ],
      [
       116.33,
       39.98
      ],
      [
       116.33,
       39.97
      ]
     ]
    ]
   }
  }
 ]
}