{"type":"FeatureCollection","name":"phasing","crs":{"type":"name","properties":{"name":"urn:ogc:def:crs:EPSG::4326"}},"features":[{"type":"Feature","geometry":{"type":"Polygon","coordinates":[[[116.3407,39.939],[116.3553,39.939],[116.3553,39.965],[116.339978,39.965],[116.3407,39.939]]]},"properties":{"id":"PHS-001","layer":"PHASE","phase":"phase_1","phase_label_zh":"一期（2026-2028）：大钟寺AI产业集聚区及南段连接","source_type":"agent_generated_design","confidence":"low","geometry_role":"design_proposal","area_sqm":3055000,"period":"2026-2028","priority":"near_term"},"id":"phasing-13"},{"type":"Feature","geometry":{"type":"Polygon","coordinates":[[[116.339978,39.965],[116.3553,39.965],[116.3533,39.99],[116.354177,40.006],[116.3417,40.006],[116.3397,39.975],[116.339978,39.965]]]},"properties":{"id":"PHS-002","layer":"PHASE","phase":"phase_2","phase_label_zh":"二期（2028-2030）：AI原点社区及中段走廊","source_type":"agent_generated_design","confidence":"low","geometry_role":"design_proposal","area_sqm":5368000,"period":"2028-2030","priority":"mid_term"},"id":"phasing-23"},{"type":"Feature","geometry":{"type":"Polygon","coordinates":[[[116.3417,40.006],[116.354177,40.006],[116.3553,40.0265],[116.3427,40.0265],[116.3417,40.006]]]},"properties":{"id":"PHS-003","layer":"PHASE","phase":"phase_3","phase_label_zh":"三期（2030-2033）：众智园及北段拓展","source_type":"agent_generated_design","confidence":"low","geometry_role":"design_proposal","area_sqm":2990000,"period":"2030-2033","priority":"long_term"},"id":"phasing-33"}]}