{"type": "FeatureCollection", "features": [{"type": "Feature", "id": "BLDG-001", "properties": {"id": "BLDG-001", "layer": "BUILDING_FOOTPRINT", "building_type": "mixed_use", "source_type": "agent_generated_design", "confidence": "medium", "geometry_role": "design_proposal", "area_sqm_declared": 3857.5, "design_note_zh": "示意性建筑基底，供设计讨论；非现状测绘或审定结论"}, "geometry": {"type": "Polygon", "coordinates": [[[116.3406952007554, 39.941159292924844], [116.34119665967413, 39.94116214350627], [116.34118888626709, 39.94197265590714], [116.34068742143256, 39.94196980524432], [116.3406952007554, 39.941159292924844]]]}}, {"type": "Feature", "id": "BLDG-002", "properties": {"id": "BLDG-002", "layer": "BUILDING_FOOTPRINT", "building_type": "mixed_use", "source_type": "agent_generated_design", "confidence": "medium", "geometry_role": "design_proposal", "area_sqm_declared": 3065.62, "design_note_zh": "示意性建筑基底，供设计讨论；非现状测绘或审定结论"}, "geometry": {"type": "Polygon", "coordinates": [[[116.34207237937606, 39.94113966512054], [116.34247089726523, 39.941141925968225], [116.34246313889817, 39.941952438579484], [116.34206461630761, 39.94195017766724], [116.34207237937606, 39.94113966512054]]]}}, {"type": "Feature", "id": "BLDG-003", "properties": {"id": "BLDG-003", "layer": "BUILDING_FOOTPRINT", "building_type": "community_service", "source_type": "agent_generated_design", "confidence": "medium", "geometry_role": "design_proposal", "area_sqm_declared": 10800.0, "design_note_zh": "示意性建筑基底，供设计讨论；非现状测绘或审定结论"}, "geometry": {"type": "Polygon", "coordinates": [[[116.3473505516413, 39.98710561938335], [116.34875544963052, 39.98711352171286], [116.34874775289965, 39.987924028894824], [116.34734283830953, 39.987916126339755], [116.3473505516413, 39.98710561938335]]]}}, {"type": "Feature", "id": "BLDG-004", "properties": {"id": "BLDG-004", "layer": "BUILDING_FOOTPRINT", "building_type": "community_service", "source_type": "agent_generated_design", "confidence": "medium", "geometry_role": "design_proposal", "area_sqm_declared": 10800.0, "design_note_zh": "示意性建筑基底，供设计讨论；非现状测绘或审定结论"}, "geometry": {"type": "Polygon", "coordinates": [[[116.35040946526712, 39.9871229594882], [116.35181436446463, 39.987130824744625], [116.35180670387932, 39.98794133241601], [116.35040178808084, 39.9879334669351], [116.35040946526712, 39.9871229594882]]]}}, {"type": "Feature", "id": "BLDG-005", "properties": {"id": "BLDG-005", "layer": "BUILDING_FOOTPRINT", "building_type": "ai_r_and_d", "source_type": "agent_generated_design", "confidence": "medium", "geometry_role": "design_proposal", "area_sqm_declared": 2437.06, "design_note_zh": "示意性建筑基底，供设计讨论；非现状测绘或审定结论"}, "geometry": {"type": "Polygon", "coordinates": [[[116.35381484123091, 40.00471042116047], [116.3538071995347, 40.00552092668643], [116.35415033638003, 40.005522839445135], [116.354105912813, 40.004712043728375], [116.35381484123091, 40.00471042116047]]]}}, {"type": "Feature", "id": "BLDG-006", "properties": {"id": "BLDG-006", "layer": "BUILDING_FOOTPRINT", "building_type": "ai_r_and_d", "source_type": "agent_generated_design", "confidence": "medium", "geometry_role": "design_proposal", "area_sqm_declared": 10800.0, "design_note_zh": "示意性建筑基底，供设计讨论；非现状测绘或审定结论"}, "geometry": {"type": "Polygon", "coordinates": [[[116.3470407940676, 40.01993839095535], [116.34844636508302, 40.01994630239068], [116.34843865574754, 40.02075680491723], [116.34703306810395, 40.02074889325613], [116.3470407940676, 40.01993839095535]]]}}, {"type": "Feature", "id": "BLDG-007", "properties": {"id": "BLDG-007", "layer": "BUILDING_FOOTPRINT", "building_type": "ai_r_and_d", "source_type": "agent_generated_design", "confidence": "medium", "geometry_role": "design_proposal", "area_sqm_declared": 10800.0, "design_note_zh": "示意性建筑基底，供设计讨论；非现状测绘或审定结论"}, "geometry": {"type": "Polygon", "coordinates": [[[116.35001256986062, 40.02001031226382], [116.35141814318136, 40.02001818766667], [116.35141046898767, 40.02082869066123], [116.35000487903864, 40.02082081503364], [116.35001256986062, 40.02001031226382]]]}}, {"type": "Feature", "id": "BLDG-008", "properties": {"id": "BLDG-008", "layer": "BUILDING_FOOTPRINT", "building_type": "mixed_use", "source_type": "agent_generated_design", "confidence": "medium", "geometry_role": "design_proposal", "area_sqm_declared": 2017.68, "design_note_zh": "示意性建筑基底，供设计讨论；非现状测绘或审定结论"}, "geometry": {"type": "Polygon", "coordinates": [[[116.3418971481832, 40.00545394218823], [116.3419049306998, 40.00464343857504], [116.3416123385659, 40.004641776723346], [116.34166467114866, 40.00545262181382], [116.3418971481832, 40.00545394218823]]]}}, {"type": "Feature", "id": "BLDG-009", "properties": {"id": "BLDG-009", "layer": "BUILDING_FOOTPRINT", "building_type": "mixed_use", "source_type": "agent_generated_design", "confidence": "medium", "geometry_role": "design_proposal", "area_sqm_declared": 2905.78, "design_note_zh": "示意性建筑基底，供设计讨论；非现状测绘或审定结论"}, "geometry": {"type": "Polygon", "coordinates": [[[116.34087788106952, 39.98786905964353], [116.34088567079013, 39.98705855372991], [116.34047762795764, 39.987056232600985], [116.34052993654244, 39.9878670804376], [116.34087788106952, 39.98786905964353]]]}}, {"type": "Feature", "id": "BLDG-010", "properties": {"id": "BLDG-010", "layer": "BUILDING_FOOTPRINT", "building_type": "mixed_use", "source_type": "agent_generated_design", "confidence": "medium", "geometry_role": "design_proposal", "area_sqm_declared": 5193.75, "design_note_zh": "示意性建筑基底，供设计讨论；非现状测绘或审定结论"}, "geometry": {"type": "Polygon", "coordinates": [[[116.34007411615424, 39.969579537014624], [116.34074956132795, 39.96958338041183], [116.34074177481614, 39.97039388875419], [116.34006632166606, 39.970390045247264], [116.34007411615424, 39.969579537014624]]]}}, {"type": "Feature", "id": "BLDG-011", "properties": {"id": "BLDG-011", "layer": "BUILDING_FOOTPRINT", "building_type": "mixed_use", "source_type": "agent_generated_design", "confidence": "medium", "geometry_role": "design_proposal", "area_sqm_declared": 4713.8, "design_note_zh": "示意性建筑基底，供设计讨论；非现状测绘或审定结论"}, "geometry": {"type": "Polygon", "coordinates": [[[116.34041747012294, 39.95207072657262], [116.34103034228731, 39.95207421189715], [116.34102256391388, 39.95288472274075], [116.34040968451654, 39.95288123731672], [116.34041747012294, 39.95207072657262]]]}}, {"type": "Feature", "id": "BLDG-012", "properties": {"id": "BLDG-012", "layer": "BUILDING_FOOTPRINT", "building_type": "mixed_use", "source_type": "agent_generated_design", "confidence": "medium", "geometry_role": "design_proposal", "area_sqm_declared": 3065.62, "design_note_zh": "示意性建筑基底，供设计讨论；非现状测绘或审定结论"}, "geometry": {"type": "Polygon", "coordinates": [[[116.34207396780874, 39.95207197251892], [116.34247254913558, 39.9520742338719], [116.342464787785, 39.95288474495043], [116.3420662017542, 39.9528824835329], [116.34207396780874, 39.95207197251892]]]}}, {"type": "Feature", "id": "BLDG-013", "properties": {"id": "BLDG-013", "layer": "BUILDING_FOOTPRINT", "building_type": "mixed_use", "source_type": "agent_generated_design", "confidence": "medium", "geometry_role": "design_proposal", "area_sqm_declared": 3065.62, "design_note_zh": "示意性建筑基底，供设计讨论；非现状测绘或审定结论"}, "geometry": {"type": "Polygon", "coordinates": [[[116.34183681642139, 39.969564564455986], [116.34223549930691, 39.969566827441625], [116.34222773034953, 39.970377336028484], [116.34182904275592, 39.97037507297824], [116.34183681642139, 39.969564564455986]]]}}, {"type": "Feature", "id": "BLDG-014", "properties": {"id": "BLDG-014", "layer": "BUILDING_FOOTPRINT", "building_type": "ai_r_and_d", "source_type": "agent_generated_design", "confidence": "medium", "geometry_role": "design_proposal", "area_sqm_declared": 10800.0, "design_note_zh": "示意性建筑基底，供设计讨论；非现状测绘或审定结论"}, "geometry": {"type": "Polygon", "coordinates": [[[116.3470958214591, 40.00463714909514], [116.34850107865748, 40.00464505736965], [116.34849337414194, 40.00545556205151], [116.34708810032814, 40.005447653551286], [116.3470958214591, 40.00463714909514]]]}}, {"type": "Feature", "id": "BLDG-015", "properties": {"id": "BLDG-015", "layer": "BUILDING_FOOTPRINT", "building_type": "ai_r_and_d", "source_type": "agent_generated_design", "confidence": "medium", "geometry_role": "design_proposal", "area_sqm_declared": 10800.0, "design_note_zh": "示意性建筑基底，供设计讨论；非现状测绘或审定结论"}, "geometry": {"type": "Polygon", "coordinates": [[[116.35020545143627, 40.00468024168976], [116.35161071038588, 40.00468811226702], [116.3516030426311, 40.005498617443024], [116.35019776706595, 40.00549074664113], [116.35020545143627, 40.00468024168976]]]}}]}