{
  "type": "FeatureCollection",
  "features": [
    {
      "type": "Feature",
      "id": "GREEN-HR-01",
      "properties": {
        "id": "GREEN-HR-01",
        "layer": "GREEN_SPACE",
        "source_type": "agent_generated_design",
        "confidence": "medium",
        "geometry_role": "design_proposal",
        "land_use_code": "1401",
        "name_zh": "连续蓝绿余量带",
        "name_en": "Continuous blue-green reserve",
        "area_sqm_declared": 2027365.141
      },
      "geometry": {
        "type": "Polygon",
        "coordinates": [
          [
            [
              116.3489,
              39.94
            ],
            [
              116.3514,
              39.94
            ],
            [
              116.3514,
              40.0255
            ],
            [
              116.3489,
              40.0255
            ],
            [
              116.3489,
              39.94
            ]
          ]
        ]
      }
    }
  ]
}
