{
  "type": "FeatureCollection",
  "features": [
    {
      "type": "Feature",
      "id": "PUBLIC-HR-01",
      "properties": {
        "id": "PUBLIC-HR-01",
        "layer": "PUBLIC_SPACE",
        "source_type": "agent_generated_design",
        "confidence": "medium",
        "geometry_role": "design_proposal",
        "name_zh": "活动与恢复余量库",
        "name_en": "Event and recovery reservoir",
        "reserve_mode": "event_recovery",
        "area_sqm_declared": 130957.056
      },
      "geometry": {
        "type": "Polygon",
        "coordinates": [
          [
            [
              116.3461,
              39.944
            ],
            [
              116.3484,
              39.944
            ],
            [
              116.3484,
              39.95
            ],
            [
              116.3461,
              39.95
            ],
            [
              116.3461,
              39.944
            ]
          ]
        ]
      }
    },
    {
      "type": "Feature",
      "id": "PUBLIC-HR-02",
      "properties": {
        "id": "PUBLIC-HR-02",
        "layer": "PUBLIC_SPACE",
        "source_type": "agent_generated_design",
        "confidence": "medium",
        "geometry_role": "design_proposal",
        "name_zh": "人才与日常余量库",
        "name_en": "Talent and everyday-life reservoir",
        "reserve_mode": "daily_conversion",
        "area_sqm_declared": 130878.82
      },
      "geometry": {
        "type": "Polygon",
        "coordinates": [
          [
            [
              116.3461,
              39.9855
            ],
            [
              116.3484,
              39.9855
            ],
            [
              116.3484,
              39.9915
            ],
            [
              116.3461,
              39.9915
            ],
            [
              116.3461,
              39.9855
            ]
          ]
        ]
      }
    },
    {
      "type": "Feature",
      "id": "PUBLIC-HR-03",
      "properties": {
        "id": "PUBLIC-HR-03",
        "layer": "PUBLIC_SPACE",
        "source_type": "agent_generated_design",
        "confidence": "medium",
        "geometry_role": "design_proposal",
        "name_zh": "技术与基础设施余量库",
        "name_en": "Technical and infrastructure reservoir",
        "reserve_mode": "technical_fallback",
        "area_sqm_declared": 130826.939
      },
      "geometry": {
        "type": "Polygon",
        "coordinates": [
          [
            [
              116.3461,
              40.013
            ],
            [
              116.3484,
              40.013
            ],
            [
              116.3484,
              40.019
            ],
            [
              116.3461,
              40.019
            ],
            [
              116.3461,
              40.013
            ]
          ]
        ]
      }
    }
  ]
}
