{
  "type": "FeatureCollection",
  "name": "building_footprints",
  "features": [
    {
      "type": "Feature",
      "id": "BLDG-001",
      "properties": {
        "id": "BLDG-001",
        "layer": "BUILDING_FOOTPRINT",
        "source_type": "agent_generated_design",
        "confidence": "medium",
        "geometry_role": "design_proposal",
        "area_sqm_declared": 68337.4,
        "building_type": "ai_r_and_d",
        "name_zh": "AI加速器A座",
        "status": "new",
        "status_zh": "新建",
        "key_area": "zhongzhiyuan"
      },
      "geometry": {
        "type": "Polygon",
        "coordinates": [
          [
            [
              116.3443,
              40.0105
            ],
            [
              116.3467,
              40.0105
            ],
            [
              116.3467,
              40.0135
            ],
            [
              116.3443,
              40.0135
            ],
            [
              116.3443,
              40.0105
            ]
          ]
        ]
      }
    },
    {
      "type": "Feature",
      "id": "BLDG-002",
      "properties": {
        "id": "BLDG-002",
        "layer": "BUILDING_FOOTPRINT",
        "source_type": "agent_generated_design",
        "confidence": "medium",
        "geometry_role": "design_proposal",
        "area_sqm_declared": 68337.5,
        "building_type": "ai_r_and_d",
        "name_zh": "AI加速器B座",
        "status": "new",
        "status_zh": "新建",
        "key_area": "zhongzhiyuan"
      },
      "geometry": {
        "type": "Polygon",
        "coordinates": [
          [
            [
              116.347,
              40.0102
            ],
            [
              116.349,
              40.0102
            ],
            [
              116.349,
              40.0138
            ],
            [
              116.347,
              40.0138
            ],
            [
              116.347,
              40.0102
            ]
          ]
        ]
      }
    },
    {
      "type": "Feature",
      "id": "BLDG-003",
      "properties": {
        "id": "BLDG-003",
        "layer": "BUILDING_FOOTPRINT",
        "source_type": "agent_generated_design",
        "confidence": "medium",
        "geometry_role": "design_proposal",
        "area_sqm_declared": 63779.6,
        "building_type": "office",
        "name_zh": "科技商务中心",
        "status": "new",
        "status_zh": "新建",
        "key_area": "zhongzhiyuan"
      },
      "geometry": {
        "type": "Polygon",
        "coordinates": [
          [
            [
              116.3491,
              40.0128
            ],
            [
              116.3519,
              40.0128
            ],
            [
              116.3519,
              40.0152
            ],
            [
              116.3491,
              40.0152
            ],
            [
              116.3491,
              40.0128
            ]
          ]
        ]
      }
    },
    {
      "type": "Feature",
      "id": "BLDG-004",
      "properties": {
        "id": "BLDG-004",
        "layer": "BUILDING_FOOTPRINT",
        "source_type": "agent_generated_design",
        "confidence": "medium",
        "geometry_role": "design_proposal",
        "area_sqm_declared": 37961.8,
        "building_type": "ai_r_and_d",
        "name_zh": "创新实验室1",
        "status": "new",
        "status_zh": "新建",
        "key_area": "zhongzhiyuan"
      },
      "geometry": {
        "type": "Polygon",
        "coordinates": [
          [
            [
              116.345,
              40.017
            ],
            [
              116.347,
              40.017
            ],
            [
              116.347,
              40.019
            ],
            [
              116.345,
              40.019
            ],
            [
              116.345,
              40.017
            ]
          ]
        ]
      }
    },
    {
      "type": "Feature",
      "id": "BLDG-005",
      "properties": {
        "id": "BLDG-005",
        "layer": "BUILDING_FOOTPRINT",
        "source_type": "agent_generated_design",
        "confidence": "medium",
        "geometry_role": "design_proposal",
        "area_sqm_declared": 63774.1,
        "building_type": "ai_r_and_d",
        "name_zh": "国际研发中心",
        "status": "new",
        "status_zh": "新建",
        "key_area": "zhongzhiyuan"
      },
      "geometry": {
        "type": "Polygon",
        "coordinates": [
          [
            [
              116.3473,
              40.0186
            ],
            [
              116.3497,
              40.0186
            ],
            [
              116.3497,
              40.0214
            ],
            [
              116.3473,
              40.0214
            ],
            [
              116.3473,
              40.0186
            ]
          ]
        ]
      }
    },
    {
      "type": "Feature",
      "id": "BLDG-006",
      "properties": {
        "id": "BLDG-006",
        "layer": "BUILDING_FOOTPRINT",
        "source_type": "agent_generated_design",
        "confidence": "medium",
        "geometry_role": "design_proposal",
        "area_sqm_declared": 30369.0,
        "building_type": "talent_apartment",
        "name_zh": "人才公寓A",
        "status": "new",
        "status_zh": "新建",
        "key_area": "zhongzhiyuan"
      },
      "geometry": {
        "type": "Polygon",
        "coordinates": [
          [
            [
              116.3502,
              40.018
            ],
            [
              116.3518,
              40.018
            ],
            [
              116.3518,
              40.02
            ],
            [
              116.3502,
              40.02
            ],
            [
              116.3502,
              40.018
            ]
          ]
        ]
      }
    },
    {
      "type": "Feature",
      "id": "BLDG-007",
      "properties": {
        "id": "BLDG-007",
        "layer": "BUILDING_FOOTPRINT",
        "source_type": "agent_generated_design",
        "confidence": "medium",
        "geometry_role": "design_proposal",
        "area_sqm_declared": 41003.6,
        "building_type": "community_service",
        "name_zh": "体育活动中心",
        "status": "new",
        "status_zh": "新建",
        "key_area": "zhongzhiyuan"
      },
      "geometry": {
        "type": "Polygon",
        "coordinates": [
          [
            [
              116.3511,
              40.0088
            ],
            [
              116.3529,
              40.0088
            ],
            [
              116.3529,
              40.0112
            ],
            [
              116.3511,
              40.0112
            ],
            [
              116.3511,
              40.0088
            ]
          ]
        ]
      }
    },
    {
      "type": "Feature",
      "id": "BLDG-008",
      "properties": {
        "id": "BLDG-008",
        "layer": "BUILDING_FOOTPRINT",
        "source_type": "agent_generated_design",
        "confidence": "medium",
        "geometry_role": "design_proposal",
        "area_sqm_declared": 24294.1,
        "building_type": "cultural",
        "name_zh": "生态展示馆",
        "status": "new",
        "status_zh": "新建",
        "key_area": "zhongzhiyuan"
      },
      "geometry": {
        "type": "Polygon",
        "coordinates": [
          [
            [
              116.3432,
              40.0212
            ],
            [
              116.3448,
              40.0212
            ],
            [
              116.3448,
              40.0228
            ],
            [
              116.3432,
              40.0228
            ],
            [
              116.3432,
              40.0212
            ]
          ]
        ]
      }
    },
    {
      "type": "Feature",
      "id": "BLDG-009",
      "properties": {
        "id": "BLDG-009",
        "layer": "BUILDING_FOOTPRINT",
        "source_type": "agent_generated_design",
        "confidence": "medium",
        "geometry_role": "design_proposal",
        "area_sqm_declared": 45575.6,
        "building_type": "cultural",
        "name_zh": "AI原点展示中心",
        "status": "renovated",
        "status_zh": "改造",
        "key_area": "ai_origin"
      },
      "geometry": {
        "type": "Polygon",
        "coordinates": [
          [
            [
              116.3435,
              39.9848
            ],
            [
              116.3455,
              39.9848
            ],
            [
              116.3455,
              39.9872
            ],
            [
              116.3435,
              39.9872
            ],
            [
              116.3435,
              39.9848
            ]
          ]
        ]
      }
    },
    {
      "type": "Feature",
      "id": "BLDG-010",
      "properties": {
        "id": "BLDG-010",
        "layer": "BUILDING_FOOTPRINT",
        "source_type": "agent_generated_design",
        "confidence": "medium",
        "geometry_role": "design_proposal",
        "area_sqm_declared": 45574.9,
        "building_type": "ai_r_and_d",
        "name_zh": "智能研发大楼A",
        "status": "new",
        "status_zh": "新建",
        "key_area": "ai_origin"
      },
      "geometry": {
        "type": "Polygon",
        "coordinates": [
          [
            [
              116.3458,
              39.986
            ],
            [
              116.3482,
              39.986
            ],
            [
              116.3482,
              39.988
            ],
            [
              116.3458,
              39.988
            ],
            [
              116.3458,
              39.986
            ]
          ]
        ]
      }
    },
    {
      "type": "Feature",
      "id": "BLDG-011",
      "properties": {
        "id": "BLDG-011",
        "layer": "BUILDING_FOOTPRINT",
        "source_type": "agent_generated_design",
        "confidence": "medium",
        "geometry_role": "design_proposal",
        "area_sqm_declared": 47854.4,
        "building_type": "ai_r_and_d",
        "name_zh": "智能研发大楼B",
        "status": "new",
        "status_zh": "新建",
        "key_area": "ai_origin"
      },
      "geometry": {
        "type": "Polygon",
        "coordinates": [
          [
            [
              116.3486,
              39.9846
            ],
            [
              116.3504,
              39.9846
            ],
            [
              116.3504,
              39.9874
            ],
            [
              116.3486,
              39.9874
            ],
            [
              116.3486,
              39.9846
            ]
          ]
        ]
      }
    },
    {
      "type": "Feature",
      "id": "BLDG-012",
      "properties": {
        "id": "BLDG-012",
        "layer": "BUILDING_FOOTPRINT",
        "source_type": "agent_generated_design",
        "confidence": "medium",
        "geometry_role": "design_proposal",
        "area_sqm_declared": 30382.8,
        "building_type": "education",
        "name_zh": "教育培训中心",
        "status": "new",
        "status_zh": "新建",
        "key_area": "ai_origin"
      },
      "geometry": {
        "type": "Polygon",
        "coordinates": [
          [
            [
              116.3507,
              39.987
            ],
            [
              116.3523,
              39.987
            ],
            [
              116.3523,
              39.989
            ],
            [
              116.3507,
              39.989
            ],
            [
              116.3507,
              39.987
            ]
          ]
        ]
      }
    },
    {
      "type": "Feature",
      "id": "BLDG-013",
      "properties": {
        "id": "BLDG-013",
        "layer": "BUILDING_FOOTPRINT",
        "source_type": "agent_generated_design",
        "confidence": "medium",
        "geometry_role": "design_proposal",
        "area_sqm_declared": 30381.5,
        "building_type": "community_service",
        "name_zh": "社区服务中心",
        "status": "renovated",
        "status_zh": "改造",
        "key_area": "ai_origin"
      },
      "geometry": {
        "type": "Polygon",
        "coordinates": [
          [
            [
              116.344,
              39.9902
            ],
            [
              116.346,
              39.9902
            ],
            [
              116.346,
              39.9918
            ],
            [
              116.344,
              39.9918
            ],
            [
              116.344,
              39.9902
            ]
          ]
        ]
      }
    },
    {
      "type": "Feature",
      "id": "BLDG-014",
      "properties": {
        "id": "BLDG-014",
        "layer": "BUILDING_FOOTPRINT",
        "source_type": "agent_generated_design",
        "confidence": "medium",
        "geometry_role": "design_proposal",
        "area_sqm_declared": 37597.1,
        "building_type": "mixed_use",
        "name_zh": "科技商业综合体",
        "status": "new",
        "status_zh": "新建",
        "key_area": "ai_origin"
      },
      "geometry": {
        "type": "Polygon",
        "coordinates": [
          [
            [
              116.3469,
              39.9901
            ],
            [
              116.3491,
              39.9901
            ],
            [
              116.3491,
              39.9919
            ],
            [
              116.3469,
              39.9919
            ],
            [
              116.3469,
              39.9901
            ]
          ]
        ]
      }
    },
    {
      "type": "Feature",
      "id": "BLDG-015",
      "properties": {
        "id": "BLDG-015",
        "layer": "BUILDING_FOOTPRINT",
        "source_type": "agent_generated_design",
        "confidence": "medium",
        "geometry_role": "design_proposal",
        "area_sqm_declared": 30401.5,
        "building_type": "mixed_use",
        "name_zh": "大钟寺商业广场",
        "status": "renovated",
        "status_zh": "改造",
        "key_area": "dazhongsi"
      },
      "geometry": {
        "type": "Polygon",
        "coordinates": [
          [
            [
              116.343,
              39.9452
            ],
            [
              116.345,
              39.9452
            ],
            [
              116.345,
              39.9468
            ],
            [
              116.343,
              39.9468
            ],
            [
              116.343,
              39.9452
            ]
          ]
        ]
      }
    },
    {
      "type": "Feature",
      "id": "BLDG-016",
      "properties": {
        "id": "BLDG-016",
        "layer": "BUILDING_FOOTPRINT",
        "source_type": "agent_generated_design",
        "confidence": "medium",
        "geometry_role": "design_proposal",
        "area_sqm_declared": 45601.6,
        "building_type": "ai_r_and_d",
        "name_zh": "产业服务中心",
        "status": "renovated",
        "status_zh": "改造",
        "key_area": "dazhongsi"
      },
      "geometry": {
        "type": "Polygon",
        "coordinates": [
          [
            [
              116.3458,
              39.946
            ],
            [
              116.3482,
              39.946
            ],
            [
              116.3482,
              39.948
            ],
            [
              116.3458,
              39.948
            ],
            [
              116.3458,
              39.946
            ]
          ]
        ]
      }
    },
    {
      "type": "Feature",
      "id": "BLDG-017",
      "properties": {
        "id": "BLDG-017",
        "layer": "BUILDING_FOOTPRINT",
        "source_type": "agent_generated_design",
        "confidence": "medium",
        "geometry_role": "design_proposal",
        "area_sqm_declared": 27361.3,
        "building_type": "ai_r_and_d",
        "name_zh": "科创孵化基地",
        "status": "new",
        "status_zh": "新建",
        "key_area": "dazhongsi"
      },
      "geometry": {
        "type": "Polygon",
        "coordinates": [
          [
            [
              116.3491,
              39.9452
            ],
            [
              116.3509,
              39.9452
            ],
            [
              116.3509,
              39.9468
            ],
            [
              116.3491,
              39.9468
            ],
            [
              116.3491,
              39.9452
            ]
          ]
        ]
      }
    },
    {
      "type": "Feature",
      "id": "BLDG-018",
      "properties": {
        "id": "BLDG-018",
        "layer": "BUILDING_FOOTPRINT",
        "source_type": "agent_generated_design",
        "confidence": "medium",
        "geometry_role": "design_proposal",
        "area_sqm_declared": 21280.4,
        "building_type": "community_service",
        "name_zh": "社区配套中心",
        "status": "preserved",
        "status_zh": "保留",
        "key_area": "dazhongsi"
      },
      "geometry": {
        "type": "Polygon",
        "coordinates": [
          [
            [
              116.3517,
              39.9473
            ],
            [
              116.3533,
              39.9473
            ],
            [
              116.3533,
              39.9487
            ],
            [
              116.3517,
              39.9487
            ],
            [
              116.3517,
              39.9473
            ]
          ]
        ]
      }
    },
    {
      "type": "Feature",
      "id": "BLDG-019",
      "properties": {
        "id": "BLDG-019",
        "layer": "BUILDING_FOOTPRINT",
        "source_type": "agent_generated_design",
        "confidence": "medium",
        "geometry_role": "design_proposal",
        "area_sqm_declared": 30395.3,
        "building_type": "ai_r_and_d",
        "name_zh": "知春路科创空间",
        "status": "new",
        "status_zh": "新建",
        "key_area": "corridor"
      },
      "geometry": {
        "type": "Polygon",
        "coordinates": [
          [
            [
              116.3422,
              39.959
            ],
            [
              116.3438,
              39.959
            ],
            [
              116.3438,
              39.961
            ],
            [
              116.3422,
              39.961
            ],
            [
              116.3422,
              39.959
            ]
          ]
        ]
      }
    },
    {
      "type": "Feature",
      "id": "BLDG-020",
      "properties": {
        "id": "BLDG-020",
        "layer": "BUILDING_FOOTPRINT",
        "source_type": "agent_generated_design",
        "confidence": "medium",
        "geometry_role": "design_proposal",
        "area_sqm_declared": 30390.8,
        "building_type": "cultural",
        "name_zh": "铁路遗址游客中心",
        "status": "new",
        "status_zh": "新建",
        "key_area": "corridor"
      },
      "geometry": {
        "type": "Polygon",
        "coordinates": [
          [
            [
              116.349,
              39.9692
            ],
            [
              116.351,
              39.9692
            ],
            [
              116.351,
              39.9708
            ],
            [
              116.349,
              39.9708
            ],
            [
              116.349,
              39.9692
            ]
          ]
        ]
      }
    },
    {
      "type": "Feature",
      "id": "BLDG-021",
      "properties": {
        "id": "BLDG-021",
        "layer": "BUILDING_FOOTPRINT",
        "source_type": "agent_generated_design",
        "confidence": "medium",
        "geometry_role": "design_proposal",
        "area_sqm_declared": 27348.5,
        "building_type": "ai_r_and_d",
        "name_zh": "学院路创新中心",
        "status": "new",
        "status_zh": "新建",
        "key_area": "corridor"
      },
      "geometry": {
        "type": "Polygon",
        "coordinates": [
          [
            [
              116.3426,
              39.9772
            ],
            [
              116.3444,
              39.9772
            ],
            [
              116.3444,
              39.9788
            ],
            [
              116.3426,
              39.9788
            ],
            [
              116.3426,
              39.9772
            ]
          ]
        ]
      }
    },
    {
      "type": "Feature",
      "id": "BLDG-022",
      "properties": {
        "id": "BLDG-022",
        "layer": "BUILDING_FOOTPRINT",
        "source_type": "agent_generated_design",
        "confidence": "medium",
        "geometry_role": "design_proposal",
        "area_sqm_declared": 37973.0,
        "building_type": "ai_r_and_d",
        "name_zh": "产学研融合大楼",
        "status": "new",
        "status_zh": "新建",
        "key_area": "corridor"
      },
      "geometry": {
        "type": "Polygon",
        "coordinates": [
          [
            [
              116.348,
              39.997
            ],
            [
              116.35,
              39.997
            ],
            [
              116.35,
              39.999
            ],
            [
              116.348,
              39.999
            ],
            [
              116.348,
              39.997
            ]
          ]
        ]
      }
    },
    {
      "type": "Feature",
      "id": "BLDG-023",
      "properties": {
        "id": "BLDG-023",
        "layer": "BUILDING_FOOTPRINT",
        "source_type": "agent_generated_design",
        "confidence": "medium",
        "geometry_role": "design_proposal",
        "area_sqm_declared": 24301.2,
        "building_type": "cultural",
        "name_zh": "生态科技体验馆",
        "status": "new",
        "status_zh": "新建",
        "key_area": "corridor"
      },
      "geometry": {
        "type": "Polygon",
        "coordinates": [
          [
            [
              116.3447,
              40.0012
            ],
            [
              116.3463,
              40.0012
            ],
            [
              116.3463,
              40.0028
            ],
            [
              116.3447,
              40.0028
            ],
            [
              116.3447,
              40.0012
            ]
          ]
        ]
      }
    }
  ]
}
